{
  "type": "FeatureCollection",
  "contract_version": "1.0.0",
  "bbox": [-130, 30.2576, -112, 44.5],
  "features": [
    {
      "type": "Feature",
      "id": "2026092412_f144_08000_001",
      "properties": {
        "product_id": "winter_storm_levels",
        "source_id": "nbm_snow_level",
        "parameter": "snow_level",
        "definition": "height of the wet-bulb 0.5 degree C surface",
        "level_ft_msl": 8000,
        "label": "8,000 ft MSL",
        "unit": "ft_msl",
        "cycle_time_utc": "2026-09-24T12:00:00Z",
        "valid_time_utc": "2026-09-30T12:00:00Z",
        "lead_hours": 144,
        "segment": 1,
        "length_m": 465186.6
      },
      "geometry": {
        "type": "LineString",
        "coordinates": [
          [-130, 44.10854],
          [-129.98197, 44.11196],
          [-129.96491, 44.13298],
          [-129.96064, 44.13823],
          [-129.93167, 44.14371],
          [-129.9027, 44.14919],
          [-129.87372, 44.15466],
          [-129.84778, 44.16845],
          [-129.82764, 44.18113],
          [-129.8226, 44.1843],
          [-129.79437, 44.19184],
          [-129.76538, 44.1973],
          [-129.73638, 44.20274],
          [-129.71925, 44.22373],
          [-129.71497, 44.22898],
          [-129.68595, 44.23442],
          [-129.65694, 44.23985],
          [-129.63979, 44.26083],
          [-129.6355, 44.26607],
          [-129.60647, 44.2715],
          [-129.59915, 44.26843],
          [-129.56987, 44.25613],
          [-129.54084, 44.26155],
          [-129.51181, 44.26696],
          [-129.48278, 44.27237],
          [-129.45374, 44.27777],
          [-129.43654, 44.29872],
          [-129.43224, 44.30396],
          [-129.40319, 44.30935],
          [-129.37413, 44.31474],
          [-129.34508, 44.32013],
          [-129.33776, 44.31705],
          [-129.3085, 44.30472],
          [-129.27944, 44.31009],
          [-129.25038, 44.31546],
          [-129.24307, 44.31238],
          [-129.21382, 44.30003],
          [-129.18476, 44.30539],
          [-129.1557, 44.31075],
          [-129.14839, 44.30766],
          [-129.11916, 44.2953],
          [-129.11185, 44.29221],
          [-129.10438, 44.2714],
          [-129.09691, 44.2506],
          [-129.0677, 44.23822],
          [-129.0604, 44.23513],
          [-129.0312, 44.22275],
          [-129.00215, 44.22808],
          [-128.9731, 44.23341],
          [-128.94405, 44.23874],
          [-128.91499, 44.24406],
          [-128.89768, 44.26497],
          [-128.9051, 44.28578],
          [-128.90077, 44.29101],
          [-128.8717, 44.29632],
          [-128.85437, 44.31722],
          [-128.85004, 44.32244],
          [-128.82095, 44.32774],
          [-128.79186, 44.33304],
          [-128.76276, 44.33834],
          [-128.75546, 44.33523],
          [-128.72627, 44.32282],
          [-128.69718, 44.3281],
          [-128.68988, 44.32499],
          [-128.6607, 44.31256],
          [-128.63161, 44.31784],
          [-128.62431, 44.31473],
          [-128.59514, 44.30229],
          [-128.58785, 44.29918],
          [-128.5587, 44.28673],
          [-128.5296, 44.29199],
          [-128.52231, 44.28888],
          [-128.49317, 44.27642],
          [-128.48588, 44.27331],
          [-128.45674, 44.26084],
          [-128.44946, 44.25772],
          [-128.45381, 44.25251],
          [-128.47122, 44.23164],
          [-128.44209, 44.21917],
          [-128.43481, 44.21605],
          [-128.4275, 44.19521],
          [-128.39839, 44.18273],
          [-128.36932, 44.18797],
          [-128.3519, 44.20883],
          [-128.34754, 44.21405],
          [-128.33012, 44.23491],
          [-128.32576, 44.24012],
          [-128.30832, 44.26097],
          [-128.30396, 44.26619],
          [-128.27486, 44.27141],
          [-128.24576, 44.27663],
          [-128.21665, 44.28184],
          [-128.20937, 44.27871],
          [-128.18027, 44.26621],
          [-128.15116, 44.27141],
          [-128.12205, 44.27661],
          [-128.11478, 44.27348],
          [-128.08569, 44.26096],
          [-128.07842, 44.25782],
          [-128.07117, 44.23697],
          [-128.06393, 44.21612],
          [-128.03486, 44.20359],
          [-128.0276, 44.20045],
          [-127.99854, 44.18791],
          [-127.99128, 44.18477],
          [-127.96223, 44.17223],
          [-127.93314, 44.1774],
          [-127.92588, 44.17426],
          [-127.89684, 44.1617],
          [-127.86775, 44.16686],
          [-127.86049, 44.16372],
          [-127.83147, 44.15115],
          [-127.82421, 44.14801],
          [-127.7952, 44.13543],
          [-127.76611, 44.14058],
          [-127.75886, 44.13743],
          [-127.72986, 44.12484],
          [-127.70077, 44.12998],
          [-127.69352, 44.12683],
          [-127.66453, 44.11424],
          [-127.63544, 44.11936],
          [-127.62819, 44.11621],
          [-127.59921, 44.1036],
          [-127.57012, 44.10872],
          [-127.56288, 44.10557],
          [-127.53391, 44.09295],
          [-127.50482, 44.09806],
          [-127.49758, 44.0949],
          [-127.46862, 44.08227],
          [-127.46138, 44.07911],
          [-127.43244, 44.06647],
          [-127.4252, 44.06331],
          [-127.39626, 44.05066],
          [-127.36718, 44.05575],
          [-127.33809, 44.06084],
          [-127.33086, 44.05767],
          [-127.30193, 44.04501],
          [-127.27285, 44.05009],
          [-127.26562, 44.04692],
          [-127.2367, 44.03425],
          [-127.20762, 44.03932],
          [-127.20039, 44.03615],
          [-127.17149, 44.02346],
          [-127.16427, 44.02029],
          [-127.13537, 44.0076],
          [-127.10629, 44.01265],
          [-127.09907, 44.00948],
          [-127.07019, 43.99678],
          [-127.0411, 44.00182],
          [-127.03389, 43.99864],
          [-127.00502, 43.98593],
          [-126.97593, 43.99096],
          [-126.94684, 43.99599],
          [-126.93963, 43.99281],
          [-126.91077, 43.98009],
          [-126.88169, 43.9851],
          [-126.85259, 43.99011],
          [-126.8235, 43.99512],
          [-126.7944, 44.00013],
          [-126.7653, 44.00512],
          [-126.7362, 44.01012],
          [-126.70709, 44.01511],
          [-126.67798, 44.02009],
          [-126.64887, 44.02507],
          [-126.61976, 44.03005],
          [-126.59064, 44.03502],
          [-126.56152, 44.03998],
          [-126.53239, 44.04495],
          [-126.50326, 44.0499],
          [-126.48547, 44.07061],
          [-126.48102, 44.07579],
          [-126.45188, 44.08074],
          [-126.42274, 44.08568],
          [-126.3936, 44.09062],
          [-126.36445, 44.09555],
          [-126.35725, 44.09235],
          [-126.32844, 44.07955],
          [-126.29929, 44.08447],
          [-126.27014, 44.08939],
          [-126.24099, 44.0943],
          [-126.21183, 44.09921],
          [-126.18267, 44.10412],
          [-126.15351, 44.10902],
          [-126.12434, 44.11392],
          [-126.09517, 44.11881],
          [-126.066, 44.12369],
          [-126.03683, 44.12858],
          [-126.00765, 44.13345],
          [-125.98974, 44.1541],
          [-125.98526, 44.15927],
          [-125.95607, 44.16414],
          [-125.92688, 44.169],
          [-125.89768, 44.17386],
          [-125.86848, 44.17871],
          [-125.83928, 44.18356],
          [-125.81008, 44.18841],
          [-125.78087, 44.19325],
          [-125.75166, 44.19808],
          [-125.73368, 44.2187],
          [-125.72919, 44.22386],
          [-125.69997, 44.22868],
          [-125.68197, 44.24929],
          [-125.67747, 44.25444],
          [-125.64824, 44.25926],
          [-125.619, 44.26407],
          [-125.58976, 44.26888],
          [-125.57174, 44.28948],
          [-125.56723, 44.29462],
          [-125.53798, 44.29942],
          [-125.51994, 44.32001],
          [-125.51542, 44.32515],
          [-125.48616, 44.32994],
          [-125.4681, 44.35052],
          [-125.46358, 44.35566],
          [-125.43431, 44.36044],
          [-125.40503, 44.36522],
          [-125.38695, 44.38578],
          [-125.38243, 44.39092],
          [-125.35314, 44.39569],
          [-125.32385, 44.40045],
          [-125.30574, 44.421],
          [-125.30121, 44.42614],
          [-125.27191, 44.43089],
          [-125.2426, 44.43564],
          [-125.22447, 44.45618],
          [-125.21994, 44.46131],
          [-125.19062, 44.46605],
          [-125.17247, 44.48658],
          [-125.16793, 44.49171],
          [-125.1386, 44.49644],
          [-125.11653, 44.5]
        ]
      }
    },
    {
      "type": "Feature",
      "id": "2026092412_f144_09000_001",
      "properties": {
        "product_id": "winter_storm_levels",
        "source_id": "nbm_snow_level",
        "parameter": "snow_level",
        "definition": "height of the wet-bulb 0.5 degree C surface",
        "level_ft_msl": 9000,
        "label": "9,000 ft MSL",
        "unit": "ft_msl",
        "cycle_time_utc": "2026-09-24T12:00:00Z",
        "valid_time_utc": "2026-09-30T12:00:00Z",
        "lead_hours": 144,
        "segment": 1,
        "length_m": 67542.1
      },
      "geometry": {
        "type": "LineString",
        "coordinates": [
          [-114.36815, 43.40496],
          [-114.36563, 43.4074],
          [-114.33619, 43.41048],
          [-114.3135, 43.43248],
          [-114.31098, 43.43493],
          [-114.28153, 43.43799],
          [-114.25882, 43.45999],
          [-114.25629, 43.46243],
          [-114.22684, 43.46549],
          [-114.20411, 43.48747],
          [-114.20158, 43.48991],
          [-114.17212, 43.49296],
          [-114.16875, 43.49113],
          [-114.13846, 43.47462],
          [-114.109, 43.47766],
          [-114.10563, 43.47582],
          [-114.07536, 43.45931],
          [-114.072, 43.45747],
          [-114.04173, 43.44095],
          [-114.03837, 43.43911],
          [-114.0409, 43.43667],
          [-114.06366, 43.4147],
          [-114.05949, 43.39331],
          [-114.06202, 43.39087],
          [-114.09146, 43.38784],
          [-114.12089, 43.3848],
          [-114.15033, 43.38176],
          [-114.17305, 43.35977],
          [-114.17557, 43.35732],
          [-114.20499, 43.35427],
          [-114.23442, 43.35122],
          [-114.23778, 43.35305],
          [-114.26805, 43.36956],
          [-114.29747, 43.36649],
          [-114.30084, 43.36832],
          [-114.33112, 43.38481],
          [-114.33449, 43.38665],
          [-114.36478, 43.40313],
          [-114.36815, 43.40496]
        ]
      }
    },
    {
      "type": "Feature",
      "id": "2026092412_f144_09000_002",
      "properties": {
        "product_id": "winter_storm_levels",
        "source_id": "nbm_snow_level",
        "parameter": "snow_level",
        "definition": "height of the wet-bulb 0.5 degree C surface",
        "level_ft_msl": 9000,
        "label": "9,000 ft MSL",
        "unit": "ft_msl",
        "cycle_time_utc": "2026-09-24T12:00:00Z",
        "valid_time_utc": "2026-09-30T12:00:00Z",
        "lead_hours": 144,
        "segment": 2,
        "length_m": 235058.4
      },
      "geometry": {
        "type": "LineString",
        "coordinates": [
          [-117.04343, 42.02672],
          [-117.03689, 42.03745],
          [-117.02357, 42.05121],
          [-117.01197, 42.05924],
          [-116.99502, 42.07675],
          [-116.9874, 42.08265],
          [-116.96195, 42.1021],
          [-116.96066, 42.10299],
          [-116.93539, 42.11653],
          [-116.90759, 42.12541],
          [-116.89296, 42.13325],
          [-116.88077, 42.13869],
          [-116.85273, 42.14648],
          [-116.82537, 42.15739],
          [-116.81072, 42.16522],
          [-116.79852, 42.17065],
          [-116.77017, 42.17707],
          [-116.74147, 42.18191],
          [-116.71341, 42.18968],
          [-116.68626, 42.20164],
          [-116.68492, 42.20235],
          [-116.65915, 42.2138],
          [-116.63058, 42.2193],
          [-116.60075, 42.219],
          [-116.5863, 42.21411],
          [-116.57366, 42.19357],
          [-116.56901, 42.17208],
          [-116.56702, 42.15027],
          [-116.56236, 42.12877],
          [-116.56303, 42.10664],
          [-116.57189, 42.08573],
          [-116.57287, 42.08341],
          [-116.56822, 42.06191],
          [-116.57805, 42.03867],
          [-116.5869, 42.01776],
          [-116.58788, 42.01543],
          [-116.58323, 41.99392],
          [-116.58004, 41.97223],
          [-116.57539, 41.95071],
          [-116.57075, 41.92919],
          [-116.56611, 41.90767],
          [-116.56147, 41.88614],
          [-116.55811, 41.88433],
          [-116.52792, 41.86806],
          [-116.52329, 41.84653],
          [-116.51993, 41.84472],
          [-116.48976, 41.82844],
          [-116.4864, 41.82663],
          [-116.45624, 41.81034],
          [-116.45163, 41.7888],
          [-116.44828, 41.78699],
          [-116.41813, 41.77069],
          [-116.41353, 41.74914],
          [-116.40893, 41.72759],
          [-116.40558, 41.72578],
          [-116.37546, 41.70947],
          [-116.37087, 41.68791],
          [-116.36628, 41.66635],
          [-116.3617, 41.64479],
          [-116.35711, 41.62322],
          [-116.35253, 41.60166],
          [-116.37436, 41.57916],
          [-116.37679, 41.57666],
          [-116.3722, 41.55509],
          [-116.39402, 41.53258],
          [-116.42284, 41.52915],
          [-116.42527, 41.52664],
          [-116.44707, 41.50413],
          [-116.47588, 41.50068],
          [-116.50469, 41.49724],
          [-116.50711, 41.49473],
          [-116.52888, 41.4722],
          [-116.55768, 41.46874],
          [-116.58648, 41.46528],
          [-116.61527, 41.46181],
          [-116.64536, 41.47811],
          [-116.64871, 41.47992],
          [-116.6788, 41.49621],
          [-116.68215, 41.49802],
          [-116.71226, 41.5143],
          [-116.7156, 41.5161],
          [-116.74572, 41.53238],
          [-116.74907, 41.53419],
          [-116.7792, 41.55045],
          [-116.78255, 41.55226],
          [-116.81269, 41.56852],
          [-116.81604, 41.57032],
          [-116.84486, 41.56682],
          [-116.87501, 41.58307],
          [-116.87837, 41.58487],
          [-116.90853, 41.60111],
          [-116.91323, 41.62267],
          [-116.91658, 41.62447],
          [-116.94677, 41.6407],
          [-116.95148, 41.66225],
          [-116.95619, 41.68379],
          [-116.9609, 41.70533],
          [-116.93918, 41.72789],
          [-116.93676, 41.73039],
          [-116.94012, 41.73219],
          [-116.97034, 41.74841],
          [-116.97506, 41.76994],
          [-116.97978, 41.79147],
          [-116.9845, 41.813],
          [-116.98923, 41.83453],
          [-116.99396, 41.85605],
          [-116.99732, 41.85785],
          [-117.02759, 41.87404],
          [-117.03233, 41.89556],
          [-117.02406, 41.91866],
          [-117.01531, 41.93961],
          [-117.01434, 41.94193],
          [-117.01907, 41.96344],
          [-117.02382, 41.98495],
          [-117.02856, 42.00645],
          [-117.03048, 42.00843],
          [-117.04343, 42.02672]
        ]
      }
    },
    {
      "type": "Feature",
      "id": "2026092412_f144_09000_003",
      "properties": {
        "product_id": "winter_storm_levels",
        "source_id": "nbm_snow_level",
        "parameter": "snow_level",
        "definition": "height of the wet-bulb 0.5 degree C surface",
        "level_ft_msl": 9000,
        "label": "9,000 ft MSL",
        "unit": "ft_msl",
        "cycle_time_utc": "2026-09-24T12:00:00Z",
        "valid_time_utc": "2026-09-30T12:00:00Z",
        "lead_hours": 144,
        "segment": 3,
        "length_m": 162431.1
      },
      "geometry": {
        "type": "LineString",
        "coordinates": [
          [-122.02699, 42.63501],
          [-122.02114, 42.61374],
          [-121.98987, 42.59845],
          [-121.98639, 42.59675],
          [-121.95513, 42.58145],
          [-121.95165, 42.57975],
          [-121.9204, 42.56445],
          [-121.91693, 42.56275],
          [-121.88568, 42.54744],
          [-121.85678, 42.55172],
          [-121.82787, 42.55599],
          [-121.79896, 42.56026],
          [-121.77005, 42.56452],
          [-121.74923, 42.58752],
          [-121.74691, 42.59007],
          [-121.71799, 42.59433],
          [-121.68907, 42.59858],
          [-121.66014, 42.60282],
          [-121.63929, 42.6258],
          [-121.63697, 42.62835],
          [-121.60803, 42.63259],
          [-121.57909, 42.63682],
          [-121.55821, 42.65978],
          [-121.55589, 42.66233],
          [-121.52694, 42.66656],
          [-121.49798, 42.67077],
          [-121.47708, 42.69372],
          [-121.47475, 42.69627],
          [-121.44579, 42.70048],
          [-121.42487, 42.72342],
          [-121.42254, 42.72597],
          [-121.40161, 42.74891],
          [-121.39928, 42.75146],
          [-121.37833, 42.77438],
          [-121.37601, 42.77693],
          [-121.35505, 42.79985],
          [-121.35272, 42.8024],
          [-121.33176, 42.82532],
          [-121.32943, 42.82786],
          [-121.30845, 42.85077],
          [-121.30612, 42.85332],
          [-121.28513, 42.87622],
          [-121.2828, 42.87877],
          [-121.2618, 42.90167],
          [-121.29306, 42.91705],
          [-121.32209, 42.91287],
          [-121.35112, 42.90869],
          [-121.38015, 42.9045],
          [-121.40918, 42.90031],
          [-121.43821, 42.89611],
          [-121.46723, 42.89191],
          [-121.4707, 42.89361],
          [-121.50199, 42.90896],
          [-121.53102, 42.90475],
          [-121.56004, 42.90053],
          [-121.58906, 42.89631],
          [-121.61807, 42.89208],
          [-121.64709, 42.88785],
          [-121.6761, 42.88362],
          [-121.7051, 42.87938],
          [-121.726, 42.85643],
          [-121.72832, 42.85388],
          [-121.7492, 42.83092],
          [-121.75181, 42.82943],
          [-121.78051, 42.82412],
          [-121.80137, 42.80115],
          [-121.80369, 42.7986],
          [-121.82454, 42.77562],
          [-121.82715, 42.77413],
          [-121.85321, 42.75923],
          [-121.87666, 42.74582],
          [-121.87897, 42.74327],
          [-121.8998, 42.72028],
          [-121.9024, 42.71878],
          [-121.93106, 42.71344],
          [-121.95186, 42.69044],
          [-121.95447, 42.68895],
          [-121.98312, 42.6836],
          [-122.0039, 42.66059],
          [-122.00621, 42.65803],
          [-122.02699, 42.63501]
        ]
      }
    },
    {
      "type": "Feature",
      "id": "2026092412_f144_09000_004",
      "properties": {
        "product_id": "winter_storm_levels",
        "source_id": "nbm_snow_level",
        "parameter": "snow_level",
        "definition": "height of the wet-bulb 0.5 degree C surface",
        "level_ft_msl": 9000,
        "label": "9,000 ft MSL",
        "unit": "ft_msl",
        "cycle_time_utc": "2026-09-24T12:00:00Z",
        "valid_time_utc": "2026-09-30T12:00:00Z",
        "lead_hours": 144,
        "segment": 4,
        "length_m": 1994049.6
      },
      "geometry": {
        "type": "LineString",
        "coordinates": [
          [-130, 43.23797],
          [-129.9825, 43.25986],
          [-129.98038, 43.26251],
          [-129.95167, 43.26802],
          [-129.92296, 43.27353],
          [-129.89424, 43.27904],
          [-129.86551, 43.28454],
          [-129.83679, 43.29004],
          [-129.80806, 43.29553],
          [-129.77933, 43.30102],
          [-129.75059, 43.3065],
          [-129.72186, 43.31198],
          [-129.69311, 43.31745],
          [-129.66437, 43.32292],
          [-129.63562, 43.32838],
          [-129.60687, 43.33384],
          [-129.60325, 43.3323],
          [-129.57062, 43.31838],
          [-129.54187, 43.32383],
          [-129.51312, 43.32928],
          [-129.48436, 43.33472],
          [-129.48073, 43.33317],
          [-129.44813, 43.31924],
          [-129.41937, 43.32467],
          [-129.39061, 43.33009],
          [-129.38698, 43.32854],
          [-129.35439, 43.31459],
          [-129.32563, 43.32001],
          [-129.29686, 43.32542],
          [-129.29324, 43.32387],
          [-129.26067, 43.3099],
          [-129.2319, 43.3153],
          [-129.22828, 43.31375],
          [-129.19571, 43.29977],
          [-129.1921, 43.29821],
          [-129.15954, 43.28422],
          [-129.13078, 43.28961],
          [-129.12716, 43.28806],
          [-129.09462, 43.27405],
          [-129.091, 43.2725],
          [-129.08362, 43.25155],
          [-129.05109, 43.23754],
          [-129.04748, 43.23598],
          [-129.01496, 43.22196],
          [-129.01135, 43.22041],
          [-128.97885, 43.20638],
          [-128.97524, 43.20482],
          [-128.94274, 43.19078],
          [-128.914, 43.19614],
          [-128.91039, 43.19458],
          [-128.87791, 43.18053],
          [-128.8743, 43.17897],
          [-128.84183, 43.16491],
          [-128.81308, 43.17026],
          [-128.78433, 43.1756],
          [-128.75558, 43.18093],
          [-128.72682, 43.18626],
          [-128.69806, 43.19158],
          [-128.69446, 43.19002],
          [-128.66529, 43.18537],
          [-128.63325, 43.18125],
          [-128.60412, 43.18551],
          [-128.60088, 43.18499],
          [-128.56845, 43.17089],
          [-128.53968, 43.17619],
          [-128.51092, 43.18148],
          [-128.48215, 43.18677],
          [-128.46278, 43.21041],
          [-128.46026, 43.21199],
          [-128.43184, 43.21832],
          [-128.40632, 43.23304],
          [-128.38366, 43.24722],
          [-128.38115, 43.2488],
          [-128.35235, 43.25406],
          [-128.32355, 43.25933],
          [-128.29463, 43.26424],
          [-128.26576, 43.26932],
          [-128.2627, 43.26932],
          [-128.23353, 43.2646],
          [-128.2034, 43.266],
          [-128.17354, 43.26817],
          [-128.14332, 43.26931],
          [-128.11451, 43.27454],
          [-128.08566, 43.27967],
          [-128.08263, 43.27977],
          [-128.05454, 43.27817],
          [-128.02447, 43.27972],
          [-127.99385, 43.27969],
          [-127.9632, 43.27954],
          [-127.96162, 43.27938],
          [-127.92971, 43.27103],
          [-127.89845, 43.26906],
          [-127.89731, 43.26871],
          [-127.86255, 43.25344],
          [-127.86135, 43.25291],
          [-127.82832, 43.24271],
          [-127.81052, 43.23978],
          [-127.79541, 43.23582],
          [-127.76422, 43.23399],
          [-127.73297, 43.23199],
          [-127.73135, 43.23173],
          [-127.69948, 43.22334],
          [-127.68103, 43.21848],
          [-127.66168, 43.20189],
          [-127.65809, 43.20031],
          [-127.62579, 43.18604],
          [-127.6222, 43.18446],
          [-127.62438, 43.18184],
          [-127.64394, 43.15829],
          [-127.63687, 43.13727],
          [-127.6298, 43.11625],
          [-127.62273, 43.09523],
          [-127.61567, 43.07421],
          [-127.58341, 43.05992],
          [-127.57983, 43.05834],
          [-127.54758, 43.04404],
          [-127.544, 43.04246],
          [-127.51177, 43.02816],
          [-127.50819, 43.02657],
          [-127.50115, 43.00553],
          [-127.49412, 42.98449],
          [-127.46191, 42.97018],
          [-127.45833, 42.96859],
          [-127.45131, 42.94754],
          [-127.4443, 42.92649],
          [-127.41211, 42.91216],
          [-127.40854, 42.91057],
          [-127.40154, 42.88951],
          [-127.36937, 42.87517],
          [-127.3658, 42.87358],
          [-127.3588, 42.85252],
          [-127.35181, 42.83145],
          [-127.31967, 42.8171],
          [-127.3161, 42.81551],
          [-127.28398, 42.80115],
          [-127.28041, 42.79955],
          [-127.24829, 42.78518],
          [-127.24472, 42.78359],
          [-127.23776, 42.76251],
          [-127.23993, 42.75989],
          [-127.25951, 42.73632],
          [-127.25255, 42.71523],
          [-127.24559, 42.69414],
          [-127.23863, 42.67305],
          [-127.23168, 42.65196],
          [-127.22473, 42.63086],
          [-127.19268, 42.61647],
          [-127.18912, 42.61487],
          [-127.18218, 42.59377],
          [-127.17524, 42.57266],
          [-127.16831, 42.55156],
          [-127.13629, 42.53715],
          [-127.13273, 42.53555],
          [-127.12581, 42.51443],
          [-127.1189, 42.49331],
          [-127.11198, 42.47219],
          [-127.07999, 42.45777],
          [-127.07644, 42.45617],
          [-127.04446, 42.44173],
          [-127.01583, 42.44682],
          [-126.98719, 42.4519],
          [-126.98364, 42.4503],
          [-126.95168, 42.43585],
          [-126.92304, 42.44092],
          [-126.8944, 42.44599],
          [-126.86576, 42.45105],
          [-126.83712, 42.45611],
          [-126.80847, 42.46117],
          [-126.78884, 42.48473],
          [-126.78666, 42.48735],
          [-126.78311, 42.48574],
          [-126.75117, 42.47126],
          [-126.73153, 42.49482],
          [-126.72934, 42.49743],
          [-126.70068, 42.50247],
          [-126.69713, 42.50086],
          [-126.66519, 42.48637],
          [-126.63653, 42.49139],
          [-126.63298, 42.48978],
          [-126.60105, 42.47528],
          [-126.57239, 42.48029],
          [-126.54372, 42.4853],
          [-126.51505, 42.49031],
          [-126.48638, 42.49531],
          [-126.4577, 42.50031],
          [-126.42903, 42.50531],
          [-126.40034, 42.5103],
          [-126.37166, 42.51528],
          [-126.34297, 42.52026],
          [-126.31428, 42.52523],
          [-126.28559, 42.5302],
          [-126.25689, 42.53517],
          [-126.22819, 42.54013],
          [-126.19949, 42.54509],
          [-126.19595, 42.54347],
          [-126.16407, 42.52889],
          [-126.16053, 42.52727],
          [-126.12866, 42.51269],
          [-126.09996, 42.51763],
          [-126.09642, 42.51601],
          [-126.08972, 42.49485],
          [-126.05788, 42.48025],
          [-126.05434, 42.47863],
          [-126.0225, 42.46402],
          [-126.01896, 42.4624],
          [-125.98713, 42.44778],
          [-125.95845, 42.4527],
          [-125.95491, 42.45108],
          [-125.9231, 42.43645],
          [-125.89441, 42.44136],
          [-125.89088, 42.43974],
          [-125.85908, 42.4251],
          [-125.83039, 42.43],
          [-125.8017, 42.4349],
          [-125.77301, 42.43979],
          [-125.76948, 42.43816],
          [-125.73769, 42.4235],
          [-125.709, 42.42839],
          [-125.6803, 42.43327],
          [-125.65161, 42.43814],
          [-125.64808, 42.43651],
          [-125.61631, 42.42183],
          [-125.58761, 42.42669],
          [-125.56771, 42.45013],
          [-125.5655, 42.45273],
          [-125.53679, 42.45759],
          [-125.50808, 42.46244],
          [-125.47936, 42.46729],
          [-125.45064, 42.47213],
          [-125.42192, 42.47697],
          [-125.3932, 42.4818],
          [-125.37324, 42.50521],
          [-125.37102, 42.50781],
          [-125.34229, 42.51263],
          [-125.31355, 42.51745],
          [-125.28481, 42.52227],
          [-125.25607, 42.52708],
          [-125.22732, 42.53188],
          [-125.19857, 42.53668],
          [-125.16982, 42.54148],
          [-125.14107, 42.54627],
          [-125.11231, 42.55106],
          [-125.08355, 42.55584],
          [-125.05479, 42.56062],
          [-125.02603, 42.56539],
          [-124.99726, 42.57016],
          [-124.99374, 42.56851],
          [-124.96203, 42.55373],
          [-124.93326, 42.55849],
          [-124.90449, 42.56324],
          [-124.8844, 42.58659],
          [-124.88216, 42.58918],
          [-124.85338, 42.59393],
          [-124.8246, 42.59867],
          [-124.79581, 42.6034],
          [-124.76702, 42.60814],
          [-124.73823, 42.61286],
          [-124.70944, 42.61758],
          [-124.68064, 42.6223],
          [-124.65184, 42.62701],
          [-124.62304, 42.63172],
          [-124.59423, 42.63642],
          [-124.57405, 42.65973],
          [-124.57181, 42.66231],
          [-124.54299, 42.66701],
          [-124.51417, 42.6717],
          [-124.48535, 42.67638],
          [-124.45653, 42.68106],
          [-124.4363, 42.70434],
          [-124.43406, 42.70693],
          [-124.40522, 42.7116],
          [-124.38498, 42.73487],
          [-124.38273, 42.73746],
          [-124.35388, 42.74212],
          [-124.33363, 42.76538],
          [-124.33138, 42.76796],
          [-124.30252, 42.77262],
          [-124.28224, 42.79587],
          [-124.27999, 42.79845],
          [-124.25112, 42.8031],
          [-124.23082, 42.82634],
          [-124.22857, 42.82892],
          [-124.20826, 42.85215],
          [-124.20601, 42.85473],
          [-124.17712, 42.85936],
          [-124.1568, 42.88259],
          [-124.15454, 42.88517],
          [-124.12564, 42.88979],
          [-124.09673, 42.89441],
          [-124.06783, 42.89902],
          [-124.03892, 42.90363],
          [-124.01855, 42.92683],
          [-124.01629, 42.92941],
          [-123.99591, 42.95261],
          [-123.99365, 42.95518],
          [-123.96472, 42.95978],
          [-123.94433, 42.98297],
          [-123.94206, 42.98554],
          [-123.91312, 42.99013],
          [-123.88418, 42.99471],
          [-123.85523, 42.99929],
          [-123.82629, 43.00386],
          [-123.79733, 43.00843],
          [-123.76838, 43.01299],
          [-123.74793, 43.03615],
          [-123.74566, 43.03872],
          [-123.71669, 43.04328],
          [-123.69623, 43.06642],
          [-123.69395, 43.069],
          [-123.66498, 43.07354],
          [-123.64449, 43.09668],
          [-123.64221, 43.09925],
          [-123.61322, 43.10379],
          [-123.59272, 43.12691],
          [-123.59044, 43.12948],
          [-123.56144, 43.13401],
          [-123.53244, 43.13853],
          [-123.51191, 43.16165],
          [-123.50963, 43.16421],
          [-123.48062, 43.16873],
          [-123.46007, 43.19183],
          [-123.45778, 43.1944],
          [-123.42876, 43.1989],
          [-123.40819, 43.22199],
          [-123.40591, 43.22456],
          [-123.37687, 43.22906],
          [-123.34783, 43.23355],
          [-123.32724, 43.25663],
          [-123.32495, 43.25919],
          [-123.2959, 43.26367],
          [-123.26685, 43.26815],
          [-123.2378, 43.27262],
          [-123.21717, 43.29569],
          [-123.21488, 43.29825],
          [-123.18581, 43.30271],
          [-123.15675, 43.30717],
          [-123.12768, 43.31163],
          [-123.10701, 43.33467],
          [-123.10472, 43.33723],
          [-123.07564, 43.34168],
          [-123.04655, 43.34612],
          [-123.02586, 43.36915],
          [-123.02357, 43.3717],
          [-122.99447, 43.37614],
          [-122.97376, 43.39916],
          [-122.97146, 43.40171],
          [-122.94236, 43.40614],
          [-122.92163, 43.42915],
          [-122.91933, 43.4317],
          [-122.89021, 43.43612],
          [-122.86947, 43.45911],
          [-122.86716, 43.46167],
          [-122.83803, 43.46607],
          [-122.81727, 43.48906],
          [-122.81496, 43.49162],
          [-122.78582, 43.49601],
          [-122.76504, 43.51899],
          [-122.76273, 43.52154],
          [-122.73358, 43.52593],
          [-122.70443, 43.53031],
          [-122.68362, 43.55328],
          [-122.68131, 43.55583],
          [-122.65214, 43.5602],
          [-122.62298, 43.56457],
          [-122.60214, 43.58752],
          [-122.59983, 43.59007],
          [-122.57065, 43.59443],
          [-122.54147, 43.59879],
          [-122.51228, 43.60314],
          [-122.4831, 43.60749],
          [-122.45391, 43.61183],
          [-122.43303, 43.63475],
          [-122.4307, 43.6373],
          [-122.4015, 43.64163],
          [-122.3806, 43.66454],
          [-122.37828, 43.66709],
          [-122.34907, 43.67141],
          [-122.31985, 43.67573],
          [-122.29893, 43.69863],
          [-122.2966, 43.70118],
          [-122.26738, 43.70549],
          [-122.24643, 43.72837],
          [-122.2441, 43.73092],
          [-122.21487, 43.73522],
          [-122.18563, 43.73952],
          [-122.15638, 43.74381],
          [-122.1354, 43.76668],
          [-122.13307, 43.76922],
          [-122.10382, 43.7735],
          [-122.08282, 43.79636],
          [-122.08049, 43.7989],
          [-122.05122, 43.80318],
          [-122.02196, 43.80744],
          [-121.99269, 43.81171],
          [-121.96342, 43.81597],
          [-121.9599, 43.81428],
          [-121.92825, 43.7991],
          [-121.89898, 43.80335],
          [-121.89546, 43.80166],
          [-121.88958, 43.78053],
          [-121.8837, 43.7594],
          [-121.85208, 43.7442],
          [-121.84857, 43.74251],
          [-121.8427, 43.72137],
          [-121.83683, 43.70023],
          [-121.83097, 43.67909],
          [-121.79938, 43.66387],
          [-121.79587, 43.66218],
          [-121.79002, 43.64103],
          [-121.78417, 43.61988],
          [-121.77832, 43.59872],
          [-121.77247, 43.57756],
          [-121.76663, 43.5564],
          [-121.76079, 43.53523],
          [-121.75495, 43.51406],
          [-121.74912, 43.49289],
          [-121.7176, 43.47764],
          [-121.7141, 43.47595],
          [-121.70828, 43.45477],
          [-121.70245, 43.43359],
          [-121.69663, 43.4124],
          [-121.69082, 43.39122],
          [-121.65935, 43.37595],
          [-121.65585, 43.37425],
          [-121.62439, 43.35897],
          [-121.62089, 43.35727],
          [-121.58944, 43.34199],
          [-121.56029, 43.3462],
          [-121.53114, 43.3504],
          [-121.50199, 43.3546],
          [-121.49849, 43.3529],
          [-121.46706, 43.3376],
          [-121.43791, 43.34179],
          [-121.40876, 43.34597],
          [-121.3796, 43.35015],
          [-121.35044, 43.35433],
          [-121.34695, 43.35263],
          [-121.31554, 43.3373],
          [-121.31205, 43.33559],
          [-121.28066, 43.32025],
          [-121.27717, 43.31855],
          [-121.24578, 43.3032],
          [-121.21663, 43.30736],
          [-121.21315, 43.30565],
          [-121.20744, 43.28444],
          [-121.17608, 43.26907],
          [-121.17259, 43.26737],
          [-121.14124, 43.252],
          [-121.13776, 43.25029],
          [-121.13207, 43.22906],
          [-121.12638, 43.20784],
          [-121.09506, 43.19245],
          [-121.09158, 43.19074],
          [-121.0859, 43.16951],
          [-121.08023, 43.14827],
          [-121.07456, 43.12703],
          [-121.04327, 43.11163],
          [-121.03979, 43.10992],
          [-121.03414, 43.08867],
          [-121.02848, 43.06742],
          [-121.02283, 43.04616],
          [-121.02517, 43.04363],
          [-121.04625, 43.02077],
          [-121.0406, 42.99952],
          [-121.04294, 42.99698],
          [-121.06401, 42.97412],
          [-121.05835, 42.95285],
          [-121.0527, 42.93158],
          [-121.02147, 42.91616],
          [-121.018, 42.91445],
          [-121.01236, 42.89317],
          [-120.98115, 42.87774],
          [-120.97769, 42.87603],
          [-120.94649, 42.86059],
          [-120.91745, 42.86471],
          [-120.91399, 42.86299],
          [-120.8828, 42.84754],
          [-120.85377, 42.85165],
          [-120.82473, 42.85576],
          [-120.79569, 42.85986],
          [-120.76665, 42.86396],
          [-120.73761, 42.86805],
          [-120.73415, 42.86633],
          [-120.70299, 42.85085],
          [-120.67395, 42.85493],
          [-120.67049, 42.85321],
          [-120.63934, 42.83772],
          [-120.6103, 42.84179],
          [-120.58126, 42.84586],
          [-120.5778, 42.84414],
          [-120.54668, 42.82863],
          [-120.51763, 42.83269],
          [-120.51418, 42.83096],
          [-120.48306, 42.81544],
          [-120.45402, 42.81949],
          [-120.42498, 42.82354],
          [-120.42153, 42.82181],
          [-120.39043, 42.80627],
          [-120.36139, 42.81031],
          [-120.33235, 42.81434],
          [-120.32889, 42.81261],
          [-120.29781, 42.79706],
          [-120.26877, 42.80108],
          [-120.23973, 42.80509],
          [-120.21068, 42.8091],
          [-120.20723, 42.80737],
          [-120.17617, 42.7918],
          [-120.14712, 42.7958],
          [-120.11808, 42.7998],
          [-120.08903, 42.80379],
          [-120.05997, 42.80778],
          [-120.05652, 42.80605],
          [-120.02549, 42.79044],
          [-119.99644, 42.79442],
          [-119.99299, 42.79269],
          [-119.96197, 42.77708],
          [-119.95998, 42.77514],
          [-119.94005, 42.7558],
          [-119.92212, 42.73839],
          [-119.91868, 42.73666],
          [-119.89011, 42.73062],
          [-119.85838, 42.72392],
          [-119.85666, 42.72305],
          [-119.82396, 42.70654],
          [-119.82224, 42.70567],
          [-119.78956, 42.68915],
          [-119.78784, 42.68828],
          [-119.75517, 42.67175],
          [-119.75345, 42.67088],
          [-119.72079, 42.65435],
          [-119.71907, 42.65347],
          [-119.69486, 42.63469],
          [-119.68455, 42.62946],
          [-119.6605, 42.61726],
          [-119.65059, 42.61364],
          [-119.6194, 42.60884],
          [-119.5899, 42.6108],
          [-119.56088, 42.61472],
          [-119.53263, 42.62172],
          [-119.50361, 42.62563],
          [-119.47353, 42.62526],
          [-119.4564, 42.6227],
          [-119.44254, 42.62125],
          [-119.41264, 42.62158],
          [-119.38433, 42.62839],
          [-119.35915, 42.63572],
          [-119.35636, 42.63654],
          [-119.32943, 42.64896],
          [-119.30441, 42.66509],
          [-119.30355, 42.66564],
          [-119.27716, 42.6803],
          [-119.26126, 42.69289],
          [-119.25253, 42.70213],
          [-119.23746, 42.7181],
          [-119.22824, 42.72538],
          [-119.20049, 42.73458],
          [-119.17273, 42.74376],
          [-119.14366, 42.74761],
          [-119.11867, 42.75587],
          [-119.11587, 42.75668],
          [-119.08812, 42.76596],
          [-119.06165, 42.78047],
          [-119.0541, 42.78642],
          [-119.03738, 42.80404],
          [-119.03022, 42.81159],
          [-119.01579, 42.83551],
          [-119.01523, 42.83632],
          [-118.99916, 42.85972],
          [-118.99695, 42.88203],
          [-118.99689, 42.88424],
          [-118.99284, 42.90458],
          [-118.99805, 42.92592],
          [-119.01148, 42.94397],
          [-119.01273, 42.946],
          [-119.02523, 42.96638],
          [-119.03847, 42.98665],
          [-119.05629, 43.00412],
          [-119.05827, 43.00606],
          [-119.06495, 43.02718],
          [-119.07019, 43.0485],
          [-119.06779, 43.05101],
          [-119.04625, 43.07363],
          [-119.04385, 43.07614],
          [-119.0223, 43.09876],
          [-119.0199, 43.10127],
          [-118.99072, 43.10508],
          [-118.96915, 43.12768],
          [-118.96675, 43.13019],
          [-118.93756, 43.134],
          [-118.90836, 43.1378],
          [-118.87916, 43.14159],
          [-118.84997, 43.14538],
          [-118.82835, 43.16796],
          [-118.82595, 43.17047],
          [-118.79674, 43.17425],
          [-118.76753, 43.17803],
          [-118.74589, 43.20059],
          [-118.74348, 43.2031],
          [-118.71426, 43.20687],
          [-118.68503, 43.21063],
          [-118.66337, 43.23318],
          [-118.66096, 43.23569],
          [-118.63172, 43.23944],
          [-118.60248, 43.24319],
          [-118.58079, 43.26573],
          [-118.57838, 43.26823],
          [-118.54913, 43.27197],
          [-118.51988, 43.2757],
          [-118.49816, 43.29823],
          [-118.49575, 43.30073],
          [-118.46649, 43.30445],
          [-118.43722, 43.30818],
          [-118.41548, 43.33069],
          [-118.41306, 43.33319],
          [-118.38379, 43.3369],
          [-118.35451, 43.34061],
          [-118.32523, 43.34431],
          [-118.29595, 43.34801],
          [-118.27417, 43.37049],
          [-118.27175, 43.37299],
          [-118.24245, 43.37668],
          [-118.21316, 43.38036],
          [-118.18387, 43.38404],
          [-118.15457, 43.38772],
          [-118.12527, 43.39139],
          [-118.10343, 43.41385],
          [-118.10101, 43.41634],
          [-118.0717, 43.42],
          [-118.04238, 43.42366],
          [-118.01307, 43.42731],
          [-117.9912, 43.44976],
          [-117.98877, 43.45225],
          [-117.95945, 43.45589],
          [-117.93012, 43.45953],
          [-117.90079, 43.46316],
          [-117.87146, 43.46679],
          [-117.84212, 43.47041],
          [-117.81279, 43.47403],
          [-117.79086, 43.49645],
          [-117.78843, 43.49894],
          [-117.75908, 43.50255],
          [-117.72973, 43.50615],
          [-117.70778, 43.52855],
          [-117.70534, 43.53104],
          [-117.67598, 43.53463],
          [-117.64662, 43.53822],
          [-117.62464, 43.56061],
          [-117.6222, 43.5631],
          [-117.59283, 43.56668],
          [-117.57084, 43.58905],
          [-117.56839, 43.59154],
          [-117.53901, 43.59511],
          [-117.50962, 43.59868],
          [-117.48024, 43.60224],
          [-117.45085, 43.6058],
          [-117.42881, 43.62815],
          [-117.42636, 43.63064],
          [-117.39697, 43.63419],
          [-117.36756, 43.63773],
          [-117.33816, 43.64127],
          [-117.30875, 43.64481],
          [-117.27935, 43.64834],
          [-117.24994, 43.65187],
          [-117.22052, 43.65539],
          [-117.19111, 43.6589],
          [-117.169, 43.68122],
          [-117.16655, 43.6837],
          [-117.13712, 43.6872],
          [-117.1077, 43.69071],
          [-117.07827, 43.69421],
          [-117.04884, 43.6977],
          [-117.0194, 43.70119],
          [-116.98997, 43.70467],
          [-116.96053, 43.70815],
          [-116.93836, 43.73043],
          [-116.9359, 43.73291],
          [-116.90645, 43.73638],
          [-116.877, 43.73984],
          [-116.84755, 43.74331],
          [-116.81809, 43.74676],
          [-116.78864, 43.75021],
          [-116.75918, 43.75366],
          [-116.72972, 43.7571],
          [-116.70026, 43.76054],
          [-116.67079, 43.76397],
          [-116.64133, 43.7674],
          [-116.63791, 43.76562],
          [-116.60712, 43.74955],
          [-116.57766, 43.75296],
          [-116.54819, 43.75638],
          [-116.51872, 43.75979],
          [-116.48925, 43.76319],
          [-116.48583, 43.7614],
          [-116.45508, 43.74531],
          [-116.42561, 43.7487],
          [-116.39614, 43.75209],
          [-116.39272, 43.7503],
          [-116.36198, 43.73419],
          [-116.33252, 43.73757],
          [-116.3291, 43.73578],
          [-116.29838, 43.71965],
          [-116.26891, 43.72302],
          [-116.2655, 43.72123],
          [-116.23479, 43.70509],
          [-116.20533, 43.70845],
          [-116.20191, 43.70666],
          [-116.17122, 43.69051],
          [-116.16781, 43.68871],
          [-116.13713, 43.67255],
          [-116.10767, 43.6759],
          [-116.10426, 43.6741],
          [-116.0736, 43.65793],
          [-116.07019, 43.65614],
          [-116.03953, 43.63996],
          [-116.03613, 43.63816],
          [-116.00548, 43.62198],
          [-116.00208, 43.62018],
          [-115.97144, 43.60399],
          [-115.96804, 43.60219],
          [-115.93742, 43.58599],
          [-115.93401, 43.58419],
          [-115.92943, 43.56286],
          [-115.89883, 43.54665],
          [-115.89543, 43.54485],
          [-115.89086, 43.52352],
          [-115.86027, 43.5073],
          [-115.85688, 43.5055],
          [-115.85232, 43.48416],
          [-115.84776, 43.46282],
          [-115.8432, 43.44148],
          [-115.81265, 43.42524],
          [-115.80925, 43.42344],
          [-115.77871, 43.40719],
          [-115.77532, 43.40539],
          [-115.74479, 43.38914],
          [-115.71541, 43.39243],
          [-115.71201, 43.39062],
          [-115.6815, 43.37436],
          [-115.65212, 43.37764],
          [-115.64873, 43.37583],
          [-115.61823, 43.35956],
          [-115.58885, 43.36283],
          [-115.55946, 43.36609],
          [-115.53705, 43.38826],
          [-115.53456, 43.39072],
          [-115.51214, 43.41287],
          [-115.50965, 43.41533],
          [-115.48025, 43.41859],
          [-115.45781, 43.44073],
          [-115.45532, 43.44319],
          [-115.42591, 43.44643],
          [-115.39649, 43.44967],
          [-115.37403, 43.4718],
          [-115.37153, 43.47426],
          [-115.34905, 43.49638],
          [-115.34656, 43.49884],
          [-115.31713, 43.50207],
          [-115.29463, 43.52418],
          [-115.29213, 43.52664],
          [-115.26269, 43.52985],
          [-115.24018, 43.55195],
          [-115.23767, 43.55441],
          [-115.20822, 43.55762],
          [-115.17877, 43.56082],
          [-115.14931, 43.56402],
          [-115.14593, 43.5622],
          [-115.11545, 43.54587],
          [-115.086, 43.54905],
          [-115.05654, 43.55224],
          [-115.02709, 43.55542],
          [-115.0237, 43.5536],
          [-114.99325, 43.53724],
          [-114.9638, 43.54041],
          [-114.93434, 43.54358],
          [-114.90488, 43.54674],
          [-114.9015, 43.54492],
          [-114.87107, 43.52854],
          [-114.86769, 43.52672],
          [-114.83727, 43.51033],
          [-114.80782, 43.51348],
          [-114.80444, 43.51165],
          [-114.80011, 43.49029],
          [-114.76972, 43.47389],
          [-114.76634, 43.47207],
          [-114.73596, 43.45566],
          [-114.73258, 43.45384],
          [-114.70221, 43.43742],
          [-114.69884, 43.43559],
          [-114.69453, 43.41422],
          [-114.66418, 43.39779],
          [-114.66081, 43.39597],
          [-114.65651, 43.37459],
          [-114.62618, 43.35815],
          [-114.62281, 43.35632],
          [-114.61852, 43.33494],
          [-114.61424, 43.31355],
          [-114.58393, 43.2971],
          [-114.58056, 43.29527],
          [-114.57629, 43.27387],
          [-114.57201, 43.25248],
          [-114.56774, 43.23107],
          [-114.57025, 43.22862],
          [-114.59284, 43.20656],
          [-114.58857, 43.18515],
          [-114.59108, 43.1827],
          [-114.61365, 43.16062],
          [-114.58339, 43.14416],
          [-114.55404, 43.14727],
          [-114.55068, 43.14544],
          [-114.54642, 43.12402],
          [-114.51618, 43.10754],
          [-114.51282, 43.10571],
          [-114.50857, 43.08429],
          [-114.50432, 43.06286],
          [-114.4741, 43.04637],
          [-114.47075, 43.04453],
          [-114.46651, 43.0231],
          [-114.46227, 43.00167],
          [-114.45803, 42.98023],
          [-114.42785, 42.96372],
          [-114.4245, 42.96188],
          [-114.42027, 42.94044],
          [-114.41605, 42.91899],
          [-114.3859, 42.90247],
          [-114.38255, 42.90063],
          [-114.37833, 42.87918],
          [-114.37412, 42.85773],
          [-114.36991, 42.83627],
          [-114.3657, 42.81481],
          [-114.36149, 42.79334],
          [-114.33138, 42.7768],
          [-114.32804, 42.77496],
          [-114.29794, 42.75841],
          [-114.2687, 42.76148],
          [-114.23945, 42.76455],
          [-114.23611, 42.76271],
          [-114.23193, 42.74124],
          [-114.20186, 42.72466],
          [-114.19852, 42.72282],
          [-114.16846, 42.70624],
          [-114.16512, 42.7044],
          [-114.13507, 42.68782],
          [-114.13173, 42.68597],
          [-114.10169, 42.66938],
          [-114.07247, 42.67243],
          [-114.06913, 42.67058],
          [-114.03911, 42.65398],
          [-114.03577, 42.65213],
          [-114.00576, 42.63552],
          [-114.00243, 42.63367],
          [-113.97243, 42.61705],
          [-113.9691, 42.61521],
          [-113.93911, 42.59858],
          [-113.93578, 42.59673],
          [-113.9058, 42.5801],
          [-113.90247, 42.57825],
          [-113.8725, 42.56161],
          [-113.86917, 42.55976],
          [-113.86508, 42.53825],
          [-113.83513, 42.5216],
          [-113.80594, 42.52461],
          [-113.80262, 42.52275],
          [-113.77268, 42.50609],
          [-113.7435, 42.50909],
          [-113.71431, 42.51208],
          [-113.68512, 42.51507],
          [-113.68179, 42.51321],
          [-113.65188, 42.49653],
          [-113.62269, 42.49951],
          [-113.5935, 42.50248],
          [-113.59018, 42.50062],
          [-113.56029, 42.48392],
          [-113.5311, 42.48689],
          [-113.52778, 42.48503],
          [-113.4979, 42.46832],
          [-113.49459, 42.46646],
          [-113.46472, 42.44974],
          [-113.4614, 42.44789],
          [-113.43155, 42.43116],
          [-113.42823, 42.4293],
          [-113.42424, 42.40777],
          [-113.42026, 42.38623],
          [-113.41627, 42.36469],
          [-113.41228, 42.34314],
          [-113.4083, 42.3216],
          [-113.41082, 42.31915],
          [-113.43346, 42.2971],
          [-113.42947, 42.27555],
          [-113.42549, 42.25399],
          [-113.3957, 42.23724],
          [-113.39239, 42.23538],
          [-113.36261, 42.21862],
          [-113.33349, 42.22156],
          [-113.30438, 42.22449],
          [-113.28172, 42.24653],
          [-113.27921, 42.24898],
          [-113.25654, 42.27101],
          [-113.25403, 42.27346],
          [-113.22489, 42.27638],
          [-113.20221, 42.2984],
          [-113.19969, 42.30085],
          [-113.177, 42.32286],
          [-113.17448, 42.32531],
          [-113.15177, 42.34732],
          [-113.14925, 42.34977],
          [-113.12654, 42.37177],
          [-113.12401, 42.37422],
          [-113.09484, 42.37711],
          [-113.07211, 42.3991],
          [-113.06958, 42.40155],
          [-113.04041, 42.40443],
          [-113.01766, 42.42642],
          [-113.01513, 42.42886],
          [-112.98594, 42.43174],
          [-112.95675, 42.43461],
          [-112.93398, 42.45658],
          [-112.93144, 42.45902],
          [-112.90225, 42.46188],
          [-112.87945, 42.48384],
          [-112.87692, 42.48628],
          [-112.84771, 42.48914],
          [-112.8185, 42.49199],
          [-112.78929, 42.49483],
          [-112.78598, 42.49296],
          [-112.75623, 42.47613],
          [-112.72702, 42.47897],
          [-112.72372, 42.4771],
          [-112.69398, 42.46025],
          [-112.69067, 42.45838],
          [-112.68684, 42.43683],
          [-112.65712, 42.41998],
          [-112.65382, 42.41811],
          [-112.65, 42.39655],
          [-112.64618, 42.375],
          [-112.64236, 42.35344],
          [-112.63854, 42.33188],
          [-112.64107, 42.32944],
          [-112.66389, 42.30749],
          [-112.66007, 42.28592],
          [-112.65625, 42.26435],
          [-112.65243, 42.24278],
          [-112.65496, 42.24034],
          [-112.67775, 42.21838],
          [-112.67393, 42.1968],
          [-112.67011, 42.17522],
          [-112.6663, 42.15363],
          [-112.66248, 42.13205],
          [-112.65867, 42.11046],
          [-112.6612, 42.10802],
          [-112.68395, 42.08604],
          [-112.65434, 42.06915],
          [-112.65105, 42.06727],
          [-112.64724, 42.04567],
          [-112.61764, 42.02877],
          [-112.58856, 42.0316],
          [-112.58527, 42.02972],
          [-112.55569, 42.01281],
          [-112.5524, 42.01093],
          [-112.52283, 41.99401],
          [-112.51954, 41.99213],
          [-112.51576, 41.97052],
          [-112.48621, 41.9536],
          [-112.48293, 41.95171],
          [-112.45338, 41.93478],
          [-112.4501, 41.9329],
          [-112.42057, 41.91596],
          [-112.39151, 41.91875],
          [-112.38823, 41.91687],
          [-112.35871, 41.89991],
          [-112.35544, 41.89803],
          [-112.32593, 41.88107],
          [-112.29688, 41.88385],
          [-112.2936, 41.88196],
          [-112.26411, 41.86499],
          [-112.26084, 41.8631],
          [-112.23136, 41.84613],
          [-112.22808, 41.84424],
          [-112.19861, 41.82725],
          [-112.16958, 41.83001],
          [-112.1663, 41.82812],
          [-112.13685, 41.81113],
          [-112.13358, 41.80924],
          [-112.10413, 41.79223],
          [-112.0751, 41.79498],
          [-112.07183, 41.79309],
          [-112.04241, 41.77607],
          [-112.01338, 41.7788],
          [-112, 41.78006]
        ]
      }
    },
    {
      "type": "Feature",
      "id": "2026092412_f144_10000_001",
      "properties": {
        "product_id": "winter_storm_levels",
        "source_id": "nbm_snow_level",
        "parameter": "snow_level",
        "definition": "height of the wet-bulb 0.5 degree C surface",
        "level_ft_msl": 10000,
        "label": "10,000 ft MSL",
        "unit": "ft_msl",
        "cycle_time_utc": "2026-09-24T12:00:00Z",
        "valid_time_utc": "2026-09-30T12:00:00Z",
        "lead_hours": 144,
        "segment": 1,
        "length_m": 151628.5
      },
      "geometry": {
        "type": "LineString",
        "coordinates": [
          [-118.13837, 38.02324],
          [-118.13358, 38.00133],
          [-118.12879, 37.97942],
          [-118.124, 37.95751],
          [-118.09143, 37.93937],
          [-118.08665, 37.91745],
          [-118.05409, 37.8993],
          [-118.03544, 37.87926],
          [-118.03067, 37.85734],
          [-118.01203, 37.83729],
          [-118.00727, 37.81536],
          [-117.97476, 37.79719],
          [-117.94701, 37.80094],
          [-117.91925, 37.80468],
          [-117.89149, 37.80842],
          [-117.86373, 37.81216],
          [-117.83596, 37.81589],
          [-117.8082, 37.81962],
          [-117.78043, 37.82334],
          [-117.75266, 37.82706],
          [-117.72019, 37.80884],
          [-117.68773, 37.79061],
          [-117.65762, 37.78334],
          [-117.62986, 37.78704],
          [-117.60443, 37.80171],
          [-117.58133, 37.82734],
          [-117.59989, 37.84743],
          [-117.61846, 37.86752],
          [-117.65093, 37.88576],
          [-117.65562, 37.90769],
          [-117.67421, 37.92777],
          [-117.6928, 37.94784],
          [-117.6975, 37.96977],
          [-117.7022, 37.99169],
          [-117.70691, 38.01361],
          [-117.71161, 38.03553],
          [-117.73023, 38.05559],
          [-117.74886, 38.07565],
          [-117.7675, 38.0957],
          [-117.78614, 38.11575],
          [-117.80479, 38.1358],
          [-117.82345, 38.15584],
          [-117.85446, 38.16672],
          [-117.86997, 38.17216],
          [-117.88627, 38.18124],
          [-117.91651, 38.18845],
          [-117.94675, 38.19566],
          [-117.9746, 38.19192],
          [-118.00008, 38.17722],
          [-118.02554, 38.16252],
          [-118.051, 38.14782],
          [-118.07405, 38.12216],
          [-118.0971, 38.09649],
          [-118.12014, 38.07082],
          [-118.11535, 38.04892],
          [-118.13837, 38.02324]
        ]
      }
    },
    {
      "type": "Feature",
      "id": "2026092412_f144_10000_002",
      "properties": {
        "product_id": "winter_storm_levels",
        "source_id": "nbm_snow_level",
        "parameter": "snow_level",
        "definition": "height of the wet-bulb 0.5 degree C surface",
        "level_ft_msl": 10000,
        "label": "10,000 ft MSL",
        "unit": "ft_msl",
        "cycle_time_utc": "2026-09-24T12:00:00Z",
        "valid_time_utc": "2026-09-30T12:00:00Z",
        "lead_hours": 144,
        "segment": 2,
        "length_m": 2160029.3
      },
      "geometry": {
        "type": "LineString",
        "coordinates": [
          [-130, 35.66883],
          [-129.98996, 35.68284],
          [-129.9703, 35.71025],
          [-129.97735, 35.73193],
          [-129.95768, 35.75934],
          [-129.938, 35.78674],
          [-129.91831, 35.81413],
          [-129.89861, 35.84152],
          [-129.87187, 35.84723],
          [-129.85215, 35.87461],
          [-129.82539, 35.88031],
          [-129.79864, 35.886],
          [-129.77889, 35.91337],
          [-129.75914, 35.94073],
          [-129.73938, 35.96809],
          [-129.71961, 35.99545],
          [-129.69983, 36.0228],
          [-129.70684, 36.04447],
          [-129.68705, 36.07181],
          [-129.66725, 36.09915],
          [-129.64043, 36.10481],
          [-129.62061, 36.13214],
          [-129.60078, 36.15947],
          [-129.58093, 36.18678],
          [-129.56108, 36.2141],
          [-129.53423, 36.21974],
          [-129.51436, 36.24705],
          [-129.49448, 36.27435],
          [-129.46761, 36.27998],
          [-129.44772, 36.30727],
          [-129.42083, 36.31289],
          [-129.40092, 36.34018],
          [-129.37403, 36.34579],
          [-129.3541, 36.37306],
          [-129.33415, 36.40033],
          [-129.30724, 36.40594],
          [-129.28728, 36.4332],
          [-129.26732, 36.46045],
          [-129.24039, 36.46604],
          [-129.2204, 36.49329],
          [-129.2004, 36.52053],
          [-129.17345, 36.52611],
          [-129.15344, 36.55334],
          [-129.12648, 36.55891],
          [-129.10645, 36.58613],
          [-129.08641, 36.61335],
          [-129.05943, 36.61891],
          [-129.03937, 36.64612],
          [-129.0193, 36.67332],
          [-128.9923, 36.67887],
          [-128.97222, 36.70606],
          [-128.94521, 36.7116],
          [-128.92511, 36.73879],
          [-128.89809, 36.74432],
          [-128.87797, 36.7715],
          [-128.85094, 36.77702],
          [-128.8308, 36.80419],
          [-128.80376, 36.8097],
          [-128.7836, 36.83686],
          [-128.75655, 36.84237],
          [-128.73638, 36.86951],
          [-128.70932, 36.87501],
          [-128.68912, 36.90215],
          [-128.66205, 36.90764],
          [-128.63498, 36.91313],
          [-128.61476, 36.94026],
          [-128.58768, 36.94573],
          [-128.56059, 36.95121],
          [-128.54035, 36.97832],
          [-128.51325, 36.98378],
          [-128.49299, 37.01089],
          [-128.46588, 37.01635],
          [-128.43877, 37.0218],
          [-128.41848, 37.04889],
          [-128.39136, 37.05433],
          [-128.37105, 37.08142],
          [-128.34392, 37.08685],
          [-128.3236, 37.11393],
          [-128.29646, 37.11935],
          [-128.27611, 37.14642],
          [-128.24896, 37.15184],
          [-128.2286, 37.17889],
          [-128.20144, 37.1843],
          [-128.17427, 37.18971],
          [-128.15389, 37.21675],
          [-128.12671, 37.22215],
          [-128.1063, 37.24918],
          [-128.07912, 37.25457],
          [-128.05193, 37.25996],
          [-128.02474, 37.26534],
          [-127.99755, 37.27071],
          [-127.9771, 37.29773],
          [-127.94989, 37.30309],
          [-127.92269, 37.30846],
          [-127.90221, 37.33546],
          [-127.875, 37.34081],
          [-127.8545, 37.3678],
          [-127.82728, 37.37315],
          [-127.80005, 37.37849],
          [-127.77953, 37.40547],
          [-127.75229, 37.4108],
          [-127.73175, 37.43777],
          [-127.7045, 37.4431],
          [-127.68395, 37.47006],
          [-127.65668, 37.47537],
          [-127.62942, 37.48069],
          [-127.60884, 37.50763],
          [-127.58156, 37.51294],
          [-127.55428, 37.51824],
          [-127.53368, 37.54517],
          [-127.50639, 37.55046],
          [-127.48577, 37.57738],
          [-127.45847, 37.58267],
          [-127.43117, 37.58794],
          [-127.41052, 37.61485],
          [-127.3832, 37.62012],
          [-127.36253, 37.64703],
          [-127.33521, 37.65229],
          [-127.31453, 37.67918],
          [-127.28719, 37.68443],
          [-127.26649, 37.71131],
          [-127.24577, 37.73819],
          [-127.22505, 37.76506],
          [-127.20431, 37.79192],
          [-127.17694, 37.79716],
          [-127.15619, 37.82401],
          [-127.13543, 37.85086],
          [-127.11465, 37.87771],
          [-127.09387, 37.90455],
          [-127.06646, 37.90976],
          [-127.04566, 37.93659],
          [-127.02485, 37.96341],
          [-127.00402, 37.99023],
          [-126.98319, 38.01704],
          [-126.96234, 38.04385],
          [-126.94149, 38.07065],
          [-126.91403, 38.07584],
          [-126.88658, 38.08102],
          [-126.8657, 38.10781],
          [-126.83823, 38.11298],
          [-126.81076, 38.11815],
          [-126.78986, 38.14492],
          [-126.76238, 38.15008],
          [-126.7349, 38.15524],
          [-126.71396, 38.182],
          [-126.68647, 38.18715],
          [-126.66552, 38.2139],
          [-126.63801, 38.21904],
          [-126.61704, 38.24578],
          [-126.58953, 38.25091],
          [-126.56201, 38.25603],
          [-126.54102, 38.28276],
          [-126.51349, 38.28788],
          [-126.48596, 38.29299],
          [-126.45843, 38.2981],
          [-126.4309, 38.3032],
          [-126.40336, 38.3083],
          [-126.37582, 38.3134],
          [-126.34828, 38.31849],
          [-126.32721, 38.34518],
          [-126.29966, 38.35026],
          [-126.27211, 38.35534],
          [-126.25101, 38.38202],
          [-126.22345, 38.38709],
          [-126.19588, 38.39215],
          [-126.16831, 38.39721],
          [-126.14074, 38.40227],
          [-126.11316, 38.40732],
          [-126.08558, 38.41237],
          [-126.058, 38.41741],
          [-126.03041, 38.42244],
          [-126.00283, 38.42748],
          [-125.98166, 38.45412],
          [-125.95406, 38.45914],
          [-125.92646, 38.46416],
          [-125.89886, 38.46917],
          [-125.87125, 38.47419],
          [-125.84364, 38.47919],
          [-125.81603, 38.48419],
          [-125.78842, 38.48919],
          [-125.76718, 38.5158],
          [-125.73956, 38.52078],
          [-125.71193, 38.52577],
          [-125.6843, 38.53075],
          [-125.65667, 38.53572],
          [-125.62904, 38.54069],
          [-125.60775, 38.56727],
          [-125.58011, 38.57224],
          [-125.55246, 38.57719],
          [-125.52481, 38.58215],
          [-125.50349, 38.60871],
          [-125.47583, 38.61365],
          [-125.44816, 38.61859],
          [-125.4205, 38.62353],
          [-125.39914, 38.65007],
          [-125.37146, 38.655],
          [-125.34379, 38.65992],
          [-125.31611, 38.66484],
          [-125.28842, 38.66975],
          [-125.26074, 38.67466],
          [-125.23305, 38.67957],
          [-125.20536, 38.68447],
          [-125.18393, 38.71098],
          [-125.15623, 38.71587],
          [-125.13479, 38.74237],
          [-125.10708, 38.74725],
          [-125.07936, 38.75213],
          [-125.05164, 38.757],
          [-125.02392, 38.76187],
          [-124.9962, 38.76674],
          [-124.96848, 38.7716],
          [-124.94075, 38.77645],
          [-124.91302, 38.7813],
          [-124.87907, 38.76453],
          [-124.85134, 38.76937],
          [-124.82361, 38.77421],
          [-124.79588, 38.77904],
          [-124.76814, 38.78387],
          [-124.7404, 38.78869],
          [-124.71266, 38.79351],
          [-124.68491, 38.79833],
          [-124.66334, 38.82476],
          [-124.63558, 38.82957],
          [-124.60782, 38.83437],
          [-124.58622, 38.86079],
          [-124.55845, 38.86558],
          [-124.53068, 38.87037],
          [-124.50291, 38.87515],
          [-124.47513, 38.87993],
          [-124.44735, 38.8847],
          [-124.4257, 38.9111],
          [-124.39791, 38.91586],
          [-124.37623, 38.94225],
          [-124.34844, 38.947],
          [-124.32674, 38.97338],
          [-124.29893, 38.97812],
          [-124.27722, 39.00449],
          [-124.2494, 39.00923],
          [-124.22158, 39.01396],
          [-124.19375, 39.01869],
          [-124.17201, 39.04504],
          [-124.14417, 39.04976],
          [-124.11634, 39.05448],
          [-124.09456, 39.08081],
          [-124.06671, 39.08552],
          [-124.03886, 39.09023],
          [-124.01706, 39.11654],
          [-123.9892, 39.12124],
          [-123.96739, 39.14755],
          [-123.94556, 39.17385],
          [-123.91768, 39.17853],
          [-123.89583, 39.20482],
          [-123.87397, 39.23111],
          [-123.8521, 39.25739],
          [-123.83022, 39.28366],
          [-123.80833, 39.30993],
          [-123.78041, 39.31458],
          [-123.7585, 39.34084],
          [-123.73657, 39.36709],
          [-123.71464, 39.39334],
          [-123.6927, 39.41958],
          [-123.67074, 39.44581],
          [-123.64878, 39.47204],
          [-123.6268, 39.49826],
          [-123.60482, 39.52447],
          [-123.58282, 39.55068],
          [-123.56081, 39.57688],
          [-123.53879, 39.60308],
          [-123.51676, 39.62927],
          [-123.49471, 39.65545],
          [-123.47266, 39.68163],
          [-123.4506, 39.7078],
          [-123.42852, 39.73397],
          [-123.40643, 39.76013],
          [-123.38433, 39.78628],
          [-123.36223, 39.81243],
          [-123.34011, 39.83857],
          [-123.31202, 39.84314],
          [-123.28988, 39.86928],
          [-123.26773, 39.8954],
          [-123.24557, 39.92152],
          [-123.2234, 39.94763],
          [-123.20121, 39.97374],
          [-123.17902, 39.99984],
          [-123.15681, 40.02593],
          [-123.12867, 40.03047],
          [-123.10644, 40.05655],
          [-123.08421, 40.08263],
          [-123.05605, 40.08716],
          [-123.02788, 40.09168],
          [-123.00562, 40.11774],
          [-122.97744, 40.12225],
          [-122.95516, 40.14831],
          [-122.93287, 40.17435],
          [-122.90467, 40.17885],
          [-122.88236, 40.20489],
          [-122.86003, 40.23092],
          [-122.83182, 40.23541],
          [-122.80948, 40.26143],
          [-122.78126, 40.2659],
          [-122.75303, 40.27038],
          [-122.73066, 40.29638],
          [-122.70242, 40.30085],
          [-122.67419, 40.30531],
          [-122.65179, 40.3313],
          [-122.62354, 40.33575],
          [-122.59529, 40.3402],
          [-122.56704, 40.34464],
          [-122.53878, 40.34908],
          [-122.51634, 40.37504],
          [-122.48807, 40.37947],
          [-122.4598, 40.3839],
          [-122.43153, 40.38832],
          [-122.40326, 40.39273],
          [-122.37498, 40.39714],
          [-122.34671, 40.40155],
          [-122.31843, 40.40595],
          [-122.29014, 40.41035],
          [-122.26186, 40.41474],
          [-122.23357, 40.41913],
          [-122.20528, 40.42351],
          [-122.17699, 40.42789],
          [-122.14869, 40.43226],
          [-122.1204, 40.43663],
          [-122.0921, 40.441],
          [-122.06379, 40.44536],
          [-122.03549, 40.44971],
          [-122.00718, 40.45406],
          [-121.97887, 40.45841],
          [-121.95627, 40.48429],
          [-121.92795, 40.48863],
          [-121.89962, 40.49296],
          [-121.87699, 40.51883],
          [-121.85434, 40.54469],
          [-121.826, 40.54901],
          [-121.80334, 40.57486],
          [-121.78066, 40.6007],
          [-121.7523, 40.60501],
          [-121.72394, 40.60931],
          [-121.69558, 40.61361],
          [-121.67287, 40.63944],
          [-121.64449, 40.64372],
          [-121.61612, 40.64801],
          [-121.58774, 40.65229],
          [-121.55936, 40.65656],
          [-121.53097, 40.66083],
          [-121.50259, 40.6651],
          [-121.4742, 40.66936],
          [-121.44581, 40.67362],
          [-121.41741, 40.67787],
          [-121.38902, 40.68212],
          [-121.36621, 40.7079],
          [-121.33781, 40.71213],
          [-121.31498, 40.7379],
          [-121.28657, 40.74213],
          [-121.26372, 40.76788],
          [-121.2353, 40.77211],
          [-121.20687, 40.77632],
          [-121.184, 40.80206],
          [-121.15556, 40.80627],
          [-121.13267, 40.832],
          [-121.10422, 40.8362],
          [-121.07577, 40.84039],
          [-121.04731, 40.84458],
          [-121.01886, 40.84877],
          [-120.99592, 40.87447],
          [-120.96745, 40.87865],
          [-120.93898, 40.88282],
          [-120.91051, 40.88699],
          [-120.88754, 40.91268],
          [-120.85906, 40.91684],
          [-120.83607, 40.94251],
          [-120.80758, 40.94666],
          [-120.77908, 40.95081],
          [-120.75059, 40.95495],
          [-120.72209, 40.95908],
          [-120.69359, 40.96321],
          [-120.66508, 40.96734],
          [-120.63112, 40.94994],
          [-120.60262, 40.95405],
          [-120.57411, 40.95816],
          [-120.54017, 40.94074],
          [-120.50624, 40.92331],
          [-120.47232, 40.90587],
          [-120.43841, 40.88843],
          [-120.433, 40.86689],
          [-120.4276, 40.84534],
          [-120.42219, 40.8238],
          [-120.41679, 40.80225],
          [-120.41139, 40.7807],
          [-120.37753, 40.76323],
          [-120.37214, 40.74167],
          [-120.36676, 40.72011],
          [-120.36137, 40.69855],
          [-120.35599, 40.67698],
          [-120.35061, 40.65541],
          [-120.34523, 40.63384],
          [-120.33986, 40.61227],
          [-120.33448, 40.59069],
          [-120.32911, 40.56912],
          [-120.32374, 40.54753],
          [-120.31838, 40.52595],
          [-120.31301, 40.50437],
          [-120.30765, 40.48278],
          [-120.30229, 40.46119],
          [-120.29693, 40.43959],
          [-120.26321, 40.42207],
          [-120.25786, 40.40047],
          [-120.22415, 40.38294],
          [-120.19046, 40.3654],
          [-120.1621, 40.36946],
          [-120.12842, 40.3519],
          [-120.10006, 40.35595],
          [-120.0664, 40.33838],
          [-120.03275, 40.32081],
          [-119.99911, 40.30323],
          [-119.97076, 40.30726],
          [-119.93713, 40.28966],
          [-119.90878, 40.29368],
          [-119.88043, 40.2977],
          [-119.85208, 40.30171],
          [-119.81847, 40.28409],
          [-119.79012, 40.28809],
          [-119.75653, 40.27046],
          [-119.72818, 40.27445],
          [-119.69983, 40.27844],
          [-119.66626, 40.26079],
          [-119.63791, 40.26477],
          [-119.60956, 40.26874],
          [-119.57601, 40.25107],
          [-119.54766, 40.25503],
          [-119.51412, 40.23735],
          [-119.48577, 40.24131],
          [-119.45225, 40.22361],
          [-119.4239, 40.22756],
          [-119.39039, 40.20985],
          [-119.3569, 40.19214],
          [-119.32341, 40.17442],
          [-119.28994, 40.15669],
          [-119.25648, 40.13895],
          [-119.22814, 40.14286],
          [-119.1947, 40.12511],
          [-119.18959, 40.10345],
          [-119.15616, 40.08569],
          [-119.12275, 40.06792],
          [-119.08934, 40.05014],
          [-119.05595, 40.03235],
          [-119.02764, 40.03624],
          [-118.99426, 40.01844],
          [-118.9609, 40.00063],
          [-118.93259, 40.0045],
          [-118.89924, 39.98668],
          [-118.8659, 39.96886],
          [-118.86087, 39.94717],
          [-118.82755, 39.92933],
          [-118.79424, 39.91148],
          [-118.76595, 39.91533],
          [-118.73265, 39.89747],
          [-118.69937, 39.8796],
          [-118.67109, 39.88344],
          [-118.63782, 39.86556],
          [-118.60457, 39.84767],
          [-118.57132, 39.82977],
          [-118.53809, 39.81187],
          [-118.50487, 39.79396],
          [-118.47166, 39.77604],
          [-118.43846, 39.75812],
          [-118.43352, 39.73639],
          [-118.40034, 39.71845],
          [-118.39542, 39.69672],
          [-118.3905, 39.67499],
          [-118.38558, 39.65326],
          [-118.38066, 39.63152],
          [-118.37575, 39.60978],
          [-118.37083, 39.58804],
          [-118.36592, 39.56629],
          [-118.36101, 39.54454],
          [-118.3843, 39.51901],
          [-118.37939, 39.49726],
          [-118.37448, 39.4755],
          [-118.39775, 39.44996],
          [-118.39284, 39.4282],
          [-118.38793, 39.40644],
          [-118.38303, 39.38467],
          [-118.37812, 39.36291],
          [-118.40137, 39.33735],
          [-118.39646, 39.31558],
          [-118.39156, 39.2938],
          [-118.41478, 39.26823],
          [-118.40988, 39.24645],
          [-118.40497, 39.22467],
          [-118.40007, 39.20289],
          [-118.42327, 39.17731],
          [-118.41837, 39.15552],
          [-118.41347, 39.13373],
          [-118.40857, 39.11194],
          [-118.40367, 39.09015],
          [-118.39878, 39.06835],
          [-118.39389, 39.04656],
          [-118.38899, 39.02476],
          [-118.37008, 39.00485],
          [-118.35117, 38.98494],
          [-118.34629, 38.96314],
          [-118.31337, 38.94512],
          [-118.3085, 38.9233],
          [-118.27559, 38.90527],
          [-118.27073, 38.88346],
          [-118.23785, 38.86542],
          [-118.21899, 38.84548],
          [-118.20014, 38.82554],
          [-118.16728, 38.80748],
          [-118.16245, 38.78565],
          [-118.12962, 38.76758],
          [-118.09679, 38.74951],
          [-118.06879, 38.75326],
          [-118.03598, 38.73517],
          [-118.00319, 38.71708],
          [-117.9704, 38.69897],
          [-117.94241, 38.70271],
          [-117.90964, 38.68459],
          [-117.87688, 38.66646],
          [-117.84889, 38.67018],
          [-117.81615, 38.65205],
          [-117.81139, 38.63019],
          [-117.77867, 38.61204],
          [-117.77392, 38.59018],
          [-117.76918, 38.56832],
          [-117.76444, 38.54645],
          [-117.73175, 38.52829],
          [-117.72702, 38.50642],
          [-117.72229, 38.48455],
          [-117.68962, 38.46637],
          [-117.6849, 38.44449],
          [-117.65226, 38.42631],
          [-117.64755, 38.40442],
          [-117.61492, 38.38623],
          [-117.59626, 38.36618],
          [-117.57761, 38.34613],
          [-117.57292, 38.32424],
          [-117.56823, 38.30235],
          [-117.56354, 38.28045],
          [-117.55886, 38.25855],
          [-117.54023, 38.23849],
          [-117.53555, 38.21658],
          [-117.51694, 38.19652],
          [-117.4844, 38.17828],
          [-117.45187, 38.16003],
          [-117.41935, 38.14178],
          [-117.38916, 38.13447],
          [-117.35898, 38.12717],
          [-117.33111, 38.13081],
          [-117.29862, 38.11253],
          [-117.26614, 38.09425],
          [-117.23367, 38.07595],
          [-117.20582, 38.07958],
          [-117.17337, 38.06127],
          [-117.14092, 38.04296],
          [-117.13634, 38.02103],
          [-117.10391, 38.0027],
          [-117.09933, 37.98077],
          [-117.0715, 37.98437],
          [-117.0391, 37.96603],
          [-117.01127, 37.96963],
          [-116.97888, 37.95128],
          [-116.9465, 37.93292],
          [-116.94196, 37.91097],
          [-116.9096, 37.8926],
          [-116.87726, 37.87422],
          [-116.84492, 37.85584],
          [-116.8126, 37.83745],
          [-116.78029, 37.81905],
          [-116.74799, 37.80064],
          [-116.72019, 37.80419],
          [-116.69239, 37.80774],
          [-116.66458, 37.81128],
          [-116.63678, 37.81482],
          [-116.61344, 37.84032],
          [-116.58563, 37.84385],
          [-116.55782, 37.84737],
          [-116.53, 37.85089],
          [-116.50663, 37.87637],
          [-116.47436, 37.85792],
          [-116.44653, 37.86143],
          [-116.41871, 37.86493],
          [-116.39088, 37.86843],
          [-116.35863, 37.84995],
          [-116.33081, 37.85344],
          [-116.29858, 37.83495],
          [-116.27075, 37.83843],
          [-116.23853, 37.81993],
          [-116.20633, 37.80142],
          [-116.17851, 37.80488],
          [-116.14632, 37.78636],
          [-116.14194, 37.76438],
          [-116.10977, 37.74585],
          [-116.0776, 37.72731],
          [-116.04545, 37.70876],
          [-116.01331, 37.69021],
          [-115.98552, 37.69364],
          [-115.95339, 37.67508],
          [-115.92127, 37.65651],
          [-115.88917, 37.63792],
          [-115.85708, 37.61934],
          [-115.82499, 37.60074],
          [-115.79292, 37.58214],
          [-115.76515, 37.58554],
          [-115.73737, 37.58893],
          [-115.7096, 37.59232],
          [-115.68182, 37.59571],
          [-115.65404, 37.59909],
          [-115.622, 37.58046],
          [-115.59422, 37.58383],
          [-115.56219, 37.56518],
          [-115.53018, 37.54653],
          [-115.49817, 37.52786],
          [-115.49394, 37.50584],
          [-115.46196, 37.48717],
          [-115.45774, 37.46514],
          [-115.42577, 37.44646],
          [-115.39382, 37.42777],
          [-115.36187, 37.40907],
          [-115.33413, 37.41241],
          [-115.3022, 37.3937],
          [-115.27028, 37.37498],
          [-115.24254, 37.3783],
          [-115.21064, 37.35957],
          [-115.18291, 37.36288],
          [-115.15517, 37.36618],
          [-115.12743, 37.36948],
          [-115.09969, 37.37277],
          [-115.06782, 37.35402],
          [-115.04421, 37.37935],
          [-115.01647, 37.38263],
          [-114.98872, 37.38591],
          [-114.96097, 37.38918],
          [-114.93322, 37.39245],
          [-114.90958, 37.41776],
          [-114.88182, 37.42102],
          [-114.85816, 37.44632],
          [-114.83039, 37.44957],
          [-114.80671, 37.47485],
          [-114.77893, 37.4781],
          [-114.75523, 37.50337],
          [-114.72744, 37.50661],
          [-114.69966, 37.50984],
          [-114.67593, 37.5351],
          [-114.65219, 37.56036],
          [-114.62844, 37.58561],
          [-114.60063, 37.58882],
          [-114.57687, 37.61407],
          [-114.54905, 37.61727],
          [-114.52526, 37.6425],
          [-114.49743, 37.64569],
          [-114.46961, 37.64888],
          [-114.44579, 37.6741],
          [-114.41796, 37.67728],
          [-114.39413, 37.70249],
          [-114.37028, 37.72769],
          [-114.34243, 37.73086],
          [-114.31857, 37.75605],
          [-114.29071, 37.75921],
          [-114.26683, 37.78439],
          [-114.23896, 37.78754],
          [-114.21506, 37.81271],
          [-114.19115, 37.83788],
          [-114.16723, 37.86304],
          [-114.13934, 37.86617],
          [-114.11144, 37.8693],
          [-114.08354, 37.87242],
          [-114.05564, 37.87554],
          [-114.02774, 37.87865],
          [-113.99984, 37.88176],
          [-113.968, 37.86284],
          [-113.9401, 37.86594],
          [-113.90828, 37.84701],
          [-113.90436, 37.82498],
          [-113.87256, 37.80603],
          [-113.84077, 37.78708],
          [-113.83687, 37.76504],
          [-113.8051, 37.74608],
          [-113.77334, 37.72712],
          [-113.74547, 37.73019],
          [-113.71759, 37.73325],
          [-113.68585, 37.71427],
          [-113.65798, 37.71732],
          [-113.63011, 37.72037],
          [-113.59839, 37.70137],
          [-113.57052, 37.70441],
          [-113.54265, 37.70745],
          [-113.5186, 37.73253],
          [-113.49072, 37.73556],
          [-113.46284, 37.73858],
          [-113.43496, 37.7416],
          [-113.40707, 37.74462],
          [-113.37538, 37.72558],
          [-113.3475, 37.72858],
          [-113.31962, 37.73158],
          [-113.28795, 37.71252],
          [-113.26006, 37.71551],
          [-113.22841, 37.69644],
          [-113.20053, 37.69942],
          [-113.16889, 37.68034],
          [-113.13726, 37.66125],
          [-113.10565, 37.64215],
          [-113.07778, 37.64511],
          [-113.04991, 37.64807],
          [-113.02204, 37.65102],
          [-112.99416, 37.65397],
          [-112.96629, 37.65692],
          [-112.93841, 37.65986],
          [-112.90683, 37.64072],
          [-112.87896, 37.64365],
          [-112.85478, 37.66865],
          [-112.82689, 37.67157],
          [-112.79533, 37.65241],
          [-112.76745, 37.65533],
          [-112.7359, 37.63616],
          [-112.70436, 37.61698],
          [-112.67649, 37.61988],
          [-112.64497, 37.60069],
          [-112.6171, 37.60358],
          [-112.58559, 37.58438],
          [-112.55409, 37.56518],
          [-112.52623, 37.56805],
          [-112.49836, 37.57092],
          [-112.4705, 37.57378],
          [-112.44263, 37.57664],
          [-112.41476, 37.5795],
          [-112.38689, 37.58235],
          [-112.36261, 37.60728],
          [-112.33473, 37.61012],
          [-112.30685, 37.61296],
          [-112.27896, 37.61579],
          [-112.25465, 37.64071],
          [-112.22676, 37.64353],
          [-112.20242, 37.66844],
          [-112.17808, 37.69333],
          [-112.15372, 37.71822],
          [-112.12581, 37.72103],
          [-112.10143, 37.74591],
          [-112.07351, 37.74871],
          [-112.04559, 37.7515],
          [-112.01414, 37.73221],
          [-112, 37.73362]
        ]
      }
    },
    {
      "type": "Feature",
      "id": "2026092412_f144_11000_001",
      "properties": {
        "product_id": "winter_storm_levels",
        "source_id": "nbm_snow_level",
        "parameter": "snow_level",
        "definition": "height of the wet-bulb 0.5 degree C surface",
        "level_ft_msl": 11000,
        "label": "11,000 ft MSL",
        "unit": "ft_msl",
        "cycle_time_utc": "2026-09-24T12:00:00Z",
        "valid_time_utc": "2026-09-30T12:00:00Z",
        "lead_hours": 144,
        "segment": 1,
        "length_m": 33673.7
      },
      "geometry": {
        "type": "LineString",
        "coordinates": [
          [-114.89419, 30.7233],
          [-114.87413, 30.74652],
          [-114.84798, 30.74984],
          [-114.82182, 30.75315],
          [-114.79481, 30.7359],
          [-114.79181, 30.73398],
          [-114.76482, 30.71672],
          [-114.76098, 30.69424],
          [-114.78105, 30.67103],
          [-114.80719, 30.66772],
          [-114.83418, 30.68498],
          [-114.83718, 30.68689],
          [-114.86418, 30.70414],
          [-114.86718, 30.70606],
          [-114.89419, 30.7233]
        ]
      }
    },
    {
      "type": "Feature",
      "id": "2026092412_f144_11000_002",
      "properties": {
        "product_id": "winter_storm_levels",
        "source_id": "nbm_snow_level",
        "parameter": "snow_level",
        "definition": "height of the wet-bulb 0.5 degree C surface",
        "level_ft_msl": 11000,
        "label": "11,000 ft MSL",
        "unit": "ft_msl",
        "cycle_time_utc": "2026-09-24T12:00:00Z",
        "valid_time_utc": "2026-09-30T12:00:00Z",
        "lead_hours": 144,
        "segment": 2,
        "length_m": 950031.6
      },
      "geometry": {
        "type": "LineString",
        "coordinates": [
          [-120.45201, 30.2576],
          [-120.45139, 30.25838],
          [-120.42553, 30.26263],
          [-120.39966, 30.26686],
          [-120.39756, 30.26952],
          [-120.37869, 30.29344],
          [-120.35281, 30.29767],
          [-120.32693, 30.3019],
          [-120.30105, 30.30612],
          [-120.27336, 30.2898],
          [-120.27028, 30.28799],
          [-120.26818, 30.29065],
          [-120.24928, 30.31455],
          [-120.22339, 30.31876],
          [-120.19751, 30.32296],
          [-120.17161, 30.32716],
          [-120.16951, 30.32982],
          [-120.15058, 30.35371],
          [-120.12468, 30.3579],
          [-120.09878, 30.36208],
          [-120.07288, 30.36627],
          [-120.04697, 30.37045],
          [-120.02107, 30.37462],
          [-119.99516, 30.37879],
          [-119.99305, 30.38144],
          [-119.97408, 30.40531],
          [-119.94816, 30.40947],
          [-119.94605, 30.41212],
          [-119.92706, 30.43598],
          [-119.90114, 30.44014],
          [-119.87521, 30.44429],
          [-119.84928, 30.44843],
          [-119.84717, 30.45108],
          [-119.82815, 30.47493],
          [-119.80221, 30.47907],
          [-119.77628, 30.4832],
          [-119.75033, 30.48733],
          [-119.72439, 30.49146],
          [-119.69674, 30.47504],
          [-119.69367, 30.47322],
          [-119.66773, 30.47733],
          [-119.64178, 30.48145],
          [-119.61584, 30.48555],
          [-119.5882, 30.46912],
          [-119.58513, 30.4673],
          [-119.55919, 30.47139],
          [-119.53156, 30.45495],
          [-119.52849, 30.45312],
          [-119.50255, 30.45721],
          [-119.47661, 30.4613],
          [-119.45066, 30.46538],
          [-119.42305, 30.44892],
          [-119.41999, 30.44709],
          [-119.39404, 30.45116],
          [-119.36809, 30.45522],
          [-119.34214, 30.45929],
          [-119.31619, 30.46334],
          [-119.29024, 30.4674],
          [-119.26429, 30.47145],
          [-119.2367, 30.45495],
          [-119.23364, 30.45312],
          [-119.20769, 30.45716],
          [-119.18173, 30.4612],
          [-119.15577, 30.46523],
          [-119.12821, 30.44871],
          [-119.12515, 30.44688],
          [-119.12302, 30.44952],
          [-119.10385, 30.47328],
          [-119.07789, 30.4773],
          [-119.05193, 30.48131],
          [-119.02437, 30.46478],
          [-119.02131, 30.46294],
          [-118.99535, 30.46695],
          [-118.96781, 30.45041],
          [-118.96475, 30.44857],
          [-118.93878, 30.45256],
          [-118.93665, 30.4552],
          [-118.94128, 30.47758],
          [-118.92208, 30.50132],
          [-118.91995, 30.50395],
          [-118.90073, 30.52768],
          [-118.8986, 30.53032],
          [-118.87938, 30.55405],
          [-118.85339, 30.55803],
          [-118.8274, 30.562],
          [-118.79986, 30.54544],
          [-118.79525, 30.52305],
          [-118.79219, 30.52121],
          [-118.76466, 30.50464],
          [-118.76006, 30.48225],
          [-118.75546, 30.45987],
          [-118.75087, 30.43748],
          [-118.74781, 30.43564],
          [-118.72184, 30.4396],
          [-118.69588, 30.44355],
          [-118.66991, 30.44751],
          [-118.66777, 30.45014],
          [-118.67235, 30.47253],
          [-118.67693, 30.49492],
          [-118.68152, 30.5173],
          [-118.6861, 30.53969],
          [-118.66684, 30.56339],
          [-118.6647, 30.56602],
          [-118.64542, 30.58972],
          [-118.61942, 30.59366],
          [-118.5919, 30.57706],
          [-118.58884, 30.57521],
          [-118.56133, 30.5586],
          [-118.55676, 30.53622],
          [-118.55371, 30.53437],
          [-118.52621, 30.51775],
          [-118.52316, 30.51591],
          [-118.49717, 30.51983],
          [-118.47117, 30.52375],
          [-118.44518, 30.52766],
          [-118.41918, 30.53157],
          [-118.41704, 30.5342],
          [-118.42157, 30.55659],
          [-118.40225, 30.58026],
          [-118.4001, 30.58289],
          [-118.38077, 30.60655],
          [-118.35475, 30.61045],
          [-118.32727, 30.5938],
          [-118.32275, 30.57141],
          [-118.31969, 30.56956],
          [-118.29222, 30.5529],
          [-118.28917, 30.55105],
          [-118.26316, 30.55493],
          [-118.23716, 30.55881],
          [-118.21114, 30.56269],
          [-118.18513, 30.56656],
          [-118.15912, 30.57042],
          [-118.1331, 30.57429],
          [-118.13095, 30.57691],
          [-118.11156, 30.60054],
          [-118.10941, 30.60317],
          [-118.09002, 30.6268],
          [-118.08786, 30.62942],
          [-118.06846, 30.65305],
          [-118.04242, 30.65689],
          [-118.04026, 30.65952],
          [-118.02085, 30.68313],
          [-117.9948, 30.68697],
          [-117.99264, 30.68959],
          [-117.97321, 30.7132],
          [-117.94716, 30.71703],
          [-117.945, 30.71966],
          [-117.92555, 30.74326],
          [-117.89949, 30.74708],
          [-117.87342, 30.7509],
          [-117.87126, 30.75352],
          [-117.85179, 30.77711],
          [-117.82572, 30.78092],
          [-117.79965, 30.78473],
          [-117.79748, 30.78735],
          [-117.77799, 30.81093],
          [-117.75191, 30.81473],
          [-117.72583, 30.81852],
          [-117.69974, 30.82231],
          [-117.67366, 30.82609],
          [-117.64757, 30.82987],
          [-117.62148, 30.83365],
          [-117.59404, 30.81688],
          [-117.591, 30.81501],
          [-117.56491, 30.81878],
          [-117.53749, 30.802],
          [-117.53444, 30.80013],
          [-117.50835, 30.80389],
          [-117.48094, 30.7871],
          [-117.4779, 30.78523],
          [-117.45181, 30.78898],
          [-117.42572, 30.79273],
          [-117.39833, 30.77592],
          [-117.39528, 30.77405],
          [-117.3692, 30.77779],
          [-117.34311, 30.78152],
          [-117.31702, 30.78524],
          [-117.29093, 30.78896],
          [-117.26484, 30.79268],
          [-117.23874, 30.79639],
          [-117.21137, 30.77956],
          [-117.20833, 30.77768],
          [-117.18224, 30.78139],
          [-117.15488, 30.76454],
          [-117.15184, 30.76267],
          [-117.12575, 30.76636],
          [-117.09966, 30.77005],
          [-117.07356, 30.77374],
          [-117.04747, 30.77742],
          [-117.02137, 30.78109],
          [-116.99403, 30.76422],
          [-116.991, 30.76234],
          [-116.9649, 30.76601],
          [-116.9388, 30.76967],
          [-116.9127, 30.77333],
          [-116.8866, 30.77699],
          [-116.8605, 30.78064],
          [-116.83439, 30.78428],
          [-116.80709, 30.76737],
          [-116.80405, 30.7655],
          [-116.77795, 30.76913],
          [-116.75185, 30.77276],
          [-116.72455, 30.75584],
          [-116.72152, 30.75396],
          [-116.69542, 30.75758],
          [-116.66931, 30.7612],
          [-116.64321, 30.76482],
          [-116.6171, 30.76843],
          [-116.59099, 30.77203],
          [-116.56488, 30.77563],
          [-116.53877, 30.77923],
          [-116.51265, 30.78282],
          [-116.48654, 30.78641],
          [-116.46042, 30.78999],
          [-116.4343, 30.79357],
          [-116.40818, 30.79715],
          [-116.38206, 30.80072],
          [-116.35593, 30.80429],
          [-116.32981, 30.80785],
          [-116.30368, 30.8114],
          [-116.27755, 30.81496],
          [-116.25142, 30.81851],
          [-116.22529, 30.82205],
          [-116.19915, 30.82559],
          [-116.17302, 30.82913],
          [-116.1458, 30.81211],
          [-116.14277, 30.81022],
          [-116.11664, 30.81374],
          [-116.09051, 30.81726],
          [-116.06437, 30.82078],
          [-116.03823, 30.8243],
          [-116.01209, 30.82781],
          [-116.00989, 30.8304],
          [-115.99003, 30.85376],
          [-115.96388, 30.85726],
          [-115.96168, 30.85985],
          [-115.9418, 30.8832],
          [-115.91565, 30.8867],
          [-115.88949, 30.89018],
          [-115.88728, 30.89278],
          [-115.86739, 30.91612],
          [-115.84123, 30.9196],
          [-115.83901, 30.92219],
          [-115.81911, 30.94552],
          [-115.79294, 30.94899],
          [-115.79072, 30.95158],
          [-115.7708, 30.97491],
          [-115.74462, 30.97837],
          [-115.74241, 30.98096],
          [-115.72247, 31.00428],
          [-115.69628, 31.00774],
          [-115.67009, 31.01119],
          [-115.66787, 31.01378],
          [-115.64792, 31.03708],
          [-115.62172, 31.04053],
          [-115.59552, 31.04396],
          [-115.56932, 31.0474],
          [-115.54213, 31.03028],
          [-115.53911, 31.02838],
          [-115.51291, 31.0318],
          [-115.48574, 31.01468],
          [-115.48272, 31.01277],
          [-115.45652, 31.01619],
          [-115.42936, 30.99905],
          [-115.42634, 30.99715],
          [-115.39919, 30.98],
          [-115.39618, 30.9781],
          [-115.36903, 30.96095],
          [-115.36602, 30.95904],
          [-115.33888, 30.94189],
          [-115.33493, 30.91943],
          [-115.33191, 30.91752],
          [-115.30479, 30.90036],
          [-115.30084, 30.87789],
          [-115.29783, 30.87599],
          [-115.27073, 30.85882],
          [-115.26679, 30.83635],
          [-115.26378, 30.83444],
          [-115.23669, 30.81727],
          [-115.23275, 30.7948],
          [-115.22974, 30.79289],
          [-115.20267, 30.77571],
          [-115.19874, 30.75324],
          [-115.19574, 30.75133],
          [-115.16868, 30.73413],
          [-115.16476, 30.71166],
          [-115.16175, 30.70975],
          [-115.13471, 30.69255],
          [-115.1317, 30.69064],
          [-115.10467, 30.67344],
          [-115.10166, 30.67153],
          [-115.07553, 30.67488],
          [-115.0485, 30.65767],
          [-115.0455, 30.65575],
          [-115.01849, 30.63853],
          [-115.01549, 30.63662],
          [-114.98848, 30.61939],
          [-114.98548, 30.61748],
          [-114.95935, 30.62082],
          [-114.93323, 30.62415],
          [-114.931, 30.62673],
          [-114.91097, 30.64996],
          [-114.88397, 30.63271],
          [-114.88097, 30.6308],
          [-114.85484, 30.63412],
          [-114.82786, 30.61686],
          [-114.82486, 30.61495],
          [-114.79873, 30.61826],
          [-114.77176, 30.60099],
          [-114.76877, 30.59907],
          [-114.74264, 30.60237],
          [-114.71651, 30.60567],
          [-114.69038, 30.60896],
          [-114.66425, 30.61225],
          [-114.63812, 30.61553],
          [-114.61117, 30.59824],
          [-114.60818, 30.59632],
          [-114.58205, 30.59959],
          [-114.55592, 30.60286],
          [-114.52979, 30.60613],
          [-114.50365, 30.60939],
          [-114.47752, 30.61264],
          [-114.45138, 30.6159],
          [-114.42524, 30.61914],
          [-114.3991, 30.62239],
          [-114.37219, 30.60506],
          [-114.3692, 30.60313],
          [-114.34306, 30.60636],
          [-114.31692, 30.60959],
          [-114.29078, 30.61282],
          [-114.26463, 30.61604],
          [-114.23849, 30.61926],
          [-114.21235, 30.62247],
          [-114.1862, 30.62568],
          [-114.16005, 30.62888],
          [-114.1339, 30.63208],
          [-114.10775, 30.63527],
          [-114.08088, 30.61789],
          [-114.07789, 30.61596],
          [-114.05174, 30.61915],
          [-114.02559, 30.62233],
          [-113.99944, 30.6255],
          [-113.97329, 30.62868],
          [-113.94644, 30.61127],
          [-113.94345, 30.60934],
          [-113.9173, 30.6125],
          [-113.89115, 30.61566],
          [-113.86499, 30.61882],
          [-113.83884, 30.62197],
          [-113.81268, 30.62511],
          [-113.78652, 30.62825],
          [-113.76036, 30.63139],
          [-113.7342, 30.63452],
          [-113.70804, 30.63765],
          [-113.68188, 30.64078],
          [-113.65571, 30.64389],
          [-113.6289, 30.62644],
          [-113.62593, 30.6245],
          [-113.59976, 30.62761],
          [-113.5736, 30.63071],
          [-113.54743, 30.63382],
          [-113.52126, 30.63691],
          [-113.4951, 30.64001],
          [-113.46892, 30.64309],
          [-113.44275, 30.64618],
          [-113.41658, 30.64926],
          [-113.39041, 30.65233],
          [-113.36423, 30.65541],
          [-113.33805, 30.65847],
          [-113.31129, 30.64096],
          [-113.30832, 30.63902],
          [-113.28214, 30.64207],
          [-113.25597, 30.64513],
          [-113.22979, 30.64818],
          [-113.20361, 30.65122],
          [-113.17743, 30.65426],
          [-113.15125, 30.6573],
          [-113.12506, 30.66033],
          [-113.09833, 30.64278],
          [-113.09536, 30.64083],
          [-113.06918, 30.64385],
          [-113.043, 30.64687],
          [-113.01682, 30.64988],
          [-112.99063, 30.65289],
          [-112.96445, 30.6559],
          [-112.93826, 30.6589],
          [-112.91207, 30.66189],
          [-112.88588, 30.66489],
          [-112.85969, 30.66787],
          [-112.83349, 30.67086],
          [-112.8073, 30.67383],
          [-112.7811, 30.67681],
          [-112.75491, 30.67978],
          [-112.72871, 30.68274],
          [-112.70251, 30.68571],
          [-112.67631, 30.68866],
          [-112.67403, 30.69121],
          [-112.65354, 30.71415],
          [-112.62733, 30.71709],
          [-112.60112, 30.72004],
          [-112.57491, 30.72298],
          [-112.5487, 30.72591],
          [-112.52248, 30.72884],
          [-112.5202, 30.73139],
          [-112.49967, 30.75431],
          [-112.47345, 30.75723],
          [-112.44722, 30.76015],
          [-112.44494, 30.76269],
          [-112.42439, 30.78559],
          [-112.39816, 30.7885],
          [-112.37193, 30.79141],
          [-112.36964, 30.79395],
          [-112.34907, 30.81685],
          [-112.32283, 30.81974],
          [-112.32054, 30.82229],
          [-112.29996, 30.84517],
          [-112.27371, 30.84806],
          [-112.27142, 30.8506],
          [-112.25082, 30.87348],
          [-112.22456, 30.87636],
          [-112.22227, 30.8789],
          [-112.20166, 30.90177],
          [-112.1754, 30.90464],
          [-112.14913, 30.90751],
          [-112.14684, 30.91005],
          [-112.1262, 30.93291],
          [-112.09993, 30.93577],
          [-112.07366, 30.93862],
          [-112.04739, 30.94147],
          [-112.02111, 30.94432],
          [-112, 30.9466]
        ]
      }
    }
  ]
}

