{
  "type": "FeatureCollection",
  "contract_version": "1.0.0",
  "bbox": [-130, 30.22366, -112, 44.5],
  "features": [
    {
      "type": "Feature",
      "id": "2026092706_f240_09000_001",
      "properties": {
        "product_id": "winter_storm_levels",
        "source_id": "nbm_snow_level",
        "parameter": "snow_level",
        "definition": "height of the wet-bulb 0.5 degree C surface",
        "level_ft_msl": 9000,
        "label": "9,000 ft MSL",
        "unit": "ft_msl",
        "cycle_time_utc": "2026-09-27T06:00:00Z",
        "valid_time_utc": "2026-10-07T06:00:00Z",
        "lead_hours": 240,
        "segment": 1,
        "length_m": 140578.5
      },
      "geometry": {
        "type": "LineString",
        "coordinates": [
          [-130, 44.05174],
          [-129.98914, 44.04719],
          [-129.97529, 44.06428],
          [-129.96783, 44.07348],
          [-129.93888, 44.07897],
          [-129.90992, 44.08445],
          [-129.89606, 44.10153],
          [-129.88859, 44.11072],
          [-129.87471, 44.1278],
          [-129.86724, 44.13699],
          [-129.85336, 44.15406],
          [-129.84588, 44.16325],
          [-129.81689, 44.16871],
          [-129.803, 44.18577],
          [-129.79551, 44.19496],
          [-129.76652, 44.20041],
          [-129.75261, 44.21747],
          [-129.74512, 44.22665],
          [-129.71611, 44.2321],
          [-129.70218, 44.24914],
          [-129.69468, 44.25832],
          [-129.68075, 44.27537],
          [-129.67325, 44.28454],
          [-129.64422, 44.28997],
          [-129.63028, 44.30701],
          [-129.62277, 44.31618],
          [-129.60995, 44.31081],
          [-129.58615, 44.30082],
          [-129.55711, 44.30624],
          [-129.52806, 44.31165],
          [-129.49902, 44.31706],
          [-129.48504, 44.33408],
          [-129.47752, 44.34325],
          [-129.44846, 44.34865],
          [-129.41939, 44.35404],
          [-129.39033, 44.35943],
          [-129.36126, 44.36482],
          [-129.33219, 44.3702],
          [-129.31938, 44.36481],
          [-129.29559, 44.35479],
          [-129.26652, 44.36016],
          [-129.25372, 44.35476],
          [-129.22994, 44.34474],
          [-129.20087, 44.3501],
          [-129.18807, 44.3447],
          [-129.1643, 44.33466],
          [-129.13523, 44.34002],
          [-129.10615, 44.34536],
          [-129.07707, 44.35071],
          [-129.06302, 44.36769],
          [-129.05545, 44.37684],
          [-129.02636, 44.38217],
          [-129.01356, 44.37676],
          [-128.98981, 44.3667],
          [-128.96072, 44.37203],
          [-128.93162, 44.37735],
          [-128.90252, 44.38266],
          [-128.87341, 44.38797],
          [-128.84431, 44.39328],
          [-128.8152, 44.39858],
          [-128.80109, 44.41554],
          [-128.7935, 44.42467],
          [-128.76438, 44.42996],
          [-128.73525, 44.43525],
          [-128.72113, 44.4522],
          [-128.71352, 44.46133],
          [-128.68438, 44.46661],
          [-128.65524, 44.47188],
          [-128.6261, 44.47715],
          [-128.59695, 44.48241],
          [-128.5828, 44.49935],
          [-128.58225, 44.5]
        ]
      }
    },
    {
      "type": "Feature",
      "id": "2026092706_f240_10000_001",
      "properties": {
        "product_id": "winter_storm_levels",
        "source_id": "nbm_snow_level",
        "parameter": "snow_level",
        "definition": "height of the wet-bulb 0.5 degree C surface",
        "level_ft_msl": 10000,
        "label": "10,000 ft MSL",
        "unit": "ft_msl",
        "cycle_time_utc": "2026-09-27T06:00:00Z",
        "valid_time_utc": "2026-10-07T06:00:00Z",
        "lead_hours": 240,
        "segment": 1,
        "length_m": 1451242.3
      },
      "geometry": {
        "type": "LineString",
        "coordinates": [
          [-130, 34.44474],
          [-129.99681, 34.44926],
          [-129.99195, 34.45614],
          [-129.97737, 34.47678],
          [-129.97251, 34.48366],
          [-129.95792, 34.5043],
          [-129.96489, 34.52607],
          [-129.96003, 34.53295],
          [-129.9336, 34.53869],
          [-129.91899, 34.55932],
          [-129.91413, 34.56619],
          [-129.89952, 34.58682],
          [-129.89465, 34.5937],
          [-129.8682, 34.59943],
          [-129.84175, 34.60515],
          [-129.8153, 34.61087],
          [-129.78885, 34.61658],
          [-129.76239, 34.62229],
          [-129.73593, 34.628],
          [-129.70947, 34.6337],
          [-129.683, 34.6394],
          [-129.66834, 34.66],
          [-129.66345, 34.66687],
          [-129.63698, 34.67256],
          [-129.6105, 34.67824],
          [-129.59582, 34.69884],
          [-129.59092, 34.7057],
          [-129.56443, 34.71138],
          [-129.53794, 34.71705],
          [-129.51145, 34.72272],
          [-129.48495, 34.72838],
          [-129.45845, 34.73404],
          [-129.43195, 34.7397],
          [-129.41723, 34.76027],
          [-129.41232, 34.76713],
          [-129.38581, 34.77278],
          [-129.3593, 34.77842],
          [-129.33278, 34.78406],
          [-129.30626, 34.78969],
          [-129.29791, 34.78566],
          [-129.27288, 34.77354],
          [-129.24636, 34.77917],
          [-129.21984, 34.78479],
          [-129.19331, 34.7904],
          [-129.16678, 34.79601],
          [-129.14025, 34.80162],
          [-129.12547, 34.82217],
          [-129.12054, 34.82901],
          [-129.094, 34.83461],
          [-129.06746, 34.84021],
          [-129.05265, 34.86074],
          [-129.04772, 34.86759],
          [-129.02116, 34.87317],
          [-128.99461, 34.87876],
          [-128.97979, 34.89928],
          [-128.97485, 34.90612],
          [-128.94828, 34.9117],
          [-128.93345, 34.93221],
          [-128.9285, 34.93905],
          [-128.90192, 34.94462],
          [-128.88708, 34.96513],
          [-128.88213, 34.97197],
          [-128.85554, 34.97753],
          [-128.84068, 34.99803],
          [-128.83573, 35.00487],
          [-128.82086, 35.02537],
          [-128.81591, 35.0322],
          [-128.80103, 35.0527],
          [-128.79607, 35.05954],
          [-128.78119, 35.08003],
          [-128.77623, 35.08686],
          [-128.74961, 35.0924],
          [-128.73472, 35.11289],
          [-128.72975, 35.11972],
          [-128.71485, 35.1402],
          [-128.72162, 35.16198],
          [-128.71665, 35.16881],
          [-128.70174, 35.18929],
          [-128.69677, 35.19612],
          [-128.68185, 35.2166],
          [-128.68861, 35.23837],
          [-128.69538, 35.26015],
          [-128.6904, 35.26697],
          [-128.67548, 35.28744],
          [-128.68224, 35.30921],
          [-128.67726, 35.31604],
          [-128.66233, 35.3365],
          [-128.66909, 35.35827],
          [-128.67586, 35.38004],
          [-128.67088, 35.38686],
          [-128.65593, 35.40732],
          [-128.6627, 35.42908],
          [-128.65772, 35.4359],
          [-128.64276, 35.45636],
          [-128.64953, 35.47812],
          [-128.64455, 35.48494],
          [-128.62958, 35.50539],
          [-128.62459, 35.51221],
          [-128.60962, 35.53266],
          [-128.60462, 35.53947],
          [-128.58964, 35.55992],
          [-128.59641, 35.58167],
          [-128.59141, 35.58849],
          [-128.57642, 35.60893],
          [-128.58319, 35.63068],
          [-128.57819, 35.63749],
          [-128.56319, 35.65793],
          [-128.56996, 35.67968],
          [-128.56496, 35.68649],
          [-128.54995, 35.70692],
          [-128.55672, 35.72866],
          [-128.55171, 35.73547],
          [-128.5367, 35.7559],
          [-128.53169, 35.76271],
          [-128.51667, 35.78313],
          [-128.51166, 35.78994],
          [-128.49662, 35.81036],
          [-128.49161, 35.81716],
          [-128.47657, 35.83758],
          [-128.47156, 35.84438],
          [-128.45651, 35.8648],
          [-128.45149, 35.8716],
          [-128.42467, 35.87707],
          [-128.39784, 35.88254],
          [-128.38277, 35.90294],
          [-128.37775, 35.90974],
          [-128.35091, 35.9152],
          [-128.33583, 35.9356],
          [-128.3308, 35.9424],
          [-128.31572, 35.96279],
          [-128.31069, 35.96959],
          [-128.28383, 35.97503],
          [-128.26873, 35.99542],
          [-128.26369, 36.00221],
          [-128.24859, 36.0226],
          [-128.24355, 36.02939],
          [-128.22843, 36.04977],
          [-128.22339, 36.05656],
          [-128.20827, 36.07693],
          [-128.20323, 36.08372],
          [-128.1881, 36.1041],
          [-128.18306, 36.11088],
          [-128.15616, 36.11631],
          [-128.14101, 36.13667],
          [-128.13597, 36.14346],
          [-128.12081, 36.16382],
          [-128.11576, 36.17061],
          [-128.10061, 36.19096],
          [-128.10731, 36.21269],
          [-128.10226, 36.21947],
          [-128.08709, 36.23982],
          [-128.0938, 36.26155],
          [-128.08874, 36.26833],
          [-128.0618, 36.27374],
          [-128.04662, 36.29408],
          [-128.04156, 36.30086],
          [-128.02637, 36.3212],
          [-128.0213, 36.32798],
          [-128.0061, 36.34831],
          [-128.00104, 36.35509],
          [-127.97407, 36.36048],
          [-127.95886, 36.38081],
          [-127.95379, 36.38759],
          [-127.92681, 36.39297],
          [-127.89983, 36.39835],
          [-127.8846, 36.41867],
          [-127.87952, 36.42544],
          [-127.85253, 36.43081],
          [-127.83728, 36.45113],
          [-127.8322, 36.4579],
          [-127.81695, 36.4782],
          [-127.82362, 36.49992],
          [-127.81854, 36.50669],
          [-127.80328, 36.52699],
          [-127.79819, 36.53376],
          [-127.78292, 36.55406],
          [-127.77783, 36.56083],
          [-127.76255, 36.58112],
          [-127.75746, 36.58789],
          [-127.74218, 36.60818],
          [-127.73708, 36.61494],
          [-127.72179, 36.63523],
          [-127.71669, 36.64199],
          [-127.7014, 36.66228],
          [-127.70805, 36.68398],
          [-127.70295, 36.69074],
          [-127.68764, 36.71102],
          [-127.6943, 36.73272],
          [-127.6892, 36.73948],
          [-127.67388, 36.75975],
          [-127.68054, 36.78145],
          [-127.67543, 36.78821],
          [-127.6601, 36.80848],
          [-127.66676, 36.83017],
          [-127.66165, 36.83693],
          [-127.64632, 36.85719],
          [-127.65297, 36.87888],
          [-127.65963, 36.90057],
          [-127.6663, 36.92225],
          [-127.66118, 36.929],
          [-127.64583, 36.94926],
          [-127.6525, 36.97094],
          [-127.65916, 36.99262],
          [-127.66583, 37.0143],
          [-127.66071, 37.02105],
          [-127.64535, 37.0413],
          [-127.64023, 37.04805],
          [-127.62486, 37.0683],
          [-127.61974, 37.07504],
          [-127.60436, 37.09529],
          [-127.59923, 37.10203],
          [-127.58385, 37.12227],
          [-127.59051, 37.14394],
          [-127.58538, 37.15068],
          [-127.56998, 37.17092],
          [-127.57665, 37.19258],
          [-127.57151, 37.19933],
          [-127.55611, 37.21955],
          [-127.55097, 37.2263],
          [-127.53556, 37.24652],
          [-127.54222, 37.26818],
          [-127.53708, 37.27492],
          [-127.52166, 37.29514],
          [-127.52832, 37.31679],
          [-127.52318, 37.32353],
          [-127.50775, 37.34375],
          [-127.51441, 37.3654],
          [-127.52107, 37.38705],
          [-127.51592, 37.39379],
          [-127.50048, 37.41399],
          [-127.50714, 37.43564],
          [-127.50199, 37.44237],
          [-127.48654, 37.46258],
          [-127.48139, 37.46931],
          [-127.46593, 37.48951],
          [-127.46078, 37.49624],
          [-127.44531, 37.51643],
          [-127.45197, 37.53807],
          [-127.44681, 37.5448],
          [-127.43133, 37.56499],
          [-127.43799, 37.58663],
          [-127.44465, 37.60826],
          [-127.43949, 37.61499],
          [-127.424, 37.63517],
          [-127.43066, 37.6568],
          [-127.4255, 37.66353],
          [-127.41, 37.6837],
          [-127.41666, 37.70533],
          [-127.41149, 37.71205],
          [-127.39599, 37.73222],
          [-127.39082, 37.73895],
          [-127.3753, 37.75911],
          [-127.38196, 37.78073],
          [-127.37679, 37.78746],
          [-127.36126, 37.80762],
          [-127.35608, 37.81434],
          [-127.34055, 37.83449],
          [-127.34721, 37.85611],
          [-127.34203, 37.86283],
          [-127.32649, 37.88298],
          [-127.3213, 37.88969],
          [-127.30575, 37.90984],
          [-127.30057, 37.91656],
          [-127.28501, 37.9367],
          [-127.27982, 37.94341],
          [-127.26426, 37.96355],
          [-127.27091, 37.98516],
          [-127.26572, 37.99187],
          [-127.25014, 38.01201],
          [-127.24495, 38.01872],
          [-127.22936, 38.03885],
          [-127.22417, 38.04555],
          [-127.20857, 38.06568],
          [-127.21522, 38.08728],
          [-127.21002, 38.09399],
          [-127.19442, 38.11411],
          [-127.18922, 38.12081],
          [-127.17361, 38.14093],
          [-127.1684, 38.14763],
          [-127.15279, 38.16774],
          [-127.14758, 38.17445],
          [-127.13195, 38.19455],
          [-127.12674, 38.20125],
          [-127.11111, 38.22136],
          [-127.1059, 38.22806],
          [-127.09026, 38.24816],
          [-127.08504, 38.25486],
          [-127.06939, 38.27495],
          [-127.07602, 38.29653],
          [-127.07081, 38.30323],
          [-127.05515, 38.32332],
          [-127.04993, 38.33002],
          [-127.03426, 38.3501],
          [-127.02904, 38.35679],
          [-127.01336, 38.37688],
          [-127.00814, 38.38357],
          [-126.99245, 38.40364],
          [-126.98723, 38.41034],
          [-126.97154, 38.43041],
          [-126.9663, 38.4371],
          [-126.95061, 38.45716],
          [-126.95722, 38.47874],
          [-126.95199, 38.48542],
          [-126.93628, 38.50549],
          [-126.9429, 38.52706],
          [-126.93766, 38.53374],
          [-126.92194, 38.5538],
          [-126.92856, 38.57536],
          [-126.93518, 38.59692],
          [-126.92994, 38.60361],
          [-126.91421, 38.62366],
          [-126.92083, 38.64522],
          [-126.91558, 38.6519],
          [-126.89984, 38.67194],
          [-126.90646, 38.69349],
          [-126.90122, 38.70017],
          [-126.88547, 38.72021],
          [-126.89209, 38.74176],
          [-126.89871, 38.76331],
          [-126.89346, 38.76999],
          [-126.8777, 38.79002],
          [-126.87244, 38.79669],
          [-126.85667, 38.81672],
          [-126.85141, 38.8234],
          [-126.83564, 38.84342],
          [-126.83038, 38.85009],
          [-126.80272, 38.85524],
          [-126.78693, 38.87526],
          [-126.78166, 38.88193],
          [-126.76586, 38.90194],
          [-126.76059, 38.90861],
          [-126.74479, 38.92861],
          [-126.73952, 38.93528],
          [-126.7237, 38.95528],
          [-126.7303, 38.97681],
          [-126.72503, 38.98348],
          [-126.70921, 39.00348],
          [-126.70393, 39.01014],
          [-126.67622, 39.01527],
          [-126.66038, 39.03526],
          [-126.6551, 39.04192],
          [-126.63925, 39.0619],
          [-126.63397, 39.06856],
          [-126.60624, 39.07368],
          [-126.57851, 39.07878],
          [-126.55078, 39.08389],
          [-126.53491, 39.10386],
          [-126.52962, 39.11052],
          [-126.50187, 39.11561],
          [-126.47413, 39.1207],
          [-126.44638, 39.12579],
          [-126.43048, 39.14575],
          [-126.42518, 39.1524],
          [-126.39742, 39.15748],
          [-126.36966, 39.16255],
          [-126.34189, 39.16762],
          [-126.31413, 39.17269],
          [-126.29819, 39.19263],
          [-126.29288, 39.19927],
          [-126.2651, 39.20433],
          [-126.24916, 39.22426],
          [-126.24384, 39.23091],
          [-126.22789, 39.25084],
          [-126.22257, 39.25748],
          [-126.20661, 39.2774],
          [-126.20129, 39.28404],
          [-126.18532, 39.30396],
          [-126.17999, 39.3106],
          [-126.16401, 39.33052],
          [-126.15869, 39.33716],
          [-126.1427, 39.35707],
          [-126.13737, 39.3637],
          [-126.12138, 39.38361],
          [-126.12788, 39.40512],
          [-126.12255, 39.41176],
          [-126.09471, 39.41678],
          [-126.07869, 39.43668],
          [-126.07336, 39.44331],
          [-126.0455, 39.44833],
          [-126.02948, 39.46822],
          [-126.02414, 39.47485],
          [-125.99627, 39.47985],
          [-125.96841, 39.48486],
          [-125.95236, 39.50474],
          [-125.94701, 39.51136],
          [-125.93096, 39.53124],
          [-125.92561, 39.53786],
          [-125.90954, 39.55773],
          [-125.90419, 39.56435],
          [-125.8763, 39.56934],
          [-125.8484, 39.57432],
          [-125.8205, 39.5793],
          [-125.80441, 39.59915],
          [-125.79905, 39.60577],
          [-125.77114, 39.61074],
          [-125.75504, 39.63059],
          [-125.74967, 39.63721],
          [-125.72175, 39.64217],
          [-125.69383, 39.64712],
          [-125.6659, 39.65207],
          [-125.64977, 39.67191],
          [-125.6444, 39.67852],
          [-125.61646, 39.68346],
          [-125.58852, 39.6884],
          [-125.56058, 39.69333],
          [-125.53264, 39.69826],
          [-125.51647, 39.71808],
          [-125.51109, 39.72468],
          [-125.48313, 39.7296],
          [-125.46696, 39.74942],
          [-125.46156, 39.75602],
          [-125.44538, 39.77583],
          [-125.43999, 39.78243],
          [-125.42379, 39.80223],
          [-125.4184, 39.80883],
          [-125.39041, 39.81373],
          [-125.37421, 39.83353],
          [-125.3688, 39.84013],
          [-125.34081, 39.84502],
          [-125.31282, 39.84991],
          [-125.28482, 39.85479],
          [-125.25682, 39.85968],
          [-125.24058, 39.87945],
          [-125.23517, 39.88605],
          [-125.20716, 39.89092],
          [-125.1909, 39.91069],
          [-125.18548, 39.91728],
          [-125.15746, 39.92214],
          [-125.1412, 39.9419],
          [-125.13577, 39.94849],
          [-125.10774, 39.95334],
          [-125.0797, 39.9582],
          [-125.05167, 39.96304],
          [-125.02362, 39.96788],
          [-125.00733, 39.98763],
          [-125.00189, 39.99421],
          [-124.98558, 40.01395],
          [-124.99189, 40.03544],
          [-124.98646, 40.04202],
          [-124.97014, 40.06175],
          [-124.97645, 40.08323],
          [-124.97101, 40.08981],
          [-124.95468, 40.10954],
          [-124.96099, 40.13102],
          [-124.95554, 40.13759],
          [-124.9392, 40.15731],
          [-124.94551, 40.17879],
          [-124.94006, 40.18536],
          [-124.92371, 40.20508],
          [-124.93002, 40.22654],
          [-124.92457, 40.23312],
          [-124.90821, 40.25283],
          [-124.91452, 40.27429],
          [-124.90906, 40.28086],
          [-124.89269, 40.30056],
          [-124.899, 40.32202],
          [-124.89354, 40.32859],
          [-124.87716, 40.34829],
          [-124.88347, 40.36974],
          [-124.87801, 40.3763],
          [-124.86161, 40.396],
          [-124.85615, 40.40256],
          [-124.83975, 40.42225],
          [-124.83428, 40.42881],
          [-124.81787, 40.44849],
          [-124.8124, 40.45505],
          [-124.79599, 40.47473],
          [-124.80228, 40.49617],
          [-124.79681, 40.50273],
          [-124.78038, 40.5224],
          [-124.78668, 40.54384],
          [-124.7812, 40.55039],
          [-124.76477, 40.57006],
          [-124.75929, 40.57661],
          [-124.74284, 40.59627],
          [-124.74913, 40.6177],
          [-124.74365, 40.62425],
          [-124.72719, 40.64391],
          [-124.73349, 40.66533],
          [-124.728, 40.67188],
          [-124.71153, 40.69153],
          [-124.71783, 40.71295],
          [-124.71234, 40.7195],
          [-124.69586, 40.73914],
          [-124.70215, 40.76056],
          [-124.69666, 40.7671],
          [-124.68017, 40.78674],
          [-124.68646, 40.80815],
          [-124.68096, 40.81469],
          [-124.66447, 40.83432],
          [-124.65896, 40.84086],
          [-124.64246, 40.86049],
          [-124.64875, 40.88189],
          [-124.65504, 40.90329],
          [-124.64953, 40.90983],
          [-124.63301, 40.92945],
          [-124.63931, 40.95085],
          [-124.6456, 40.97224],
          [-124.64009, 40.97878],
          [-124.62356, 40.99838],
          [-124.62985, 41.01977],
          [-124.62434, 41.02631],
          [-124.6078, 41.04591],
          [-124.61409, 41.06729],
          [-124.60857, 41.07382],
          [-124.59202, 41.09342],
          [-124.5865, 41.09995],
          [-124.56993, 41.11954],
          [-124.56441, 41.12607],
          [-124.54784, 41.14565],
          [-124.55413, 41.16703],
          [-124.5486, 41.17355],
          [-124.53202, 41.19313],
          [-124.52649, 41.19966],
          [-124.5099, 41.21923],
          [-124.51618, 41.2406],
          [-124.51065, 41.24712],
          [-124.49405, 41.26669],
          [-124.50033, 41.28805],
          [-124.50662, 41.30941],
          [-124.50108, 41.31593],
          [-124.48447, 41.33549],
          [-124.49076, 41.35684],
          [-124.48521, 41.36336],
          [-124.46859, 41.38291],
          [-124.47488, 41.40426],
          [-124.48116, 41.42561],
          [-124.47562, 41.43213],
          [-124.45898, 41.45167],
          [-124.45343, 41.45818],
          [-124.43679, 41.47772],
          [-124.44307, 41.49906],
          [-124.43752, 41.50557],
          [-124.42086, 41.5251],
          [-124.41531, 41.53161],
          [-124.39864, 41.55114],
          [-124.40492, 41.57247],
          [-124.39936, 41.57898],
          [-124.38269, 41.5985],
          [-124.38897, 41.61983],
          [-124.38341, 41.62633],
          [-124.36672, 41.64585],
          [-124.373, 41.66717],
          [-124.36743, 41.67367],
          [-124.35073, 41.69318],
          [-124.34517, 41.69968],
          [-124.32846, 41.71918],
          [-124.32289, 41.72568],
          [-124.30617, 41.74518],
          [-124.31245, 41.76649],
          [-124.30687, 41.77299],
          [-124.29014, 41.79248],
          [-124.28457, 41.79898],
          [-124.26783, 41.81846],
          [-124.26225, 41.82495],
          [-124.24551, 41.84444],
          [-124.23992, 41.85093],
          [-124.22317, 41.8704],
          [-124.21758, 41.87689],
          [-124.20082, 41.89637],
          [-124.19523, 41.90285],
          [-124.17846, 41.92232],
          [-124.17287, 41.92881],
          [-124.15609, 41.94827],
          [-124.1505, 41.95475],
          [-124.13371, 41.97421],
          [-124.12811, 41.98069],
          [-124.11132, 42.00015],
          [-124.10572, 42.00663],
          [-124.08891, 42.02607],
          [-124.09516, 42.04736],
          [-124.10141, 42.06864],
          [-124.0958, 42.07512],
          [-124.07898, 42.09456],
          [-124.08523, 42.11583],
          [-124.09148, 42.13711],
          [-124.09774, 42.15838],
          [-124.10399, 42.17965],
          [-124.09838, 42.18612],
          [-124.08154, 42.20555],
          [-124.0878, 42.22681],
          [-124.09406, 42.24807],
          [-124.08844, 42.25454],
          [-124.07159, 42.27396],
          [-124.07785, 42.29522],
          [-124.08411, 42.31647],
          [-124.09037, 42.33772],
          [-124.08475, 42.34419],
          [-124.06789, 42.36359],
          [-124.07415, 42.38483],
          [-124.08041, 42.40608],
          [-124.07479, 42.41254],
          [-124.05791, 42.43194],
          [-124.06418, 42.45317],
          [-124.05855, 42.45964],
          [-124.04166, 42.47903],
          [-124.03602, 42.48549],
          [-124.01913, 42.50487],
          [-124.01349, 42.51133],
          [-123.99658, 42.53071],
          [-124.00284, 42.55194],
          [-123.9972, 42.5584],
          [-123.98028, 42.57777],
          [-123.97464, 42.58423],
          [-123.95772, 42.60359],
          [-123.96397, 42.62481],
          [-123.95833, 42.63126],
          [-123.94139, 42.65063],
          [-123.93574, 42.65708],
          [-123.91879, 42.67643],
          [-123.92504, 42.69764],
          [-123.91939, 42.70409],
          [-123.90243, 42.72344],
          [-123.90868, 42.74464],
          [-123.90303, 42.75109],
          [-123.88606, 42.77043],
          [-123.8804, 42.77688],
          [-123.86342, 42.79622],
          [-123.85776, 42.80266],
          [-123.84077, 42.82199],
          [-123.84701, 42.84318],
          [-123.84135, 42.84963],
          [-123.82435, 42.86895],
          [-123.81868, 42.87539],
          [-123.80168, 42.89471],
          [-123.79601, 42.90115],
          [-123.77899, 42.92046],
          [-123.77332, 42.9269],
          [-123.74438, 42.93146],
          [-123.72735, 42.95077],
          [-123.72167, 42.9572],
          [-123.70463, 42.9765],
          [-123.71086, 42.99768],
          [-123.70518, 43.00411],
          [-123.68812, 43.0234],
          [-123.69435, 43.04457],
          [-123.68866, 43.051],
          [-123.6716, 43.07029],
          [-123.66591, 43.07672],
          [-123.64884, 43.096],
          [-123.64314, 43.10242],
          [-123.62606, 43.1217],
          [-123.62037, 43.12812],
          [-123.60328, 43.14739],
          [-123.59758, 43.15382],
          [-123.58048, 43.17308],
          [-123.58669, 43.19424],
          [-123.58099, 43.20066],
          [-123.56388, 43.21991],
          [-123.55818, 43.22633],
          [-123.54106, 43.24559],
          [-123.53535, 43.252],
          [-123.51822, 43.27125],
          [-123.51251, 43.27767],
          [-123.49538, 43.29691],
          [-123.50157, 43.31805],
          [-123.49586, 43.32446],
          [-123.47871, 43.3437],
          [-123.48491, 43.36483],
          [-123.47919, 43.37124],
          [-123.46203, 43.39047],
          [-123.45631, 43.39688],
          [-123.43914, 43.4161],
          [-123.44534, 43.43723],
          [-123.43961, 43.44364],
          [-123.42243, 43.46285],
          [-123.4167, 43.46926],
          [-123.39952, 43.48847],
          [-123.40571, 43.50959],
          [-123.39997, 43.51599],
          [-123.38277, 43.53519],
          [-123.37704, 43.54159],
          [-123.35983, 43.56079],
          [-123.36602, 43.5819],
          [-123.36028, 43.5883],
          [-123.34306, 43.60749],
          [-123.33732, 43.61388],
          [-123.32009, 43.63307],
          [-123.32627, 43.65417],
          [-123.32052, 43.66056],
          [-123.30328, 43.67974],
          [-123.29753, 43.68613],
          [-123.26836, 43.6906],
          [-123.2511, 43.70977],
          [-123.24535, 43.71616],
          [-123.22808, 43.73532],
          [-123.22233, 43.74171],
          [-123.20505, 43.76087],
          [-123.19929, 43.76725],
          [-123.18201, 43.7864],
          [-123.17625, 43.79279],
          [-123.15895, 43.81194],
          [-123.15319, 43.81832],
          [-123.13589, 43.83746],
          [-123.13012, 43.84384],
          [-123.11281, 43.86298],
          [-123.10704, 43.86936],
          [-123.08972, 43.88849],
          [-123.08394, 43.89486],
          [-123.05469, 43.89929],
          [-123.03736, 43.91842],
          [-123.03158, 43.92479],
          [-123.01424, 43.94391],
          [-123.00845, 43.95028],
          [-122.97918, 43.95469],
          [-122.96183, 43.9738],
          [-122.95604, 43.98017],
          [-122.93867, 43.99928],
          [-122.93288, 44.00564],
          [-122.9155, 44.02474],
          [-122.92162, 44.0458],
          [-122.91582, 44.05217],
          [-122.88652, 44.05656],
          [-122.86913, 44.07565],
          [-122.86333, 44.08201],
          [-122.84592, 44.1011],
          [-122.84012, 44.10746],
          [-122.8227, 44.12653],
          [-122.8169, 44.13289],
          [-122.79947, 44.15196],
          [-122.79366, 44.15832],
          [-122.77623, 44.17739],
          [-122.77042, 44.18374],
          [-122.75298, 44.2028],
          [-122.74716, 44.20916],
          [-122.72971, 44.22821],
          [-122.72389, 44.23456],
          [-122.70643, 44.25361],
          [-122.70061, 44.25996],
          [-122.68314, 44.27901],
          [-122.67732, 44.28536],
          [-122.64794, 44.28971],
          [-122.63045, 44.30874],
          [-122.62462, 44.31509],
          [-122.60713, 44.33412],
          [-122.60129, 44.34046],
          [-122.58379, 44.35949],
          [-122.57796, 44.36583],
          [-122.54854, 44.37016],
          [-122.53102, 44.38918],
          [-122.52518, 44.39552],
          [-122.49576, 44.39985],
          [-122.47822, 44.41885],
          [-122.47238, 44.42519],
          [-122.45483, 44.44419],
          [-122.44899, 44.45052],
          [-122.43143, 44.46952],
          [-122.42558, 44.47585],
          [-122.39613, 44.48016],
          [-122.37856, 44.49915],
          [-122.37777, 44.5]
        ]
      }
    },
    {
      "type": "Feature",
      "id": "2026092706_f240_11000_001",
      "properties": {
        "product_id": "winter_storm_levels",
        "source_id": "nbm_snow_level",
        "parameter": "snow_level",
        "definition": "height of the wet-bulb 0.5 degree C surface",
        "level_ft_msl": 11000,
        "label": "11,000 ft MSL",
        "unit": "ft_msl",
        "cycle_time_utc": "2026-09-27T06:00:00Z",
        "valid_time_utc": "2026-10-07T06:00:00Z",
        "lead_hours": 240,
        "segment": 1,
        "length_m": 2180099.8
      },
      "geometry": {
        "type": "LineString",
        "coordinates": [
          [-124.18535, 30.22623],
          [-124.18338, 30.22888],
          [-124.18036, 30.23295],
          [-124.15465, 30.2378],
          [-124.13756, 30.26081],
          [-124.13454, 30.26487],
          [-124.11744, 30.28788],
          [-124.11443, 30.29194],
          [-124.09732, 30.31494],
          [-124.0943, 30.319],
          [-124.06856, 30.32384],
          [-124.05144, 30.34684],
          [-124.04842, 30.3509],
          [-124.0313, 30.37389],
          [-124.02827, 30.37795],
          [-124.01114, 30.40094],
          [-124.00812, 30.40499],
          [-123.99097, 30.42798],
          [-123.98795, 30.43204],
          [-123.96218, 30.43686],
          [-123.93641, 30.44168],
          [-123.91925, 30.46466],
          [-123.91622, 30.46871],
          [-123.89905, 30.49169],
          [-123.89602, 30.49574],
          [-123.87023, 30.50055],
          [-123.84444, 30.50535],
          [-123.81865, 30.51015],
          [-123.80146, 30.53311],
          [-123.79842, 30.53716],
          [-123.78122, 30.56012],
          [-123.77818, 30.56417],
          [-123.76097, 30.58713],
          [-123.75794, 30.59118],
          [-123.74072, 30.61413],
          [-123.74627, 30.63635],
          [-123.74323, 30.6404],
          [-123.72601, 30.66335],
          [-123.72296, 30.6674],
          [-123.69713, 30.67217],
          [-123.67989, 30.69512],
          [-123.67685, 30.69917],
          [-123.6596, 30.72211],
          [-123.65655, 30.72615],
          [-123.6307, 30.73092],
          [-123.61344, 30.75385],
          [-123.61039, 30.7579],
          [-123.58454, 30.76266],
          [-123.56726, 30.78558],
          [-123.56421, 30.78963],
          [-123.54692, 30.81255],
          [-123.54387, 30.8166],
          [-123.52658, 30.83952],
          [-123.52352, 30.84356],
          [-123.49765, 30.8483],
          [-123.48034, 30.87122],
          [-123.47728, 30.87526],
          [-123.4514, 30.88],
          [-123.42551, 30.88473],
          [-123.40818, 30.90763],
          [-123.40512, 30.91167],
          [-123.38778, 30.93457],
          [-123.38472, 30.93861],
          [-123.36738, 30.96151],
          [-123.36432, 30.96555],
          [-123.33841, 30.97027],
          [-123.31249, 30.97498],
          [-123.29513, 30.99787],
          [-123.29206, 31.0019],
          [-123.27469, 31.02479],
          [-123.27163, 31.02883],
          [-123.2457, 31.03353],
          [-123.21976, 31.03822],
          [-123.20237, 31.0611],
          [-123.1993, 31.06513],
          [-123.17336, 31.06982],
          [-123.15596, 31.09269],
          [-123.15289, 31.09672],
          [-123.12694, 31.1014],
          [-123.10952, 31.12427],
          [-123.10644, 31.1283],
          [-123.08048, 31.13297],
          [-123.05452, 31.13764],
          [-123.03708, 31.16049],
          [-123.03401, 31.16452],
          [-123.01656, 31.18737],
          [-123.01348, 31.1914],
          [-122.99602, 31.21425],
          [-122.99294, 31.21828],
          [-122.96696, 31.22293],
          [-122.94949, 31.24577],
          [-122.94641, 31.2498],
          [-122.92042, 31.25445],
          [-122.90293, 31.27728],
          [-122.89985, 31.28131],
          [-122.87385, 31.28594],
          [-122.85635, 31.30877],
          [-122.85326, 31.3128],
          [-122.82725, 31.31743],
          [-122.80974, 31.34025],
          [-122.80665, 31.34427],
          [-122.78063, 31.34889],
          [-122.75461, 31.35351],
          [-122.73708, 31.37632],
          [-122.73398, 31.38034],
          [-122.70795, 31.38495],
          [-122.68192, 31.38956],
          [-122.66437, 31.41236],
          [-122.66127, 31.41638],
          [-122.63523, 31.42098],
          [-122.61767, 31.44377],
          [-122.61457, 31.44779],
          [-122.597, 31.47058],
          [-122.59389, 31.4746],
          [-122.56784, 31.47919],
          [-122.55025, 31.50197],
          [-122.54715, 31.50599],
          [-122.52955, 31.52877],
          [-122.52645, 31.53279],
          [-122.50037, 31.53736],
          [-122.48277, 31.56014],
          [-122.47966, 31.56415],
          [-122.45358, 31.56872],
          [-122.43595, 31.59149],
          [-122.44131, 31.61371],
          [-122.4382, 31.61772],
          [-122.42056, 31.64049],
          [-122.41745, 31.6445],
          [-122.39135, 31.64906],
          [-122.3737, 31.67181],
          [-122.37059, 31.67583],
          [-122.35293, 31.69858],
          [-122.34982, 31.7026],
          [-122.33215, 31.72534],
          [-122.33749, 31.74756],
          [-122.33437, 31.75158],
          [-122.3167, 31.77432],
          [-122.31358, 31.77834],
          [-122.28744, 31.78287],
          [-122.26976, 31.80561],
          [-122.26663, 31.80962],
          [-122.24049, 31.81415],
          [-122.22279, 31.83688],
          [-122.21966, 31.84089],
          [-122.20195, 31.86362],
          [-122.19883, 31.86763],
          [-122.18111, 31.89035],
          [-122.17798, 31.89436],
          [-122.15181, 31.89887],
          [-122.13408, 31.92159],
          [-122.13095, 31.9256],
          [-122.10477, 31.9301],
          [-122.07859, 31.9346],
          [-122.06084, 31.95731],
          [-122.05771, 31.96132],
          [-122.03152, 31.96581],
          [-122.00533, 31.9703],
          [-121.98756, 31.99299],
          [-121.98442, 31.997],
          [-121.96664, 32.01969],
          [-121.9635, 32.0237],
          [-121.94571, 32.04639],
          [-121.94257, 32.05039],
          [-121.91636, 32.05486],
          [-121.89855, 32.07755],
          [-121.89541, 32.08155],
          [-121.8776, 32.10423],
          [-121.87446, 32.10823],
          [-121.85664, 32.13091],
          [-121.85349, 32.13491],
          [-121.82726, 32.13936],
          [-121.80942, 32.16203],
          [-121.80627, 32.16603],
          [-121.78843, 32.1887],
          [-121.78528, 32.1927],
          [-121.75903, 32.19714],
          [-121.74117, 32.2198],
          [-121.73802, 32.2238],
          [-121.72016, 32.24645],
          [-121.71701, 32.25045],
          [-121.69074, 32.25488],
          [-121.67286, 32.27753],
          [-121.6697, 32.28153],
          [-121.65182, 32.30417],
          [-121.64866, 32.30817],
          [-121.62238, 32.31259],
          [-121.60447, 32.33523],
          [-121.60131, 32.33922],
          [-121.57502, 32.34363],
          [-121.54873, 32.34804],
          [-121.53081, 32.37067],
          [-121.52764, 32.37466],
          [-121.50971, 32.39728],
          [-121.50655, 32.40128],
          [-121.48024, 32.40567],
          [-121.46229, 32.42829],
          [-121.45913, 32.43228],
          [-121.44117, 32.45489],
          [-121.43801, 32.45888],
          [-121.42005, 32.48149],
          [-121.41688, 32.48548],
          [-121.39891, 32.50809],
          [-121.39573, 32.51208],
          [-121.37776, 32.53468],
          [-121.38295, 32.55689],
          [-121.37978, 32.56087],
          [-121.36179, 32.58347],
          [-121.36698, 32.60568],
          [-121.3638, 32.60967],
          [-121.34581, 32.63226],
          [-121.351, 32.65446],
          [-121.35619, 32.67667],
          [-121.36138, 32.69887],
          [-121.35821, 32.70286],
          [-121.33182, 32.70723],
          [-121.3138, 32.72981],
          [-121.31899, 32.75201],
          [-121.31581, 32.756],
          [-121.29778, 32.77858],
          [-121.30296, 32.80078],
          [-121.29978, 32.80476],
          [-121.28174, 32.82733],
          [-121.27855, 32.83132],
          [-121.2605, 32.85389],
          [-121.25732, 32.85787],
          [-121.23089, 32.86222],
          [-121.21283, 32.88479],
          [-121.20964, 32.88877],
          [-121.19156, 32.91133],
          [-121.18837, 32.91531],
          [-121.17029, 32.93786],
          [-121.17546, 32.96006],
          [-121.17227, 32.96404],
          [-121.15418, 32.98659],
          [-121.15935, 33.00878],
          [-121.15615, 33.01276],
          [-121.13805, 33.03531],
          [-121.14322, 33.0575],
          [-121.14002, 33.06148],
          [-121.12191, 33.08402],
          [-121.12707, 33.10621],
          [-121.13224, 33.12839],
          [-121.12905, 33.13237],
          [-121.11092, 33.15491],
          [-121.11609, 33.17709],
          [-121.12126, 33.19927],
          [-121.12643, 33.22146],
          [-121.1316, 33.24364],
          [-121.13678, 33.26581],
          [-121.14196, 33.28799],
          [-121.14714, 33.31017],
          [-121.1741, 33.32533],
          [-121.17886, 33.32801],
          [-121.18405, 33.35018],
          [-121.18924, 33.37235],
          [-121.19444, 33.39452],
          [-121.19123, 33.3985],
          [-121.17308, 33.42102],
          [-121.17827, 33.44319],
          [-121.18346, 33.46536],
          [-121.18866, 33.48752],
          [-121.19386, 33.50968],
          [-121.19906, 33.53184],
          [-121.22608, 33.54699],
          [-121.23085, 33.54966],
          [-121.23606, 33.57182],
          [-121.2631, 33.58696],
          [-121.26787, 33.58963],
          [-121.27309, 33.61178],
          [-121.30014, 33.62692],
          [-121.30492, 33.62959],
          [-121.31015, 33.65174],
          [-121.31538, 33.67388],
          [-121.32061, 33.69603],
          [-121.3174, 33.70001],
          [-121.29922, 33.72253],
          [-121.30445, 33.74467],
          [-121.30969, 33.76682],
          [-121.33678, 33.78194],
          [-121.34156, 33.7846],
          [-121.3468, 33.80674],
          [-121.35205, 33.82888],
          [-121.3573, 33.85102],
          [-121.36254, 33.87315],
          [-121.3678, 33.89529],
          [-121.37305, 33.91742],
          [-121.3783, 33.93955],
          [-121.40545, 33.95465],
          [-121.41024, 33.95731],
          [-121.4155, 33.97944],
          [-121.42077, 34.00156],
          [-121.42604, 34.02369],
          [-121.43131, 34.04581],
          [-121.43658, 34.06793],
          [-121.44186, 34.09005],
          [-121.44713, 34.11216],
          [-121.45241, 34.13428],
          [-121.45769, 34.15639],
          [-121.46298, 34.1785],
          [-121.46826, 34.20061],
          [-121.47355, 34.22272],
          [-121.47033, 34.22669],
          [-121.4521, 34.2492],
          [-121.45738, 34.27131],
          [-121.46267, 34.29341],
          [-121.46796, 34.31551],
          [-121.47326, 34.33762],
          [-121.47855, 34.35972],
          [-121.48385, 34.38181],
          [-121.48915, 34.40391],
          [-121.49445, 34.426],
          [-121.49122, 34.42997],
          [-121.47296, 34.45247],
          [-121.47826, 34.47456],
          [-121.48356, 34.49665],
          [-121.48887, 34.51874],
          [-121.49417, 34.54083],
          [-121.49948, 34.56291],
          [-121.50479, 34.585],
          [-121.5101, 34.60708],
          [-121.51542, 34.62916],
          [-121.52074, 34.65124],
          [-121.52606, 34.67331],
          [-121.53138, 34.69539],
          [-121.5367, 34.71746],
          [-121.54203, 34.73954],
          [-121.5388, 34.7435],
          [-121.52049, 34.76598],
          [-121.52581, 34.78805],
          [-121.53114, 34.81012],
          [-121.53647, 34.83218],
          [-121.5418, 34.85425],
          [-121.54713, 34.87631],
          [-121.55247, 34.89837],
          [-121.5578, 34.92043],
          [-121.56314, 34.94249],
          [-121.56849, 34.96454],
          [-121.56525, 34.96851],
          [-121.54691, 34.99097],
          [-121.55225, 35.01302],
          [-121.55759, 35.03507],
          [-121.56294, 35.05712],
          [-121.56829, 35.07917],
          [-121.57363, 35.10122],
          [-121.57899, 35.12326],
          [-121.58434, 35.1453],
          [-121.58969, 35.16734],
          [-121.59505, 35.18938],
          [-121.60041, 35.21142],
          [-121.60577, 35.23345],
          [-121.61114, 35.25549],
          [-121.6165, 35.27752],
          [-121.61326, 35.28148],
          [-121.59488, 35.30393],
          [-121.60025, 35.32595],
          [-121.597, 35.32992],
          [-121.57861, 35.35236],
          [-121.58397, 35.37438],
          [-121.58073, 35.37834],
          [-121.56232, 35.40078],
          [-121.55907, 35.40474],
          [-121.54066, 35.42717],
          [-121.53741, 35.43113],
          [-121.51899, 35.45356],
          [-121.51574, 35.45752],
          [-121.49731, 35.47994],
          [-121.50266, 35.50196],
          [-121.49941, 35.50591],
          [-121.48097, 35.52833],
          [-121.47771, 35.53229],
          [-121.45926, 35.5547],
          [-121.456, 35.55866],
          [-121.43754, 35.58107],
          [-121.43429, 35.58502],
          [-121.41582, 35.60743],
          [-121.42116, 35.62944],
          [-121.4179, 35.63339],
          [-121.39942, 35.65579],
          [-121.40477, 35.6778],
          [-121.4015, 35.68175],
          [-121.38301, 35.70414],
          [-121.38836, 35.72615],
          [-121.38509, 35.7301],
          [-121.36659, 35.75249],
          [-121.36332, 35.75644],
          [-121.34481, 35.77882],
          [-121.34154, 35.78277],
          [-121.32302, 35.80515],
          [-121.32836, 35.82715],
          [-121.32509, 35.8311],
          [-121.30656, 35.85347],
          [-121.31189, 35.87547],
          [-121.30862, 35.87942],
          [-121.29008, 35.90179],
          [-121.29541, 35.92378],
          [-121.29214, 35.92773],
          [-121.27358, 35.95009],
          [-121.27891, 35.97208],
          [-121.28425, 35.99407],
          [-121.28097, 35.99801],
          [-121.2624, 36.02037],
          [-121.25913, 36.02431],
          [-121.24055, 36.04666],
          [-121.23727, 36.05061],
          [-121.21868, 36.07295],
          [-121.2154, 36.0769],
          [-121.19681, 36.09924],
          [-121.20213, 36.12122],
          [-121.19885, 36.12516],
          [-121.18024, 36.1475],
          [-121.17696, 36.15144],
          [-121.15834, 36.17377],
          [-121.16366, 36.19575],
          [-121.16037, 36.19969],
          [-121.14175, 36.22201],
          [-121.14707, 36.24399],
          [-121.14378, 36.24793],
          [-121.12514, 36.27025],
          [-121.13046, 36.29222],
          [-121.12717, 36.29615],
          [-121.10851, 36.31847],
          [-121.11383, 36.34043],
          [-121.11054, 36.34437],
          [-121.09188, 36.36668],
          [-121.09719, 36.38864],
          [-121.0939, 36.39258],
          [-121.07522, 36.41488],
          [-121.08054, 36.43684],
          [-121.08586, 36.4588],
          [-121.08256, 36.46273],
          [-121.06387, 36.48503],
          [-121.06919, 36.50698],
          [-121.06589, 36.51092],
          [-121.04719, 36.53321],
          [-121.0525, 36.55516],
          [-121.0492, 36.55909],
          [-121.03049, 36.58137],
          [-121.02719, 36.5853],
          [-121.00847, 36.60758],
          [-121.00516, 36.61152],
          [-120.98643, 36.63379],
          [-120.99174, 36.65573],
          [-120.98843, 36.65966],
          [-120.96969, 36.68193],
          [-120.96638, 36.68586],
          [-120.94763, 36.70813],
          [-120.94432, 36.71206],
          [-120.92556, 36.73431],
          [-120.92225, 36.73824],
          [-120.90348, 36.7605],
          [-120.90017, 36.76442],
          [-120.88139, 36.78667],
          [-120.88669, 36.80861],
          [-120.89198, 36.83054],
          [-120.88867, 36.83447],
          [-120.86987, 36.85671],
          [-120.87517, 36.87864],
          [-120.87185, 36.88256],
          [-120.85305, 36.9048],
          [-120.85834, 36.92673],
          [-120.85502, 36.93065],
          [-120.83621, 36.95288],
          [-120.8415, 36.9748],
          [-120.83818, 36.97872],
          [-120.81935, 37.00095],
          [-120.82464, 37.02287],
          [-120.82994, 37.04478],
          [-120.83523, 37.0667],
          [-120.84053, 37.08861],
          [-120.84583, 37.11052],
          [-120.85114, 37.13243],
          [-120.85644, 37.15433],
          [-120.86175, 37.17623],
          [-120.86706, 37.19814],
          [-120.87237, 37.22003],
          [-120.87768, 37.24193],
          [-120.87435, 37.24585],
          [-120.85549, 37.26806],
          [-120.8608, 37.28995],
          [-120.86611, 37.31184],
          [-120.87143, 37.33373],
          [-120.87675, 37.35562],
          [-120.88207, 37.3775],
          [-120.88739, 37.39939],
          [-120.91534, 37.41439],
          [-120.92027, 37.41704],
          [-120.9256, 37.43891],
          [-120.93094, 37.46079],
          [-120.93627, 37.48266],
          [-120.94161, 37.50454],
          [-120.94696, 37.52641],
          [-120.9523, 37.54827],
          [-120.94896, 37.55219],
          [-120.93006, 37.57438],
          [-120.9354, 37.59624],
          [-120.94075, 37.6181],
          [-120.94609, 37.63996],
          [-120.95144, 37.66182],
          [-120.9568, 37.68367],
          [-120.96215, 37.70553],
          [-120.96751, 37.72738],
          [-120.96417, 37.73129],
          [-120.94523, 37.75346],
          [-120.95059, 37.77531],
          [-120.95594, 37.79715],
          [-120.9613, 37.819],
          [-120.96666, 37.84084],
          [-120.97203, 37.86268],
          [-120.97739, 37.88451],
          [-120.98276, 37.90635],
          [-120.98813, 37.92818],
          [-120.98479, 37.93209],
          [-120.96582, 37.95424],
          [-120.97119, 37.97607],
          [-120.97656, 37.9979],
          [-120.98194, 38.01972],
          [-120.97859, 38.02363],
          [-120.9596, 38.04578],
          [-120.96498, 38.0676],
          [-120.97035, 38.08941],
          [-120.97573, 38.11123],
          [-120.97238, 38.11513],
          [-120.95338, 38.13727],
          [-120.95875, 38.15908],
          [-120.96413, 38.18089],
          [-120.96077, 38.1848],
          [-120.94176, 38.20692],
          [-120.94714, 38.22873],
          [-120.95252, 38.25053],
          [-120.9579, 38.27233],
          [-120.95454, 38.27624],
          [-120.93551, 38.29835],
          [-120.94089, 38.32015],
          [-120.94627, 38.34195],
          [-120.94291, 38.34585],
          [-120.92386, 38.36796],
          [-120.92924, 38.38975],
          [-120.93463, 38.41154],
          [-120.93126, 38.41544],
          [-120.9122, 38.43754],
          [-120.91758, 38.45932],
          [-120.91422, 38.46322],
          [-120.89514, 38.48532],
          [-120.90053, 38.5071],
          [-120.89716, 38.511],
          [-120.87807, 38.53309],
          [-120.88345, 38.55486],
          [-120.88884, 38.57664],
          [-120.88547, 38.58053],
          [-120.86636, 38.60261],
          [-120.87175, 38.62438],
          [-120.86837, 38.62828],
          [-120.84926, 38.65035],
          [-120.85464, 38.67212],
          [-120.86002, 38.69388],
          [-120.85665, 38.69778],
          [-120.83752, 38.71984],
          [-120.8429, 38.7416],
          [-120.83952, 38.74549],
          [-120.82038, 38.76755],
          [-120.82576, 38.78931],
          [-120.82238, 38.7932],
          [-120.80323, 38.81525],
          [-120.80861, 38.837],
          [-120.81399, 38.85875],
          [-120.81061, 38.86264],
          [-120.79144, 38.88469],
          [-120.79682, 38.90643],
          [-120.79344, 38.91032],
          [-120.77426, 38.93236],
          [-120.77964, 38.9541],
          [-120.77625, 38.95798],
          [-120.75706, 38.98002],
          [-120.76244, 39.00175],
          [-120.76782, 39.02348],
          [-120.76443, 39.02737],
          [-120.74522, 39.04939],
          [-120.7506, 39.07112],
          [-120.75598, 39.09285],
          [-120.75259, 39.09673],
          [-120.73337, 39.11875],
          [-120.73875, 39.14047],
          [-120.74413, 39.16219],
          [-120.74074, 39.16607],
          [-120.7215, 39.18808],
          [-120.72688, 39.20979],
          [-120.73226, 39.23151],
          [-120.73765, 39.25322],
          [-120.74304, 39.27492],
          [-120.73964, 39.27881],
          [-120.72038, 39.3008],
          [-120.72577, 39.3225],
          [-120.73116, 39.3442],
          [-120.72776, 39.34808],
          [-120.70848, 39.37007],
          [-120.71387, 39.39177],
          [-120.71047, 39.39564],
          [-120.69118, 39.41762],
          [-120.69657, 39.43932],
          [-120.70196, 39.46101],
          [-120.69855, 39.46488],
          [-120.67925, 39.48685],
          [-120.68464, 39.50854],
          [-120.68123, 39.51241],
          [-120.66192, 39.53438],
          [-120.6673, 39.55606],
          [-120.66389, 39.55993],
          [-120.64457, 39.58189],
          [-120.64116, 39.58576],
          [-120.62182, 39.60771],
          [-120.61841, 39.61159],
          [-120.59906, 39.63353],
          [-120.59565, 39.6374],
          [-120.57629, 39.65934],
          [-120.58167, 39.68102],
          [-120.57825, 39.68489],
          [-120.55888, 39.70682],
          [-120.55546, 39.71069],
          [-120.53609, 39.73262],
          [-120.53267, 39.73649],
          [-120.51328, 39.75841],
          [-120.50986, 39.76228],
          [-120.48167, 39.7664],
          [-120.46227, 39.78831],
          [-120.45885, 39.79218],
          [-120.43065, 39.79629],
          [-120.41123, 39.8182],
          [-120.40781, 39.82206],
          [-120.3796, 39.82617],
          [-120.36017, 39.84806],
          [-120.35674, 39.85193],
          [-120.33729, 39.87382],
          [-120.33386, 39.87768],
          [-120.3144, 39.89957],
          [-120.31097, 39.90343],
          [-120.28274, 39.90752],
          [-120.26327, 39.92939],
          [-120.25983, 39.93325],
          [-120.24035, 39.95512],
          [-120.23691, 39.95898],
          [-120.21742, 39.98085],
          [-120.21398, 39.98471],
          [-120.19448, 40.00657],
          [-120.19104, 40.01043],
          [-120.17153, 40.03228],
          [-120.16809, 40.03614],
          [-120.14857, 40.05799],
          [-120.14512, 40.06184],
          [-120.12559, 40.08369],
          [-120.12214, 40.08754],
          [-120.09386, 40.09159],
          [-120.07431, 40.11343],
          [-120.07086, 40.11728],
          [-120.04257, 40.12133],
          [-120.02301, 40.14315],
          [-120.01955, 40.14701],
          [-119.99125, 40.15104],
          [-119.97167, 40.17286],
          [-119.96821, 40.17671],
          [-119.9399, 40.18074],
          [-119.91158, 40.18476],
          [-119.89198, 40.20657],
          [-119.88852, 40.21041],
          [-119.86019, 40.21443],
          [-119.83186, 40.21844],
          [-119.80353, 40.22244],
          [-119.77519, 40.22644],
          [-119.74685, 40.23044],
          [-119.71851, 40.23443],
          [-119.69017, 40.23842],
          [-119.67051, 40.26019],
          [-119.66704, 40.26403],
          [-119.63869, 40.26801],
          [-119.61034, 40.27198],
          [-119.59066, 40.29375],
          [-119.58718, 40.29759],
          [-119.55882, 40.30155],
          [-119.53912, 40.3233],
          [-119.54432, 40.34493],
          [-119.54084, 40.34877],
          [-119.52113, 40.37052],
          [-119.51765, 40.37435],
          [-119.49793, 40.39609],
          [-119.49445, 40.39993],
          [-119.47471, 40.42166],
          [-119.47123, 40.4255],
          [-119.45149, 40.44723],
          [-119.44801, 40.45106],
          [-119.42826, 40.47279],
          [-119.42477, 40.47662],
          [-119.39635, 40.48055],
          [-119.37659, 40.50227],
          [-119.3731, 40.5061],
          [-119.35332, 40.52781],
          [-119.34983, 40.53164],
          [-119.32139, 40.53556],
          [-119.3016, 40.55726],
          [-119.2981, 40.56109],
          [-119.2783, 40.58279],
          [-119.27481, 40.58661],
          [-119.24635, 40.59052],
          [-119.22653, 40.61221],
          [-119.22303, 40.61604],
          [-119.2032, 40.63772],
          [-119.20834, 40.65932],
          [-119.20484, 40.66314],
          [-119.185, 40.68482],
          [-119.1815, 40.68864],
          [-119.16165, 40.71031],
          [-119.15814, 40.71413],
          [-119.13828, 40.73579],
          [-119.13477, 40.73962],
          [-119.10627, 40.7435],
          [-119.08639, 40.76515],
          [-119.08288, 40.76897],
          [-119.05437, 40.77285],
          [-119.03448, 40.79449],
          [-119.03096, 40.79831],
          [-119.00244, 40.80218],
          [-118.98253, 40.82381],
          [-118.97901, 40.82763],
          [-118.95909, 40.84926],
          [-118.95558, 40.85307],
          [-118.92704, 40.85692],
          [-118.9071, 40.87854],
          [-118.90358, 40.88236],
          [-118.88363, 40.90397],
          [-118.88011, 40.90779],
          [-118.86015, 40.9294],
          [-118.85663, 40.93321],
          [-118.82806, 40.93704],
          [-118.80809, 40.95864],
          [-118.80456, 40.96245],
          [-118.77598, 40.96628],
          [-118.7474, 40.9701],
          [-118.71882, 40.97392],
          [-118.69882, 40.9955],
          [-118.69529, 40.99931],
          [-118.66669, 41.00312],
          [-118.64667, 41.02469],
          [-118.64314, 41.0285],
          [-118.61454, 41.0323],
          [-118.58593, 41.03609],
          [-118.56589, 41.05765],
          [-118.56235, 41.06146],
          [-118.53373, 41.06524],
          [-118.50512, 41.06902],
          [-118.4765, 41.0728],
          [-118.45643, 41.09434],
          [-118.45288, 41.09815],
          [-118.42425, 41.10191],
          [-118.39562, 41.10567],
          [-118.36699, 41.10943],
          [-118.33836, 41.11319],
          [-118.33331, 41.11051],
          [-118.30475, 41.09536],
          [-118.27611, 41.0991],
          [-118.24748, 41.10284],
          [-118.21884, 41.10658],
          [-118.1902, 41.11031],
          [-118.17006, 41.13181],
          [-118.1665, 41.13561],
          [-118.13786, 41.13933],
          [-118.1177, 41.16083],
          [-118.11414, 41.16462],
          [-118.09397, 41.18612],
          [-118.09041, 41.18991],
          [-118.06174, 41.19362],
          [-118.04155, 41.2151],
          [-118.03799, 41.21889],
          [-118.00931, 41.22259],
          [-117.98911, 41.24406],
          [-117.98554, 41.24785],
          [-117.96533, 41.26932],
          [-117.96176, 41.27311],
          [-117.93307, 41.2768],
          [-117.91284, 41.29826],
          [-117.90926, 41.30204],
          [-117.88056, 41.30572],
          [-117.85185, 41.30939],
          [-117.8316, 41.33084],
          [-117.82802, 41.33462],
          [-117.79931, 41.33828],
          [-117.77059, 41.34194],
          [-117.74186, 41.3456],
          [-117.71314, 41.34925],
          [-117.69285, 41.37067],
          [-117.68927, 41.37445],
          [-117.66053, 41.37809],
          [-117.64023, 41.39951],
          [-117.63664, 41.40329],
          [-117.6079, 41.40692],
          [-117.57915, 41.41055],
          [-117.55882, 41.43195],
          [-117.55523, 41.43573],
          [-117.52648, 41.43934],
          [-117.50613, 41.46074],
          [-117.50254, 41.46451],
          [-117.47377, 41.46812],
          [-117.4534, 41.48951],
          [-117.44981, 41.49328],
          [-117.42103, 41.49688],
          [-117.40065, 41.51826],
          [-117.39705, 41.52203],
          [-117.37666, 41.5434],
          [-117.37306, 41.54717],
          [-117.35266, 41.56853],
          [-117.34906, 41.5723],
          [-117.32865, 41.59366],
          [-117.32504, 41.59743],
          [-117.29623, 41.60101],
          [-117.26742, 41.60458],
          [-117.24699, 41.62593],
          [-117.24338, 41.62969],
          [-117.22293, 41.65103],
          [-117.21932, 41.6548],
          [-117.19049, 41.65836],
          [-117.17003, 41.67969],
          [-117.16642, 41.68345],
          [-117.13758, 41.68701],
          [-117.1171, 41.70833],
          [-117.11348, 41.71209],
          [-117.09299, 41.7334],
          [-117.08938, 41.73716],
          [-117.06888, 41.75847],
          [-117.06526, 41.76223],
          [-117.03639, 41.76577],
          [-117.00752, 41.7693],
          [-116.987, 41.79059],
          [-116.98338, 41.79435],
          [-116.9545, 41.79787],
          [-116.93396, 41.81916],
          [-116.93033, 41.82291],
          [-116.90978, 41.84419],
          [-116.90615, 41.84795],
          [-116.88559, 41.86922],
          [-116.88196, 41.87298],
          [-116.85306, 41.87648],
          [-116.83248, 41.89775],
          [-116.82885, 41.9015],
          [-116.79993, 41.90499],
          [-116.77102, 41.90848],
          [-116.7421, 41.91196],
          [-116.71318, 41.91544],
          [-116.68426, 41.91892],
          [-116.65533, 41.92239],
          [-116.6347, 41.94362],
          [-116.63106, 41.94737],
          [-116.61042, 41.9686],
          [-116.60678, 41.97235],
          [-116.58613, 41.99358],
          [-116.58248, 41.99732],
          [-116.55353, 42.00077],
          [-116.52458, 42.00422],
          [-116.50391, 42.02543],
          [-116.50026, 42.02918],
          [-116.4713, 42.03261],
          [-116.44233, 42.03605],
          [-116.41337, 42.03948],
          [-116.39266, 42.06067],
          [-116.38901, 42.06441],
          [-116.36003, 42.06783],
          [-116.33931, 42.08902],
          [-116.33565, 42.09276],
          [-116.30667, 42.09617],
          [-116.28593, 42.11735],
          [-116.28227, 42.12108],
          [-116.26152, 42.14225],
          [-116.25786, 42.14599],
          [-116.2371, 42.16715],
          [-116.23343, 42.17089],
          [-116.21266, 42.19205],
          [-116.209, 42.19578],
          [-116.18822, 42.21694],
          [-116.18455, 42.22067],
          [-116.16376, 42.24182],
          [-116.16009, 42.24555],
          [-116.13106, 42.24893],
          [-116.10202, 42.2523],
          [-116.07298, 42.25567],
          [-116.06794, 42.25295],
          [-116.03939, 42.23754],
          [-116.03436, 42.23482],
          [-116.00582, 42.2194],
          [-116.00078, 42.21668],
          [-115.97226, 42.20126],
          [-115.96723, 42.19853],
          [-115.9627, 42.17703],
          [-115.93419, 42.16159],
          [-115.92916, 42.15887],
          [-115.90066, 42.14343],
          [-115.87165, 42.14677],
          [-115.84263, 42.15011],
          [-115.8376, 42.14738],
          [-115.80912, 42.13192],
          [-115.78011, 42.13525],
          [-115.77508, 42.13252],
          [-115.74662, 42.11705],
          [-115.7176, 42.12037],
          [-115.68859, 42.12368],
          [-115.68357, 42.12095],
          [-115.65512, 42.10547],
          [-115.62611, 42.10877],
          [-115.59709, 42.11207],
          [-115.56808, 42.11536],
          [-115.53906, 42.11865],
          [-115.51004, 42.12193],
          [-115.50502, 42.11919],
          [-115.4766, 42.10368],
          [-115.44758, 42.10696],
          [-115.44257, 42.10422],
          [-115.41416, 42.0887],
          [-115.38514, 42.09196],
          [-115.38013, 42.08922],
          [-115.35174, 42.07369],
          [-115.32273, 42.07694],
          [-115.29371, 42.08019],
          [-115.2887, 42.07745],
          [-115.26033, 42.0619],
          [-115.23131, 42.06514],
          [-115.22631, 42.0624],
          [-115.19794, 42.04684],
          [-115.19294, 42.04409],
          [-115.16459, 42.02852],
          [-115.13558, 42.03175],
          [-115.10657, 42.03497],
          [-115.10157, 42.03222],
          [-115.07324, 42.01664],
          [-115.04423, 42.01985],
          [-115.01522, 42.02306],
          [-114.98622, 42.02626],
          [-114.9572, 42.02946],
          [-114.92819, 42.03265],
          [-114.89918, 42.03584],
          [-114.87016, 42.03903],
          [-114.84114, 42.0422],
          [-114.82011, 42.06322],
          [-114.81639, 42.06693],
          [-114.78737, 42.0701],
          [-114.75834, 42.07326],
          [-114.75334, 42.07051],
          [-114.72505, 42.05487],
          [-114.69602, 42.05803],
          [-114.66699, 42.06118],
          [-114.662, 42.05842],
          [-114.63373, 42.04277],
          [-114.6047, 42.04591],
          [-114.57567, 42.04905],
          [-114.57069, 42.04629],
          [-114.54243, 42.03062],
          [-114.5134, 42.03375],
          [-114.48438, 42.03687],
          [-114.45535, 42.03999],
          [-114.43423, 42.06096],
          [-114.43051, 42.06466],
          [-114.40147, 42.06777],
          [-114.39648, 42.065],
          [-114.36825, 42.04932],
          [-114.33921, 42.05242],
          [-114.31017, 42.05551],
          [-114.28113, 42.0586],
          [-114.25209, 42.06168],
          [-114.22305, 42.06477],
          [-114.194, 42.06784],
          [-114.18902, 42.06507],
          [-114.16082, 42.04935],
          [-114.15584, 42.04657],
          [-114.12765, 42.03085],
          [-114.12268, 42.02807],
          [-114.09449, 42.01234],
          [-114.08952, 42.00956],
          [-114.06135, 41.99382],
          [-114.03232, 41.99687],
          [-114.00329, 41.99992],
          [-113.97425, 42.00296],
          [-113.96929, 42.00018],
          [-113.94114, 41.98442],
          [-113.91211, 41.98745],
          [-113.89089, 42.00837],
          [-113.88714, 42.01206],
          [-113.8581, 42.01508],
          [-113.82906, 42.0181],
          [-113.80002, 42.02111],
          [-113.77097, 42.02412],
          [-113.74192, 42.02713],
          [-113.71287, 42.03013],
          [-113.68382, 42.03312],
          [-113.67886, 42.03033],
          [-113.65075, 42.01453],
          [-113.64579, 42.01174],
          [-113.61768, 41.99593],
          [-113.58864, 41.99891],
          [-113.55959, 42.00189],
          [-113.55464, 41.9991],
          [-113.52655, 41.98327],
          [-113.49751, 41.98624],
          [-113.46846, 41.9892],
          [-113.43942, 41.99216],
          [-113.43446, 41.98936],
          [-113.4064, 41.97352],
          [-113.37736, 41.97647],
          [-113.34831, 41.97941],
          [-113.31926, 41.98235],
          [-113.29022, 41.98528],
          [-113.26117, 41.98821],
          [-113.23211, 41.99113],
          [-113.20306, 41.99405],
          [-113.174, 41.99697],
          [-113.14495, 41.99988],
          [-113.14, 41.99707],
          [-113.11198, 41.98119],
          [-113.08293, 41.98409],
          [-113.07798, 41.98128],
          [-113.04998, 41.96538],
          [-113.02093, 41.96827],
          [-113.01599, 41.96547],
          [-112.988, 41.94956],
          [-112.98306, 41.94675],
          [-112.95508, 41.93083],
          [-112.92603, 41.93371],
          [-112.89699, 41.93658],
          [-112.86794, 41.93945],
          [-112.83889, 41.94231],
          [-112.80984, 41.94517],
          [-112.7884, 41.96596],
          [-112.78462, 41.96963],
          [-112.75556, 41.97247],
          [-112.73411, 41.99326],
          [-112.73032, 41.99692],
          [-112.70125, 41.99976],
          [-112.67978, 42.02053],
          [-112.67599, 42.0242],
          [-112.65451, 42.04497],
          [-112.65832, 42.06656],
          [-112.65453, 42.07023],
          [-112.62543, 42.07305],
          [-112.60393, 42.09381],
          [-112.60014, 42.09747],
          [-112.57103, 42.10029],
          [-112.54193, 42.1031],
          [-112.51282, 42.10591],
          [-112.48372, 42.10871],
          [-112.45461, 42.11151],
          [-112.4255, 42.1143],
          [-112.39638, 42.11709],
          [-112.36727, 42.11987],
          [-112.36234, 42.11705],
          [-112.33441, 42.10105],
          [-112.32948, 42.09823],
          [-112.32574, 42.07663],
          [-112.29783, 42.06063],
          [-112.29291, 42.0578],
          [-112.28918, 42.03619],
          [-112.26128, 42.02018],
          [-112.25636, 42.01735],
          [-112.22847, 42.00133],
          [-112.19939, 42.00409],
          [-112.19447, 42.00126],
          [-112.1666, 41.98523],
          [-112.13752, 41.98798],
          [-112.1326, 41.98515],
          [-112.10474, 41.96911],
          [-112.07566, 41.97185],
          [-112.07075, 41.96901],
          [-112.04291, 41.95296],
          [-112.038, 41.95013],
          [-112.01016, 41.93406],
          [-112.00525, 41.93123],
          [-112, 41.9282]
        ]
      }
    },
    {
      "type": "Feature",
      "id": "2026092706_f240_12000_001",
      "properties": {
        "product_id": "winter_storm_levels",
        "source_id": "nbm_snow_level",
        "parameter": "snow_level",
        "definition": "height of the wet-bulb 0.5 degree C surface",
        "level_ft_msl": 12000,
        "label": "12,000 ft MSL",
        "unit": "ft_msl",
        "cycle_time_utc": "2026-09-27T06:00:00Z",
        "valid_time_utc": "2026-10-07T06:00:00Z",
        "lead_hours": 240,
        "segment": 1,
        "length_m": 1647197.2
      },
      "geometry": {
        "type": "LineString",
        "coordinates": [
          [-117.6907, 30.22366],
          [-117.69124, 30.22645],
          [-117.69563, 30.24888],
          [-117.70002, 30.2713],
          [-117.7044, 30.29372],
          [-117.70333, 30.29503],
          [-117.68282, 30.31993],
          [-117.68721, 30.34235],
          [-117.68613, 30.34366],
          [-117.66561, 30.36856],
          [-117.67, 30.39098],
          [-117.66892, 30.39229],
          [-117.64839, 30.41718],
          [-117.65278, 30.4396],
          [-117.65169, 30.44091],
          [-117.63115, 30.4658],
          [-117.63007, 30.46711],
          [-117.60952, 30.49199],
          [-117.60844, 30.4933],
          [-117.58788, 30.51818],
          [-117.5868, 30.51949],
          [-117.56623, 30.54437],
          [-117.5706, 30.56678],
          [-117.57498, 30.5892],
          [-117.5739, 30.59051],
          [-117.55331, 30.61538],
          [-117.55769, 30.63779],
          [-117.5566, 30.6391],
          [-117.53601, 30.66397],
          [-117.54038, 30.68638],
          [-117.54475, 30.70879],
          [-117.54913, 30.7312],
          [-117.54804, 30.73251],
          [-117.52743, 30.75737],
          [-117.52635, 30.75868],
          [-117.50572, 30.78354],
          [-117.51009, 30.80594],
          [-117.51447, 30.82835],
          [-117.51338, 30.82966],
          [-117.48728, 30.83341],
          [-117.46664, 30.85826],
          [-117.47101, 30.88067],
          [-117.47537, 30.90307],
          [-117.47429, 30.90438],
          [-117.45363, 30.92922],
          [-117.45799, 30.95163],
          [-117.45691, 30.95294],
          [-117.43623, 30.97777],
          [-117.43514, 30.97908],
          [-117.40901, 30.98282],
          [-117.38832, 31.00765],
          [-117.38724, 31.00896],
          [-117.3611, 31.01269],
          [-117.34039, 31.03751],
          [-117.3393, 31.03882],
          [-117.31315, 31.04254],
          [-117.29244, 31.06736],
          [-117.29134, 31.06867],
          [-117.26519, 31.07238],
          [-117.23903, 31.07609],
          [-117.21287, 31.0798],
          [-117.18671, 31.0835],
          [-117.16596, 31.1083],
          [-117.16487, 31.1096],
          [-117.1387, 31.1133],
          [-117.11253, 31.11699],
          [-117.09175, 31.14177],
          [-117.09066, 31.14308],
          [-117.06448, 31.14676],
          [-117.0383, 31.15043],
          [-117.0175, 31.17521],
          [-117.0164, 31.17651],
          [-116.99022, 31.18018],
          [-116.96403, 31.18385],
          [-116.94321, 31.20861],
          [-116.94211, 31.20991],
          [-116.92128, 31.23467],
          [-116.92556, 31.25708],
          [-116.92446, 31.25838],
          [-116.90362, 31.28314],
          [-116.90252, 31.28444],
          [-116.8763, 31.28809],
          [-116.85545, 31.31284],
          [-116.85435, 31.31414],
          [-116.85283, 31.3132],
          [-116.82387, 31.29537],
          [-116.79764, 31.29901],
          [-116.77142, 31.30264],
          [-116.7452, 31.30627],
          [-116.74367, 31.30533],
          [-116.71473, 31.28748],
          [-116.68851, 31.2911],
          [-116.68699, 31.29016],
          [-116.65806, 31.2723],
          [-116.63184, 31.27591],
          [-116.63031, 31.27497],
          [-116.6014, 31.2571],
          [-116.57518, 31.2607],
          [-116.57366, 31.25976],
          [-116.54476, 31.24188],
          [-116.51854, 31.24547],
          [-116.51702, 31.24453],
          [-116.48813, 31.22664],
          [-116.46191, 31.23022],
          [-116.43569, 31.2338],
          [-116.43417, 31.23286],
          [-116.4053, 31.21495],
          [-116.37908, 31.21852],
          [-116.35286, 31.22208],
          [-116.32664, 31.22564],
          [-116.30042, 31.2292],
          [-116.2742, 31.23275],
          [-116.24797, 31.23629],
          [-116.22175, 31.23983],
          [-116.22023, 31.23889],
          [-116.19139, 31.22095],
          [-116.16516, 31.22448],
          [-116.13894, 31.22801],
          [-116.11271, 31.23153],
          [-116.08648, 31.23505],
          [-116.06025, 31.23856],
          [-116.03402, 31.24207],
          [-116.00778, 31.24558],
          [-115.98155, 31.24908],
          [-115.95531, 31.25258],
          [-115.93426, 31.2772],
          [-115.93316, 31.2785],
          [-115.90691, 31.28199],
          [-115.88066, 31.28547],
          [-115.85959, 31.31009],
          [-115.85849, 31.31138],
          [-115.83223, 31.31486],
          [-115.80597, 31.31833],
          [-115.78488, 31.34294],
          [-115.78377, 31.34423],
          [-115.75751, 31.3477],
          [-115.7364, 31.37229],
          [-115.73529, 31.37359],
          [-115.70902, 31.37704],
          [-115.68274, 31.38049],
          [-115.66162, 31.40508],
          [-115.6605, 31.40637],
          [-115.63422, 31.40981],
          [-115.61308, 31.43439],
          [-115.61197, 31.43568],
          [-115.58567, 31.43912],
          [-115.56452, 31.46369],
          [-115.5634, 31.46498],
          [-115.54223, 31.48954],
          [-115.54112, 31.49084],
          [-115.51994, 31.5154],
          [-115.51883, 31.51669],
          [-115.49764, 31.54125],
          [-115.49652, 31.54254],
          [-115.4702, 31.54595],
          [-115.449, 31.5705],
          [-115.44788, 31.57179],
          [-115.42156, 31.5752],
          [-115.39523, 31.5786],
          [-115.374, 31.60314],
          [-115.37289, 31.60443],
          [-115.34655, 31.60782],
          [-115.32021, 31.61121],
          [-115.29387, 31.6146],
          [-115.26753, 31.61798],
          [-115.24119, 31.62136],
          [-115.21485, 31.62473],
          [-115.1885, 31.6281],
          [-115.18699, 31.62714],
          [-115.15821, 31.60902],
          [-115.13187, 31.61238],
          [-115.10552, 31.61574],
          [-115.07918, 31.61909],
          [-115.07766, 31.61813],
          [-115.0489, 31.59999],
          [-115.02256, 31.60334],
          [-114.99621, 31.60667],
          [-114.9947, 31.60572],
          [-114.96596, 31.58756],
          [-114.93961, 31.59089],
          [-114.91327, 31.59421],
          [-114.88692, 31.59753],
          [-114.86057, 31.60084],
          [-114.85906, 31.59989],
          [-114.83034, 31.58171],
          [-114.80399, 31.58501],
          [-114.77764, 31.58831],
          [-114.75129, 31.59161],
          [-114.74978, 31.59065],
          [-114.72108, 31.57245],
          [-114.69474, 31.57574],
          [-114.66839, 31.57902],
          [-114.64204, 31.5823],
          [-114.61568, 31.58557],
          [-114.58933, 31.58884],
          [-114.58782, 31.58788],
          [-114.55915, 31.56966],
          [-114.5328, 31.57291],
          [-114.50644, 31.57617],
          [-114.48009, 31.57942],
          [-114.45373, 31.58267],
          [-114.42737, 31.58591],
          [-114.40102, 31.58915],
          [-114.37958, 31.61355],
          [-114.37845, 31.61483],
          [-114.35208, 31.61806],
          [-114.33063, 31.64246],
          [-114.3295, 31.64374],
          [-114.30804, 31.66813],
          [-114.30691, 31.66941],
          [-114.28052, 31.67263],
          [-114.25905, 31.69701],
          [-114.25792, 31.6983],
          [-114.23643, 31.72267],
          [-114.2353, 31.72396],
          [-114.2138, 31.74833],
          [-114.21267, 31.74961],
          [-114.18626, 31.75281],
          [-114.16475, 31.77718],
          [-114.16362, 31.77846],
          [-114.14209, 31.80282],
          [-114.14096, 31.8041],
          [-114.11454, 31.80729],
          [-114.093, 31.83165],
          [-114.09187, 31.83293],
          [-114.07032, 31.85728],
          [-114.06919, 31.85856],
          [-114.04763, 31.8829],
          [-114.04649, 31.88418],
          [-114.02493, 31.90852],
          [-114.02379, 31.9098],
          [-114.00221, 31.93414],
          [-114.00108, 31.93542],
          [-113.97949, 31.95975],
          [-113.97835, 31.96103],
          [-113.95676, 31.98536],
          [-113.96048, 32.0078],
          [-113.95935, 32.00908],
          [-113.93774, 32.0334],
          [-113.9366, 32.03468],
          [-113.91498, 32.059],
          [-113.91384, 32.06028],
          [-113.89221, 32.08459],
          [-113.89107, 32.08587],
          [-113.86943, 32.11018],
          [-113.86829, 32.11146],
          [-113.84665, 32.13576],
          [-113.84551, 32.13704],
          [-113.81901, 32.14018],
          [-113.79734, 32.16447],
          [-113.7962, 32.16575],
          [-113.77453, 32.19004],
          [-113.77339, 32.19132],
          [-113.7517, 32.2156],
          [-113.75056, 32.21688],
          [-113.72404, 32.22],
          [-113.70234, 32.24428],
          [-113.7012, 32.24556],
          [-113.67949, 32.26983],
          [-113.67834, 32.27111],
          [-113.65663, 32.29538],
          [-113.65548, 32.29666],
          [-113.63375, 32.32092],
          [-113.63261, 32.3222],
          [-113.61087, 32.34646],
          [-113.60973, 32.34773],
          [-113.58798, 32.37199],
          [-113.59165, 32.39442],
          [-113.5905, 32.3957],
          [-113.56874, 32.41995],
          [-113.56759, 32.42122],
          [-113.54582, 32.44547],
          [-113.54948, 32.4679],
          [-113.54834, 32.46918],
          [-113.52655, 32.49342],
          [-113.53021, 32.51584],
          [-113.53387, 32.53827],
          [-113.53272, 32.53955],
          [-113.51092, 32.56378],
          [-113.51458, 32.58621],
          [-113.51824, 32.60863],
          [-113.51709, 32.6099],
          [-113.49527, 32.63413],
          [-113.49412, 32.63541],
          [-113.47229, 32.65963],
          [-113.47115, 32.6609],
          [-113.44931, 32.68512],
          [-113.45296, 32.70754],
          [-113.45181, 32.70882],
          [-113.42996, 32.73303],
          [-113.42881, 32.7343],
          [-113.40695, 32.75851],
          [-113.4058, 32.75979],
          [-113.38393, 32.78399],
          [-113.38277, 32.78526],
          [-113.3609, 32.80946],
          [-113.35974, 32.81074],
          [-113.33785, 32.83493],
          [-113.3367, 32.8362],
          [-113.3148, 32.86039],
          [-113.31365, 32.86167],
          [-113.29174, 32.88585],
          [-113.29536, 32.90826],
          [-113.29421, 32.90954],
          [-113.27229, 32.93372],
          [-113.27113, 32.93499],
          [-113.2492, 32.95916],
          [-113.25282, 32.98157],
          [-113.25644, 33.00398],
          [-113.26006, 33.02639],
          [-113.28889, 33.04478],
          [-113.29041, 33.04575],
          [-113.29404, 33.06816],
          [-113.29767, 33.09056],
          [-113.3013, 33.11296],
          [-113.30493, 33.13536],
          [-113.3338, 33.15374],
          [-113.33532, 33.15471],
          [-113.33896, 33.17711],
          [-113.36784, 33.19548],
          [-113.3946, 33.19243],
          [-113.39613, 33.19339],
          [-113.39978, 33.21579],
          [-113.39862, 33.21706],
          [-113.37666, 33.24123],
          [-113.38032, 33.26362],
          [-113.40923, 33.28199],
          [-113.41075, 33.28295],
          [-113.43967, 33.30131],
          [-113.46646, 33.29825],
          [-113.49324, 33.29518],
          [-113.49476, 33.29614],
          [-113.49361, 33.29742],
          [-113.47165, 33.3216],
          [-113.47532, 33.34398],
          [-113.479, 33.36636],
          [-113.50795, 33.38471],
          [-113.50948, 33.38567],
          [-113.53844, 33.40401],
          [-113.53997, 33.40497],
          [-113.56894, 33.4233],
          [-113.57047, 33.42427],
          [-113.59945, 33.44259],
          [-113.60098, 33.44355],
          [-113.62997, 33.46187],
          [-113.6315, 33.46284],
          [-113.6605, 33.48115],
          [-113.66203, 33.48211],
          [-113.69104, 33.50041],
          [-113.69257, 33.50138],
          [-113.72159, 33.51968],
          [-113.72312, 33.52064],
          [-113.72685, 33.543],
          [-113.75589, 33.56129],
          [-113.75742, 33.56226],
          [-113.76116, 33.58462],
          [-113.79021, 33.6029],
          [-113.79174, 33.60386],
          [-113.82081, 33.62214],
          [-113.82234, 33.6231],
          [-113.85141, 33.64137],
          [-113.85294, 33.64233],
          [-113.88203, 33.66059],
          [-113.88356, 33.66155],
          [-113.91266, 33.67981],
          [-113.91419, 33.68077],
          [-113.94329, 33.69902],
          [-113.97016, 33.69587],
          [-113.97169, 33.69683],
          [-114.00081, 33.71507],
          [-114.02767, 33.71192],
          [-114.02921, 33.71288],
          [-114.05834, 33.7311],
          [-114.05987, 33.73206],
          [-114.08902, 33.75028],
          [-114.11589, 33.74711],
          [-114.11742, 33.74807],
          [-114.14658, 33.76628],
          [-114.17345, 33.7631],
          [-114.17499, 33.76406],
          [-114.20416, 33.78226],
          [-114.20569, 33.78322],
          [-114.23487, 33.80141],
          [-114.23641, 33.80237],
          [-114.2656, 33.82055],
          [-114.26713, 33.82151],
          [-114.27098, 33.84384],
          [-114.27483, 33.86618],
          [-114.30404, 33.88435],
          [-114.30558, 33.88531],
          [-114.3348, 33.90348],
          [-114.33634, 33.90443],
          [-114.3402, 33.92676],
          [-114.36944, 33.94492],
          [-114.37098, 33.94588],
          [-114.37485, 33.9682],
          [-114.37873, 33.99052],
          [-114.40799, 34.00867],
          [-114.40953, 34.00963],
          [-114.41341, 34.03195],
          [-114.41729, 34.05426],
          [-114.44658, 34.07241],
          [-114.44812, 34.07336],
          [-114.47741, 34.09149],
          [-114.47896, 34.09245],
          [-114.48285, 34.11476],
          [-114.51216, 34.13288],
          [-114.53912, 34.12965],
          [-114.54066, 34.1306],
          [-114.56998, 34.14872],
          [-114.59694, 34.14547],
          [-114.59848, 34.14643],
          [-114.62782, 34.16453],
          [-114.65477, 34.16127],
          [-114.65632, 34.16223],
          [-114.68567, 34.18032],
          [-114.71263, 34.17705],
          [-114.73958, 34.17379],
          [-114.76143, 34.14949],
          [-114.76258, 34.14821],
          [-114.78953, 34.14494],
          [-114.81136, 34.12063],
          [-114.81251, 34.11935],
          [-114.83433, 34.09504],
          [-114.83548, 34.09377],
          [-114.85729, 34.06945],
          [-114.85843, 34.06817],
          [-114.88024, 34.04385],
          [-114.88138, 34.04257],
          [-114.9083, 34.03928],
          [-114.93009, 34.01495],
          [-114.93123, 34.01367],
          [-114.95301, 33.98934],
          [-114.95415, 33.98806],
          [-114.98106, 33.98475],
          [-115.00796, 33.98143],
          [-115.03486, 33.97811],
          [-115.03641, 33.97906],
          [-115.06577, 33.9971],
          [-115.09267, 33.99377],
          [-115.09422, 33.99472],
          [-115.12359, 34.01274],
          [-115.12514, 34.01369],
          [-115.15453, 34.0317],
          [-115.15608, 34.03265],
          [-115.18547, 34.05066],
          [-115.21238, 34.04731],
          [-115.21393, 34.04826],
          [-115.24334, 34.06626],
          [-115.27026, 34.0629],
          [-115.2718, 34.06385],
          [-115.30123, 34.08184],
          [-115.30278, 34.08278],
          [-115.33221, 34.10076],
          [-115.33376, 34.10171],
          [-115.33783, 34.124],
          [-115.36728, 34.14197],
          [-115.36883, 34.14292],
          [-115.39829, 34.16088],
          [-115.39984, 34.16183],
          [-115.40393, 34.18411],
          [-115.4334, 34.20207],
          [-115.43495, 34.20301],
          [-115.46444, 34.22096],
          [-115.46599, 34.22191],
          [-115.47009, 34.24419],
          [-115.49959, 34.26213],
          [-115.50115, 34.26307],
          [-115.53066, 34.28101],
          [-115.53221, 34.28195],
          [-115.53633, 34.30422],
          [-115.56586, 34.32215],
          [-115.56741, 34.32309],
          [-115.57154, 34.34536],
          [-115.57566, 34.36763],
          [-115.57979, 34.3899],
          [-115.58392, 34.41216],
          [-115.58277, 34.41345],
          [-115.56105, 34.43783],
          [-115.56518, 34.46009],
          [-115.56931, 34.48236],
          [-115.57344, 34.50461],
          [-115.57757, 34.52687],
          [-115.5817, 34.54913],
          [-115.58584, 34.57138],
          [-115.58997, 34.59364],
          [-115.58883, 34.59492],
          [-115.56707, 34.61929],
          [-115.57121, 34.64154],
          [-115.57006, 34.64282],
          [-115.5483, 34.66719],
          [-115.54715, 34.66847],
          [-115.52537, 34.69283],
          [-115.52422, 34.69411],
          [-115.49717, 34.69751],
          [-115.47011, 34.70089],
          [-115.44304, 34.70428],
          [-115.41598, 34.70765],
          [-115.38892, 34.71103],
          [-115.3671, 34.73536],
          [-115.36595, 34.73665],
          [-115.34412, 34.76098],
          [-115.34297, 34.76226],
          [-115.31589, 34.76562],
          [-115.29404, 34.78994],
          [-115.29813, 34.81219],
          [-115.29698, 34.81347],
          [-115.27511, 34.83778],
          [-115.2792, 34.86003],
          [-115.28328, 34.88227],
          [-115.31293, 34.90021],
          [-115.31449, 34.90115],
          [-115.34414, 34.91908],
          [-115.3457, 34.92003],
          [-115.3498, 34.94226],
          [-115.3539, 34.96449],
          [-115.35801, 34.98673],
          [-115.38769, 35.00465],
          [-115.38925, 35.00559],
          [-115.39337, 35.02782],
          [-115.39748, 35.05004],
          [-115.39633, 35.05132],
          [-115.37444, 35.07563],
          [-115.37856, 35.09786],
          [-115.3774, 35.09914],
          [-115.3555, 35.12344],
          [-115.35961, 35.14566],
          [-115.35846, 35.14694],
          [-115.33655, 35.17124],
          [-115.34066, 35.19345],
          [-115.3395, 35.19473],
          [-115.31758, 35.21903],
          [-115.32168, 35.24124],
          [-115.32053, 35.24252],
          [-115.29859, 35.2668],
          [-115.30269, 35.28902],
          [-115.30154, 35.29029],
          [-115.27958, 35.31457],
          [-115.28369, 35.33678],
          [-115.28779, 35.35899],
          [-115.28663, 35.36026],
          [-115.26466, 35.38454],
          [-115.26876, 35.40674],
          [-115.26761, 35.40802],
          [-115.24562, 35.43228],
          [-115.24447, 35.43356],
          [-115.22247, 35.45782],
          [-115.22657, 35.48002],
          [-115.22541, 35.4813],
          [-115.2034, 35.50555],
          [-115.20749, 35.52775],
          [-115.20634, 35.52902],
          [-115.18431, 35.55327],
          [-115.18841, 35.57546],
          [-115.18725, 35.57674],
          [-115.16521, 35.60098],
          [-115.1693, 35.62317],
          [-115.16814, 35.62444],
          [-115.14609, 35.64868],
          [-115.15018, 35.67086],
          [-115.14902, 35.67214],
          [-115.12695, 35.69637],
          [-115.13104, 35.71855],
          [-115.12988, 35.71983],
          [-115.1078, 35.74405],
          [-115.10664, 35.74532],
          [-115.08455, 35.76954],
          [-115.08339, 35.77081],
          [-115.05605, 35.77412],
          [-115.03395, 35.79833],
          [-115.03278, 35.7996],
          [-115.00544, 35.8029],
          [-114.98332, 35.8271],
          [-114.98215, 35.82837],
          [-114.9548, 35.83166],
          [-114.92744, 35.83495],
          [-114.90009, 35.83823],
          [-114.87273, 35.84151],
          [-114.84537, 35.84478],
          [-114.81801, 35.84805],
          [-114.79583, 35.87222],
          [-114.79467, 35.87349],
          [-114.7673, 35.87675],
          [-114.74511, 35.90091],
          [-114.74912, 35.92309],
          [-114.74796, 35.92436],
          [-114.72057, 35.92761],
          [-114.69319, 35.93085],
          [-114.67097, 35.955],
          [-114.67497, 35.97717],
          [-114.67898, 35.99935],
          [-114.68298, 36.02152],
          [-114.68699, 36.04368],
          [-114.71685, 36.06166],
          [-114.71842, 36.0626],
          [-114.74829, 36.08057],
          [-114.74986, 36.08152],
          [-114.77974, 36.09948],
          [-114.78132, 36.10043],
          [-114.78535, 36.12259],
          [-114.81524, 36.14054],
          [-114.81682, 36.14148],
          [-114.82086, 36.16364],
          [-114.85077, 36.18158],
          [-114.87821, 36.17831],
          [-114.87979, 36.17926],
          [-114.88384, 36.20141],
          [-114.8879, 36.22356],
          [-114.88673, 36.22483],
          [-114.86449, 36.24897],
          [-114.86332, 36.25025],
          [-114.83586, 36.25351],
          [-114.8084, 36.25677],
          [-114.78614, 36.28091],
          [-114.78497, 36.28218],
          [-114.7575, 36.28543],
          [-114.73002, 36.28868],
          [-114.70254, 36.29192],
          [-114.70097, 36.29097],
          [-114.67105, 36.27301],
          [-114.64358, 36.27625],
          [-114.6161, 36.27948],
          [-114.58863, 36.2827],
          [-114.56115, 36.28592],
          [-114.53367, 36.28914],
          [-114.50618, 36.29235],
          [-114.4787, 36.29556],
          [-114.45122, 36.29876],
          [-114.44964, 36.29781],
          [-114.41976, 36.2798],
          [-114.41819, 36.27885],
          [-114.38832, 36.26084],
          [-114.36084, 36.26403],
          [-114.35927, 36.26308],
          [-114.32942, 36.24505],
          [-114.32785, 36.2441],
          [-114.298, 36.22607],
          [-114.27053, 36.22925],
          [-114.26896, 36.2283],
          [-114.23913, 36.21025],
          [-114.23756, 36.2093],
          [-114.20774, 36.19125],
          [-114.18028, 36.19441],
          [-114.17871, 36.19346],
          [-114.1489, 36.1754],
          [-114.14733, 36.17445],
          [-114.14343, 36.15227],
          [-114.11364, 36.1342],
          [-114.11207, 36.13325],
          [-114.08229, 36.11517],
          [-114.08073, 36.11422],
          [-114.05096, 36.09614],
          [-114.04939, 36.09518],
          [-114.01964, 36.07709],
          [-113.99219, 36.08022],
          [-113.99063, 36.07927],
          [-113.96088, 36.06117],
          [-113.93344, 36.06429],
          [-113.906, 36.0674],
          [-113.88358, 36.09143],
          [-113.8824, 36.0927],
          [-113.85495, 36.0958],
          [-113.83252, 36.11982],
          [-113.83134, 36.12109],
          [-113.80388, 36.12419],
          [-113.78143, 36.1482],
          [-113.78024, 36.14946],
          [-113.75778, 36.17347],
          [-113.7566, 36.17473],
          [-113.73413, 36.19873],
          [-113.73795, 36.22091],
          [-113.73677, 36.22217],
          [-113.71428, 36.24616],
          [-113.7181, 36.26834],
          [-113.71692, 36.2696],
          [-113.69442, 36.29359],
          [-113.69824, 36.31575],
          [-113.69705, 36.31702],
          [-113.67454, 36.341],
          [-113.67835, 36.36316],
          [-113.68217, 36.38533],
          [-113.68098, 36.38659],
          [-113.65845, 36.41056],
          [-113.66227, 36.43272],
          [-113.66108, 36.43398],
          [-113.63853, 36.45795],
          [-113.64235, 36.4801],
          [-113.64116, 36.48136],
          [-113.6186, 36.50532],
          [-113.62241, 36.52748],
          [-113.62122, 36.52874],
          [-113.59865, 36.55269],
          [-113.60245, 36.57484],
          [-113.60127, 36.5761],
          [-113.57868, 36.60004],
          [-113.57749, 36.6013],
          [-113.55489, 36.62524],
          [-113.5537, 36.6265],
          [-113.53109, 36.65043],
          [-113.5299, 36.65169],
          [-113.50728, 36.67562],
          [-113.50609, 36.67688],
          [-113.48346, 36.7008],
          [-113.48227, 36.70206],
          [-113.45963, 36.72598],
          [-113.45843, 36.72724],
          [-113.43578, 36.75115],
          [-113.43459, 36.75241],
          [-113.41193, 36.77631],
          [-113.41073, 36.77757],
          [-113.3831, 36.78059],
          [-113.36042, 36.80449],
          [-113.35922, 36.80575],
          [-113.33158, 36.80876],
          [-113.30888, 36.83265],
          [-113.30769, 36.8339],
          [-113.28003, 36.83691],
          [-113.25238, 36.83991],
          [-113.22965, 36.86378],
          [-113.22846, 36.86504],
          [-113.20079, 36.86803],
          [-113.17313, 36.87102],
          [-113.14546, 36.874],
          [-113.11779, 36.87698],
          [-113.09012, 36.87995],
          [-113.06245, 36.88292],
          [-113.03477, 36.88588],
          [-113.0332, 36.88493],
          [-113.0034, 36.86671],
          [-112.97573, 36.86966],
          [-112.94805, 36.87261],
          [-112.94649, 36.87165],
          [-112.9167, 36.85342],
          [-112.88903, 36.85636],
          [-112.88746, 36.8554],
          [-112.85769, 36.83715],
          [-112.85613, 36.83619],
          [-112.85246, 36.81405],
          [-112.8488, 36.7919],
          [-112.84514, 36.76975],
          [-112.84148, 36.7476],
          [-112.83782, 36.72545],
          [-112.83416, 36.7033],
          [-112.80444, 36.68503],
          [-112.77681, 36.68796],
          [-112.77525, 36.68699],
          [-112.74554, 36.66872],
          [-112.71791, 36.67163],
          [-112.69028, 36.67454],
          [-112.66265, 36.67745],
          [-112.66109, 36.67649],
          [-112.6314, 36.65819],
          [-112.60378, 36.66108],
          [-112.60221, 36.66012],
          [-112.57254, 36.64181],
          [-112.57098, 36.64085],
          [-112.56738, 36.61868],
          [-112.56858, 36.61743],
          [-112.5914, 36.59362],
          [-112.5878, 36.57145],
          [-112.58419, 36.54928],
          [-112.5806, 36.5271],
          [-112.5818, 36.52585],
          [-112.60459, 36.50203],
          [-112.60099, 36.47986],
          [-112.60218, 36.4786],
          [-112.62496, 36.45478],
          [-112.59534, 36.43646],
          [-112.59379, 36.43549],
          [-112.59019, 36.41331],
          [-112.56059, 36.39498],
          [-112.55903, 36.39402],
          [-112.55544, 36.37183],
          [-112.55185, 36.34964],
          [-112.52228, 36.3313],
          [-112.52072, 36.33033],
          [-112.52192, 36.32908],
          [-112.54468, 36.30525],
          [-112.51512, 36.28691],
          [-112.48758, 36.28979],
          [-112.46004, 36.29267],
          [-112.43726, 36.31648],
          [-112.43606, 36.31774],
          [-112.40851, 36.32061],
          [-112.38097, 36.32347],
          [-112.37941, 36.3225],
          [-112.34987, 36.30413],
          [-112.32232, 36.30698],
          [-112.32077, 36.30602],
          [-112.29124, 36.28763],
          [-112.2637, 36.29048],
          [-112.26215, 36.28951],
          [-112.25862, 36.26731],
          [-112.22912, 36.24891],
          [-112.22756, 36.24794],
          [-112.19807, 36.22954],
          [-112.19652, 36.22857],
          [-112.16703, 36.21016],
          [-112.16548, 36.20919],
          [-112.13601, 36.19077],
          [-112.13445, 36.18981],
          [-112.13096, 36.16759],
          [-112.1015, 36.14917],
          [-112.09995, 36.1482],
          [-112.0705, 36.12976],
          [-112.06896, 36.12879],
          [-112.06547, 36.10657],
          [-112.03604, 36.08813],
          [-112.00854, 36.09094],
          [-112.007, 36.08997],
          [-112, 36.08558]
        ]
      }
    }
  ]
}

