{
  "type": "FeatureCollection",
  "contract_version": "1.0.0",
  "bbox": [-130, 30.07429, -112, 44.5],
  "features": [
    {
      "type": "Feature",
      "id": "2026091506_f228_09000_001",
      "properties": {
        "product_id": "winter_storm_levels",
        "source_id": "nbm_snow_level",
        "parameter": "snow_level",
        "definition": "height of the wet-bulb 0.5 degree C surface",
        "level_ft_msl": 9000,
        "label": "9,000 ft MSL",
        "unit": "ft_msl",
        "cycle_time_utc": "2026-09-15T06:00:00Z",
        "valid_time_utc": "2026-09-24T18:00:00Z",
        "lead_hours": 228,
        "segment": 1,
        "length_m": 66779
      },
      "geometry": {
        "type": "LineString",
        "coordinates": [
          [-121.70207, 44.07109],
          [-121.69972, 44.07362],
          [-121.67856, 44.09639],
          [-121.67621, 44.09892],
          [-121.65504, 44.12168],
          [-121.65269, 44.12421],
          [-121.62331, 44.12841],
          [-121.59392, 44.1326],
          [-121.56454, 44.13679],
          [-121.56102, 44.1351],
          [-121.52932, 44.11988],
          [-121.5258, 44.11819],
          [-121.49412, 44.10297],
          [-121.4906, 44.10127],
          [-121.48479, 44.08018],
          [-121.47898, 44.05907],
          [-121.47317, 44.03797],
          [-121.46736, 44.01686],
          [-121.46156, 43.99575],
          [-121.45576, 43.97463],
          [-121.45811, 43.9721],
          [-121.4793, 43.94934],
          [-121.48165, 43.94681],
          [-121.51098, 43.94263],
          [-121.54031, 43.93844],
          [-121.54383, 43.94014],
          [-121.57546, 43.95537],
          [-121.60479, 43.95118],
          [-121.60831, 43.95287],
          [-121.63996, 43.96809],
          [-121.64347, 43.96978],
          [-121.67513, 43.98499],
          [-121.67865, 43.98668],
          [-121.6845, 44.00779],
          [-121.69036, 44.02889],
          [-121.69621, 44.04999],
          [-121.70207, 44.07109]
        ]
      }
    },
    {
      "type": "Feature",
      "id": "2026091506_f228_09000_002",
      "properties": {
        "product_id": "winter_storm_levels",
        "source_id": "nbm_snow_level",
        "parameter": "snow_level",
        "definition": "height of the wet-bulb 0.5 degree C surface",
        "level_ft_msl": 9000,
        "label": "9,000 ft MSL",
        "unit": "ft_msl",
        "cycle_time_utc": "2026-09-15T06:00:00Z",
        "valid_time_utc": "2026-09-24T18:00:00Z",
        "lead_hours": 228,
        "segment": 2,
        "length_m": 1160158.7
      },
      "geometry": {
        "type": "LineString",
        "coordinates": [
          [-130, 38.44523],
          [-129.98386, 38.45351],
          [-129.98184, 38.45622],
          [-129.95769, 38.47153],
          [-129.93137, 38.48041],
          [-129.90397, 38.48606],
          [-129.88147, 38.49758],
          [-129.87908, 38.49921],
          [-129.85167, 38.50486],
          [-129.82786, 38.52122],
          [-129.80151, 38.53007],
          [-129.77301, 38.53248],
          [-129.74427, 38.53417],
          [-129.71456, 38.533],
          [-129.71146, 38.53249],
          [-129.68354, 38.52788],
          [-129.65253, 38.52277],
          [-129.6508, 38.52197],
          [-129.6202, 38.51371],
          [-129.60249, 38.50892],
          [-129.588, 38.505],
          [-129.55581, 38.49628],
          [-129.5542, 38.49585],
          [-129.52362, 38.48756],
          [-129.50592, 38.48276],
          [-129.49197, 38.48044],
          [-129.46163, 38.47726],
          [-129.43183, 38.47568],
          [-129.42885, 38.47552],
          [-129.40256, 38.4757],
          [-129.37222, 38.4725],
          [-129.34242, 38.4709],
          [-129.33944, 38.47074],
          [-129.31262, 38.4693],
          [-129.28058, 38.46089],
          [-129.27885, 38.46009],
          [-129.2483, 38.45176],
          [-129.23062, 38.44693],
          [-129.21615, 38.44298],
          [-129.18401, 38.43419],
          [-129.18103, 38.43403],
          [-129.15475, 38.43418],
          [-129.12444, 38.43093],
          [-129.10676, 38.42609],
          [-129.0923, 38.42213],
          [-129.06029, 38.41367],
          [-129.05719, 38.41315],
          [-129.03092, 38.41328],
          [-129.00061, 38.41001],
          [-128.97084, 38.40835],
          [-128.96923, 38.40791],
          [-128.93872, 38.39951],
          [-128.90895, 38.39784],
          [-128.90734, 38.3974],
          [-128.87795, 38.3924],
          [-128.84719, 38.38767],
          [-128.81964, 38.3928],
          [-128.81666, 38.39263],
          [-128.78987, 38.3911],
          [-128.7612, 38.39281],
          [-128.73033, 38.3877],
          [-128.72735, 38.38753],
          [-128.70109, 38.38761],
          [-128.67016, 38.38231],
          [-128.64097, 38.38239],
          [-128.63806, 38.38239],
          [-128.61179, 38.38246],
          [-128.58382, 38.38629],
          [-128.55637, 38.39173],
          [-128.52891, 38.39716],
          [-128.50146, 38.40259],
          [-128.47882, 38.41393],
          [-128.47642, 38.41555],
          [-128.4493, 38.42205],
          [-128.42183, 38.42746],
          [-128.40333, 38.4517],
          [-128.40127, 38.4544],
          [-128.37379, 38.4598],
          [-128.35527, 38.48403],
          [-128.35321, 38.48673],
          [-128.32572, 38.49213],
          [-128.30718, 38.51635],
          [-128.30478, 38.51796],
          [-128.27762, 38.52443],
          [-128.25012, 38.52982],
          [-128.23156, 38.55403],
          [-128.22915, 38.55564],
          [-128.20198, 38.5621],
          [-128.17446, 38.56747],
          [-128.14695, 38.57284],
          [-128.11942, 38.57821],
          [-128.0919, 38.58357],
          [-128.06437, 38.58893],
          [-128.03684, 38.59428],
          [-128.00931, 38.59963],
          [-127.98177, 38.60497],
          [-127.95423, 38.61031],
          [-127.92669, 38.61564],
          [-127.89915, 38.62097],
          [-127.87466, 38.63598],
          [-127.85293, 38.65046],
          [-127.85052, 38.65206],
          [-127.82296, 38.65738],
          [-127.7954, 38.66269],
          [-127.76818, 38.66908],
          [-127.74061, 38.67438],
          [-127.71304, 38.67968],
          [-127.68547, 38.68497],
          [-127.65789, 38.69026],
          [-127.63032, 38.69555],
          [-127.60274, 38.70083],
          [-127.57515, 38.7061],
          [-127.54757, 38.71138],
          [-127.51998, 38.71664],
          [-127.49239, 38.72191],
          [-127.4648, 38.72716],
          [-127.44023, 38.74211],
          [-127.41842, 38.75652],
          [-127.41599, 38.75812],
          [-127.38872, 38.76444],
          [-127.36413, 38.77937],
          [-127.33652, 38.78461],
          [-127.31468, 38.799],
          [-127.31226, 38.8006],
          [-127.28497, 38.80691],
          [-127.26036, 38.82182],
          [-127.2385, 38.8362],
          [-127.23607, 38.8378],
          [-127.21056, 38.84983],
          [-127.18515, 38.86221],
          [-127.158, 38.86904],
          [-127.14706, 38.87622],
          [-127.1343, 38.88697],
          [-127.10887, 38.89935],
          [-127.08598, 38.91048],
          [-127.08344, 38.91171],
          [-127.05905, 38.92749],
          [-127.03593, 38.94263],
          [-127.03472, 38.94343],
          [-127.01037, 38.95937],
          [-126.98435, 38.96993],
          [-126.96094, 38.97943],
          [-126.95833, 38.98048],
          [-126.93397, 38.99641],
          [-126.90793, 39.00695],
          [-126.89697, 39.01412],
          [-126.88356, 39.02287],
          [-126.85917, 39.03879],
          [-126.84819, 39.04595],
          [-126.83478, 39.0547],
          [-126.80872, 39.06522],
          [-126.78295, 39.07671],
          [-126.77167, 39.0829],
          [-126.75824, 39.09164],
          [-126.73217, 39.10216],
          [-126.70896, 39.11725],
          [-126.70774, 39.11804],
          [-126.68331, 39.13393],
          [-126.66887, 39.14739],
          [-126.66051, 39.15518],
          [-126.63606, 39.17106],
          [-126.62506, 39.1782],
          [-126.61161, 39.18693],
          [-126.58549, 39.19741],
          [-126.55938, 39.20789],
          [-126.54836, 39.21503],
          [-126.5349, 39.22375],
          [-126.50877, 39.23422],
          [-126.48263, 39.24469],
          [-126.45911, 39.25411],
          [-126.45655, 39.25533],
          [-126.43199, 39.27099],
          [-126.4087, 39.28603],
          [-126.40748, 39.28683],
          [-126.38296, 39.30265],
          [-126.35966, 39.31769],
          [-126.35843, 39.31848],
          [-126.3339, 39.3343],
          [-126.31058, 39.34932],
          [-126.30941, 39.35029],
          [-126.28377, 39.36252],
          [-126.25813, 39.37474],
          [-126.23504, 39.38573],
          [-126.23248, 39.38695],
          [-126.20682, 39.39917],
          [-126.18116, 39.41137],
          [-126.15806, 39.42236],
          [-126.15549, 39.42358],
          [-126.13198, 39.44294],
          [-126.10887, 39.45392],
          [-126.1063, 39.45514],
          [-126.08164, 39.47073],
          [-126.05541, 39.48112],
          [-126.04433, 39.48822],
          [-126.03138, 39.49886],
          [-126.00568, 39.51104],
          [-125.99508, 39.51974],
          [-125.98153, 39.5284],
          [-125.95527, 39.53878],
          [-125.929, 39.54915],
          [-125.91791, 39.55623],
          [-125.90494, 39.56686],
          [-125.87807, 39.57525],
          [-125.85179, 39.58561],
          [-125.82813, 39.59493],
          [-125.82556, 39.59614],
          [-125.80195, 39.61545],
          [-125.77877, 39.62637],
          [-125.77619, 39.62758],
          [-125.75257, 39.64688],
          [-125.72937, 39.6578],
          [-125.72679, 39.65901],
          [-125.70219, 39.67507],
          [-125.67995, 39.6892],
          [-125.67737, 39.69041],
          [-125.65157, 39.70253],
          [-125.62909, 39.72084],
          [-125.62791, 39.7218],
          [-125.60328, 39.73784],
          [-125.58101, 39.75196],
          [-125.57853, 39.75353],
          [-125.55378, 39.7692],
          [-125.53149, 39.78331],
          [-125.52902, 39.78487],
          [-125.50425, 39.80054],
          [-125.48195, 39.81464],
          [-125.47979, 39.81728],
          [-125.46036, 39.84104],
          [-125.45788, 39.84261],
          [-125.43309, 39.85826],
          [-125.41077, 39.87234],
          [-125.40861, 39.87498],
          [-125.38915, 39.89873],
          [-125.38699, 39.90137],
          [-125.36753, 39.92511],
          [-125.36504, 39.92668],
          [-125.33735, 39.93264],
          [-125.31786, 39.95637],
          [-125.3157, 39.95901],
          [-125.29621, 39.98274],
          [-125.29404, 39.98538],
          [-125.27454, 40.0091],
          [-125.27205, 40.01066],
          [-125.24719, 40.02627],
          [-125.22481, 40.04032],
          [-125.22264, 40.04296],
          [-125.20311, 40.06666],
          [-125.20062, 40.06822],
          [-125.17574, 40.08382],
          [-125.16597, 40.09567],
          [-125.15402, 40.11015],
          [-125.13161, 40.12418],
          [-125.12943, 40.12682],
          [-125.10987, 40.1505],
          [-125.10769, 40.15314],
          [-125.08812, 40.17682],
          [-125.08594, 40.17945],
          [-125.06636, 40.20313],
          [-125.06418, 40.20576],
          [-125.04458, 40.22943],
          [-125.04241, 40.23206],
          [-125.0228, 40.25572],
          [-125.02062, 40.25835],
          [-125.00101, 40.28201],
          [-124.99883, 40.28464],
          [-124.9792, 40.30829],
          [-124.97702, 40.31092],
          [-124.95738, 40.33457],
          [-124.9552, 40.3372],
          [-124.93556, 40.36084],
          [-124.93337, 40.36347],
          [-124.92639, 40.38494],
          [-124.91437, 40.39938],
          [-124.90454, 40.4112],
          [-124.89677, 40.43505],
          [-124.896, 40.43743],
          [-124.87632, 40.46106],
          [-124.87413, 40.46368],
          [-124.85444, 40.4873],
          [-124.85225, 40.48992],
          [-124.84525, 40.51138],
          [-124.83745, 40.53521],
          [-124.83668, 40.5376],
          [-124.81696, 40.5612],
          [-124.81477, 40.56382],
          [-124.79505, 40.58742],
          [-124.79286, 40.59004],
          [-124.77313, 40.61364],
          [-124.77094, 40.61626],
          [-124.7639, 40.6377],
          [-124.75608, 40.66151],
          [-124.75499, 40.66282],
          [-124.73414, 40.68771],
          [-124.73335, 40.69009],
          [-124.71359, 40.71367],
          [-124.71139, 40.71629],
          [-124.70434, 40.73771],
          [-124.6965, 40.76151],
          [-124.6954, 40.76282],
          [-124.67451, 40.78769],
          [-124.67341, 40.789],
          [-124.65252, 40.81386],
          [-124.65173, 40.81624],
          [-124.63192, 40.83979],
          [-124.62972, 40.84241],
          [-124.62264, 40.86382],
          [-124.61053, 40.8782],
          [-124.60062, 40.88997],
          [-124.5885, 40.90436],
          [-124.57858, 40.91612],
          [-124.56646, 40.9305],
          [-124.55653, 40.94227],
          [-124.54864, 40.96603],
          [-124.54785, 40.96841],
          [-124.52799, 40.99193],
          [-124.52579, 40.99454],
          [-124.51867, 41.01593],
          [-124.51077, 41.03968],
          [-124.50998, 41.04206],
          [-124.49009, 41.06556],
          [-124.48788, 41.06818],
          [-124.46799, 41.09168],
          [-124.46578, 41.09429],
          [-124.45865, 41.11566],
          [-124.45214, 41.13916],
          [-124.44993, 41.14177],
          [-124.43001, 41.16526],
          [-124.4278, 41.16787],
          [-124.40787, 41.19135],
          [-124.40566, 41.19396],
          [-124.38572, 41.21743],
          [-124.38351, 41.22004],
          [-124.37635, 41.24139],
          [-124.36981, 41.26488],
          [-124.3676, 41.26749],
          [-124.34764, 41.29095],
          [-124.34542, 41.29355],
          [-124.32545, 41.31701],
          [-124.32323, 41.31961],
          [-124.30325, 41.34306],
          [-124.3095, 41.36442],
          [-124.30728, 41.36703],
          [-124.28728, 41.39047],
          [-124.28506, 41.39308],
          [-124.26506, 41.41651],
          [-124.2713, 41.43786],
          [-124.26908, 41.44047],
          [-124.24906, 41.46389],
          [-124.24684, 41.4665],
          [-124.22681, 41.48992],
          [-124.23305, 41.51127],
          [-124.23083, 41.51387],
          [-124.21079, 41.53728],
          [-124.20856, 41.53988],
          [-124.18851, 41.56329],
          [-124.18628, 41.56589],
          [-124.16622, 41.58929],
          [-124.16399, 41.59189],
          [-124.14392, 41.61529],
          [-124.15015, 41.63662],
          [-124.14792, 41.63922],
          [-124.12784, 41.66261],
          [-124.13407, 41.68394],
          [-124.13184, 41.68654],
          [-124.11174, 41.70992],
          [-124.10951, 41.71251],
          [-124.0894, 41.73589],
          [-124.09563, 41.75721],
          [-124.09339, 41.7598],
          [-124.07327, 41.78317],
          [-124.07104, 41.78577],
          [-124.05091, 41.80913],
          [-124.04867, 41.81172],
          [-124.02853, 41.83508],
          [-124.02629, 41.83767],
          [-124.00614, 41.86102],
          [-124.0039, 41.86361],
          [-123.98374, 41.88696],
          [-123.9815, 41.88955],
          [-123.96132, 41.91289],
          [-123.95908, 41.91548],
          [-123.9389, 41.93881],
          [-123.94511, 41.96011],
          [-123.94286, 41.9627],
          [-123.92267, 41.98602],
          [-123.92042, 41.98861],
          [-123.90022, 42.01193],
          [-123.89797, 42.01452],
          [-123.87776, 42.03783],
          [-123.87551, 42.04042],
          [-123.85528, 42.06373],
          [-123.85303, 42.06631],
          [-123.8328, 42.08961],
          [-123.83055, 42.0922],
          [-123.8103, 42.11549],
          [-123.80805, 42.11808],
          [-123.78779, 42.14137],
          [-123.78554, 42.14395],
          [-123.75684, 42.14854],
          [-123.73656, 42.17182],
          [-123.73431, 42.1744],
          [-123.71402, 42.19767],
          [-123.71177, 42.20026],
          [-123.68304, 42.20483],
          [-123.66274, 42.22809],
          [-123.66048, 42.23068],
          [-123.63175, 42.23524],
          [-123.61142, 42.25849],
          [-123.60916, 42.26107],
          [-123.58042, 42.26563],
          [-123.55167, 42.27018],
          [-123.53132, 42.29342],
          [-123.52906, 42.296],
          [-123.5003, 42.30054],
          [-123.47993, 42.32377],
          [-123.47767, 42.32635],
          [-123.4489, 42.33088],
          [-123.42852, 42.3541],
          [-123.42625, 42.35667],
          [-123.39747, 42.3612],
          [-123.37707, 42.38441],
          [-123.3748, 42.38698],
          [-123.34876, 42.40107],
          [-123.32559, 42.4147],
          [-123.32332, 42.41727],
          [-123.29726, 42.43135],
          [-123.27407, 42.44497],
          [-123.2718, 42.44754],
          [-123.25135, 42.47072],
          [-123.24878, 42.47224],
          [-123.22026, 42.47779],
          [-123.19979, 42.50096],
          [-123.19752, 42.50354],
          [-123.17704, 42.5267],
          [-123.17446, 42.52821],
          [-123.14592, 42.53376],
          [-123.12542, 42.55691],
          [-123.12314, 42.55948],
          [-123.09429, 42.56396],
          [-123.07378, 42.5871],
          [-123.0715, 42.58967],
          [-123.04263, 42.59413],
          [-123.0221, 42.61727],
          [-123.01982, 42.61984],
          [-122.99094, 42.62429],
          [-122.97039, 42.64742],
          [-122.96811, 42.64999],
          [-122.93922, 42.65443],
          [-122.91865, 42.67755],
          [-122.91637, 42.68011],
          [-122.89579, 42.70322],
          [-122.8935, 42.70579],
          [-122.86459, 42.71022],
          [-122.844, 42.73332],
          [-122.84171, 42.73589],
          [-122.81279, 42.74031],
          [-122.79217, 42.7634],
          [-122.78988, 42.76596],
          [-122.76926, 42.78905],
          [-122.76696, 42.79161],
          [-122.74633, 42.81469],
          [-122.74403, 42.81725],
          [-122.72338, 42.84032],
          [-122.72109, 42.84289],
          [-122.70043, 42.86595],
          [-122.69814, 42.86851],
          [-122.66917, 42.87291],
          [-122.6485, 42.89597],
          [-122.65449, 42.91719],
          [-122.65219, 42.91975],
          [-122.6315, 42.94279],
          [-122.6292, 42.94536],
          [-122.6085, 42.9684],
          [-122.6062, 42.97096],
          [-122.58549, 42.99399],
          [-122.58319, 42.99655],
          [-122.56246, 43.01958],
          [-122.56844, 43.04078],
          [-122.56614, 43.04334],
          [-122.54541, 43.06636],
          [-122.5431, 43.06892],
          [-122.52235, 43.09193],
          [-122.52005, 43.09449],
          [-122.49929, 43.11749],
          [-122.49698, 43.12005],
          [-122.47621, 43.14305],
          [-122.47391, 43.14561],
          [-122.45313, 43.1686],
          [-122.45082, 43.17115],
          [-122.43003, 43.19414],
          [-122.42772, 43.1967],
          [-122.40692, 43.21968],
          [-122.4046, 43.22223],
          [-122.38379, 43.24521],
          [-122.38148, 43.24776],
          [-122.36066, 43.27073],
          [-122.35834, 43.27328],
          [-122.33751, 43.29624],
          [-122.3352, 43.29879],
          [-122.31435, 43.32175],
          [-122.31204, 43.3243],
          [-122.28292, 43.32862],
          [-122.26206, 43.35157],
          [-122.25974, 43.35412],
          [-122.23062, 43.35843],
          [-122.20974, 43.38137],
          [-122.20742, 43.38392],
          [-122.17828, 43.38822],
          [-122.15738, 43.41115],
          [-122.15506, 43.41369],
          [-122.13415, 43.43661],
          [-122.13183, 43.43916],
          [-122.11091, 43.46207],
          [-122.10858, 43.46462],
          [-122.08765, 43.48753],
          [-122.08532, 43.49007],
          [-122.05615, 43.49435],
          [-122.0352, 43.51725],
          [-122.03287, 43.51979],
          [-122.00369, 43.52407],
          [-121.9745, 43.52834],
          [-121.94532, 43.5326],
          [-121.91612, 43.53686],
          [-121.89513, 43.55974],
          [-121.8928, 43.56228],
          [-121.8636, 43.56653],
          [-121.83439, 43.57077],
          [-121.80519, 43.57502],
          [-121.77598, 43.57925],
          [-121.74677, 43.58348],
          [-121.71755, 43.58771],
          [-121.68834, 43.59193],
          [-121.65912, 43.59615],
          [-121.63805, 43.61899],
          [-121.63571, 43.62153],
          [-121.60648, 43.62574],
          [-121.57725, 43.62994],
          [-121.55616, 43.65276],
          [-121.55381, 43.6553],
          [-121.52457, 43.65949],
          [-121.50346, 43.68231],
          [-121.50111, 43.68484],
          [-121.47186, 43.68903],
          [-121.45073, 43.71183],
          [-121.44838, 43.71436],
          [-121.42724, 43.73716],
          [-121.42489, 43.73969],
          [-121.40375, 43.76248],
          [-121.40139, 43.76501],
          [-121.38023, 43.7878],
          [-121.37788, 43.79033],
          [-121.35671, 43.8131],
          [-121.36248, 43.83424],
          [-121.36825, 43.85538],
          [-121.3659, 43.85791],
          [-121.34471, 43.88068],
          [-121.35048, 43.90181],
          [-121.34813, 43.90434],
          [-121.32692, 43.92709],
          [-121.33269, 43.94822],
          [-121.33034, 43.95075],
          [-121.30912, 43.97349],
          [-121.30676, 43.97602],
          [-121.28553, 43.99876],
          [-121.28317, 44.00129],
          [-121.26193, 44.02402],
          [-121.25957, 44.02655],
          [-121.23832, 44.04928],
          [-121.23596, 44.0518],
          [-121.2147, 44.07452],
          [-121.21234, 44.07705],
          [-121.18295, 44.08118],
          [-121.16167, 44.10389],
          [-121.15931, 44.10641],
          [-121.12991, 44.11053],
          [-121.10861, 44.13324],
          [-121.10624, 44.13576],
          [-121.07684, 44.13987],
          [-121.05552, 44.16256],
          [-121.05315, 44.16508],
          [-121.02373, 44.16918],
          [-120.99431, 44.17328],
          [-120.97297, 44.19596],
          [-120.97059, 44.19848],
          [-120.94116, 44.20257],
          [-120.9198, 44.22523],
          [-120.91742, 44.22775],
          [-120.88798, 44.23183],
          [-120.8666, 44.25449],
          [-120.86422, 44.25701],
          [-120.83477, 44.26108],
          [-120.80531, 44.26514],
          [-120.7839, 44.28778],
          [-120.78124, 44.28925],
          [-120.75206, 44.29436],
          [-120.72259, 44.29841],
          [-120.69311, 44.30246],
          [-120.66618, 44.31599],
          [-120.64219, 44.32912],
          [-120.6398, 44.33163],
          [-120.61032, 44.33567],
          [-120.58083, 44.3397],
          [-120.55935, 44.3623],
          [-120.55696, 44.36481],
          [-120.53548, 44.38741],
          [-120.53309, 44.38992],
          [-120.51159, 44.41251],
          [-120.51721, 44.43359],
          [-120.52283, 44.45467],
          [-120.52846, 44.47575],
          [-120.56011, 44.4911],
          [-120.56363, 44.4928],
          [-120.56555, 44.5]
        ]
      }
    },
    {
      "type": "Feature",
      "id": "2026091506_f228_09000_003",
      "properties": {
        "product_id": "winter_storm_levels",
        "source_id": "nbm_snow_level",
        "parameter": "snow_level",
        "definition": "height of the wet-bulb 0.5 degree C surface",
        "level_ft_msl": 9000,
        "label": "9,000 ft MSL",
        "unit": "ft_msl",
        "cycle_time_utc": "2026-09-15T06:00:00Z",
        "valid_time_utc": "2026-09-24T18:00:00Z",
        "lead_hours": 228,
        "segment": 3,
        "length_m": 259979.5
      },
      "geometry": {
        "type": "LineString",
        "coordinates": [
          [-130, 39.13526],
          [-129.9781, 39.13975],
          [-129.95053, 39.14539],
          [-129.92295, 39.15102],
          [-129.89537, 39.15666],
          [-129.86402, 39.14247],
          [-129.86053, 39.14089],
          [-129.83295, 39.14652],
          [-129.80161, 39.13232],
          [-129.79813, 39.13074],
          [-129.77055, 39.13636],
          [-129.73922, 39.12215],
          [-129.73573, 39.12057],
          [-129.70441, 39.10635],
          [-129.70093, 39.10477],
          [-129.67335, 39.11037],
          [-129.64204, 39.09614],
          [-129.63856, 39.09456],
          [-129.61098, 39.10015],
          [-129.57968, 39.08591],
          [-129.57621, 39.08433],
          [-129.54863, 39.0899],
          [-129.52104, 39.09548],
          [-129.48976, 39.08122],
          [-129.48628, 39.07964],
          [-129.45501, 39.06537],
          [-129.45153, 39.06379],
          [-129.42026, 39.04952],
          [-129.41679, 39.04793],
          [-129.38553, 39.03365],
          [-129.38206, 39.03207],
          [-129.35081, 39.01778],
          [-129.34734, 39.01619],
          [-129.31977, 39.02174],
          [-129.28853, 39.00744],
          [-129.28506, 39.00585],
          [-129.25383, 38.99155],
          [-129.25036, 38.98996],
          [-129.21915, 38.97565],
          [-129.21568, 38.97405],
          [-129.18447, 38.95974],
          [-129.18101, 38.95814],
          [-129.15344, 38.96366],
          [-129.15139, 38.96636],
          [-129.13296, 38.99062],
          [-129.10538, 38.99613],
          [-129.07779, 39.00164],
          [-129.05021, 39.00714],
          [-129.02262, 39.01264],
          [-129.02057, 39.01533],
          [-129.00209, 39.03957],
          [-128.97449, 39.04506],
          [-128.94689, 39.05054],
          [-128.94484, 39.05323],
          [-128.9519, 39.07467],
          [-128.9334, 39.09889],
          [-128.93135, 39.10158],
          [-128.93841, 39.12302],
          [-128.9199, 39.14723],
          [-128.91784, 39.14992],
          [-128.9249, 39.17135],
          [-128.93197, 39.19277],
          [-128.93544, 39.19437],
          [-128.96668, 39.20872],
          [-128.97376, 39.23014],
          [-128.98084, 39.25155],
          [-128.98792, 39.27297],
          [-128.99501, 39.29438],
          [-129.00209, 39.31579],
          [-129.00918, 39.3372],
          [-129.01628, 39.3586],
          [-129.02337, 39.38],
          [-129.03047, 39.4014],
          [-129.03395, 39.40299],
          [-129.06527, 39.41731],
          [-129.07238, 39.4387],
          [-129.0795, 39.4601],
          [-129.08661, 39.48148],
          [-129.09373, 39.50287],
          [-129.10085, 39.52426],
          [-129.10434, 39.52584],
          [-129.1357, 39.54014],
          [-129.14284, 39.56152],
          [-129.14997, 39.58289],
          [-129.15711, 39.60427],
          [-129.16425, 39.62564],
          [-129.1714, 39.64701],
          [-129.17855, 39.66837],
          [-129.18204, 39.66996],
          [-129.21346, 39.68423],
          [-129.22062, 39.70559],
          [-129.22411, 39.70718],
          [-129.25187, 39.70166],
          [-129.28331, 39.71592],
          [-129.2868, 39.7175],
          [-129.31456, 39.71198],
          [-129.34232, 39.70646],
          [-129.37008, 39.70093],
          [-129.39783, 39.69539],
          [-129.42929, 39.70962],
          [-129.43278, 39.7112],
          [-129.46053, 39.70566],
          [-129.48828, 39.70011],
          [-129.51603, 39.69456],
          [-129.54377, 39.689],
          [-129.57151, 39.68344],
          [-129.57356, 39.68075],
          [-129.59201, 39.65652],
          [-129.61974, 39.65095],
          [-129.64747, 39.64538],
          [-129.67519, 39.6398],
          [-129.70291, 39.63421],
          [-129.73063, 39.62862],
          [-129.75834, 39.62303],
          [-129.78605, 39.61743],
          [-129.81376, 39.61183],
          [-129.84147, 39.60622],
          [-129.86917, 39.60061],
          [-129.89687, 39.59499],
          [-129.89891, 39.5923],
          [-129.91727, 39.56803],
          [-129.94496, 39.56241],
          [-129.97264, 39.55678],
          [-129.97468, 39.55408],
          [-129.99302, 39.5298],
          [-130, 39.52838]
        ]
      }
    },
    {
      "type": "Feature",
      "id": "2026091506_f228_10000_001",
      "properties": {
        "product_id": "winter_storm_levels",
        "source_id": "nbm_snow_level",
        "parameter": "snow_level",
        "definition": "height of the wet-bulb 0.5 degree C surface",
        "level_ft_msl": 10000,
        "label": "10,000 ft MSL",
        "unit": "ft_msl",
        "cycle_time_utc": "2026-09-15T06:00:00Z",
        "valid_time_utc": "2026-09-24T18:00:00Z",
        "lead_hours": 228,
        "segment": 1,
        "length_m": 2045504.3
      },
      "geometry": {
        "type": "LineString",
        "coordinates": [
          [-119.06188, 30.24659],
          [-119.05776, 30.25171],
          [-119.03184, 30.25573],
          [-119.01057, 30.28212],
          [-118.98464, 30.28612],
          [-118.96335, 30.31251],
          [-118.93742, 30.31651],
          [-118.91611, 30.34288],
          [-118.89479, 30.36926],
          [-118.87346, 30.39563],
          [-118.85212, 30.42199],
          [-118.83077, 30.44836],
          [-118.80941, 30.47471],
          [-118.78344, 30.47868],
          [-118.75746, 30.48265],
          [-118.73608, 30.509],
          [-118.71469, 30.53534],
          [-118.69329, 30.56168],
          [-118.67188, 30.58801],
          [-118.67647, 30.61039],
          [-118.65505, 30.63672],
          [-118.65963, 30.65911],
          [-118.6382, 30.68543],
          [-118.64278, 30.70781],
          [-118.62133, 30.73413],
          [-118.62592, 30.75651],
          [-118.6305, 30.77889],
          [-118.63509, 30.80126],
          [-118.61362, 30.82758],
          [-118.61821, 30.84995],
          [-118.6228, 30.87233],
          [-118.62738, 30.8947],
          [-118.63198, 30.91707],
          [-118.63657, 30.93944],
          [-118.64116, 30.96181],
          [-118.64576, 30.98418],
          [-118.65036, 31.00655],
          [-118.65496, 31.02892],
          [-118.65956, 31.05128],
          [-118.66416, 31.07365],
          [-118.66877, 31.09601],
          [-118.67338, 31.11837],
          [-118.65186, 31.14468],
          [-118.65646, 31.16704],
          [-118.66107, 31.1894],
          [-118.66568, 31.21176],
          [-118.67029, 31.23411],
          [-118.67491, 31.25647],
          [-118.67952, 31.27882],
          [-118.68414, 31.30118],
          [-118.68875, 31.32353],
          [-118.69337, 31.34588],
          [-118.698, 31.36823],
          [-118.70262, 31.39058],
          [-118.70725, 31.41293],
          [-118.68568, 31.43923],
          [-118.69031, 31.46157],
          [-118.69493, 31.48392],
          [-118.67335, 31.51021],
          [-118.67798, 31.53255],
          [-118.6826, 31.55489],
          [-118.661, 31.58118],
          [-118.6394, 31.60745],
          [-118.61778, 31.63373],
          [-118.6224, 31.65607],
          [-118.60077, 31.68234],
          [-118.60539, 31.70467],
          [-118.61001, 31.72701],
          [-118.61463, 31.74935],
          [-118.61925, 31.77168],
          [-118.62388, 31.79401],
          [-118.6285, 31.81635],
          [-118.63313, 31.83868],
          [-118.61147, 31.86494],
          [-118.6161, 31.88727],
          [-118.62073, 31.90959],
          [-118.62536, 31.93192],
          [-118.6563, 31.95031],
          [-118.66094, 31.97264],
          [-118.66558, 31.99496],
          [-118.69654, 32.01334],
          [-118.70119, 32.03566],
          [-118.73218, 32.05403],
          [-118.73683, 32.07635],
          [-118.76783, 32.09471],
          [-118.7725, 32.11703],
          [-118.77717, 32.13934],
          [-118.78184, 32.16165],
          [-118.78651, 32.18396],
          [-118.79118, 32.20626],
          [-118.79586, 32.22857],
          [-118.80054, 32.25088],
          [-118.80522, 32.27318],
          [-118.83628, 32.29152],
          [-118.84097, 32.31383],
          [-118.84566, 32.33613],
          [-118.85035, 32.35842],
          [-118.85504, 32.38072],
          [-118.85974, 32.40302],
          [-118.86443, 32.42531],
          [-118.84271, 32.45157],
          [-118.84741, 32.47386],
          [-118.85211, 32.49615],
          [-118.83037, 32.5224],
          [-118.83507, 32.54469],
          [-118.81332, 32.57094],
          [-118.81801, 32.59322],
          [-118.79625, 32.61946],
          [-118.80095, 32.64175],
          [-118.80564, 32.66403],
          [-118.81034, 32.68632],
          [-118.78856, 32.71255],
          [-118.79325, 32.73483],
          [-118.77146, 32.76106],
          [-118.77615, 32.78333],
          [-118.75435, 32.80956],
          [-118.73253, 32.83577],
          [-118.73722, 32.85805],
          [-118.74191, 32.88032],
          [-118.7466, 32.9026],
          [-118.77783, 32.92092],
          [-118.78253, 32.94319],
          [-118.78723, 32.96546],
          [-118.81848, 32.98377],
          [-118.8232, 33.00604],
          [-118.85446, 33.02435],
          [-118.85919, 33.04661],
          [-118.89047, 33.0649],
          [-118.92176, 33.0832],
          [-118.95307, 33.10148],
          [-118.95781, 33.12373],
          [-118.98913, 33.14201],
          [-118.99388, 33.16426],
          [-118.99864, 33.18651],
          [-119.0034, 33.20876],
          [-119.03475, 33.22702],
          [-119.03951, 33.24926],
          [-119.07088, 33.26752],
          [-119.07565, 33.28976],
          [-119.10704, 33.308],
          [-119.11182, 33.33024],
          [-119.14323, 33.34847],
          [-119.14802, 33.37071],
          [-119.15281, 33.39294],
          [-119.18424, 33.41116],
          [-119.18904, 33.43339],
          [-119.19384, 33.45562],
          [-119.19865, 33.47785],
          [-119.20346, 33.50007],
          [-119.23492, 33.51828],
          [-119.23974, 33.5405],
          [-119.24456, 33.56272],
          [-119.24938, 33.58494],
          [-119.2542, 33.60715],
          [-119.25903, 33.62937],
          [-119.26385, 33.65158],
          [-119.26868, 33.67379],
          [-119.27351, 33.696],
          [-119.30504, 33.71419],
          [-119.30988, 33.7364],
          [-119.31472, 33.7586],
          [-119.31957, 33.78081],
          [-119.32441, 33.80301],
          [-119.32926, 33.82521],
          [-119.33411, 33.84741],
          [-119.33896, 33.8696],
          [-119.34381, 33.8918],
          [-119.34866, 33.91399],
          [-119.35352, 33.93619],
          [-119.38513, 33.95435],
          [-119.39, 33.97654],
          [-119.39486, 33.99872],
          [-119.39973, 34.02091],
          [-119.43137, 34.03905],
          [-119.43625, 34.06124],
          [-119.46791, 34.07937],
          [-119.4728, 34.10155],
          [-119.50448, 34.11968],
          [-119.53616, 34.1378],
          [-119.56786, 34.15591],
          [-119.59957, 34.17402],
          [-119.63128, 34.19212],
          [-119.66301, 34.21021],
          [-119.69475, 34.22829],
          [-119.7265, 34.24637],
          [-119.73144, 34.26853],
          [-119.76321, 34.2866],
          [-119.79499, 34.30466],
          [-119.79995, 34.32681],
          [-119.83174, 34.34486],
          [-119.83671, 34.36701],
          [-119.84168, 34.38916],
          [-119.8735, 34.4072],
          [-119.87848, 34.42935],
          [-119.88347, 34.45149],
          [-119.91531, 34.46952],
          [-119.9203, 34.49166],
          [-119.95216, 34.50968],
          [-119.95716, 34.53181],
          [-119.98904, 34.54982],
          [-119.99405, 34.57196],
          [-119.99906, 34.59409],
          [-120.00408, 34.61622],
          [-120.03599, 34.63421],
          [-120.04101, 34.65634],
          [-120.07294, 34.67432],
          [-120.10487, 34.6923],
          [-120.10991, 34.71442],
          [-120.14187, 34.73239],
          [-120.14692, 34.75451],
          [-120.17889, 34.77247],
          [-120.18395, 34.79458],
          [-120.18901, 34.81669],
          [-120.221, 34.83464],
          [-120.22607, 34.85674],
          [-120.23115, 34.87885],
          [-120.26317, 34.89678],
          [-120.26825, 34.91888],
          [-120.27333, 34.94098],
          [-120.27841, 34.96308],
          [-120.2835, 34.98517],
          [-120.28859, 35.00726],
          [-120.29368, 35.02935],
          [-120.29878, 35.05144],
          [-120.33086, 35.06936],
          [-120.33596, 35.09144],
          [-120.34106, 35.11353],
          [-120.34617, 35.13561],
          [-120.35128, 35.15769],
          [-120.32938, 35.18394],
          [-120.33449, 35.20602],
          [-120.33959, 35.22809],
          [-120.34471, 35.25017],
          [-120.32278, 35.27641],
          [-120.3279, 35.29848],
          [-120.30596, 35.32472],
          [-120.31107, 35.34679],
          [-120.31618, 35.36886],
          [-120.32129, 35.39092],
          [-120.29934, 35.41715],
          [-120.30445, 35.43921],
          [-120.28248, 35.46543],
          [-120.28759, 35.48749],
          [-120.26561, 35.51371],
          [-120.27072, 35.53576],
          [-120.24873, 35.56197],
          [-120.25384, 35.58402],
          [-120.28607, 35.60192],
          [-120.29118, 35.62396],
          [-120.2963, 35.64601],
          [-120.30143, 35.66805],
          [-120.33369, 35.68593],
          [-120.36596, 35.7038],
          [-120.3711, 35.72584],
          [-120.37624, 35.74787],
          [-120.40854, 35.76573],
          [-120.41369, 35.78776],
          [-120.41884, 35.80979],
          [-120.42399, 35.83182],
          [-120.45632, 35.84966],
          [-120.46149, 35.87168],
          [-120.49383, 35.88952],
          [-120.49901, 35.91154],
          [-120.50418, 35.93355],
          [-120.53655, 35.95137],
          [-120.54174, 35.97339],
          [-120.57413, 35.9912],
          [-120.60653, 36.009],
          [-120.63894, 36.0268],
          [-120.67136, 36.04459],
          [-120.70379, 36.06237],
          [-120.73624, 36.08014],
          [-120.76869, 36.09791],
          [-120.80115, 36.11567],
          [-120.83363, 36.13342],
          [-120.83888, 36.15541],
          [-120.84413, 36.1774],
          [-120.87663, 36.19514],
          [-120.8819, 36.21712],
          [-120.88716, 36.2391],
          [-120.91969, 36.25683],
          [-120.92497, 36.27881],
          [-120.93024, 36.30078],
          [-120.93552, 36.32276],
          [-120.94081, 36.34473],
          [-120.97337, 36.36244],
          [-120.97866, 36.3844],
          [-120.98396, 36.40637],
          [-120.98926, 36.42833],
          [-120.99455, 36.45029],
          [-120.99985, 36.47225],
          [-121.00516, 36.49421],
          [-121.01046, 36.51616],
          [-121.01577, 36.53811],
          [-121.02108, 36.56006],
          [-120.99906, 36.58628],
          [-121.00436, 36.60822],
          [-121.00968, 36.63017],
          [-120.98764, 36.65637],
          [-120.99295, 36.67831],
          [-120.97089, 36.70451],
          [-120.94883, 36.7307],
          [-120.92676, 36.75689],
          [-120.93206, 36.77882],
          [-120.90997, 36.805],
          [-120.91527, 36.82694],
          [-120.92057, 36.84887],
          [-120.89847, 36.87504],
          [-120.90377, 36.89696],
          [-120.90908, 36.91889],
          [-120.88695, 36.94505],
          [-120.89226, 36.96697],
          [-120.87012, 36.99312],
          [-120.87542, 37.01504],
          [-120.88073, 37.03696],
          [-120.85858, 37.0631],
          [-120.86388, 37.08501],
          [-120.84171, 37.11115],
          [-120.84701, 37.13306],
          [-120.85232, 37.15496],
          [-120.85762, 37.17687],
          [-120.86293, 37.19877],
          [-120.84074, 37.2249],
          [-120.84605, 37.24679],
          [-120.85136, 37.26869],
          [-120.85667, 37.29058],
          [-120.83446, 37.3167],
          [-120.83977, 37.33859],
          [-120.84508, 37.36048],
          [-120.8504, 37.38236],
          [-120.82817, 37.40847],
          [-120.83348, 37.43035],
          [-120.8388, 37.45223],
          [-120.84412, 37.47411],
          [-120.84944, 37.49599],
          [-120.85476, 37.51786],
          [-120.86008, 37.53973],
          [-120.86541, 37.5616],
          [-120.84315, 37.58769],
          [-120.84847, 37.60955],
          [-120.8538, 37.63142],
          [-120.85913, 37.65328],
          [-120.86446, 37.67514],
          [-120.8698, 37.69699],
          [-120.84751, 37.72307],
          [-120.85284, 37.74492],
          [-120.85818, 37.76677],
          [-120.86351, 37.78862],
          [-120.86885, 37.81047],
          [-120.84654, 37.83653],
          [-120.85188, 37.85837],
          [-120.85722, 37.88021],
          [-120.83489, 37.90627],
          [-120.84023, 37.9281],
          [-120.81788, 37.95415],
          [-120.82322, 37.97598],
          [-120.80086, 38.00202],
          [-120.80619, 38.02385],
          [-120.81153, 38.04568],
          [-120.78916, 38.0717],
          [-120.76677, 38.09773],
          [-120.74437, 38.12374],
          [-120.7497, 38.14556],
          [-120.72728, 38.17157],
          [-120.70486, 38.19758],
          [-120.68242, 38.22357],
          [-120.65998, 38.24957],
          [-120.6653, 38.27138],
          [-120.64283, 38.29736],
          [-120.64816, 38.31917],
          [-120.65348, 38.34097],
          [-120.6588, 38.36277],
          [-120.66413, 38.38457],
          [-120.66946, 38.40637],
          [-120.64697, 38.43234],
          [-120.6523, 38.45413],
          [-120.65763, 38.47592],
          [-120.66296, 38.49771],
          [-120.64045, 38.52366],
          [-120.64578, 38.54545],
          [-120.65111, 38.56723],
          [-120.65645, 38.58901],
          [-120.66179, 38.61079],
          [-120.66713, 38.63256],
          [-120.64459, 38.6585],
          [-120.64993, 38.68027],
          [-120.65527, 38.70204],
          [-120.63271, 38.72798],
          [-120.63805, 38.74974],
          [-120.6434, 38.7715],
          [-120.62082, 38.79743],
          [-120.62616, 38.81918],
          [-120.63151, 38.84094],
          [-120.63685, 38.86269],
          [-120.6422, 38.88444],
          [-120.64755, 38.90619],
          [-120.6529, 38.92794],
          [-120.6303, 38.95384],
          [-120.63565, 38.97558],
          [-120.641, 38.99732],
          [-120.64635, 39.01906],
          [-120.65171, 39.04079],
          [-120.65707, 39.06253],
          [-120.63444, 39.08842],
          [-120.6398, 39.11015],
          [-120.64516, 39.13187],
          [-120.65052, 39.15359],
          [-120.65589, 39.17531],
          [-120.66125, 39.19703],
          [-120.66662, 39.21875],
          [-120.672, 39.24046],
          [-120.67737, 39.26217],
          [-120.68275, 39.28388],
          [-120.68812, 39.30559],
          [-120.6935, 39.32729],
          [-120.67082, 39.35316],
          [-120.6762, 39.37486],
          [-120.68159, 39.39655],
          [-120.68697, 39.41825],
          [-120.69236, 39.43994],
          [-120.66965, 39.46579],
          [-120.67504, 39.48748],
          [-120.68042, 39.50916],
          [-120.6577, 39.535],
          [-120.66309, 39.55668],
          [-120.64035, 39.58251],
          [-120.64573, 39.60419],
          [-120.62298, 39.63001],
          [-120.60022, 39.65583],
          [-120.6056, 39.6775],
          [-120.58282, 39.7033],
          [-120.56003, 39.72911],
          [-120.53723, 39.7549],
          [-120.50905, 39.75903],
          [-120.48087, 39.76315],
          [-120.45804, 39.78893],
          [-120.42985, 39.79304],
          [-120.40166, 39.79715],
          [-120.37346, 39.80126],
          [-120.34526, 39.80536],
          [-120.31706, 39.80945],
          [-120.28886, 39.81354],
          [-120.26066, 39.81763],
          [-120.23776, 39.84338],
          [-120.20955, 39.84745],
          [-120.18133, 39.85153],
          [-120.15311, 39.85559],
          [-120.12489, 39.85966],
          [-120.09667, 39.86372],
          [-120.07372, 39.88944],
          [-120.04549, 39.89349],
          [-120.01725, 39.89753],
          [-119.98902, 39.90157],
          [-119.96604, 39.92727],
          [-119.93779, 39.9313],
          [-119.91479, 39.95699],
          [-119.89178, 39.98268],
          [-119.86351, 39.9867],
          [-119.84048, 40.01237],
          [-119.81744, 40.03803],
          [-119.78916, 40.04204],
          [-119.79439, 40.06369],
          [-119.77133, 40.08935],
          [-119.74825, 40.11499],
          [-119.72516, 40.14063],
          [-119.70207, 40.16627],
          [-119.67896, 40.19189],
          [-119.65063, 40.19587],
          [-119.6275, 40.22149],
          [-119.60436, 40.2471],
          [-119.57601, 40.25107],
          [-119.55285, 40.27667],
          [-119.52449, 40.28063],
          [-119.49613, 40.28459],
          [-119.47294, 40.31017],
          [-119.44457, 40.31412],
          [-119.41619, 40.31806],
          [-119.39298, 40.34363],
          [-119.36975, 40.36919],
          [-119.34652, 40.39475],
          [-119.31812, 40.39867],
          [-119.28972, 40.40259],
          [-119.26131, 40.40651],
          [-119.23804, 40.43205],
          [-119.20963, 40.43595],
          [-119.18633, 40.46148],
          [-119.16303, 40.487],
          [-119.1346, 40.4909],
          [-119.11128, 40.51641],
          [-119.08283, 40.52029],
          [-119.05949, 40.54579],
          [-119.03104, 40.54967],
          [-119.00768, 40.57515],
          [-118.97922, 40.57902],
          [-118.95583, 40.6045],
          [-118.93244, 40.62997],
          [-118.90396, 40.63383],
          [-118.90904, 40.65544],
          [-118.88562, 40.6809],
          [-118.85712, 40.68474],
          [-118.83369, 40.71019],
          [-118.81024, 40.73563],
          [-118.78678, 40.76107],
          [-118.75826, 40.7649],
          [-118.73478, 40.79032],
          [-118.71129, 40.81574],
          [-118.68275, 40.81955],
          [-118.65924, 40.84496],
          [-118.63572, 40.87036],
          [-118.61219, 40.89576],
          [-118.58864, 40.92114],
          [-118.56509, 40.94653],
          [-118.54152, 40.9719],
          [-118.51293, 40.97568],
          [-118.48934, 41.00105],
          [-118.46574, 41.02641],
          [-118.43714, 41.03018],
          [-118.41352, 41.05552],
          [-118.38989, 41.08086],
          [-118.36624, 41.1062],
          [-118.34259, 41.13152],
          [-118.31892, 41.15684],
          [-118.29027, 41.16059],
          [-118.26659, 41.1859],
          [-118.23793, 41.18963],
          [-118.21422, 41.21493],
          [-118.19051, 41.24022],
          [-118.16678, 41.26551],
          [-118.14304, 41.29079],
          [-118.11928, 41.31606],
          [-118.09552, 41.34132],
          [-118.07174, 41.36658],
          [-118.04796, 41.39183],
          [-118.02416, 41.41708],
          [-117.99542, 41.42077],
          [-117.9716, 41.44601],
          [-117.94777, 41.47123],
          [-117.92393, 41.49646],
          [-117.89517, 41.50013],
          [-117.87131, 41.52534],
          [-117.84743, 41.55054],
          [-117.82354, 41.57574],
          [-117.79965, 41.60093],
          [-117.77573, 41.62611],
          [-117.78062, 41.64764],
          [-117.75669, 41.67281],
          [-117.73276, 41.69798],
          [-117.70881, 41.72314],
          [-117.67997, 41.72678],
          [-117.656, 41.75193],
          [-117.63202, 41.77707],
          [-117.60803, 41.8022],
          [-117.58402, 41.82733],
          [-117.56, 41.85246],
          [-117.53598, 41.87757],
          [-117.51193, 41.90268],
          [-117.48788, 41.92778],
          [-117.46381, 41.95288],
          [-117.43974, 41.97796],
          [-117.41082, 41.98155],
          [-117.38673, 42.00663],
          [-117.3578, 42.01021],
          [-117.32887, 42.01378],
          [-117.29995, 42.01735],
          [-117.27101, 42.02092],
          [-117.24208, 42.02448],
          [-117.21315, 42.02803],
          [-117.18421, 42.03159],
          [-117.15527, 42.03513],
          [-117.12633, 42.03867],
          [-117.09263, 42.02072],
          [-117.06369, 42.02425],
          [-117.03475, 42.02778],
          [-117.00581, 42.0313],
          [-116.97686, 42.03482],
          [-116.95264, 42.05983],
          [-116.92369, 42.06334],
          [-116.89473, 42.06684],
          [-116.87048, 42.09184],
          [-116.84152, 42.09533],
          [-116.81725, 42.12032],
          [-116.79297, 42.1453],
          [-116.76399, 42.14878],
          [-116.73969, 42.17375],
          [-116.71538, 42.19871],
          [-116.69106, 42.22366],
          [-116.66672, 42.24861],
          [-116.6377, 42.25207],
          [-116.61335, 42.277],
          [-116.58432, 42.28045],
          [-116.55994, 42.30538],
          [-116.5309, 42.30882],
          [-116.50186, 42.31226],
          [-116.47746, 42.33716],
          [-116.45304, 42.36206],
          [-116.42861, 42.38696],
          [-116.39955, 42.39038],
          [-116.3751, 42.41526],
          [-116.35064, 42.44014],
          [-116.32617, 42.46501],
          [-116.30168, 42.48987],
          [-116.27718, 42.51472],
          [-116.25268, 42.53957],
          [-116.22356, 42.54296],
          [-116.19903, 42.5678],
          [-116.1699, 42.57118],
          [-116.14077, 42.57455],
          [-116.11621, 42.59937],
          [-116.08707, 42.60274],
          [-116.05793, 42.6061],
          [-116.02879, 42.60946],
          [-116.00419, 42.63426],
          [-115.97504, 42.6376],
          [-115.94588, 42.64095],
          [-115.91673, 42.64429],
          [-115.88757, 42.64762],
          [-115.8584, 42.65095],
          [-115.82924, 42.65427],
          [-115.80007, 42.65759],
          [-115.77541, 42.68235],
          [-115.74624, 42.68566],
          [-115.71706, 42.68897],
          [-115.69237, 42.71372],
          [-115.66318, 42.71701],
          [-115.63399, 42.7203],
          [-115.6048, 42.72359],
          [-115.5756, 42.72687],
          [-115.54641, 42.73015],
          [-115.51721, 42.73342],
          [-115.48801, 42.73669],
          [-115.45881, 42.73996],
          [-115.43404, 42.76466],
          [-115.40483, 42.76792],
          [-115.37562, 42.77117],
          [-115.3464, 42.77441],
          [-115.3216, 42.7991],
          [-115.29238, 42.80233],
          [-115.26755, 42.82701],
          [-115.23832, 42.83023],
          [-115.20908, 42.83345],
          [-115.18423, 42.85811],
          [-115.15936, 42.88276],
          [-115.13448, 42.90741],
          [-115.10959, 42.93204],
          [-115.11397, 42.95347],
          [-115.11834, 42.9749],
          [-115.12272, 42.99632],
          [-115.1271, 43.01774],
          [-115.13149, 43.03916],
          [-115.13587, 43.06057],
          [-115.14026, 43.08198],
          [-115.17396, 43.10018],
          [-115.17836, 43.12159],
          [-115.18276, 43.14299],
          [-115.18716, 43.16439],
          [-115.19156, 43.18579],
          [-115.19596, 43.20718],
          [-115.20037, 43.22857],
          [-115.20477, 43.24996],
          [-115.20918, 43.27134],
          [-115.21359, 43.29272],
          [-115.21801, 43.3141],
          [-115.22242, 43.33548],
          [-115.22684, 43.35685],
          [-115.23126, 43.37822],
          [-115.23568, 43.39958],
          [-115.2401, 43.42095],
          [-115.24453, 43.44231],
          [-115.24895, 43.46366],
          [-115.25338, 43.48502],
          [-115.25781, 43.50637],
          [-115.26225, 43.52772],
          [-115.26668, 43.54906],
          [-115.27112, 43.57041],
          [-115.27555, 43.59174],
          [-115.27999, 43.61308],
          [-115.28444, 43.63441],
          [-115.28888, 43.65574],
          [-115.26384, 43.68028],
          [-115.26828, 43.70161],
          [-115.27272, 43.72293],
          [-115.27717, 43.74425],
          [-115.2521, 43.76877],
          [-115.25655, 43.79009],
          [-115.26099, 43.81139],
          [-115.26544, 43.8327],
          [-115.26989, 43.854],
          [-115.24479, 43.87851],
          [-115.24924, 43.89981],
          [-115.25369, 43.9211],
          [-115.25814, 43.94239],
          [-115.26259, 43.96368],
          [-115.23746, 43.98817],
          [-115.24191, 44.00945],
          [-115.21677, 44.03393],
          [-115.22122, 44.0552],
          [-115.19605, 44.07967],
          [-115.2005, 44.10094],
          [-115.17532, 44.1254],
          [-115.17976, 44.14666],
          [-115.15457, 44.17111],
          [-115.15901, 44.19237],
          [-115.1338, 44.21681],
          [-115.13824, 44.23806],
          [-115.11301, 44.26248],
          [-115.11744, 44.28373],
          [-115.0922, 44.30815],
          [-115.06694, 44.33256],
          [-115.07137, 44.35379],
          [-115.04609, 44.37819],
          [-115.05052, 44.39942],
          [-115.02522, 44.42381],
          [-115.02965, 44.44504],
          [-115.00434, 44.46941],
          [-114.97901, 44.49379],
          [-114.98031, 44.5]
        ]
      }
    },
    {
      "type": "Feature",
      "id": "2026091506_f228_11000_001",
      "properties": {
        "product_id": "winter_storm_levels",
        "source_id": "nbm_snow_level",
        "parameter": "snow_level",
        "definition": "height of the wet-bulb 0.5 degree C surface",
        "level_ft_msl": 11000,
        "label": "11,000 ft MSL",
        "unit": "ft_msl",
        "cycle_time_utc": "2026-09-15T06:00:00Z",
        "valid_time_utc": "2026-09-24T18:00:00Z",
        "lead_hours": 228,
        "segment": 1,
        "length_m": 1676113.5
      },
      "geometry": {
        "type": "LineString",
        "coordinates": [
          [-115.73077, 30.17005],
          [-115.73208, 30.17741],
          [-115.71228, 30.20076],
          [-115.71008, 30.20335],
          [-115.71308, 30.20525],
          [-115.7401, 30.22237],
          [-115.74411, 30.24484],
          [-115.74812, 30.26732],
          [-115.75214, 30.2898],
          [-115.73232, 30.31314],
          [-115.73012, 30.31574],
          [-115.73413, 30.33821],
          [-115.73815, 30.36068],
          [-115.74217, 30.38316],
          [-115.74618, 30.40563],
          [-115.7502, 30.4281],
          [-115.73036, 30.45144],
          [-115.72816, 30.45403],
          [-115.73218, 30.4765],
          [-115.73619, 30.49897],
          [-115.74021, 30.52143],
          [-115.74424, 30.5439],
          [-115.72438, 30.56723],
          [-115.72217, 30.56983],
          [-115.72619, 30.59229],
          [-115.73021, 30.61475],
          [-115.73423, 30.63722],
          [-115.71436, 30.66055],
          [-115.71215, 30.66314],
          [-115.71617, 30.6856],
          [-115.72019, 30.70806],
          [-115.72422, 30.73052],
          [-115.71648, 30.75453],
          [-115.70834, 30.7763],
          [-115.70744, 30.77872],
          [-115.71016, 30.80135],
          [-115.71418, 30.8238],
          [-115.71821, 30.84626],
          [-115.72224, 30.86871],
          [-115.72627, 30.89116],
          [-115.7303, 30.91362],
          [-115.72256, 30.93762],
          [-115.72659, 30.96007],
          [-115.73062, 30.98252],
          [-115.72247, 31.00428],
          [-115.72157, 31.0067],
          [-115.7256, 31.02914],
          [-115.72833, 31.05176],
          [-115.73237, 31.07421],
          [-115.72461, 31.09821],
          [-115.71645, 31.11996],
          [-115.71554, 31.12238],
          [-115.71827, 31.14499],
          [-115.72231, 31.16743],
          [-115.70234, 31.19074],
          [-115.70143, 31.19316],
          [-115.70416, 31.21577],
          [-115.68417, 31.23907],
          [-115.68195, 31.24166],
          [-115.68599, 31.26409],
          [-115.66599, 31.28739],
          [-115.66377, 31.28998],
          [-115.64377, 31.31327],
          [-115.64154, 31.31586],
          [-115.62153, 31.33915],
          [-115.61931, 31.34174],
          [-115.59928, 31.36502],
          [-115.59706, 31.36761],
          [-115.57703, 31.39089],
          [-115.55075, 31.39432],
          [-115.54852, 31.3969],
          [-115.52847, 31.42018],
          [-115.50219, 31.4236],
          [-115.47589, 31.42701],
          [-115.47367, 31.4296],
          [-115.4536, 31.45286],
          [-115.45137, 31.45545],
          [-115.43129, 31.4787],
          [-115.42906, 31.48129],
          [-115.40898, 31.50454],
          [-115.40675, 31.50713],
          [-115.38665, 31.53038],
          [-115.38442, 31.53296],
          [-115.36432, 31.5562],
          [-115.36208, 31.55879],
          [-115.36607, 31.58122],
          [-115.34595, 31.60446],
          [-115.34372, 31.60704],
          [-115.3236, 31.63028],
          [-115.32136, 31.63286],
          [-115.32534, 31.65529],
          [-115.3052, 31.67852],
          [-115.30296, 31.6811],
          [-115.30694, 31.70353],
          [-115.28679, 31.72676],
          [-115.28456, 31.72934],
          [-115.28853, 31.75176],
          [-115.26837, 31.77499],
          [-115.26613, 31.77757],
          [-115.2701, 31.79999],
          [-115.27408, 31.82241],
          [-115.2539, 31.84563],
          [-115.25166, 31.84821],
          [-115.25564, 31.87063],
          [-115.25961, 31.89305],
          [-115.26359, 31.91547],
          [-115.24339, 31.93868],
          [-115.24115, 31.94126],
          [-115.24512, 31.96367],
          [-115.2491, 31.98609],
          [-115.25308, 32.0085],
          [-115.25706, 32.03091],
          [-115.26104, 32.05332],
          [-115.26502, 32.07573],
          [-115.269, 32.09814],
          [-115.24878, 32.12135],
          [-115.24653, 32.12392],
          [-115.25051, 32.14633],
          [-115.25449, 32.16874],
          [-115.25848, 32.19114],
          [-115.26247, 32.21354],
          [-115.26645, 32.23595],
          [-115.27044, 32.25835],
          [-115.27443, 32.28074],
          [-115.25418, 32.30394],
          [-115.25193, 32.30652],
          [-115.25592, 32.32891],
          [-115.25991, 32.35131],
          [-115.2639, 32.3737],
          [-115.26789, 32.3961],
          [-115.27189, 32.41849],
          [-115.25161, 32.44168],
          [-115.24935, 32.44425],
          [-115.25335, 32.46664],
          [-115.25734, 32.48903],
          [-115.23705, 32.51221],
          [-115.23479, 32.51479],
          [-115.23878, 32.53717],
          [-115.24278, 32.55956],
          [-115.24677, 32.58194],
          [-115.22646, 32.60512],
          [-115.2242, 32.60769],
          [-115.2282, 32.63007],
          [-115.20787, 32.65324],
          [-115.20561, 32.65582],
          [-115.2096, 32.6782],
          [-115.18926, 32.70136],
          [-115.187, 32.70393],
          [-115.19099, 32.72631],
          [-115.17064, 32.74947],
          [-115.16838, 32.75204],
          [-115.17237, 32.77442],
          [-115.17636, 32.79679],
          [-115.15599, 32.81995],
          [-115.15373, 32.82252],
          [-115.15771, 32.84489],
          [-115.13733, 32.86804],
          [-115.13507, 32.87061],
          [-115.13906, 32.89298],
          [-115.11866, 32.91612],
          [-115.1164, 32.91869],
          [-115.12038, 32.94106],
          [-115.12437, 32.96343],
          [-115.12835, 32.98579],
          [-115.13234, 33.00816],
          [-115.13633, 33.03052],
          [-115.14032, 33.05288],
          [-115.14432, 33.07524],
          [-115.14831, 33.0976],
          [-115.15138, 33.0995],
          [-115.179, 33.1166],
          [-115.183, 33.13896],
          [-115.18701, 33.16131],
          [-115.19101, 33.18366],
          [-115.19502, 33.20601],
          [-115.19903, 33.22836],
          [-115.20304, 33.25071],
          [-115.20706, 33.27306],
          [-115.21107, 33.2954],
          [-115.21414, 33.2973],
          [-115.24182, 33.31439],
          [-115.24584, 33.33673],
          [-115.24987, 33.35907],
          [-115.25389, 33.38141],
          [-115.25697, 33.3833],
          [-115.28468, 33.40038],
          [-115.28871, 33.42271],
          [-115.29275, 33.44505],
          [-115.27229, 33.46818],
          [-115.27001, 33.47075],
          [-115.24954, 33.49387],
          [-115.24727, 33.49644],
          [-115.2513, 33.51877],
          [-115.23082, 33.54189],
          [-115.22854, 33.54446],
          [-115.23257, 33.56679],
          [-115.21207, 33.5899],
          [-115.2098, 33.59247],
          [-115.21382, 33.61479],
          [-115.19332, 33.6379],
          [-115.19104, 33.64047],
          [-115.17052, 33.66357],
          [-115.16824, 33.66614],
          [-115.14771, 33.68924],
          [-115.14543, 33.69181],
          [-115.1249, 33.7149],
          [-115.12262, 33.71747],
          [-115.10207, 33.74056],
          [-115.09979, 33.74312],
          [-115.07924, 33.76621],
          [-115.07695, 33.76877],
          [-115.08096, 33.79109],
          [-115.06039, 33.81417],
          [-115.05811, 33.81674],
          [-115.06211, 33.83905],
          [-115.04153, 33.86213],
          [-115.03924, 33.86469],
          [-115.04325, 33.887],
          [-115.04725, 33.90931],
          [-115.02665, 33.93238],
          [-115.02437, 33.93495],
          [-115.02837, 33.95725],
          [-115.00776, 33.98032],
          [-115.00547, 33.98288],
          [-115.00947, 34.00519],
          [-115.01256, 34.00709],
          [-115.04038, 34.02417],
          [-115.04439, 34.04647],
          [-115.0484, 34.06878],
          [-115.05241, 34.09108],
          [-115.05642, 34.11337],
          [-115.06044, 34.13567],
          [-115.06445, 34.15796],
          [-115.06847, 34.18026],
          [-115.07249, 34.20255],
          [-115.07651, 34.22484],
          [-115.08053, 34.24713],
          [-115.08363, 34.24903],
          [-115.11152, 34.26609],
          [-115.11555, 34.28837],
          [-115.11959, 34.31066],
          [-115.12362, 34.33294],
          [-115.12766, 34.35522],
          [-115.13169, 34.3775],
          [-115.13573, 34.39977],
          [-115.13884, 34.40167],
          [-115.16677, 34.41871],
          [-115.17082, 34.44099],
          [-115.17487, 34.46326],
          [-115.17798, 34.46515],
          [-115.20594, 34.48219],
          [-115.20999, 34.50446],
          [-115.2131, 34.50635],
          [-115.24108, 34.52338],
          [-115.24514, 34.54564],
          [-115.24825, 34.54753],
          [-115.27625, 34.56455],
          [-115.27936, 34.56644],
          [-115.30736, 34.58346],
          [-115.31144, 34.60572],
          [-115.31552, 34.62797],
          [-115.31864, 34.62986],
          [-115.34666, 34.64687],
          [-115.35075, 34.66912],
          [-115.35484, 34.69137],
          [-115.35894, 34.71362],
          [-115.36206, 34.71551],
          [-115.39011, 34.7325],
          [-115.39322, 34.73439],
          [-115.42129, 34.75137],
          [-115.4254, 34.77362],
          [-115.42851, 34.7755],
          [-115.45659, 34.79248],
          [-115.45971, 34.79437],
          [-115.4878, 34.81134],
          [-115.49092, 34.81322],
          [-115.51902, 34.83019],
          [-115.52315, 34.85242],
          [-115.52627, 34.85431],
          [-115.55438, 34.87126],
          [-115.55852, 34.8935],
          [-115.56267, 34.91573],
          [-115.56681, 34.93796],
          [-115.57096, 34.96018],
          [-115.57511, 34.98241],
          [-115.57925, 35.00463],
          [-115.58341, 35.02686],
          [-115.58756, 35.04908],
          [-115.59171, 35.0713],
          [-115.59587, 35.09351],
          [-115.60003, 35.11573],
          [-115.60419, 35.13794],
          [-115.60835, 35.16016],
          [-115.61251, 35.18237],
          [-115.61667, 35.20458],
          [-115.62084, 35.22678],
          [-115.62501, 35.24899],
          [-115.62918, 35.27119],
          [-115.63335, 35.2934],
          [-115.63752, 35.3156],
          [-115.6417, 35.33779],
          [-115.64587, 35.35999],
          [-115.65005, 35.38219],
          [-115.62931, 35.40522],
          [-115.627, 35.40778],
          [-115.63118, 35.42998],
          [-115.61042, 35.45301],
          [-115.60812, 35.45557],
          [-115.58735, 35.4786],
          [-115.58504, 35.48115],
          [-115.56427, 35.50418],
          [-115.56196, 35.50674],
          [-115.54117, 35.52975],
          [-115.51391, 35.53314],
          [-115.5116, 35.5357],
          [-115.4908, 35.5587],
          [-115.46353, 35.56208],
          [-115.46122, 35.56464],
          [-115.4404, 35.58764],
          [-115.43808, 35.59019],
          [-115.41726, 35.61319],
          [-115.41494, 35.61574],
          [-115.41908, 35.63793],
          [-115.39825, 35.66092],
          [-115.39593, 35.66347],
          [-115.40007, 35.68565],
          [-115.40421, 35.70783],
          [-115.38335, 35.73081],
          [-115.38104, 35.73336],
          [-115.38517, 35.75553],
          [-115.36431, 35.77851],
          [-115.36199, 35.78106],
          [-115.36612, 35.80323],
          [-115.37026, 35.8254],
          [-115.3744, 35.84757],
          [-115.37854, 35.86973],
          [-115.38269, 35.8919],
          [-115.38584, 35.89378],
          [-115.41419, 35.9107],
          [-115.41834, 35.93286],
          [-115.4225, 35.95501],
          [-115.42665, 35.97717],
          [-115.42981, 35.97905],
          [-115.45819, 35.99596],
          [-115.46134, 35.99783],
          [-115.48872, 35.99446],
          [-115.5161, 35.99109],
          [-115.54348, 35.98771],
          [-115.57188, 36.0046],
          [-115.57504, 36.00647],
          [-115.60242, 36.00308],
          [-115.63083, 36.01996],
          [-115.63399, 36.02183],
          [-115.66242, 36.03871],
          [-115.66558, 36.04058],
          [-115.69402, 36.05744],
          [-115.69718, 36.05932],
          [-115.72562, 36.07618],
          [-115.72878, 36.07805],
          [-115.75724, 36.0949],
          [-115.7604, 36.09677],
          [-115.78887, 36.11362],
          [-115.7931, 36.13575],
          [-115.79627, 36.13762],
          [-115.82475, 36.15446],
          [-115.82899, 36.17659],
          [-115.83216, 36.17846],
          [-115.86066, 36.19529],
          [-115.86491, 36.21741],
          [-115.86808, 36.21928],
          [-115.89659, 36.2361],
          [-115.90086, 36.25822],
          [-115.90402, 36.26009],
          [-115.93256, 36.2769],
          [-115.93683, 36.29901],
          [-115.9411, 36.32113],
          [-115.94675, 36.34307],
          [-115.94855, 36.34511],
          [-115.97711, 36.36191],
          [-115.98139, 36.38402],
          [-115.98567, 36.40612],
          [-115.98996, 36.42823],
          [-115.99425, 36.45033],
          [-115.99854, 36.47243],
          [-116.00283, 36.49453],
          [-116.00712, 36.51663],
          [-116.01142, 36.53872],
          [-116.01572, 36.56082],
          [-116.02002, 36.58291],
          [-116.02432, 36.605],
          [-116.02862, 36.62708],
          [-116.03292, 36.64917],
          [-116.03723, 36.67125],
          [-116.01632, 36.69423],
          [-116.014, 36.69679],
          [-116.0183, 36.71887],
          [-116.02261, 36.74094],
          [-116.00169, 36.76392],
          [-115.99936, 36.76647],
          [-116.00366, 36.78854],
          [-115.98273, 36.81151],
          [-115.9804, 36.81406],
          [-115.9847, 36.83613],
          [-115.96375, 36.85909],
          [-115.96142, 36.86164],
          [-115.96572, 36.88371],
          [-115.94476, 36.90666],
          [-115.94243, 36.90921],
          [-115.94673, 36.93128],
          [-115.95103, 36.95334],
          [-115.95533, 36.9754],
          [-115.93435, 36.99834],
          [-115.93202, 37.00089],
          [-115.93631, 37.02295],
          [-115.94062, 37.045],
          [-115.94492, 37.06705],
          [-115.94922, 37.0891],
          [-115.92822, 37.11203],
          [-115.92588, 37.11458],
          [-115.93018, 37.13663],
          [-115.93449, 37.15867],
          [-115.9388, 37.18072],
          [-115.9431, 37.20276],
          [-115.94741, 37.22479],
          [-115.95172, 37.24683],
          [-115.95604, 37.26886],
          [-115.96035, 37.2909],
          [-115.96467, 37.31293],
          [-115.96899, 37.33495],
          [-115.94794, 37.35787],
          [-115.9456, 37.36041],
          [-115.94991, 37.38244],
          [-115.95312, 37.38429],
          [-115.98195, 37.40102],
          [-115.98628, 37.42304],
          [-115.99061, 37.44506],
          [-115.99381, 37.44692],
          [-116.02267, 37.46364],
          [-116.02701, 37.48565],
          [-116.03134, 37.50766],
          [-116.03455, 37.50952],
          [-116.06343, 37.52623],
          [-116.06778, 37.54823],
          [-116.07099, 37.55009],
          [-116.09989, 37.56679],
          [-116.10425, 37.58879],
          [-116.1086, 37.61079],
          [-116.11296, 37.63278],
          [-116.11733, 37.65478],
          [-116.12169, 37.67677],
          [-116.12606, 37.69876],
          [-116.12927, 37.70062],
          [-116.15822, 37.7173],
          [-116.16259, 37.73928],
          [-116.16697, 37.76127],
          [-116.17135, 37.78325],
          [-116.17457, 37.7851],
          [-116.20354, 37.80176],
          [-116.20793, 37.82374],
          [-116.21115, 37.82559],
          [-116.24015, 37.84225],
          [-116.24454, 37.86422],
          [-116.24894, 37.88619],
          [-116.25216, 37.88804],
          [-116.28118, 37.90469],
          [-116.28559, 37.92665],
          [-116.28881, 37.9285],
          [-116.31785, 37.94514],
          [-116.32227, 37.9671],
          [-116.30117, 37.98999],
          [-116.2733, 37.99347],
          [-116.24544, 37.99694],
          [-116.21757, 38.00041],
          [-116.1897, 38.00387],
          [-116.16183, 38.00733],
          [-116.13396, 38.01078],
          [-116.10494, 37.99412],
          [-116.10057, 37.97216],
          [-116.09734, 37.97031],
          [-116.06834, 37.95364],
          [-116.06397, 37.93167],
          [-116.06075, 37.92981],
          [-116.03176, 37.91313],
          [-116.02741, 37.89116],
          [-116.02305, 37.86918],
          [-116.0187, 37.84721],
          [-116.03983, 37.82433],
          [-116.04218, 37.82179],
          [-116.03783, 37.79981],
          [-116.03461, 37.79795],
          [-116.00679, 37.80139],
          [-116.00444, 37.80393],
          [-116.00879, 37.82591],
          [-116.01314, 37.84789],
          [-116.01749, 37.86987],
          [-116.02184, 37.89185],
          [-116.00069, 37.91471],
          [-115.99834, 37.91725],
          [-116.00269, 37.93923],
          [-115.98153, 37.96209],
          [-115.97917, 37.96463],
          [-115.958, 37.98748],
          [-115.95565, 37.99002],
          [-115.95999, 38.01198],
          [-115.93881, 38.03483],
          [-115.93645, 38.03737],
          [-115.91526, 38.06021],
          [-115.9129, 38.06275],
          [-115.91724, 38.08471],
          [-115.89603, 38.10754],
          [-115.89368, 38.11008],
          [-115.89801, 38.13204],
          [-115.87679, 38.15486],
          [-115.87443, 38.1574],
          [-115.87877, 38.17935],
          [-115.85753, 38.20217],
          [-115.85517, 38.20471],
          [-115.8595, 38.22666],
          [-115.83825, 38.24947],
          [-115.83589, 38.25201],
          [-115.84022, 38.27395],
          [-115.81896, 38.29676],
          [-115.8166, 38.29929],
          [-115.79532, 38.32209],
          [-115.79296, 38.32462],
          [-115.79728, 38.34656],
          [-115.776, 38.36936],
          [-115.77363, 38.37189],
          [-115.77795, 38.39382],
          [-115.75665, 38.41661],
          [-115.75428, 38.41914],
          [-115.73297, 38.44192],
          [-115.73061, 38.44445],
          [-115.70928, 38.46723],
          [-115.70692, 38.46976],
          [-115.68558, 38.49253],
          [-115.68321, 38.49506],
          [-115.66187, 38.51782],
          [-115.6595, 38.52035],
          [-115.63815, 38.54311],
          [-115.61012, 38.54647],
          [-115.60775, 38.549],
          [-115.58638, 38.57175],
          [-115.584, 38.57428],
          [-115.5883, 38.5962],
          [-115.56691, 38.61894],
          [-115.56454, 38.62147],
          [-115.56883, 38.64338],
          [-115.57312, 38.6653],
          [-115.55172, 38.68803],
          [-115.54934, 38.69056],
          [-115.55363, 38.71246],
          [-115.55792, 38.73437],
          [-115.56221, 38.75627],
          [-115.54079, 38.779],
          [-115.53841, 38.78152],
          [-115.5427, 38.80342],
          [-115.54699, 38.82532],
          [-115.55129, 38.84722],
          [-115.55558, 38.86911],
          [-115.55988, 38.891],
          [-115.53843, 38.91371],
          [-115.53605, 38.91623],
          [-115.54034, 38.93812],
          [-115.54464, 38.96],
          [-115.54894, 38.98188],
          [-115.55324, 39.00376],
          [-115.53177, 39.02646],
          [-115.52938, 39.02898],
          [-115.53368, 39.05086],
          [-115.53798, 39.07273],
          [-115.51649, 39.09541],
          [-115.5141, 39.09794],
          [-115.5184, 39.1198],
          [-115.5227, 39.14167],
          [-115.527, 39.16353],
          [-115.50549, 39.18621],
          [-115.5031, 39.18873],
          [-115.5074, 39.21059],
          [-115.5117, 39.23245],
          [-115.49017, 39.25511],
          [-115.48778, 39.25763],
          [-115.49208, 39.27948],
          [-115.47054, 39.30214],
          [-115.46814, 39.30466],
          [-115.44659, 39.32731],
          [-115.44419, 39.32983],
          [-115.42263, 39.35248],
          [-115.42024, 39.35499],
          [-115.42452, 39.37684],
          [-115.40295, 39.39948],
          [-115.40055, 39.40199],
          [-115.37896, 39.42463],
          [-115.37657, 39.42714],
          [-115.35497, 39.44977],
          [-115.35257, 39.45229],
          [-115.33096, 39.47491],
          [-115.32856, 39.47742],
          [-115.33283, 39.49926],
          [-115.31121, 39.52187],
          [-115.30881, 39.52438],
          [-115.28718, 39.54699],
          [-115.25887, 39.55028],
          [-115.25647, 39.55279],
          [-115.23482, 39.5754],
          [-115.23241, 39.57791],
          [-115.21075, 39.6005],
          [-115.20834, 39.60301],
          [-115.18667, 39.6256],
          [-115.18427, 39.62811],
          [-115.16259, 39.65069],
          [-115.16018, 39.6532],
          [-115.13849, 39.67578],
          [-115.13608, 39.67829],
          [-115.11438, 39.70086],
          [-115.08602, 39.70412],
          [-115.08361, 39.70663],
          [-115.06189, 39.72919],
          [-115.05947, 39.73169],
          [-115.03775, 39.75425],
          [-115.03533, 39.75676],
          [-115.01359, 39.77931],
          [-115.01118, 39.78181],
          [-114.98943, 39.80436],
          [-114.98701, 39.80686],
          [-114.96525, 39.8294],
          [-114.96283, 39.83191],
          [-114.94106, 39.85444],
          [-114.91266, 39.85767],
          [-114.91024, 39.86017],
          [-114.91444, 39.88197],
          [-114.89265, 39.9045],
          [-114.89023, 39.907],
          [-114.86843, 39.92951],
          [-114.84, 39.93273],
          [-114.81157, 39.93594],
          [-114.80915, 39.93844],
          [-114.78732, 39.96094],
          [-114.75888, 39.96414],
          [-114.75646, 39.96664],
          [-114.73461, 39.98914],
          [-114.70617, 39.99233],
          [-114.70374, 39.99483],
          [-114.68188, 40.01731],
          [-114.65342, 40.02049],
          [-114.65099, 40.02299],
          [-114.62911, 40.04547],
          [-114.60065, 40.04864],
          [-114.59822, 40.05114],
          [-114.57632, 40.0736],
          [-114.54785, 40.07677],
          [-114.51937, 40.07993],
          [-114.51694, 40.08242],
          [-114.49502, 40.10487],
          [-114.49258, 40.10737],
          [-114.47065, 40.12981],
          [-114.44216, 40.13296],
          [-114.43972, 40.13545],
          [-114.41777, 40.15789],
          [-114.38927, 40.16103],
          [-114.36076, 40.16416],
          [-114.33226, 40.16729],
          [-114.30375, 40.17042],
          [-114.27524, 40.17354],
          [-114.24673, 40.17665],
          [-114.21822, 40.17976],
          [-114.1897, 40.18287],
          [-114.16119, 40.18597],
          [-114.13187, 40.16915],
          [-114.12862, 40.16728],
          [-114.1001, 40.17038],
          [-114.07159, 40.17346],
          [-114.04307, 40.17655],
          [-114.01455, 40.17962],
          [-114.0121, 40.18211],
          [-113.99005, 40.20449],
          [-113.96152, 40.20756],
          [-113.93299, 40.21062],
          [-113.90446, 40.21368],
          [-113.90201, 40.21617],
          [-113.87993, 40.23853],
          [-113.85139, 40.24158],
          [-113.82285, 40.24462],
          [-113.7943, 40.24767],
          [-113.76576, 40.2507],
          [-113.73721, 40.25374],
          [-113.70866, 40.25676],
          [-113.6794, 40.23988],
          [-113.67615, 40.238],
          [-113.6469, 40.2211],
          [-113.64365, 40.21922],
          [-113.61511, 40.22224],
          [-113.58588, 40.20533],
          [-113.58263, 40.20345],
          [-113.55409, 40.20646],
          [-113.52487, 40.18954],
          [-113.52162, 40.18766],
          [-113.51916, 40.19014],
          [-113.497, 40.21245],
          [-113.46846, 40.21544],
          [-113.43991, 40.21843],
          [-113.41136, 40.22141],
          [-113.4089, 40.22389],
          [-113.38671, 40.24618],
          [-113.38425, 40.24866],
          [-113.36205, 40.27095],
          [-113.35958, 40.27343],
          [-113.36347, 40.29522],
          [-113.34126, 40.3175],
          [-113.33879, 40.31998],
          [-113.31656, 40.34225],
          [-113.31409, 40.34473],
          [-113.31798, 40.36651],
          [-113.29574, 40.38878],
          [-113.29327, 40.39126],
          [-113.27102, 40.41352],
          [-113.26855, 40.41599],
          [-113.24629, 40.43825],
          [-113.24381, 40.44072],
          [-113.22154, 40.46297],
          [-113.21907, 40.46544],
          [-113.19678, 40.48769],
          [-113.16815, 40.49063],
          [-113.16568, 40.4931],
          [-113.14338, 40.51533],
          [-113.11474, 40.51826],
          [-113.11226, 40.52073],
          [-113.08994, 40.54296],
          [-113.0613, 40.54588],
          [-113.05881, 40.54835],
          [-113.03648, 40.57056],
          [-113.034, 40.57303],
          [-113.03783, 40.5948],
          [-113.01548, 40.617],
          [-113.013, 40.61947],
          [-112.99064, 40.64167],
          [-112.98816, 40.64414],
          [-112.96579, 40.66633],
          [-112.9633, 40.6688],
          [-112.94092, 40.69099],
          [-112.93843, 40.69345],
          [-112.91604, 40.71564],
          [-112.91355, 40.7181],
          [-112.89115, 40.74028],
          [-112.88866, 40.74274],
          [-112.86624, 40.76491],
          [-112.86375, 40.76738],
          [-112.84133, 40.78954],
          [-112.83884, 40.792],
          [-112.8164, 40.81416],
          [-112.81391, 40.81662],
          [-112.79146, 40.83878],
          [-112.78897, 40.84124],
          [-112.76651, 40.86339],
          [-112.73777, 40.86625],
          [-112.73527, 40.86871],
          [-112.71279, 40.89085],
          [-112.68404, 40.8937],
          [-112.68154, 40.89616],
          [-112.65905, 40.91829],
          [-112.63028, 40.92113],
          [-112.60152, 40.92397],
          [-112.59902, 40.92643],
          [-112.5765, 40.94854],
          [-112.54772, 40.95137],
          [-112.54522, 40.95383],
          [-112.52269, 40.97593],
          [-112.4939, 40.97875],
          [-112.4914, 40.98121],
          [-112.46885, 41.0033],
          [-112.44005, 41.00612],
          [-112.43755, 41.00857],
          [-112.41498, 41.03065],
          [-112.41247, 41.03311],
          [-112.38989, 41.05518],
          [-112.36108, 41.05798],
          [-112.35857, 41.06044],
          [-112.33597, 41.0825],
          [-112.30715, 41.08529],
          [-112.27833, 41.08808],
          [-112.27581, 41.09053],
          [-112.25319, 41.11258],
          [-112.22436, 41.11536],
          [-112.19553, 41.11813],
          [-112.19301, 41.12058],
          [-112.17037, 41.14262],
          [-112.16785, 41.14507],
          [-112.14519, 41.1671],
          [-112.11634, 41.16986],
          [-112.11382, 41.17231],
          [-112.11749, 41.19402],
          [-112.09481, 41.21604],
          [-112.09229, 41.21849],
          [-112.0696, 41.24051],
          [-112.06707, 41.24295],
          [-112.07073, 41.26466],
          [-112.04802, 41.28667],
          [-112.0455, 41.28911],
          [-112.04915, 41.31081],
          [-112.05281, 41.33251],
          [-112.03008, 41.35451],
          [-112.02756, 41.35695],
          [-112.03121, 41.37865],
          [-112.00847, 41.40064],
          [-112.00594, 41.40308],
          [-112.00959, 41.42477],
          [-112, 41.43403]
        ]
      }
    },
    {
      "type": "Feature",
      "id": "2026091506_f228_12000_001",
      "properties": {
        "product_id": "winter_storm_levels",
        "source_id": "nbm_snow_level",
        "parameter": "snow_level",
        "definition": "height of the wet-bulb 0.5 degree C surface",
        "level_ft_msl": 12000,
        "label": "12,000 ft MSL",
        "unit": "ft_msl",
        "cycle_time_utc": "2026-09-15T06:00:00Z",
        "valid_time_utc": "2026-09-24T18:00:00Z",
        "lead_hours": 228,
        "segment": 1,
        "length_m": 66118.2
      },
      "geometry": {
        "type": "LineString",
        "coordinates": [
          [-112, 37.66774],
          [-112.00428, 37.67037],
          [-112.02942, 37.68581],
          [-112.03571, 37.68967],
          [-112.06362, 37.68688],
          [-112.08877, 37.70231],
          [-112.09506, 37.70617],
          [-112.12297, 37.70337],
          [-112.14814, 37.71879],
          [-112.15169, 37.74087],
          [-112.15798, 37.74472],
          [-112.18317, 37.76013],
          [-112.18672, 37.78221],
          [-112.19028, 37.80428],
          [-112.19385, 37.82635],
          [-112.19741, 37.84842],
          [-112.1779, 37.86832],
          [-112.17302, 37.87329],
          [-112.17658, 37.89536],
          [-112.15706, 37.91526],
          [-112.15218, 37.92023],
          [-112.15574, 37.94229],
          [-112.1593, 37.96435],
          [-112.13976, 37.98424],
          [-112.13487, 37.98921],
          [-112.11533, 38.00909],
          [-112.11044, 38.01406],
          [-112.09088, 38.03394],
          [-112.08599, 38.03891],
          [-112.06643, 38.05878],
          [-112.06154, 38.06375],
          [-112.04196, 38.08362],
          [-112.01395, 38.08641],
          [-112, 38.08779]
        ]
      }
    },
    {
      "type": "Feature",
      "id": "2026091506_f228_12000_002",
      "properties": {
        "product_id": "winter_storm_levels",
        "source_id": "nbm_snow_level",
        "parameter": "snow_level",
        "definition": "height of the wet-bulb 0.5 degree C surface",
        "level_ft_msl": 12000,
        "label": "12,000 ft MSL",
        "unit": "ft_msl",
        "cycle_time_utc": "2026-09-15T06:00:00Z",
        "valid_time_utc": "2026-09-24T18:00:00Z",
        "lead_hours": 228,
        "segment": 2,
        "length_m": 894316.8
      },
      "geometry": {
        "type": "LineString",
        "coordinates": [
          [-113.40001, 30.07429],
          [-113.40086, 30.07968],
          [-113.40442, 30.10222],
          [-113.38642, 30.12271],
          [-113.38192, 30.12784],
          [-113.38548, 30.15037],
          [-113.38904, 30.17291],
          [-113.39259, 30.19545],
          [-113.37458, 30.21593],
          [-113.37007, 30.22105],
          [-113.37363, 30.24359],
          [-113.37719, 30.26612],
          [-113.38075, 30.28865],
          [-113.36272, 30.30914],
          [-113.35821, 30.31426],
          [-113.36176, 30.33679],
          [-113.36532, 30.35932],
          [-113.34728, 30.3798],
          [-113.34277, 30.38492],
          [-113.34632, 30.40745],
          [-113.32827, 30.42792],
          [-113.32375, 30.43304],
          [-113.32731, 30.45557],
          [-113.30924, 30.47604],
          [-113.30472, 30.48116],
          [-113.30827, 30.50368],
          [-113.2902, 30.52415],
          [-113.28568, 30.52927],
          [-113.26759, 30.54973],
          [-113.26307, 30.55485],
          [-113.26662, 30.57737],
          [-113.24852, 30.59783],
          [-113.244, 30.60294],
          [-113.22589, 30.6234],
          [-113.22137, 30.62851],
          [-113.22491, 30.65104],
          [-113.20679, 30.67149],
          [-113.20226, 30.6766],
          [-113.2058, 30.69912],
          [-113.18768, 30.71957],
          [-113.18314, 30.72468],
          [-113.18668, 30.7472],
          [-113.16854, 30.76765],
          [-113.16401, 30.77276],
          [-113.14587, 30.7932],
          [-113.14133, 30.79831],
          [-113.14486, 30.82083],
          [-113.1267, 30.84126],
          [-113.12216, 30.84637],
          [-113.12569, 30.86889],
          [-113.10753, 30.88932],
          [-113.10298, 30.89443],
          [-113.10651, 30.91694],
          [-113.08833, 30.93737],
          [-113.08379, 30.94248],
          [-113.08731, 30.96499],
          [-113.06912, 30.98541],
          [-113.06458, 30.99052],
          [-113.0681, 31.01303],
          [-113.0499, 31.03345],
          [-113.04535, 31.03856],
          [-113.04887, 31.06107],
          [-113.03066, 31.08148],
          [-113.0261, 31.08659],
          [-113.02962, 31.10909],
          [-113.03314, 31.1316],
          [-113.01491, 31.15201],
          [-113.01036, 31.15712],
          [-113.01387, 31.17962],
          [-112.99564, 31.20003],
          [-112.99108, 31.20513],
          [-112.99459, 31.22763],
          [-112.97635, 31.24804],
          [-112.97179, 31.25314],
          [-112.95353, 31.27354],
          [-112.94897, 31.27864],
          [-112.95248, 31.30114],
          [-112.93421, 31.32154],
          [-112.92964, 31.32663],
          [-112.93315, 31.34913],
          [-112.91487, 31.36953],
          [-112.9103, 31.37462],
          [-112.91381, 31.39712],
          [-112.89552, 31.41751],
          [-112.89095, 31.4226],
          [-112.89445, 31.4451],
          [-112.87615, 31.46548],
          [-112.87158, 31.47058],
          [-112.87507, 31.49307],
          [-112.85677, 31.51345],
          [-112.85219, 31.51855],
          [-112.85568, 31.54104],
          [-112.83737, 31.56141],
          [-112.83279, 31.56651],
          [-112.83628, 31.589],
          [-112.81795, 31.60937],
          [-112.81337, 31.61446],
          [-112.81686, 31.63695],
          [-112.79852, 31.65732],
          [-112.79393, 31.66241],
          [-112.79742, 31.68489],
          [-112.77907, 31.70526],
          [-112.77448, 31.71035],
          [-112.75612, 31.73071],
          [-112.75153, 31.73579],
          [-112.75501, 31.75828],
          [-112.73664, 31.77863],
          [-112.73204, 31.78372],
          [-112.73552, 31.8062],
          [-112.71714, 31.82655],
          [-112.71254, 31.83164],
          [-112.71602, 31.85412],
          [-112.69763, 31.87447],
          [-112.69303, 31.87955],
          [-112.6965, 31.90203],
          [-112.6781, 31.92237],
          [-112.6735, 31.92746],
          [-112.67697, 31.94993],
          [-112.65856, 31.97027],
          [-112.65395, 31.97535],
          [-112.65742, 31.99783],
          [-112.639, 32.01816],
          [-112.63439, 32.02324],
          [-112.61595, 32.04357],
          [-112.61134, 32.04865],
          [-112.61481, 32.07113],
          [-112.61827, 32.0936],
          [-112.59982, 32.11392],
          [-112.59521, 32.119],
          [-112.59867, 32.14147],
          [-112.58021, 32.16179],
          [-112.5756, 32.16687],
          [-112.57906, 32.18933],
          [-112.58252, 32.2118],
          [-112.56405, 32.23211],
          [-112.55943, 32.23719],
          [-112.54095, 32.2575],
          [-112.53632, 32.26258],
          [-112.51783, 32.28289],
          [-112.51321, 32.28796],
          [-112.49471, 32.30826],
          [-112.49009, 32.31334],
          [-112.47158, 32.33364],
          [-112.46695, 32.33871],
          [-112.44844, 32.35901],
          [-112.44381, 32.36408],
          [-112.42528, 32.38437],
          [-112.42065, 32.38944],
          [-112.40212, 32.40973],
          [-112.39749, 32.4148],
          [-112.37895, 32.43509],
          [-112.37431, 32.44016],
          [-112.37774, 32.46261],
          [-112.35919, 32.48289],
          [-112.35455, 32.48796],
          [-112.35798, 32.51042],
          [-112.33941, 32.53069],
          [-112.33477, 32.53576],
          [-112.3382, 32.55821],
          [-112.34162, 32.58066],
          [-112.34505, 32.60311],
          [-112.32647, 32.62338],
          [-112.32183, 32.62845],
          [-112.32525, 32.65089],
          [-112.32868, 32.67334],
          [-112.3321, 32.69579],
          [-112.33553, 32.71823],
          [-112.33896, 32.74067],
          [-112.32036, 32.76093],
          [-112.31571, 32.766],
          [-112.31914, 32.78844],
          [-112.32257, 32.81088],
          [-112.326, 32.83331],
          [-112.30738, 32.85357],
          [-112.30272, 32.85863],
          [-112.30615, 32.88107],
          [-112.30958, 32.9035],
          [-112.31301, 32.92593],
          [-112.29437, 32.94618],
          [-112.28971, 32.95124],
          [-112.29314, 32.97367],
          [-112.29657, 32.9961],
          [-112.27792, 33.01635],
          [-112.27325, 33.02141],
          [-112.27668, 33.04383],
          [-112.25802, 33.06407],
          [-112.25335, 33.06913],
          [-112.25677, 33.09155],
          [-112.2381, 33.11179],
          [-112.23343, 33.11685],
          [-112.23685, 33.13927],
          [-112.21816, 33.1595],
          [-112.21349, 33.16455],
          [-112.1948, 33.18478],
          [-112.19012, 33.18983],
          [-112.19354, 33.21225],
          [-112.19695, 33.23467],
          [-112.17824, 33.25489],
          [-112.17357, 33.25994],
          [-112.17698, 33.28236],
          [-112.15826, 33.30257],
          [-112.15358, 33.30763],
          [-112.15699, 33.33004],
          [-112.13826, 33.35025],
          [-112.13357, 33.3553],
          [-112.13698, 33.37771],
          [-112.11824, 33.39791],
          [-112.11355, 33.40296],
          [-112.11696, 33.42537],
          [-112.12037, 33.44778],
          [-112.12378, 33.47018],
          [-112.12719, 33.49259],
          [-112.10843, 33.51278],
          [-112.10373, 33.51783],
          [-112.10714, 33.54023],
          [-112.11055, 33.56263],
          [-112.11396, 33.58503],
          [-112.11738, 33.60743],
          [-112.12079, 33.62982],
          [-112.12421, 33.65222],
          [-112.12762, 33.67461],
          [-112.13104, 33.697],
          [-112.13446, 33.71939],
          [-112.13788, 33.74178],
          [-112.1413, 33.76417],
          [-112.14473, 33.78655],
          [-112.14815, 33.80893],
          [-112.15158, 33.83132],
          [-112.15765, 33.83522],
          [-112.18195, 33.85085],
          [-112.18539, 33.87323],
          [-112.18882, 33.8956],
          [-112.19226, 33.91798],
          [-112.1957, 33.94035],
          [-112.20178, 33.94426],
          [-112.22611, 33.95987],
          [-112.22956, 33.98224],
          [-112.23564, 33.98614],
          [-112.25999, 34.00175],
          [-112.26608, 34.00565],
          [-112.29306, 34.00278],
          [-112.31741, 34.01838],
          [-112.3235, 34.02228],
          [-112.34787, 34.03787],
          [-112.35396, 34.04177],
          [-112.38095, 34.03889],
          [-112.40533, 34.05447],
          [-112.41142, 34.05837],
          [-112.43841, 34.05548],
          [-112.4628, 34.07105],
          [-112.4689, 34.07494],
          [-112.49329, 34.09051],
          [-112.49939, 34.0944],
          [-112.5238, 34.10996],
          [-112.52731, 34.13232],
          [-112.53341, 34.13621],
          [-112.55783, 34.15176],
          [-112.56135, 34.17411],
          [-112.56487, 34.19646],
          [-112.57098, 34.20035],
          [-112.59542, 34.2159],
          [-112.59894, 34.23824],
          [-112.60506, 34.24213],
          [-112.62951, 34.25767],
          [-112.63304, 34.28001],
          [-112.63916, 34.28389],
          [-112.66362, 34.29943],
          [-112.66717, 34.32177],
          [-112.67329, 34.32565],
          [-112.69777, 34.34117],
          [-112.70132, 34.36351],
          [-112.70487, 34.38584],
          [-112.70843, 34.40818],
          [-112.71455, 34.41206],
          [-112.73906, 34.42757],
          [-112.74262, 34.4499],
          [-112.74619, 34.47223],
          [-112.74975, 34.49455],
          [-112.75332, 34.51688],
          [-112.7345, 34.53709],
          [-112.72979, 34.54214],
          [-112.73335, 34.56446],
          [-112.73692, 34.58678],
          [-112.74049, 34.6091],
          [-112.74406, 34.63142],
          [-112.74763, 34.65373],
          [-112.7512, 34.67605],
          [-112.75477, 34.69836],
          [-112.75835, 34.72067],
          [-112.76193, 34.74298],
          [-112.7655, 34.76528],
          [-112.76908, 34.78759],
          [-112.75022, 34.80778],
          [-112.7455, 34.81283],
          [-112.74908, 34.83513],
          [-112.75265, 34.85743],
          [-112.75623, 34.87973],
          [-112.75982, 34.90203],
          [-112.7634, 34.92433],
          [-112.74451, 34.94451],
          [-112.73978, 34.94956],
          [-112.74336, 34.97185],
          [-112.72446, 34.99203],
          [-112.71974, 34.99707],
          [-112.70083, 35.01725],
          [-112.6961, 35.02229],
          [-112.67718, 35.04246],
          [-112.67245, 35.0475],
          [-112.65352, 35.06767],
          [-112.64879, 35.07271],
          [-112.65235, 35.095],
          [-112.63341, 35.11516],
          [-112.62868, 35.1202],
          [-112.63224, 35.14248],
          [-112.61329, 35.16264],
          [-112.60855, 35.16768],
          [-112.61211, 35.18996],
          [-112.59315, 35.21011],
          [-112.5884, 35.21514],
          [-112.59196, 35.23742],
          [-112.57299, 35.25756],
          [-112.56824, 35.2626],
          [-112.5718, 35.28487],
          [-112.57536, 35.30715],
          [-112.55637, 35.32728],
          [-112.55162, 35.33232],
          [-112.55517, 35.35459],
          [-112.53617, 35.37472],
          [-112.53142, 35.37975],
          [-112.53497, 35.40202],
          [-112.53852, 35.42428],
          [-112.51951, 35.44441],
          [-112.51475, 35.44944],
          [-112.49573, 35.46956],
          [-112.49097, 35.47459],
          [-112.49452, 35.49685],
          [-112.47548, 35.51697],
          [-112.47072, 35.52199],
          [-112.45167, 35.54211],
          [-112.44691, 35.54713],
          [-112.45045, 35.56939],
          [-112.43139, 35.58949],
          [-112.42663, 35.59452],
          [-112.40756, 35.61462],
          [-112.40279, 35.61965],
          [-112.40633, 35.6419],
          [-112.38725, 35.66199],
          [-112.38248, 35.66702],
          [-112.38601, 35.68926],
          [-112.36692, 35.70935],
          [-112.36214, 35.71438],
          [-112.36567, 35.73662],
          [-112.3692, 35.75886],
          [-112.37273, 35.7811],
          [-112.35362, 35.80119],
          [-112.34885, 35.80621],
          [-112.35238, 35.82844],
          [-112.35591, 35.85068],
          [-112.35944, 35.87291],
          [-112.36297, 35.89514],
          [-112.36651, 35.91737],
          [-112.37004, 35.9396],
          [-112.37358, 35.96183],
          [-112.35444, 35.9819],
          [-112.34965, 35.98692],
          [-112.35319, 36.00914],
          [-112.33404, 36.0292],
          [-112.32925, 36.03422],
          [-112.33278, 36.05644],
          [-112.31361, 36.0765],
          [-112.30882, 36.08151],
          [-112.31235, 36.10373],
          [-112.29318, 36.12378],
          [-112.28838, 36.12879],
          [-112.29191, 36.15101],
          [-112.29544, 36.17322],
          [-112.29897, 36.19543],
          [-112.3025, 36.21763],
          [-112.30603, 36.23984],
          [-112.30956, 36.26204],
          [-112.31578, 36.26591],
          [-112.34064, 36.28139],
          [-112.34418, 36.30359],
          [-112.34773, 36.32579],
          [-112.35127, 36.34799],
          [-112.35482, 36.37018],
          [-112.35837, 36.39237],
          [-112.36192, 36.41456],
          [-112.36547, 36.43675],
          [-112.36902, 36.45894],
          [-112.37258, 36.48112],
          [-112.37613, 36.5033],
          [-112.37969, 36.52548],
          [-112.38325, 36.54766],
          [-112.37576, 36.57098],
          [-112.36756, 36.58987],
          [-112.36275, 36.59487],
          [-112.36631, 36.61705],
          [-112.34705, 36.63707],
          [-112.345, 36.64179],
          [-112.34579, 36.66424],
          [-112.34935, 36.68641],
          [-112.33008, 36.70642],
          [-112.32526, 36.71143],
          [-112.32881, 36.73359],
          [-112.30953, 36.7536],
          [-112.3047, 36.7586],
          [-112.30825, 36.78076],
          [-112.28896, 36.80076],
          [-112.28413, 36.80576],
          [-112.26483, 36.82576],
          [-112.26, 36.83076],
          [-112.24069, 36.85075],
          [-112.23586, 36.85575],
          [-112.2394, 36.8779],
          [-112.22007, 36.89789],
          [-112.21524, 36.90288],
          [-112.1959, 36.92286],
          [-112.19107, 36.92786],
          [-112.17172, 36.94784],
          [-112.14401, 36.95065],
          [-112.13917, 36.95565],
          [-112.11981, 36.97562],
          [-112.09209, 36.97842],
          [-112.08725, 36.98342],
          [-112.06787, 37.00338],
          [-112.04014, 37.00618],
          [-112.01241, 37.00897],
          [-112, 37.01022]
        ]
      }
    }
  ]
}

