{
  "type": "FeatureCollection",
  "contract_version": "1.0.0",
  "bbox": [-130, 30.00853, -112, 44.5],
  "features": [
    {
      "type": "Feature",
      "id": "2026092712_f234_09000_001",
      "properties": {
        "product_id": "winter_storm_levels",
        "source_id": "nbm_snow_level",
        "parameter": "snow_level",
        "definition": "height of the wet-bulb 0.5 degree C surface",
        "level_ft_msl": 9000,
        "label": "9,000 ft MSL",
        "unit": "ft_msl",
        "cycle_time_utc": "2026-09-27T12:00:00Z",
        "valid_time_utc": "2026-10-07T06:00:00Z",
        "lead_hours": 234,
        "segment": 1,
        "length_m": 224957.3
      },
      "geometry": {
        "type": "LineString",
        "coordinates": [
          [-130, 43.56317],
          [-129.99754, 43.56364],
          [-129.96874, 43.56915],
          [-129.96291, 43.5764],
          [-129.94753, 43.59552],
          [-129.91872, 43.60102],
          [-129.8899, 43.60651],
          [-129.86109, 43.612],
          [-129.83226, 43.61748],
          [-129.80588, 43.60633],
          [-129.79587, 43.6021],
          [-129.76705, 43.60757],
          [-129.73823, 43.61304],
          [-129.73238, 43.62028],
          [-129.71695, 43.63938],
          [-129.68811, 43.64484],
          [-129.68225, 43.65208],
          [-129.66681, 43.67116],
          [-129.63796, 43.67662],
          [-129.6321, 43.68385],
          [-129.61664, 43.70293],
          [-129.58778, 43.70837],
          [-129.58191, 43.71561],
          [-129.56643, 43.73468],
          [-129.53756, 43.74011],
          [-129.53169, 43.74734],
          [-129.5162, 43.7664],
          [-129.48731, 43.77183],
          [-129.48143, 43.77906],
          [-129.46593, 43.79811],
          [-129.46005, 43.80533],
          [-129.44454, 43.82438],
          [-129.41563, 43.82979],
          [-129.40974, 43.83702],
          [-129.39422, 43.85606],
          [-129.3653, 43.86146],
          [-129.3594, 43.86868],
          [-129.34386, 43.88771],
          [-129.31493, 43.89311],
          [-129.30903, 43.90032],
          [-129.29348, 43.91935],
          [-129.28757, 43.92656],
          [-129.27201, 43.94558],
          [-129.2661, 43.95279],
          [-129.25053, 43.9718],
          [-129.22157, 43.97718],
          [-129.21566, 43.98439],
          [-129.20007, 44.0034],
          [-129.1711, 44.00877],
          [-129.16518, 44.01597],
          [-129.14958, 44.03497],
          [-129.12059, 44.04033],
          [-129.11467, 44.04753],
          [-129.09905, 44.06652],
          [-129.07005, 44.07187],
          [-129.06413, 44.07907],
          [-129.04849, 44.09805],
          [-129.01948, 44.1034],
          [-129.01355, 44.11059],
          [-128.9979, 44.12957],
          [-128.96888, 44.1349],
          [-128.96294, 44.14209],
          [-128.94728, 44.16106],
          [-128.91825, 44.16638],
          [-128.9123, 44.17357],
          [-128.89662, 44.19253],
          [-128.86758, 44.19784],
          [-128.83853, 44.20316],
          [-128.80947, 44.20846],
          [-128.80352, 44.21565],
          [-128.78781, 44.23459],
          [-128.76138, 44.22333],
          [-128.75136, 44.21906],
          [-128.7223, 44.22435],
          [-128.69323, 44.22964],
          [-128.66681, 44.21837],
          [-128.65679, 44.2141],
          [-128.62773, 44.21937],
          [-128.59866, 44.22465],
          [-128.56959, 44.22992],
          [-128.54318, 44.21863],
          [-128.53317, 44.21435],
          [-128.50409, 44.2196],
          [-128.47502, 44.22486],
          [-128.44863, 44.21356],
          [-128.43862, 44.20927],
          [-128.40954, 44.21451],
          [-128.38046, 44.21975],
          [-128.35138, 44.22499],
          [-128.32229, 44.23022],
          [-128.2932, 44.23545],
          [-128.26411, 44.24067],
          [-128.23502, 44.24589],
          [-128.20592, 44.2511],
          [-128.17682, 44.25631],
          [-128.14771, 44.26151],
          [-128.1417, 44.26867],
          [-128.12586, 44.28755],
          [-128.09674, 44.29274],
          [-128.09073, 44.2999],
          [-128.07487, 44.31877],
          [-128.06886, 44.32593],
          [-128.05299, 44.3448],
          [-128.04697, 44.35195],
          [-128.0311, 44.37081],
          [-128.02507, 44.37797],
          [-128.00919, 44.39682],
          [-127.98003, 44.402],
          [-127.974, 44.40915],
          [-127.95811, 44.42799],
          [-127.92894, 44.43316],
          [-127.9229, 44.4403],
          [-127.90699, 44.45914],
          [-127.90095, 44.46629],
          [-127.88503, 44.48512],
          [-127.87899, 44.49227],
          [-127.87245, 44.5]
        ]
      }
    },
    {
      "type": "Feature",
      "id": "2026092712_f234_10000_001",
      "properties": {
        "product_id": "winter_storm_levels",
        "source_id": "nbm_snow_level",
        "parameter": "snow_level",
        "definition": "height of the wet-bulb 0.5 degree C surface",
        "level_ft_msl": 10000,
        "label": "10,000 ft MSL",
        "unit": "ft_msl",
        "cycle_time_utc": "2026-09-27T12:00:00Z",
        "valid_time_utc": "2026-10-07T06:00:00Z",
        "lead_hours": 234,
        "segment": 1,
        "length_m": 5134.3
      },
      "geometry": {
        "type": "LineString",
        "coordinates": [
          [-124.57898, 42.34739],
          [-124.5706, 42.35712],
          [-124.55744, 42.35092],
          [-124.56582, 42.34119],
          [-124.57898, 42.34739]
        ]
      }
    },
    {
      "type": "Feature",
      "id": "2026092712_f234_10000_002",
      "properties": {
        "product_id": "winter_storm_levels",
        "source_id": "nbm_snow_level",
        "parameter": "snow_level",
        "definition": "height of the wet-bulb 0.5 degree C surface",
        "level_ft_msl": 10000,
        "label": "10,000 ft MSL",
        "unit": "ft_msl",
        "cycle_time_utc": "2026-09-27T12:00:00Z",
        "valid_time_utc": "2026-10-07T06:00:00Z",
        "lead_hours": 234,
        "segment": 2,
        "length_m": 1155619.5
      },
      "geometry": {
        "type": "LineString",
        "coordinates": [
          [-130, 37.04074],
          [-129.99536, 37.0471],
          [-129.98292, 37.06415],
          [-129.95588, 37.06984],
          [-129.92883, 37.07553],
          [-129.92136, 37.08575],
          [-129.9089, 37.10279],
          [-129.90143, 37.11302],
          [-129.88897, 37.13005],
          [-129.88149, 37.14027],
          [-129.88861, 37.16185],
          [-129.89574, 37.18342],
          [-129.88327, 37.20045],
          [-129.87578, 37.21067],
          [-129.88291, 37.23223],
          [-129.87043, 37.24926],
          [-129.86295, 37.25948],
          [-129.85046, 37.2765],
          [-129.84297, 37.28671],
          [-129.83048, 37.30373],
          [-129.82298, 37.31394],
          [-129.81049, 37.33096],
          [-129.78337, 37.33662],
          [-129.75625, 37.34227],
          [-129.74874, 37.35248],
          [-129.73623, 37.36948],
          [-129.70909, 37.37513],
          [-129.68196, 37.38077],
          [-129.67444, 37.39097],
          [-129.66191, 37.40797],
          [-129.63477, 37.41361],
          [-129.62725, 37.4238],
          [-129.61471, 37.4408],
          [-129.60718, 37.45099],
          [-129.59463, 37.46798],
          [-129.5871, 37.47818],
          [-129.57455, 37.49517],
          [-129.56702, 37.50536],
          [-129.55446, 37.52234],
          [-129.54692, 37.53253],
          [-129.53436, 37.54951],
          [-129.52681, 37.5597],
          [-129.51424, 37.57667],
          [-129.48705, 37.58228],
          [-129.4795, 37.59247],
          [-129.46691, 37.60944],
          [-129.43971, 37.61503],
          [-129.4125, 37.62063],
          [-129.40494, 37.63081],
          [-129.39234, 37.64777],
          [-129.36512, 37.65336],
          [-129.35755, 37.66353],
          [-129.34494, 37.68049],
          [-129.31771, 37.68607],
          [-129.31014, 37.69624],
          [-129.29752, 37.71319],
          [-129.28994, 37.72336],
          [-129.27731, 37.74031],
          [-129.25006, 37.74587],
          [-129.24248, 37.75604],
          [-129.22984, 37.77298],
          [-129.20258, 37.77854],
          [-129.19499, 37.7887],
          [-129.18234, 37.80564],
          [-129.15507, 37.81119],
          [-129.14747, 37.82135],
          [-129.13481, 37.83828],
          [-129.10753, 37.84382],
          [-129.08024, 37.84935],
          [-129.07264, 37.85951],
          [-129.05996, 37.87643],
          [-129.03266, 37.88196],
          [-129.00536, 37.88748],
          [-128.97806, 37.893],
          [-128.95076, 37.89851],
          [-128.92345, 37.90402],
          [-128.91582, 37.91417],
          [-128.90311, 37.93107],
          [-128.8758, 37.93657],
          [-128.84847, 37.94207],
          [-128.82115, 37.94756],
          [-128.81351, 37.9577],
          [-128.80078, 37.9746],
          [-128.77345, 37.98008],
          [-128.74611, 37.98556],
          [-128.71877, 37.99104],
          [-128.69143, 37.99651],
          [-128.66408, 38.00197],
          [-128.65643, 38.0121],
          [-128.64366, 38.02898],
          [-128.636, 38.03911],
          [-128.62323, 38.05599],
          [-128.59587, 38.06144],
          [-128.5685, 38.06689],
          [-128.56083, 38.07701],
          [-128.54805, 38.09388],
          [-128.54037, 38.104],
          [-128.52758, 38.12087],
          [-128.50019, 38.1263],
          [-128.49251, 38.13642],
          [-128.47971, 38.15328],
          [-128.47203, 38.1634],
          [-128.45922, 38.18025],
          [-128.43181, 38.18568],
          [-128.42412, 38.19579],
          [-128.4113, 38.21264],
          [-128.38388, 38.21805],
          [-128.37618, 38.22816],
          [-128.36335, 38.24501],
          [-128.35565, 38.25511],
          [-128.34281, 38.27195],
          [-128.3351, 38.28206],
          [-128.32226, 38.29889],
          [-128.31455, 38.30899],
          [-128.32143, 38.33053],
          [-128.30858, 38.34736],
          [-128.30086, 38.35746],
          [-128.288, 38.37429],
          [-128.26054, 38.37968],
          [-128.25282, 38.38978],
          [-128.23995, 38.4066],
          [-128.23222, 38.41669],
          [-128.21934, 38.43351],
          [-128.21161, 38.4436],
          [-128.19873, 38.46042],
          [-128.19099, 38.47051],
          [-128.1781, 38.48732],
          [-128.17036, 38.4974],
          [-128.17723, 38.51893],
          [-128.16433, 38.53573],
          [-128.13682, 38.5411],
          [-128.12908, 38.55119],
          [-128.11616, 38.56799],
          [-128.10842, 38.57807],
          [-128.11528, 38.59958],
          [-128.10236, 38.61638],
          [-128.0946, 38.62646],
          [-128.10146, 38.64797],
          [-128.10833, 38.66948],
          [-128.0954, 38.68627],
          [-128.08764, 38.69634],
          [-128.0945, 38.71785],
          [-128.08156, 38.73464],
          [-128.0738, 38.74471],
          [-128.06085, 38.76149],
          [-128.05309, 38.77156],
          [-128.04014, 38.78834],
          [-128.03236, 38.7984],
          [-128.03922, 38.8199],
          [-128.02626, 38.83668],
          [-128.01849, 38.84674],
          [-128.00552, 38.86351],
          [-127.99774, 38.87357],
          [-128.0046, 38.89506],
          [-127.99162, 38.91183],
          [-127.98384, 38.92189],
          [-127.9907, 38.94338],
          [-127.97771, 38.96014],
          [-127.96992, 38.97019],
          [-127.97678, 38.99168],
          [-127.96379, 39.00843],
          [-127.95599, 39.01849],
          [-127.943, 39.03524],
          [-127.9352, 39.04529],
          [-127.9222, 39.06204],
          [-127.91439, 39.07209],
          [-127.92124, 39.09356],
          [-127.9281, 39.11504],
          [-127.91509, 39.13178],
          [-127.90728, 39.14183],
          [-127.91413, 39.16329],
          [-127.92099, 39.18476],
          [-127.92785, 39.20622],
          [-127.91483, 39.22296],
          [-127.90701, 39.233],
          [-127.91387, 39.25446],
          [-127.90084, 39.27119],
          [-127.89302, 39.28123],
          [-127.89988, 39.30268],
          [-127.90675, 39.32413],
          [-127.89371, 39.34086],
          [-127.88588, 39.35089],
          [-127.89274, 39.37234],
          [-127.89961, 39.39379],
          [-127.88656, 39.41051],
          [-127.87873, 39.42054],
          [-127.88559, 39.44198],
          [-127.89247, 39.46342],
          [-127.89934, 39.48485],
          [-127.88628, 39.50156],
          [-127.87844, 39.51159],
          [-127.88531, 39.53302],
          [-127.89219, 39.55445],
          [-127.89907, 39.57588],
          [-127.88599, 39.59258],
          [-127.87814, 39.6026],
          [-127.88502, 39.62403],
          [-127.87194, 39.64073],
          [-127.86409, 39.65074],
          [-127.87097, 39.67216],
          [-127.87785, 39.69358],
          [-127.88474, 39.71499],
          [-127.87164, 39.73168],
          [-127.86379, 39.7417],
          [-127.87067, 39.7631],
          [-127.87756, 39.78451],
          [-127.88445, 39.80591],
          [-127.87135, 39.8226],
          [-127.86348, 39.83261],
          [-127.87037, 39.85401],
          [-127.85726, 39.87069],
          [-127.84939, 39.88069],
          [-127.85628, 39.90209],
          [-127.84316, 39.91876],
          [-127.83528, 39.92876],
          [-127.84218, 39.95015],
          [-127.82905, 39.96682],
          [-127.82116, 39.97682],
          [-127.82806, 39.99821],
          [-127.81492, 40.01487],
          [-127.80703, 40.02487],
          [-127.81393, 40.04625],
          [-127.80078, 40.06291],
          [-127.79289, 40.0729],
          [-127.77973, 40.08956],
          [-127.77184, 40.09955],
          [-127.75868, 40.1162],
          [-127.75078, 40.12619],
          [-127.73761, 40.14284],
          [-127.72971, 40.15283],
          [-127.71654, 40.16947],
          [-127.70863, 40.17946],
          [-127.69545, 40.1961],
          [-127.68754, 40.20608],
          [-127.67435, 40.22272],
          [-127.66643, 40.2327],
          [-127.65324, 40.24933],
          [-127.64532, 40.25931],
          [-127.63212, 40.27594],
          [-127.6242, 40.28592],
          [-127.61099, 40.30254],
          [-127.60306, 40.31251],
          [-127.58984, 40.32914],
          [-127.56183, 40.33437],
          [-127.55389, 40.34434],
          [-127.54067, 40.36095],
          [-127.51264, 40.36618],
          [-127.5047, 40.37614],
          [-127.49146, 40.39275],
          [-127.46342, 40.39797],
          [-127.45547, 40.40793],
          [-127.44222, 40.42453],
          [-127.43427, 40.43449],
          [-127.42101, 40.45109],
          [-127.39295, 40.45629],
          [-127.38499, 40.46625],
          [-127.37172, 40.48284],
          [-127.36376, 40.49279],
          [-127.35048, 40.50938],
          [-127.34251, 40.51933],
          [-127.32923, 40.53592],
          [-127.32126, 40.54587],
          [-127.30797, 40.56245],
          [-127.29999, 40.57239],
          [-127.28669, 40.58897],
          [-127.25859, 40.59415],
          [-127.25061, 40.60409],
          [-127.2373, 40.62066],
          [-127.20918, 40.62583],
          [-127.20119, 40.63577],
          [-127.18787, 40.65233],
          [-127.17988, 40.66227],
          [-127.16655, 40.67883],
          [-127.15855, 40.68876],
          [-127.14521, 40.70532],
          [-127.13721, 40.71525],
          [-127.12387, 40.7318],
          [-127.11586, 40.74173],
          [-127.10251, 40.75828],
          [-127.07435, 40.76343],
          [-127.06634, 40.77335],
          [-127.05298, 40.78989],
          [-127.04496, 40.79982],
          [-127.03159, 40.81635],
          [-127.02357, 40.82628],
          [-127.01019, 40.84281],
          [-127.00217, 40.85273],
          [-126.98879, 40.86926],
          [-126.98075, 40.87917],
          [-126.96737, 40.8957],
          [-126.95933, 40.90561],
          [-126.94594, 40.92213],
          [-126.9379, 40.93205],
          [-126.92449, 40.94856],
          [-126.91645, 40.95847],
          [-126.90304, 40.97499],
          [-126.89499, 40.98489],
          [-126.88158, 41.0014],
          [-126.87352, 41.01131],
          [-126.8601, 41.02781],
          [-126.85205, 41.03772],
          [-126.83862, 41.05422],
          [-126.83055, 41.06412],
          [-126.81712, 41.08062],
          [-126.80905, 41.09051],
          [-126.79561, 41.10701],
          [-126.78754, 41.1169],
          [-126.77409, 41.13339],
          [-126.74581, 41.13848],
          [-126.73774, 41.14837],
          [-126.72427, 41.16485],
          [-126.69598, 41.16992],
          [-126.6879, 41.17981],
          [-126.67443, 41.19629],
          [-126.64613, 41.20135],
          [-126.63804, 41.21124],
          [-126.62455, 41.22771],
          [-126.61645, 41.23759],
          [-126.60296, 41.25405],
          [-126.59486, 41.26393],
          [-126.58136, 41.28039],
          [-126.57326, 41.29027],
          [-126.55975, 41.30673],
          [-126.53141, 41.31177],
          [-126.5233, 41.32164],
          [-126.50978, 41.3381],
          [-126.50166, 41.34797],
          [-126.48814, 41.36441],
          [-126.48002, 41.37428],
          [-126.46648, 41.39072],
          [-126.45836, 41.40059],
          [-126.44482, 41.41703],
          [-126.43669, 41.42689],
          [-126.44339, 41.44817],
          [-126.42984, 41.4646],
          [-126.42171, 41.47446],
          [-126.40815, 41.49089],
          [-126.40002, 41.50075],
          [-126.38645, 41.51717],
          [-126.37831, 41.52703],
          [-126.38501, 41.54829],
          [-126.37143, 41.56471],
          [-126.36329, 41.57456],
          [-126.34971, 41.59098],
          [-126.34156, 41.60083],
          [-126.32797, 41.61724],
          [-126.31981, 41.62709],
          [-126.30622, 41.64349],
          [-126.29806, 41.65334],
          [-126.28446, 41.66974],
          [-126.2763, 41.67958],
          [-126.28298, 41.70083],
          [-126.26937, 41.71723],
          [-126.2612, 41.72707],
          [-126.24758, 41.74346],
          [-126.23941, 41.7533],
          [-126.22579, 41.76969],
          [-126.21761, 41.77952],
          [-126.20398, 41.79591],
          [-126.1958, 41.80574],
          [-126.18216, 41.82212],
          [-126.17397, 41.83195],
          [-126.16033, 41.84833],
          [-126.15214, 41.85816],
          [-126.13849, 41.87453],
          [-126.13029, 41.88435],
          [-126.11663, 41.90072],
          [-126.10843, 41.91054],
          [-126.09477, 41.92691],
          [-126.08657, 41.93673],
          [-126.07289, 41.95309],
          [-126.06468, 41.96291],
          [-126.051, 41.97926],
          [-126.04279, 41.98908],
          [-126.0291, 42.00543],
          [-126.02089, 42.01524],
          [-126.00719, 42.03159],
          [-125.99897, 42.0414],
          [-125.98527, 42.05775],
          [-125.97705, 42.06755],
          [-125.96334, 42.08389],
          [-125.93475, 42.08882],
          [-125.92652, 42.09862],
          [-125.9128, 42.11496],
          [-125.90457, 42.12476],
          [-125.89084, 42.14109],
          [-125.8826, 42.15089],
          [-125.86886, 42.16721],
          [-125.86062, 42.17701],
          [-125.84687, 42.19333],
          [-125.81825, 42.19824],
          [-125.81, 42.20803],
          [-125.79625, 42.22434],
          [-125.78799, 42.23413],
          [-125.77423, 42.25044],
          [-125.76597, 42.26023],
          [-125.7522, 42.27653],
          [-125.72355, 42.28142],
          [-125.71528, 42.2912],
          [-125.7015, 42.3075],
          [-125.69322, 42.31728],
          [-125.67943, 42.33358],
          [-125.67116, 42.34336],
          [-125.65736, 42.35965],
          [-125.62868, 42.36452],
          [-125.6204, 42.37429],
          [-125.60659, 42.39058],
          [-125.5983, 42.40035],
          [-125.58449, 42.41663],
          [-125.55579, 42.42149],
          [-125.54749, 42.43125],
          [-125.53366, 42.44753],
          [-125.50495, 42.45238],
          [-125.49665, 42.46214],
          [-125.48281, 42.47841],
          [-125.4745, 42.48817],
          [-125.46065, 42.50443],
          [-125.43192, 42.50927],
          [-125.42361, 42.51902],
          [-125.40975, 42.53528],
          [-125.40143, 42.54503],
          [-125.38756, 42.56128],
          [-125.37924, 42.57103],
          [-125.36536, 42.58728],
          [-125.35703, 42.59703],
          [-125.34315, 42.61327],
          [-125.31438, 42.61809],
          [-125.30605, 42.62783],
          [-125.29215, 42.64407],
          [-125.28381, 42.65381],
          [-125.26991, 42.67004],
          [-125.24112, 42.67484],
          [-125.23278, 42.68458],
          [-125.21886, 42.70081],
          [-125.19006, 42.7056],
          [-125.18171, 42.71533],
          [-125.16778, 42.73155],
          [-125.13897, 42.73634],
          [-125.13061, 42.74607],
          [-125.11667, 42.76228],
          [-125.08785, 42.76705],
          [-125.07948, 42.77678],
          [-125.06552, 42.79298],
          [-125.03669, 42.79775],
          [-125.02832, 42.80747],
          [-125.01435, 42.82367],
          [-124.98551, 42.82843],
          [-124.97712, 42.83814],
          [-124.96314, 42.85434],
          [-124.93429, 42.85909],
          [-124.9259, 42.8688],
          [-124.91191, 42.88498],
          [-124.88304, 42.88972],
          [-124.85417, 42.89446],
          [-124.84577, 42.90417],
          [-124.83176, 42.92034],
          [-124.80288, 42.92507],
          [-124.774, 42.92979],
          [-124.74511, 42.93451],
          [-124.73669, 42.94421],
          [-124.72266, 42.96037],
          [-124.69377, 42.96508],
          [-124.68534, 42.97477],
          [-124.67129, 42.99093],
          [-124.66287, 43.00062],
          [-124.64881, 43.01677],
          [-124.64038, 43.02646],
          [-124.62632, 43.04261],
          [-124.59739, 43.0473],
          [-124.58895, 43.05699],
          [-124.57488, 43.07313],
          [-124.56643, 43.08281],
          [-124.55235, 43.09894],
          [-124.5439, 43.10862],
          [-124.52981, 43.12475],
          [-124.52136, 43.13443],
          [-124.50726, 43.15056],
          [-124.4783, 43.15523],
          [-124.46984, 43.1649],
          [-124.45573, 43.18102],
          [-124.44726, 43.19069],
          [-124.43315, 43.20681],
          [-124.42468, 43.21648],
          [-124.41056, 43.23259],
          [-124.38156, 43.23724],
          [-124.37309, 43.24691],
          [-124.35895, 43.26301],
          [-124.32995, 43.26765],
          [-124.32146, 43.27731],
          [-124.30731, 43.29341],
          [-124.29882, 43.30307],
          [-124.28467, 43.31916],
          [-124.27617, 43.32882],
          [-124.26201, 43.3449],
          [-124.25351, 43.35456],
          [-124.23934, 43.37064],
          [-124.2103, 43.37526],
          [-124.20179, 43.38491],
          [-124.18761, 43.40099],
          [-124.15856, 43.4056],
          [-124.15004, 43.41524],
          [-124.13585, 43.43131],
          [-124.10678, 43.43592],
          [-124.09826, 43.44556],
          [-124.08405, 43.46162],
          [-124.07553, 43.47126],
          [-124.06131, 43.48732],
          [-124.03223, 43.49191],
          [-124.02369, 43.50154],
          [-124.00946, 43.51759],
          [-124.00092, 43.52722],
          [-123.98669, 43.54327],
          [-123.97814, 43.5529],
          [-123.9639, 43.56894],
          [-123.93479, 43.57351],
          [-123.92624, 43.58313],
          [-123.91198, 43.59917],
          [-123.90342, 43.60879],
          [-123.88916, 43.62482],
          [-123.86003, 43.62938],
          [-123.85146, 43.639],
          [-123.83719, 43.65502],
          [-123.82862, 43.66464],
          [-123.81433, 43.68066],
          [-123.78518, 43.6852],
          [-123.77661, 43.69481],
          [-123.78289, 43.71589],
          [-123.76859, 43.7319],
          [-123.76001, 43.74151],
          [-123.7457, 43.75752],
          [-123.73712, 43.76712],
          [-123.7228, 43.78312],
          [-123.69362, 43.78765],
          [-123.68502, 43.79725],
          [-123.6707, 43.81324],
          [-123.6621, 43.82284],
          [-123.64776, 43.83883],
          [-123.63916, 43.84842],
          [-123.62482, 43.86441],
          [-123.61621, 43.874],
          [-123.60186, 43.88998],
          [-123.59325, 43.89957],
          [-123.57889, 43.91555],
          [-123.57027, 43.92513],
          [-123.55591, 43.94111],
          [-123.54729, 43.95069],
          [-123.53291, 43.96666],
          [-123.50366, 43.97115],
          [-123.49504, 43.98073],
          [-123.48065, 43.99669],
          [-123.45139, 44.00118],
          [-123.42213, 44.00566],
          [-123.41349, 44.01523],
          [-123.39908, 44.03118],
          [-123.36981, 44.03566],
          [-123.36116, 44.04522],
          [-123.34674, 44.06117],
          [-123.31746, 44.06563],
          [-123.3088, 44.0752],
          [-123.29437, 44.09113],
          [-123.26507, 44.09559],
          [-123.25641, 44.10515],
          [-123.24197, 44.12108],
          [-123.21266, 44.12552],
          [-123.18335, 44.12996],
          [-123.17467, 44.13952],
          [-123.16021, 44.15544],
          [-123.13089, 44.15987],
          [-123.12221, 44.16942],
          [-123.10773, 44.18533],
          [-123.09904, 44.19488],
          [-123.08456, 44.21079],
          [-123.05522, 44.2152],
          [-123.04652, 44.22475],
          [-123.03203, 44.24065],
          [-123.00267, 44.24506],
          [-122.99397, 44.25459],
          [-122.97946, 44.27049],
          [-122.9501, 44.27489],
          [-122.94139, 44.28442],
          [-122.92687, 44.30031],
          [-122.89749, 44.3047],
          [-122.88877, 44.31423],
          [-122.87424, 44.33011],
          [-122.84485, 44.33449],
          [-122.83612, 44.34401],
          [-122.82157, 44.35989],
          [-122.79217, 44.36426],
          [-122.78344, 44.37378],
          [-122.76888, 44.38965],
          [-122.73947, 44.39401],
          [-122.71005, 44.39837],
          [-122.68064, 44.40272],
          [-122.65122, 44.40707],
          [-122.6218, 44.41142],
          [-122.59237, 44.41576],
          [-122.56294, 44.42009],
          [-122.53351, 44.42442],
          [-122.50408, 44.42875],
          [-122.49531, 44.43825],
          [-122.4807, 44.45409],
          [-122.45125, 44.45841],
          [-122.44248, 44.46791],
          [-122.42785, 44.48373],
          [-122.39839, 44.48804],
          [-122.36893, 44.49235],
          [-122.33947, 44.49664],
          [-122.33636, 44.5]
        ]
      }
    },
    {
      "type": "Feature",
      "id": "2026092712_f234_11000_001",
      "properties": {
        "product_id": "winter_storm_levels",
        "source_id": "nbm_snow_level",
        "parameter": "snow_level",
        "definition": "height of the wet-bulb 0.5 degree C surface",
        "level_ft_msl": 11000,
        "label": "11,000 ft MSL",
        "unit": "ft_msl",
        "cycle_time_utc": "2026-09-27T12:00:00Z",
        "valid_time_utc": "2026-10-07T06:00:00Z",
        "lead_hours": 234,
        "segment": 1,
        "length_m": 2254586.3
      },
      "geometry": {
        "type": "LineString",
        "coordinates": [
          [-123.97832, 30.2303],
          [-123.98165, 30.24358],
          [-123.98724, 30.2658],
          [-123.99283, 30.28803],
          [-123.98225, 30.30223],
          [-123.97268, 30.31507],
          [-123.97826, 30.33729],
          [-123.98385, 30.35952],
          [-123.98945, 30.38174],
          [-123.99504, 30.40395],
          [-123.98445, 30.41815],
          [-123.97487, 30.431],
          [-123.98046, 30.45321],
          [-123.98606, 30.47543],
          [-123.97546, 30.48963],
          [-123.96587, 30.50247],
          [-123.97147, 30.52468],
          [-123.97707, 30.5469],
          [-123.98267, 30.56911],
          [-123.97206, 30.5833],
          [-123.96246, 30.59614],
          [-123.96806, 30.61835],
          [-123.97366, 30.64056],
          [-123.97927, 30.66277],
          [-123.96865, 30.67696],
          [-123.95905, 30.6898],
          [-123.96465, 30.71201],
          [-123.97026, 30.73422],
          [-123.97586, 30.75642],
          [-123.98147, 30.77863],
          [-123.97085, 30.79282],
          [-123.96123, 30.80565],
          [-123.96684, 30.82785],
          [-123.95621, 30.84204],
          [-123.94659, 30.85487],
          [-123.9522, 30.87707],
          [-123.94157, 30.89126],
          [-123.93194, 30.90409],
          [-123.9213, 30.91827],
          [-123.91167, 30.9311],
          [-123.91727, 30.9533],
          [-123.90662, 30.96748],
          [-123.89699, 30.9803],
          [-123.88634, 30.99448],
          [-123.8767, 31.0073],
          [-123.8823, 31.0295],
          [-123.87164, 31.04368],
          [-123.86199, 31.0565],
          [-123.86759, 31.0787],
          [-123.8732, 31.10089],
          [-123.86253, 31.11506],
          [-123.85288, 31.12788],
          [-123.85848, 31.15008],
          [-123.86409, 31.17227],
          [-123.85341, 31.18644],
          [-123.82747, 31.19123],
          [-123.81781, 31.20405],
          [-123.80713, 31.21821],
          [-123.78118, 31.223],
          [-123.7715, 31.23581],
          [-123.76081, 31.24997],
          [-123.75114, 31.26279],
          [-123.74044, 31.27694],
          [-123.73076, 31.28975],
          [-123.72006, 31.30391],
          [-123.71037, 31.31672],
          [-123.69967, 31.33087],
          [-123.68998, 31.34368],
          [-123.67927, 31.35783],
          [-123.66957, 31.37063],
          [-123.65886, 31.38478],
          [-123.63286, 31.38954],
          [-123.62316, 31.40234],
          [-123.61244, 31.41649],
          [-123.58643, 31.42124],
          [-123.56043, 31.42599],
          [-123.53442, 31.43073],
          [-123.5247, 31.44353],
          [-123.51396, 31.45766],
          [-123.48795, 31.4624],
          [-123.47822, 31.47519],
          [-123.46747, 31.48932],
          [-123.44145, 31.49405],
          [-123.42488, 31.48488],
          [-123.40988, 31.47658],
          [-123.38386, 31.4813],
          [-123.35783, 31.48601],
          [-123.34127, 31.47683],
          [-123.32628, 31.46852],
          [-123.31654, 31.4813],
          [-123.30577, 31.49543],
          [-123.27974, 31.50013],
          [-123.2537, 31.50482],
          [-123.22767, 31.50952],
          [-123.21791, 31.52229],
          [-123.20712, 31.5364],
          [-123.19736, 31.54917],
          [-123.18657, 31.56329],
          [-123.16052, 31.56797],
          [-123.15075, 31.58073],
          [-123.13995, 31.59484],
          [-123.13018, 31.60761],
          [-123.11937, 31.62171],
          [-123.10959, 31.63448],
          [-123.09878, 31.64858],
          [-123.089, 31.66134],
          [-123.07819, 31.67544],
          [-123.0684, 31.6882],
          [-123.05758, 31.7023],
          [-123.04779, 31.71506],
          [-123.03696, 31.72916],
          [-123.02717, 31.74191],
          [-123.03264, 31.76411],
          [-123.03812, 31.7863],
          [-123.05312, 31.79463],
          [-123.06971, 31.80383],
          [-123.0752, 31.82602],
          [-123.08069, 31.84821],
          [-123.06985, 31.86231],
          [-123.04373, 31.86697],
          [-123.0176, 31.87162],
          [-122.99147, 31.87627],
          [-122.98165, 31.88902],
          [-122.97081, 31.90311],
          [-122.96099, 31.91586],
          [-122.95013, 31.92994],
          [-122.92399, 31.93458],
          [-122.91416, 31.94732],
          [-122.9033, 31.9614],
          [-122.89347, 31.97414],
          [-122.8826, 31.98822],
          [-122.85644, 31.99285],
          [-122.8466, 32.00559],
          [-122.85205, 32.02777],
          [-122.84117, 32.04185],
          [-122.83133, 32.05458],
          [-122.83678, 32.07677],
          [-122.8259, 32.09084],
          [-122.81605, 32.10357],
          [-122.8215, 32.12576],
          [-122.81061, 32.13983],
          [-122.80075, 32.15256],
          [-122.78985, 32.16663],
          [-122.77999, 32.17935],
          [-122.78544, 32.20154],
          [-122.77454, 32.2156],
          [-122.76467, 32.22833],
          [-122.77012, 32.25051],
          [-122.75921, 32.26457],
          [-122.74934, 32.27729],
          [-122.73842, 32.29135],
          [-122.72854, 32.30407],
          [-122.71762, 32.31813],
          [-122.70774, 32.33085],
          [-122.69682, 32.3449],
          [-122.68693, 32.35762],
          [-122.676, 32.37167],
          [-122.64974, 32.37626],
          [-122.63985, 32.38897],
          [-122.62891, 32.40302],
          [-122.60264, 32.4076],
          [-122.59274, 32.42031],
          [-122.58179, 32.43436],
          [-122.57189, 32.44706],
          [-122.56093, 32.46111],
          [-122.55102, 32.47381],
          [-122.55644, 32.49599],
          [-122.54548, 32.51003],
          [-122.53556, 32.52273],
          [-122.54098, 32.5449],
          [-122.53002, 32.55894],
          [-122.52009, 32.57164],
          [-122.52551, 32.59381],
          [-122.51454, 32.60784],
          [-122.50461, 32.62054],
          [-122.49363, 32.63457],
          [-122.48369, 32.64727],
          [-122.47271, 32.6613],
          [-122.46277, 32.67399],
          [-122.46818, 32.69616],
          [-122.45719, 32.71018],
          [-122.44725, 32.72287],
          [-122.43626, 32.7369],
          [-122.42631, 32.74959],
          [-122.43171, 32.77175],
          [-122.42071, 32.78577],
          [-122.41076, 32.79846],
          [-122.41616, 32.82062],
          [-122.42157, 32.84278],
          [-122.41056, 32.8568],
          [-122.4006, 32.86948],
          [-122.406, 32.89164],
          [-122.39499, 32.90566],
          [-122.38502, 32.91834],
          [-122.39043, 32.94049],
          [-122.3794, 32.95451],
          [-122.36943, 32.96718],
          [-122.37483, 32.98934],
          [-122.36381, 33.00335],
          [-122.35382, 33.01602],
          [-122.35923, 33.03818],
          [-122.36464, 33.06033],
          [-122.37005, 33.08248],
          [-122.37546, 33.10462],
          [-122.38087, 33.12677],
          [-122.38629, 33.14891],
          [-122.37524, 33.16292],
          [-122.36525, 33.17559],
          [-122.37066, 33.19773],
          [-122.35961, 33.21173],
          [-122.34961, 33.2244],
          [-122.33856, 33.2384],
          [-122.32856, 33.25107],
          [-122.33397, 33.27321],
          [-122.33938, 33.29535],
          [-122.32832, 33.30934],
          [-122.31831, 33.32201],
          [-122.30724, 33.336],
          [-122.29722, 33.34866],
          [-122.30263, 33.3708],
          [-122.30804, 33.39293],
          [-122.31346, 33.41506],
          [-122.31887, 33.43719],
          [-122.32429, 33.45932],
          [-122.32971, 33.48145],
          [-122.33513, 33.50357],
          [-122.32405, 33.51756],
          [-122.31402, 33.53022],
          [-122.31944, 33.55234],
          [-122.32486, 33.57446],
          [-122.31377, 33.58845],
          [-122.30373, 33.6011],
          [-122.30916, 33.62322],
          [-122.29806, 33.6372],
          [-122.28801, 33.64985],
          [-122.27691, 33.66383],
          [-122.26686, 33.67648],
          [-122.25575, 33.69046],
          [-122.2457, 33.7031],
          [-122.25111, 33.72522],
          [-122.24, 33.73919],
          [-122.22994, 33.75183],
          [-122.23535, 33.77395],
          [-122.24077, 33.79606],
          [-122.24619, 33.81817],
          [-122.25161, 33.84027],
          [-122.26683, 33.84863],
          [-122.28366, 33.85787],
          [-122.27253, 33.87185],
          [-122.26246, 33.88449],
          [-122.26789, 33.90659],
          [-122.27332, 33.92869],
          [-122.27876, 33.95079],
          [-122.28419, 33.97289],
          [-122.29943, 33.98124],
          [-122.31628, 33.99047],
          [-122.32172, 34.01257],
          [-122.32717, 34.03466],
          [-122.33262, 34.05675],
          [-122.33807, 34.07884],
          [-122.34352, 34.10093],
          [-122.34898, 34.12302],
          [-122.35443, 34.1451],
          [-122.35989, 34.16718],
          [-122.34875, 34.18115],
          [-122.33866, 34.19378],
          [-122.34412, 34.21586],
          [-122.34958, 34.23794],
          [-122.35504, 34.26002],
          [-122.34389, 34.27398],
          [-122.33379, 34.28661],
          [-122.33925, 34.30869],
          [-122.34472, 34.33076],
          [-122.35018, 34.35283],
          [-122.35565, 34.3749],
          [-122.36112, 34.39697],
          [-122.36659, 34.41903],
          [-122.37207, 34.4411],
          [-122.37755, 34.46316],
          [-122.38303, 34.48522],
          [-122.38851, 34.50728],
          [-122.39399, 34.52934],
          [-122.39948, 34.5514],
          [-122.40497, 34.57345],
          [-122.41046, 34.59551],
          [-122.42579, 34.60383],
          [-122.44274, 34.61304],
          [-122.44824, 34.63509],
          [-122.45374, 34.65713],
          [-122.45925, 34.67918],
          [-122.46475, 34.70122],
          [-122.47026, 34.72327],
          [-122.47577, 34.74531],
          [-122.48128, 34.76735],
          [-122.4868, 34.78938],
          [-122.49232, 34.81142],
          [-122.49784, 34.83345],
          [-122.50336, 34.85549],
          [-122.50888, 34.87752],
          [-122.49768, 34.89146],
          [-122.48755, 34.90408],
          [-122.49307, 34.9261],
          [-122.48186, 34.94004],
          [-122.47172, 34.95266],
          [-122.47725, 34.97468],
          [-122.46603, 34.98862],
          [-122.45589, 35.00123],
          [-122.46141, 35.02325],
          [-122.45019, 35.03718],
          [-122.42329, 35.0417],
          [-122.41314, 35.05431],
          [-122.40191, 35.06824],
          [-122.39175, 35.08084],
          [-122.38051, 35.09477],
          [-122.37035, 35.10737],
          [-122.35911, 35.12129],
          [-122.34893, 35.13389],
          [-122.33769, 35.14781],
          [-122.32751, 35.16041],
          [-122.31626, 35.17433],
          [-122.30608, 35.18692],
          [-122.29483, 35.20083],
          [-122.28464, 35.21342],
          [-122.29014, 35.23544],
          [-122.27888, 35.24935],
          [-122.26868, 35.26194],
          [-122.27418, 35.28395],
          [-122.26291, 35.29786],
          [-122.25271, 35.31044],
          [-122.25821, 35.33245],
          [-122.26371, 35.35445],
          [-122.25243, 35.36836],
          [-122.24222, 35.38094],
          [-122.24772, 35.40294],
          [-122.25322, 35.42494],
          [-122.25872, 35.44694],
          [-122.26423, 35.46893],
          [-122.25294, 35.48284],
          [-122.24272, 35.49541],
          [-122.24823, 35.5174],
          [-122.25373, 35.5394],
          [-122.25924, 35.56138],
          [-122.26475, 35.58337],
          [-122.25345, 35.59727],
          [-122.24322, 35.60984],
          [-122.24873, 35.63182],
          [-122.25424, 35.65381],
          [-122.25976, 35.67579],
          [-122.26527, 35.69777],
          [-122.27079, 35.71974],
          [-122.27631, 35.74172],
          [-122.265, 35.75561],
          [-122.25475, 35.76817],
          [-122.26027, 35.79014],
          [-122.2658, 35.81211],
          [-122.27132, 35.83408],
          [-122.27685, 35.85605],
          [-122.26552, 35.86993],
          [-122.25527, 35.88249],
          [-122.26079, 35.90445],
          [-122.26632, 35.92641],
          [-122.27185, 35.94837],
          [-122.27738, 35.97033],
          [-122.28292, 35.99229],
          [-122.28845, 36.01424],
          [-122.29399, 36.03619],
          [-122.29953, 36.05814],
          [-122.30508, 36.08009],
          [-122.29373, 36.09397],
          [-122.28346, 36.10652],
          [-122.289, 36.12846],
          [-122.29455, 36.1504],
          [-122.3001, 36.17234],
          [-122.30565, 36.19428],
          [-122.3112, 36.21622],
          [-122.31675, 36.23816],
          [-122.32231, 36.26009],
          [-122.31094, 36.27396],
          [-122.30066, 36.2865],
          [-122.30621, 36.30843],
          [-122.31177, 36.33036],
          [-122.31733, 36.35228],
          [-122.30596, 36.36614],
          [-122.29566, 36.37868],
          [-122.30122, 36.40061],
          [-122.30678, 36.42253],
          [-122.31235, 36.44445],
          [-122.31791, 36.46636],
          [-122.30653, 36.48022],
          [-122.29622, 36.49275],
          [-122.30179, 36.51466],
          [-122.29039, 36.52852],
          [-122.28008, 36.54105],
          [-122.28565, 36.56296],
          [-122.27425, 36.57681],
          [-122.26393, 36.58933],
          [-122.26949, 36.61124],
          [-122.25809, 36.62508],
          [-122.24776, 36.63761],
          [-122.25333, 36.65951],
          [-122.24191, 36.67335],
          [-122.23158, 36.68587],
          [-122.23714, 36.70777],
          [-122.22572, 36.72161],
          [-122.21539, 36.73413],
          [-122.20396, 36.74796],
          [-122.19362, 36.76048],
          [-122.19917, 36.78237],
          [-122.18774, 36.7962],
          [-122.17739, 36.80872],
          [-122.16595, 36.82254],
          [-122.1556, 36.83505],
          [-122.14416, 36.84888],
          [-122.1338, 36.86138],
          [-122.13935, 36.88327],
          [-122.1279, 36.89709],
          [-122.11753, 36.9096],
          [-122.10607, 36.92342],
          [-122.0957, 36.93592],
          [-122.10125, 36.9578],
          [-122.08979, 36.97161],
          [-122.07941, 36.98411],
          [-122.06794, 36.99792],
          [-122.05756, 37.01042],
          [-122.0631, 37.0323],
          [-122.05162, 37.0461],
          [-122.04124, 37.0586],
          [-122.02975, 37.0724],
          [-122.01936, 37.08489],
          [-122.00787, 37.09869],
          [-121.99748, 37.11118],
          [-121.98598, 37.12498],
          [-121.97558, 37.13746],
          [-121.96408, 37.15126],
          [-121.95367, 37.16374],
          [-121.94216, 37.17753],
          [-121.93175, 37.19001],
          [-121.92024, 37.2038],
          [-121.89279, 37.2082],
          [-121.88236, 37.22067],
          [-121.87084, 37.23446],
          [-121.86042, 37.24693],
          [-121.84889, 37.26071],
          [-121.83846, 37.27318],
          [-121.82693, 37.28696],
          [-121.81649, 37.29943],
          [-121.80495, 37.3132],
          [-121.79451, 37.32567],
          [-121.78297, 37.33944],
          [-121.77252, 37.3519],
          [-121.77802, 37.37376],
          [-121.76647, 37.38753],
          [-121.75602, 37.39999],
          [-121.76152, 37.42184],
          [-121.74996, 37.43561],
          [-121.7395, 37.44806],
          [-121.74501, 37.46991],
          [-121.73344, 37.48367],
          [-121.72297, 37.49612],
          [-121.72847, 37.51797],
          [-121.7169, 37.53173],
          [-121.70643, 37.54417],
          [-121.71193, 37.56602],
          [-121.71743, 37.58786],
          [-121.70585, 37.60161],
          [-121.69537, 37.61405],
          [-121.70087, 37.63589],
          [-121.70637, 37.65772],
          [-121.69478, 37.67147],
          [-121.68429, 37.68391],
          [-121.68979, 37.70574],
          [-121.6782, 37.71948],
          [-121.6677, 37.73192],
          [-121.6732, 37.75375],
          [-121.6616, 37.76749],
          [-121.65109, 37.77992],
          [-121.65659, 37.80174],
          [-121.64498, 37.81548],
          [-121.63447, 37.82791],
          [-121.63997, 37.84972],
          [-121.62835, 37.86346],
          [-121.61784, 37.87588],
          [-121.62333, 37.8977],
          [-121.63908, 37.906],
          [-121.65648, 37.91517],
          [-121.66199, 37.93698],
          [-121.6675, 37.95879],
          [-121.67301, 37.98059],
          [-121.68877, 37.98888],
          [-121.70619, 37.99804],
          [-121.71172, 38.01985],
          [-121.71724, 38.04164],
          [-121.73301, 38.04993],
          [-121.74318, 38.06023],
          [-121.75598, 38.08088],
          [-121.76152, 38.10267],
          [-121.77731, 38.11095],
          [-121.78749, 38.12124],
          [-121.8003, 38.14188],
          [-121.80585, 38.16367],
          [-121.81799, 38.18441],
          [-121.82721, 38.19372],
          [-121.84467, 38.20286],
          [-121.85023, 38.22464],
          [-121.8558, 38.24641],
          [-121.87161, 38.25468],
          [-121.88909, 38.26381],
          [-121.89467, 38.28558],
          [-121.90024, 38.30735],
          [-121.90582, 38.32911],
          [-121.89418, 38.34284],
          [-121.88365, 38.35525],
          [-121.88923, 38.37701],
          [-121.87758, 38.39073],
          [-121.86704, 38.40314],
          [-121.87262, 38.4249],
          [-121.86097, 38.43862],
          [-121.85042, 38.45102],
          [-121.83876, 38.46474],
          [-121.82821, 38.47714],
          [-121.81655, 38.49085],
          [-121.80599, 38.50325],
          [-121.81156, 38.525],
          [-121.79989, 38.53871],
          [-121.78933, 38.5511],
          [-121.77765, 38.56481],
          [-121.76708, 38.5772],
          [-121.7554, 38.5909],
          [-121.74483, 38.60329],
          [-121.75039, 38.62503],
          [-121.7387, 38.63873],
          [-121.72812, 38.65112],
          [-121.73368, 38.67285],
          [-121.72198, 38.68654],
          [-121.69414, 38.69088],
          [-121.68355, 38.70327],
          [-121.67184, 38.71695],
          [-121.66124, 38.72933],
          [-121.6668, 38.75106],
          [-121.65508, 38.76475],
          [-121.64448, 38.77712],
          [-121.65003, 38.79885],
          [-121.63831, 38.81253],
          [-121.6277, 38.8249],
          [-121.61597, 38.83857],
          [-121.60536, 38.85094],
          [-121.59362, 38.86461],
          [-121.583, 38.87698],
          [-121.57126, 38.89065],
          [-121.56064, 38.90301],
          [-121.54889, 38.91668],
          [-121.53826, 38.92904],
          [-121.52651, 38.9427],
          [-121.49859, 38.947],
          [-121.48795, 38.95936],
          [-121.49348, 38.98107],
          [-121.48172, 38.99473],
          [-121.47107, 39.00708],
          [-121.4593, 39.02073],
          [-121.44865, 39.03308],
          [-121.45417, 39.05479],
          [-121.4424, 39.06844],
          [-121.43174, 39.08079],
          [-121.41996, 39.09443],
          [-121.40929, 39.10678],
          [-121.39751, 39.12042],
          [-121.38684, 39.13276],
          [-121.37504, 39.1464],
          [-121.36437, 39.15873],
          [-121.36988, 39.18043],
          [-121.35808, 39.19407],
          [-121.3474, 39.2064],
          [-121.35291, 39.22809],
          [-121.35843, 39.24978],
          [-121.34662, 39.26341],
          [-121.33593, 39.27574],
          [-121.32411, 39.28937],
          [-121.31342, 39.30169],
          [-121.3016, 39.31532],
          [-121.2909, 39.32764],
          [-121.27907, 39.34126],
          [-121.26836, 39.35358],
          [-121.27387, 39.37526],
          [-121.26203, 39.38888],
          [-121.25132, 39.40119],
          [-121.23948, 39.4148],
          [-121.21142, 39.41905],
          [-121.2007, 39.43136],
          [-121.20619, 39.45304],
          [-121.19434, 39.46664],
          [-121.18361, 39.47895],
          [-121.17175, 39.49255],
          [-121.16102, 39.50486],
          [-121.14915, 39.51846],
          [-121.13842, 39.53076],
          [-121.12654, 39.54435],
          [-121.1158, 39.55665],
          [-121.10392, 39.57025],
          [-121.09318, 39.58254],
          [-121.08129, 39.59613],
          [-121.07054, 39.60843],
          [-121.05865, 39.62201],
          [-121.04789, 39.6343],
          [-121.036, 39.64788],
          [-121.02523, 39.66017],
          [-121.01333, 39.67375],
          [-121.00256, 39.68604],
          [-121.00803, 39.70769],
          [-120.99612, 39.72127],
          [-120.98534, 39.73355],
          [-120.99081, 39.7552],
          [-120.97889, 39.76877],
          [-120.96811, 39.78104],
          [-120.97357, 39.80269],
          [-120.96165, 39.81625],
          [-120.95086, 39.82853],
          [-120.93893, 39.84209],
          [-120.92813, 39.85436],
          [-120.91619, 39.86792],
          [-120.888, 39.87211],
          [-120.87719, 39.88437],
          [-120.86525, 39.89793],
          [-120.85444, 39.91019],
          [-120.84249, 39.92374],
          [-120.83167, 39.936],
          [-120.81971, 39.94955],
          [-120.80889, 39.9618],
          [-120.79693, 39.97535],
          [-120.7861, 39.9876],
          [-120.77413, 40.00114],
          [-120.7633, 40.01339],
          [-120.75133, 40.02693],
          [-120.74049, 40.03917],
          [-120.72851, 40.05271],
          [-120.71766, 40.06495],
          [-120.70568, 40.07848],
          [-120.69483, 40.09073],
          [-120.68284, 40.10425],
          [-120.67198, 40.11649],
          [-120.65998, 40.13002],
          [-120.63171, 40.13416],
          [-120.62084, 40.14639],
          [-120.60884, 40.15991],
          [-120.58055, 40.16404],
          [-120.56968, 40.17627],
          [-120.55766, 40.18978],
          [-120.52936, 40.1939],
          [-120.50106, 40.19802],
          [-120.47276, 40.20213],
          [-120.44446, 40.20624],
          [-120.41615, 40.21034],
          [-120.38785, 40.21444],
          [-120.35954, 40.21853],
          [-120.33123, 40.22262],
          [-120.30291, 40.22671],
          [-120.2746, 40.23079],
          [-120.24628, 40.23486],
          [-120.23536, 40.24707],
          [-120.22329, 40.26055],
          [-120.19496, 40.26462],
          [-120.18403, 40.27682],
          [-120.17195, 40.2903],
          [-120.14361, 40.29436],
          [-120.13267, 40.30655],
          [-120.12058, 40.32002],
          [-120.10964, 40.33221],
          [-120.09754, 40.34569],
          [-120.08659, 40.35787],
          [-120.07449, 40.37134],
          [-120.06354, 40.38353],
          [-120.05143, 40.39699],
          [-120.02305, 40.40103],
          [-120.01209, 40.41321],
          [-119.99997, 40.42666],
          [-119.989, 40.43884],
          [-119.97688, 40.4523],
          [-119.94849, 40.45632],
          [-119.93751, 40.46849],
          [-119.92537, 40.48194],
          [-119.89697, 40.48596],
          [-119.86857, 40.48997],
          [-119.84016, 40.49397],
          [-119.81175, 40.49797],
          [-119.78334, 40.50197],
          [-119.77234, 40.51413],
          [-119.76018, 40.52756],
          [-119.73176, 40.53155],
          [-119.70334, 40.53553],
          [-119.69232, 40.54768],
          [-119.68014, 40.56111],
          [-119.65171, 40.56508],
          [-119.64069, 40.57723],
          [-119.6285, 40.59065],
          [-119.60006, 40.59462],
          [-119.58902, 40.60676],
          [-119.57683, 40.62018],
          [-119.54837, 40.62413],
          [-119.53733, 40.63627],
          [-119.52512, 40.64968],
          [-119.49666, 40.65363],
          [-119.48561, 40.66576],
          [-119.47339, 40.67916],
          [-119.46233, 40.69129],
          [-119.45011, 40.70469],
          [-119.42163, 40.70863],
          [-119.41056, 40.72075],
          [-119.39833, 40.73415],
          [-119.36984, 40.73807],
          [-119.35876, 40.75019],
          [-119.34651, 40.76358],
          [-119.31801, 40.7675],
          [-119.30693, 40.77961],
          [-119.29467, 40.79299],
          [-119.28358, 40.8051],
          [-119.27132, 40.81849],
          [-119.2428, 40.82239],
          [-119.2317, 40.83449],
          [-119.23686, 40.85607],
          [-119.22458, 40.86945],
          [-119.19605, 40.87334],
          [-119.18494, 40.88544],
          [-119.17265, 40.89881],
          [-119.16154, 40.9109],
          [-119.14925, 40.92427],
          [-119.13812, 40.93636],
          [-119.12583, 40.94973],
          [-119.1147, 40.96181],
          [-119.1024, 40.97517],
          [-119.07383, 40.97905],
          [-119.06269, 40.99113],
          [-119.05038, 41.00448],
          [-119.03924, 41.01656],
          [-119.02692, 41.02991],
          [-118.99833, 41.03377],
          [-118.96974, 41.03763],
          [-118.94115, 41.04148],
          [-118.92999, 41.05355],
          [-118.91765, 41.06689],
          [-118.88905, 41.07073],
          [-118.86045, 41.07457],
          [-118.84927, 41.08663],
          [-118.83692, 41.09997],
          [-118.80831, 41.10379],
          [-118.79713, 41.11585],
          [-118.78476, 41.12918],
          [-118.75614, 41.133],
          [-118.72751, 41.13681],
          [-118.71632, 41.14887],
          [-118.70394, 41.16218],
          [-118.69274, 41.17423],
          [-118.68036, 41.18755],
          [-118.65171, 41.19135],
          [-118.62307, 41.19515],
          [-118.61185, 41.20719],
          [-118.59945, 41.22049],
          [-118.5708, 41.22428],
          [-118.54214, 41.22807],
          [-118.51348, 41.23184],
          [-118.50225, 41.24388],
          [-118.48983, 41.25717],
          [-118.46116, 41.26094],
          [-118.43249, 41.26471],
          [-118.42124, 41.27673],
          [-118.40881, 41.29002],
          [-118.38013, 41.29378],
          [-118.35144, 41.29753],
          [-118.32275, 41.30128],
          [-118.29406, 41.30502],
          [-118.26537, 41.30876],
          [-118.2541, 41.32077],
          [-118.24164, 41.33404],
          [-118.23037, 41.34605],
          [-118.23534, 41.3676],
          [-118.22287, 41.38087],
          [-118.19416, 41.38459],
          [-118.18287, 41.3966],
          [-118.18783, 41.41814],
          [-118.17535, 41.4314],
          [-118.16406, 41.4434],
          [-118.15158, 41.45666],
          [-118.14028, 41.46865],
          [-118.12779, 41.48191],
          [-118.11648, 41.4939],
          [-118.10399, 41.50715],
          [-118.09268, 41.51914],
          [-118.08017, 41.53239],
          [-118.06886, 41.54437],
          [-118.05635, 41.55762],
          [-118.02758, 41.56131],
          [-117.9988, 41.565],
          [-117.97003, 41.56869],
          [-117.94125, 41.57237],
          [-117.92991, 41.58434],
          [-117.91738, 41.59757],
          [-117.88859, 41.60125],
          [-117.8598, 41.60491],
          [-117.83101, 41.60857],
          [-117.81965, 41.62054],
          [-117.8071, 41.63376],
          [-117.7783, 41.63741],
          [-117.74949, 41.64106],
          [-117.72069, 41.64471],
          [-117.69188, 41.64835],
          [-117.6805, 41.6603],
          [-117.66793, 41.67351],
          [-117.63911, 41.67714],
          [-117.61029, 41.68077],
          [-117.5989, 41.69271],
          [-117.58631, 41.70591],
          [-117.55748, 41.70953],
          [-117.54608, 41.72147],
          [-117.53349, 41.73467],
          [-117.50464, 41.73827],
          [-117.49324, 41.75021],
          [-117.48063, 41.7634],
          [-117.45178, 41.767],
          [-117.44036, 41.77893],
          [-117.42774, 41.79211],
          [-117.39888, 41.7957],
          [-117.38745, 41.80762],
          [-117.37482, 41.8208],
          [-117.36339, 41.83272],
          [-117.35075, 41.8459],
          [-117.32187, 41.84948],
          [-117.31043, 41.86139],
          [-117.29779, 41.87456],
          [-117.2689, 41.87813],
          [-117.25745, 41.89004],
          [-117.24479, 41.9032],
          [-117.21589, 41.90676],
          [-117.18699, 41.91031],
          [-117.17552, 41.92222],
          [-117.16285, 41.93537],
          [-117.13394, 41.93892],
          [-117.12247, 41.95081],
          [-117.10978, 41.96396],
          [-117.08086, 41.9675],
          [-117.06938, 41.97939],
          [-117.05668, 41.99253],
          [-117.0452, 42.00442],
          [-117.0325, 42.01756],
          [-117.00356, 42.02109],
          [-116.99206, 42.03297],
          [-116.97935, 42.0461],
          [-116.9504, 42.04962],
          [-116.92144, 42.05313],
          [-116.89249, 42.05663],
          [-116.88098, 42.06851],
          [-116.86825, 42.08163],
          [-116.83928, 42.08512],
          [-116.81032, 42.08861],
          [-116.79879, 42.10048],
          [-116.78604, 42.1136],
          [-116.75707, 42.11708],
          [-116.72809, 42.12055],
          [-116.71655, 42.13241],
          [-116.70379, 42.14552],
          [-116.68611, 42.13606],
          [-116.67013, 42.1275],
          [-116.64114, 42.13096],
          [-116.61215, 42.13442],
          [-116.58317, 42.13787],
          [-116.57161, 42.14972],
          [-116.55883, 42.16281],
          [-116.52983, 42.16626],
          [-116.51826, 42.1781],
          [-116.50547, 42.19119],
          [-116.47646, 42.19463],
          [-116.44745, 42.19806],
          [-116.41844, 42.20149],
          [-116.38942, 42.20491],
          [-116.3604, 42.20832],
          [-116.33139, 42.21174],
          [-116.30237, 42.21514],
          [-116.27334, 42.21855],
          [-116.26174, 42.23037],
          [-116.24891, 42.24344],
          [-116.21987, 42.24683],
          [-116.19084, 42.25022],
          [-116.17922, 42.26204],
          [-116.16637, 42.2751],
          [-116.13733, 42.27848],
          [-116.10828, 42.28185],
          [-116.09665, 42.29366],
          [-116.08379, 42.30671],
          [-116.07215, 42.31852],
          [-116.05929, 42.33157],
          [-116.04764, 42.34337],
          [-116.03477, 42.35641],
          [-116.0057, 42.35977],
          [-115.99404, 42.37157],
          [-115.98116, 42.38461],
          [-115.95207, 42.38796],
          [-115.92299, 42.3913],
          [-115.91132, 42.40309],
          [-115.89842, 42.41612],
          [-115.88675, 42.42791],
          [-115.87385, 42.44093],
          [-115.86217, 42.45271],
          [-115.84925, 42.46574],
          [-115.83757, 42.47752],
          [-115.82465, 42.49053],
          [-115.81296, 42.50231],
          [-115.80004, 42.51533],
          [-115.78834, 42.5271],
          [-115.77541, 42.54011],
          [-115.76371, 42.55188],
          [-115.76821, 42.57334],
          [-115.75527, 42.58635],
          [-115.74356, 42.59811],
          [-115.73061, 42.61112],
          [-115.71889, 42.62288],
          [-115.70594, 42.63588],
          [-115.69422, 42.64764],
          [-115.68126, 42.66063],
          [-115.65209, 42.66393],
          [-115.62291, 42.66722],
          [-115.59374, 42.6705],
          [-115.56456, 42.67379],
          [-115.53538, 42.67706],
          [-115.5062, 42.68034],
          [-115.47701, 42.6836],
          [-115.44783, 42.68687],
          [-115.41864, 42.69012],
          [-115.38945, 42.69338],
          [-115.3718, 42.68382],
          [-115.35584, 42.67517],
          [-115.32665, 42.67841],
          [-115.29746, 42.68165],
          [-115.28569, 42.69338],
          [-115.27267, 42.70635],
          [-115.25503, 42.69678],
          [-115.23908, 42.68812],
          [-115.22145, 42.67855],
          [-115.2055, 42.66988],
          [-115.17631, 42.6731],
          [-115.14712, 42.67632],
          [-115.11792, 42.67953],
          [-115.08873, 42.68273],
          [-115.07111, 42.67315],
          [-115.05518, 42.66447],
          [-115.02598, 42.66767],
          [-115.00838, 42.65807],
          [-114.99245, 42.64939],
          [-114.96326, 42.65258],
          [-114.94566, 42.64298],
          [-114.92974, 42.63429],
          [-114.91215, 42.62468],
          [-114.89624, 42.61599],
          [-114.86705, 42.61916],
          [-114.84947, 42.60955],
          [-114.83357, 42.60085],
          [-114.80438, 42.60401],
          [-114.7752, 42.60717],
          [-114.74601, 42.61033],
          [-114.72844, 42.6007],
          [-114.71255, 42.59199],
          [-114.68337, 42.59513],
          [-114.65418, 42.59827],
          [-114.62499, 42.60141],
          [-114.60744, 42.59177],
          [-114.59156, 42.58305],
          [-114.56237, 42.58618],
          [-114.54483, 42.57653],
          [-114.52895, 42.56781],
          [-114.49977, 42.57092],
          [-114.48223, 42.56127],
          [-114.46637, 42.55254],
          [-114.44883, 42.54288],
          [-114.43297, 42.53415],
          [-114.4038, 42.53725],
          [-114.37462, 42.54034],
          [-114.36275, 42.55202],
          [-114.34964, 42.56493],
          [-114.32045, 42.56802],
          [-114.29126, 42.5711],
          [-114.27938, 42.58277],
          [-114.26625, 42.59567],
          [-114.23705, 42.59875],
          [-114.22516, 42.61041],
          [-114.21201, 42.62331],
          [-114.1828, 42.62637],
          [-114.15359, 42.62943],
          [-114.12438, 42.63248],
          [-114.09517, 42.63553],
          [-114.06595, 42.63858],
          [-114.03673, 42.64162],
          [-114.00752, 42.64465],
          [-113.97829, 42.64769],
          [-113.96079, 42.63799],
          [-113.95668, 42.61649],
          [-113.94085, 42.60772],
          [-113.92336, 42.59802],
          [-113.90754, 42.58924],
          [-113.89006, 42.57953],
          [-113.87424, 42.57075],
          [-113.84504, 42.57376],
          [-113.81583, 42.57677],
          [-113.78662, 42.57977],
          [-113.77468, 42.59141],
          [-113.76148, 42.60427],
          [-113.74954, 42.61591],
          [-113.73633, 42.62877],
          [-113.72438, 42.6404],
          [-113.72844, 42.6619],
          [-113.74426, 42.67069],
          [-113.76175, 42.6804],
          [-113.76582, 42.7019],
          [-113.76989, 42.72339],
          [-113.75668, 42.73624],
          [-113.72742, 42.73923],
          [-113.70993, 42.72951],
          [-113.70587, 42.70802],
          [-113.69005, 42.69923],
          [-113.6608, 42.70221],
          [-113.64883, 42.71383],
          [-113.6356, 42.72668],
          [-113.60634, 42.72965],
          [-113.58886, 42.71992],
          [-113.57305, 42.71112],
          [-113.5438, 42.71408],
          [-113.52632, 42.70435],
          [-113.5223, 42.68285],
          [-113.51828, 42.66135],
          [-113.50249, 42.65254],
          [-113.4905, 42.66416],
          [-113.49452, 42.68566],
          [-113.49853, 42.70716],
          [-113.48528, 42.71999],
          [-113.45602, 42.72294],
          [-113.43856, 42.7132],
          [-113.42276, 42.70438],
          [-113.40531, 42.69464],
          [-113.40131, 42.67314],
          [-113.41457, 42.6603],
          [-113.42656, 42.64869],
          [-113.43981, 42.63586],
          [-113.45179, 42.62424],
          [-113.44779, 42.60273],
          [-113.44379, 42.58122],
          [-113.43979, 42.55971],
          [-113.42402, 42.55088],
          [-113.40659, 42.54113],
          [-113.39082, 42.5323],
          [-113.37339, 42.52254],
          [-113.36941, 42.50102],
          [-113.35365, 42.49219],
          [-113.33624, 42.48242],
          [-113.33227, 42.46089],
          [-113.3283, 42.43936],
          [-113.32433, 42.41782],
          [-113.30859, 42.40898],
          [-113.2912, 42.39921],
          [-113.27546, 42.39037],
          [-113.25807, 42.38059],
          [-113.24234, 42.37174],
          [-113.22496, 42.36196],
          [-113.20924, 42.35311],
          [-113.18008, 42.35602],
          [-113.15092, 42.35892],
          [-113.12176, 42.36182],
          [-113.09259, 42.36472],
          [-113.06342, 42.36761],
          [-113.05143, 42.37922],
          [-113.03816, 42.39205],
          [-113.00899, 42.39493],
          [-112.99698, 42.40653],
          [-112.9837, 42.41935],
          [-112.95452, 42.42222],
          [-112.92533, 42.42509],
          [-112.89614, 42.42795],
          [-112.86695, 42.43081],
          [-112.83776, 42.43367],
          [-112.82572, 42.44525],
          [-112.81242, 42.45806],
          [-112.79507, 42.44824],
          [-112.77937, 42.43936],
          [-112.75017, 42.4422],
          [-112.73283, 42.43237],
          [-112.71714, 42.42348],
          [-112.6998, 42.41366],
          [-112.68411, 42.40476],
          [-112.66678, 42.39493],
          [-112.6511, 42.38603],
          [-112.63377, 42.3762],
          [-112.6181, 42.3673],
          [-112.58892, 42.37011],
          [-112.5716, 42.36027],
          [-112.55594, 42.35136],
          [-112.53863, 42.34151],
          [-112.52297, 42.3326],
          [-112.49379, 42.3354],
          [-112.46462, 42.3382],
          [-112.43544, 42.34099],
          [-112.40627, 42.34378],
          [-112.37709, 42.34656],
          [-112.34791, 42.34934],
          [-112.31872, 42.35211],
          [-112.28954, 42.35488],
          [-112.27745, 42.36643],
          [-112.26409, 42.37921],
          [-112.2349, 42.38196],
          [-112.2057, 42.38472],
          [-112.1765, 42.38747],
          [-112.1473, 42.39021],
          [-112.1181, 42.39295],
          [-112.0889, 42.39569],
          [-112.0597, 42.39842],
          [-112.03049, 42.40114],
          [-112.00129, 42.40387],
          [-112, 42.40398]
        ]
      }
    },
    {
      "type": "Feature",
      "id": "2026092712_f234_12000_001",
      "properties": {
        "product_id": "winter_storm_levels",
        "source_id": "nbm_snow_level",
        "parameter": "snow_level",
        "definition": "height of the wet-bulb 0.5 degree C surface",
        "level_ft_msl": 12000,
        "label": "12,000 ft MSL",
        "unit": "ft_msl",
        "cycle_time_utc": "2026-09-27T12:00:00Z",
        "valid_time_utc": "2026-10-07T06:00:00Z",
        "lead_hours": 234,
        "segment": 1,
        "length_m": 98602.2
      },
      "geometry": {
        "type": "LineString",
        "coordinates": [
          [-118.63465, 36.59665],
          [-118.62982, 36.57463],
          [-118.62499, 36.55261],
          [-118.62017, 36.53058],
          [-118.61534, 36.50856],
          [-118.61052, 36.48653],
          [-118.59683, 36.47881],
          [-118.57831, 36.46837],
          [-118.56462, 36.46065],
          [-118.54611, 36.45021],
          [-118.53242, 36.44249],
          [-118.51391, 36.43204],
          [-118.50024, 36.42431],
          [-118.48173, 36.41386],
          [-118.46806, 36.40613],
          [-118.44956, 36.39567],
          [-118.43589, 36.38794],
          [-118.40851, 36.39179],
          [-118.38113, 36.39563],
          [-118.37152, 36.40663],
          [-118.35851, 36.42151],
          [-118.34889, 36.43251],
          [-118.33588, 36.44738],
          [-118.32626, 36.45838],
          [-118.33102, 36.48042],
          [-118.33579, 36.50245],
          [-118.32276, 36.51732],
          [-118.31314, 36.52831],
          [-118.3179, 36.55035],
          [-118.32266, 36.57238],
          [-118.32743, 36.5944],
          [-118.34112, 36.60214],
          [-118.35964, 36.6126],
          [-118.36442, 36.63462],
          [-118.37811, 36.64235],
          [-118.39664, 36.65281],
          [-118.41034, 36.66054],
          [-118.42888, 36.67099],
          [-118.44258, 36.67871],
          [-118.46113, 36.68916],
          [-118.47484, 36.69688],
          [-118.50229, 36.69303],
          [-118.52975, 36.68917],
          [-118.5572, 36.68531],
          [-118.56681, 36.67431],
          [-118.57982, 36.65943],
          [-118.58944, 36.64843],
          [-118.60244, 36.63354],
          [-118.61205, 36.62254],
          [-118.62504, 36.60765],
          [-118.63465, 36.59665]
        ]
      }
    },
    {
      "type": "Feature",
      "id": "2026092712_f234_12000_002",
      "properties": {
        "product_id": "winter_storm_levels",
        "source_id": "nbm_snow_level",
        "parameter": "snow_level",
        "definition": "height of the wet-bulb 0.5 degree C surface",
        "level_ft_msl": 12000,
        "label": "12,000 ft MSL",
        "unit": "ft_msl",
        "cycle_time_utc": "2026-09-27T12:00:00Z",
        "valid_time_utc": "2026-10-07T06:00:00Z",
        "lead_hours": 234,
        "segment": 2,
        "length_m": 1408637.6
      },
      "geometry": {
        "type": "LineString",
        "coordinates": [
          [-118.85356, 30.24388],
          [-118.8568, 30.25961],
          [-118.86141, 30.282],
          [-118.86602, 30.30439],
          [-118.87063, 30.32678],
          [-118.87525, 30.34916],
          [-118.87987, 30.37155],
          [-118.88449, 30.39394],
          [-118.88911, 30.41632],
          [-118.89373, 30.4387],
          [-118.89835, 30.46109],
          [-118.90298, 30.48347],
          [-118.90761, 30.50585],
          [-118.91224, 30.52823],
          [-118.91687, 30.5506],
          [-118.9215, 30.57298],
          [-118.92614, 30.59536],
          [-118.93077, 30.61773],
          [-118.93541, 30.64011],
          [-118.94005, 30.66248],
          [-118.94469, 30.68485],
          [-118.96232, 30.69542],
          [-118.97536, 30.70323],
          [-118.98001, 30.7256],
          [-118.98466, 30.74797],
          [-118.98931, 30.77033],
          [-118.98023, 30.78154],
          [-118.96793, 30.7967],
          [-118.97258, 30.81907],
          [-118.99024, 30.82963],
          [-119.00329, 30.83743],
          [-119.00795, 30.85979],
          [-119.01261, 30.88216],
          [-119.01727, 30.90452],
          [-119.03494, 30.91507],
          [-119.04801, 30.92287],
          [-119.05268, 30.94523],
          [-119.05735, 30.96759],
          [-119.04826, 30.97879],
          [-119.02218, 30.9828],
          [-119.00987, 30.99796],
          [-119.01454, 31.02031],
          [-119.01921, 31.04267],
          [-119.02388, 31.06502],
          [-119.02856, 31.08737],
          [-119.03323, 31.10973],
          [-119.03791, 31.13208],
          [-119.0288, 31.14328],
          [-119.01647, 31.15843],
          [-119.02115, 31.18078],
          [-119.02583, 31.20313],
          [-119.03051, 31.22548],
          [-119.03519, 31.24782],
          [-119.03987, 31.27017],
          [-119.03075, 31.28136],
          [-119.01841, 31.29651],
          [-119.02309, 31.31886],
          [-119.02778, 31.3412],
          [-119.03246, 31.36354],
          [-119.03715, 31.38588],
          [-119.04184, 31.40822],
          [-119.03271, 31.41941],
          [-119.02036, 31.43456],
          [-119.02504, 31.45689],
          [-119.02973, 31.47923],
          [-119.0206, 31.49042],
          [-119.00823, 31.50556],
          [-119.01292, 31.5279],
          [-119.01761, 31.55023],
          [-119.0223, 31.57256],
          [-119.01316, 31.58375],
          [-119.00078, 31.59889],
          [-119.00547, 31.62122],
          [-119.01017, 31.64355],
          [-119.00101, 31.65474],
          [-118.98863, 31.66987],
          [-118.99332, 31.6922],
          [-118.98416, 31.70339],
          [-118.97177, 31.71852],
          [-118.97646, 31.74084],
          [-118.98115, 31.76317],
          [-118.97199, 31.77435],
          [-118.95958, 31.78948],
          [-118.96427, 31.8118],
          [-118.96897, 31.83412],
          [-118.97366, 31.85644],
          [-118.96449, 31.86762],
          [-118.95208, 31.88275],
          [-118.95677, 31.90507],
          [-118.97459, 31.91561],
          [-118.98776, 31.92339],
          [-118.99246, 31.94571],
          [-118.99716, 31.96802],
          [-119.00187, 31.99034],
          [-119.00658, 32.01265],
          [-118.99739, 32.02383],
          [-118.98497, 32.03895],
          [-118.98967, 32.06126],
          [-118.99438, 32.08357],
          [-118.98519, 32.09474],
          [-118.97276, 32.10986],
          [-118.97747, 32.13217],
          [-118.96827, 32.14334],
          [-118.95583, 32.15846],
          [-118.94663, 32.16963],
          [-118.93418, 32.18474],
          [-118.92498, 32.19591],
          [-118.91252, 32.21102],
          [-118.90332, 32.22219],
          [-118.89086, 32.2373],
          [-118.88164, 32.24847],
          [-118.85527, 32.25243],
          [-118.8428, 32.26754],
          [-118.83358, 32.2787],
          [-118.82111, 32.2938],
          [-118.81189, 32.30496],
          [-118.79941, 32.32006],
          [-118.79018, 32.33122],
          [-118.77769, 32.34632],
          [-118.76846, 32.35747],
          [-118.75597, 32.37257],
          [-118.74673, 32.38372],
          [-118.73423, 32.39881],
          [-118.73891, 32.42111],
          [-118.72966, 32.43226],
          [-118.71716, 32.44735],
          [-118.72183, 32.46965],
          [-118.7265, 32.49194],
          [-118.73118, 32.51423],
          [-118.72193, 32.52538],
          [-118.70941, 32.54047],
          [-118.71408, 32.56276],
          [-118.71876, 32.58505],
          [-118.72344, 32.60734],
          [-118.72811, 32.62963],
          [-118.73279, 32.65191],
          [-118.73748, 32.6742],
          [-118.74216, 32.69648],
          [-118.74685, 32.71876],
          [-118.75154, 32.74105],
          [-118.76946, 32.75159],
          [-118.78272, 32.75938],
          [-118.78741, 32.78166],
          [-118.79211, 32.80393],
          [-118.79681, 32.82621],
          [-118.80151, 32.84848],
          [-118.80622, 32.87075],
          [-118.82417, 32.88129],
          [-118.83745, 32.88907],
          [-118.84216, 32.91134],
          [-118.84687, 32.93361],
          [-118.85159, 32.95587],
          [-118.84231, 32.96702],
          [-118.82977, 32.98209],
          [-118.83448, 33.00436],
          [-118.8392, 33.02662],
          [-118.82992, 33.03776],
          [-118.81736, 33.05284],
          [-118.82207, 33.0751],
          [-118.81279, 33.08624],
          [-118.80022, 33.1013],
          [-118.79093, 33.11244],
          [-118.77836, 33.12751],
          [-118.76906, 33.13864],
          [-118.74248, 33.14259],
          [-118.7299, 33.15765],
          [-118.7206, 33.16878],
          [-118.70801, 33.18384],
          [-118.6987, 33.19497],
          [-118.6721, 33.1989],
          [-118.6455, 33.20282],
          [-118.6189, 33.20674],
          [-118.5923, 33.21066],
          [-118.57901, 33.20286],
          [-118.56103, 33.19231],
          [-118.53442, 33.19621],
          [-118.50782, 33.20011],
          [-118.48122, 33.20401],
          [-118.46793, 33.1962],
          [-118.44996, 33.18564],
          [-118.42336, 33.18953],
          [-118.41073, 33.20456],
          [-118.40139, 33.21568],
          [-118.38875, 33.23071],
          [-118.39339, 33.25297],
          [-118.39803, 33.27523],
          [-118.40267, 33.29749],
          [-118.42066, 33.30806],
          [-118.44729, 33.30417],
          [-118.46059, 33.31198],
          [-118.47858, 33.32254],
          [-118.50521, 33.31864],
          [-118.53184, 33.31474],
          [-118.55847, 33.31084],
          [-118.5851, 33.30693],
          [-118.61173, 33.30302],
          [-118.62503, 33.31081],
          [-118.64304, 33.32135],
          [-118.66967, 33.31743],
          [-118.69629, 33.3135],
          [-118.70961, 33.32129],
          [-118.72762, 33.33182],
          [-118.75425, 33.32788],
          [-118.76757, 33.33566],
          [-118.78559, 33.34619],
          [-118.79892, 33.35396],
          [-118.81695, 33.36448],
          [-118.84358, 33.36053],
          [-118.85691, 33.36831],
          [-118.87495, 33.37882],
          [-118.90158, 33.37486],
          [-118.91492, 33.38263],
          [-118.91966, 33.40487],
          [-118.93771, 33.41537],
          [-118.95106, 33.42314],
          [-118.96911, 33.43364],
          [-118.98246, 33.4414],
          [-118.98722, 33.46363],
          [-118.99199, 33.48586],
          [-119.01006, 33.49636],
          [-119.02342, 33.50411],
          [-119.02819, 33.52634],
          [-119.03297, 33.54857],
          [-119.03775, 33.57079],
          [-119.04253, 33.59302],
          [-119.03322, 33.60415],
          [-119.02062, 33.61922],
          [-119.01131, 33.63035],
          [-118.99871, 33.64542],
          [-118.9894, 33.65655],
          [-118.97679, 33.67161],
          [-118.98156, 33.69383],
          [-118.98634, 33.71605],
          [-118.97701, 33.72718],
          [-118.9644, 33.74223],
          [-118.95507, 33.75336],
          [-118.92835, 33.75733],
          [-118.91573, 33.77238],
          [-118.90639, 33.7835],
          [-118.87966, 33.78746],
          [-118.85293, 33.79141],
          [-118.8262, 33.79536],
          [-118.81355, 33.8104],
          [-118.80421, 33.82152],
          [-118.79156, 33.83655],
          [-118.78221, 33.84767],
          [-118.75546, 33.8516],
          [-118.7428, 33.86664],
          [-118.73344, 33.87775],
          [-118.70668, 33.88168],
          [-118.69401, 33.89671],
          [-118.68464, 33.90781],
          [-118.65788, 33.91173],
          [-118.63111, 33.91565],
          [-118.60434, 33.91956],
          [-118.57757, 33.92346],
          [-118.56488, 33.93848],
          [-118.55549, 33.94958],
          [-118.52871, 33.95347],
          [-118.51601, 33.96849],
          [-118.50662, 33.97958],
          [-118.49391, 33.99459],
          [-118.48452, 34.00568],
          [-118.45772, 34.00957],
          [-118.44501, 34.02457],
          [-118.4356, 34.03566],
          [-118.42288, 34.05066],
          [-118.41347, 34.06175],
          [-118.40075, 34.07675],
          [-118.39134, 34.08783],
          [-118.3786, 34.10283],
          [-118.36919, 34.11391],
          [-118.35644, 34.1289],
          [-118.34703, 34.13999],
          [-118.32019, 34.14385],
          [-118.30744, 34.15883],
          [-118.29801, 34.16991],
          [-118.27117, 34.17376],
          [-118.25841, 34.18875],
          [-118.24898, 34.19982],
          [-118.22213, 34.20366],
          [-118.19527, 34.2075],
          [-118.16842, 34.21134],
          [-118.15564, 34.22631],
          [-118.14619, 34.23738],
          [-118.11933, 34.2412],
          [-118.09246, 34.24502],
          [-118.0656, 34.24884],
          [-118.03873, 34.25265],
          [-118.01186, 34.25646],
          [-117.99905, 34.27142],
          [-117.98959, 34.28248],
          [-117.96271, 34.28628],
          [-117.93582, 34.29007],
          [-117.90894, 34.29387],
          [-117.88206, 34.29765],
          [-117.85517, 34.30143],
          [-117.84234, 34.31638],
          [-117.83285, 34.32742],
          [-117.80596, 34.3312],
          [-117.77906, 34.33497],
          [-117.75216, 34.33873],
          [-117.72526, 34.34249],
          [-117.69836, 34.34625],
          [-117.67145, 34.35],
          [-117.64454, 34.35375],
          [-117.61764, 34.35749],
          [-117.59073, 34.36123],
          [-117.56381, 34.36497],
          [-117.5369, 34.3687],
          [-117.50998, 34.37242],
          [-117.48307, 34.37614],
          [-117.45615, 34.37986],
          [-117.42923, 34.38357],
          [-117.4023, 34.38728],
          [-117.38895, 34.37941],
          [-117.3709, 34.36876],
          [-117.34397, 34.37246],
          [-117.33063, 34.36458],
          [-117.31258, 34.35393],
          [-117.28566, 34.35762],
          [-117.25874, 34.3613],
          [-117.2454, 34.35342],
          [-117.22736, 34.34276],
          [-117.20044, 34.34643],
          [-117.18711, 34.33855],
          [-117.16908, 34.32787],
          [-117.14216, 34.33154],
          [-117.11524, 34.3352],
          [-117.08832, 34.33886],
          [-117.0614, 34.34251],
          [-117.03447, 34.34616],
          [-117.00755, 34.3498],
          [-116.98062, 34.35344],
          [-116.9673, 34.34553],
          [-116.94929, 34.33484],
          [-116.92236, 34.33847],
          [-116.89543, 34.34209],
          [-116.8685, 34.34571],
          [-116.85554, 34.36058],
          [-116.84595, 34.37156],
          [-116.81901, 34.37518],
          [-116.79207, 34.37878],
          [-116.76513, 34.38239],
          [-116.73818, 34.38599],
          [-116.71124, 34.38958],
          [-116.69824, 34.40443],
          [-116.68864, 34.41541],
          [-116.66168, 34.41899],
          [-116.63473, 34.42257],
          [-116.62172, 34.43742],
          [-116.6121, 34.44839],
          [-116.58514, 34.45196],
          [-116.57212, 34.4668],
          [-116.5625, 34.47776],
          [-116.53552, 34.48133],
          [-116.5225, 34.49616],
          [-116.51287, 34.50712],
          [-116.48588, 34.51068],
          [-116.4589, 34.51423],
          [-116.44586, 34.52905],
          [-116.43622, 34.54001],
          [-116.40922, 34.54355],
          [-116.38223, 34.54709],
          [-116.36917, 34.56191],
          [-116.35952, 34.57286],
          [-116.33252, 34.57639],
          [-116.31945, 34.5912],
          [-116.3098, 34.60215],
          [-116.29672, 34.61696],
          [-116.28706, 34.6279],
          [-116.26004, 34.63142],
          [-116.24696, 34.64622],
          [-116.23729, 34.65717],
          [-116.21026, 34.66067],
          [-116.19717, 34.67547],
          [-116.18749, 34.68641],
          [-116.16046, 34.68991],
          [-116.13342, 34.69341],
          [-116.12031, 34.7082],
          [-116.11062, 34.71913],
          [-116.08358, 34.72262],
          [-116.07046, 34.7374],
          [-116.06077, 34.74833],
          [-116.04764, 34.76311],
          [-116.03794, 34.77404],
          [-116.01088, 34.77751],
          [-115.99775, 34.79229],
          [-115.98804, 34.80321],
          [-115.96097, 34.80668],
          [-115.94783, 34.82145],
          [-115.93811, 34.83237],
          [-115.92497, 34.84714],
          [-115.91525, 34.85805],
          [-115.90209, 34.87282],
          [-115.89237, 34.88373],
          [-115.87921, 34.89849],
          [-115.86948, 34.9094],
          [-115.85631, 34.92416],
          [-115.84658, 34.93507],
          [-115.81947, 34.93852],
          [-115.80629, 34.95327],
          [-115.79655, 34.96417],
          [-115.78337, 34.97893],
          [-115.77363, 34.98983],
          [-115.76044, 35.00458],
          [-115.76462, 35.02679],
          [-115.75487, 35.03769],
          [-115.74168, 35.05244],
          [-115.74586, 35.07465],
          [-115.75005, 35.09687],
          [-115.75424, 35.11908],
          [-115.74448, 35.12997],
          [-115.73127, 35.14471],
          [-115.73546, 35.16692],
          [-115.72569, 35.17782],
          [-115.71247, 35.19255],
          [-115.7027, 35.20344],
          [-115.68948, 35.21817],
          [-115.6797, 35.22906],
          [-115.66647, 35.24379],
          [-115.65669, 35.25468],
          [-115.64346, 35.26941],
          [-115.63367, 35.28029],
          [-115.62043, 35.29501],
          [-115.61064, 35.30589],
          [-115.59739, 35.32061],
          [-115.5876, 35.33149],
          [-115.56039, 35.33489],
          [-115.54713, 35.3496],
          [-115.53733, 35.36048],
          [-115.52406, 35.37519],
          [-115.51426, 35.38606],
          [-115.50099, 35.40077],
          [-115.49118, 35.41164],
          [-115.4779, 35.42635],
          [-115.46808, 35.43722],
          [-115.4548, 35.45192],
          [-115.44498, 35.46278],
          [-115.41773, 35.46615],
          [-115.40444, 35.48085],
          [-115.39461, 35.49171],
          [-115.38131, 35.50641],
          [-115.37148, 35.51727],
          [-115.35818, 35.53196],
          [-115.34834, 35.54282],
          [-115.33503, 35.5575],
          [-115.32519, 35.56836],
          [-115.31187, 35.58304],
          [-115.30203, 35.59389],
          [-115.2887, 35.60858],
          [-115.27885, 35.61943],
          [-115.26552, 35.6341],
          [-115.25567, 35.64495],
          [-115.24233, 35.65963],
          [-115.24644, 35.68181],
          [-115.23658, 35.69266],
          [-115.22324, 35.70733],
          [-115.22734, 35.72951],
          [-115.24542, 35.74034],
          [-115.25878, 35.74835],
          [-115.26289, 35.77052],
          [-115.28097, 35.78135],
          [-115.29434, 35.78935],
          [-115.29846, 35.81153],
          [-115.31656, 35.82235],
          [-115.32993, 35.83035],
          [-115.33406, 35.85252],
          [-115.3382, 35.87468],
          [-115.34233, 35.89684],
          [-115.33246, 35.90769],
          [-115.31911, 35.92235],
          [-115.32324, 35.94451],
          [-115.31336, 35.95535],
          [-115.3, 35.97002],
          [-115.30413, 35.99218],
          [-115.29424, 36.00301],
          [-115.28087, 36.01767],
          [-115.285, 36.03983],
          [-115.27511, 36.05066],
          [-115.26173, 36.06531],
          [-115.25183, 36.07615],
          [-115.23845, 36.0908],
          [-115.22855, 36.10163],
          [-115.21515, 36.11628],
          [-115.20525, 36.1271],
          [-115.19185, 36.14175],
          [-115.18194, 36.15257],
          [-115.16853, 36.16722],
          [-115.15862, 36.17804],
          [-115.13119, 36.18135],
          [-115.11777, 36.19599],
          [-115.10785, 36.20681],
          [-115.0804, 36.21012],
          [-115.06698, 36.22475],
          [-115.05705, 36.23556],
          [-115.0296, 36.23886],
          [-115.00214, 36.24215],
          [-114.9887, 36.25678],
          [-114.97876, 36.26758],
          [-114.9513, 36.27087],
          [-114.92383, 36.27415],
          [-114.89637, 36.27742],
          [-114.8689, 36.28069],
          [-114.84143, 36.28396],
          [-114.82796, 36.29857],
          [-114.818, 36.30937],
          [-114.79052, 36.31262],
          [-114.77704, 36.32723],
          [-114.76708, 36.33802],
          [-114.73959, 36.34127],
          [-114.7261, 36.35587],
          [-114.71613, 36.36665],
          [-114.68863, 36.36989],
          [-114.67513, 36.38449],
          [-114.66515, 36.39527],
          [-114.65164, 36.40986],
          [-114.64166, 36.42064],
          [-114.62815, 36.43523],
          [-114.61816, 36.44601],
          [-114.59064, 36.44923],
          [-114.57711, 36.46381],
          [-114.56712, 36.47458],
          [-114.53959, 36.4778],
          [-114.52605, 36.49237],
          [-114.51605, 36.50314],
          [-114.48851, 36.50635],
          [-114.46097, 36.50955],
          [-114.44743, 36.52412],
          [-114.43741, 36.53488],
          [-114.40986, 36.53808],
          [-114.38232, 36.54126],
          [-114.36875, 36.55582],
          [-114.35873, 36.56658],
          [-114.33117, 36.56976],
          [-114.3176, 36.58431],
          [-114.30756, 36.59507],
          [-114.28, 36.59824],
          [-114.26641, 36.61279],
          [-114.25637, 36.62354],
          [-114.2288, 36.6267],
          [-114.20122, 36.62986],
          [-114.18762, 36.6444],
          [-114.17757, 36.65514],
          [-114.14999, 36.65829],
          [-114.1224, 36.66143],
          [-114.09481, 36.66457],
          [-114.06722, 36.66771],
          [-114.03963, 36.67084],
          [-114.01204, 36.67397],
          [-113.98444, 36.67709],
          [-113.97081, 36.69161],
          [-113.96073, 36.70234],
          [-113.93313, 36.70545],
          [-113.90553, 36.70856],
          [-113.89188, 36.72307],
          [-113.88179, 36.73379],
          [-113.86814, 36.7483],
          [-113.85804, 36.75902],
          [-113.83042, 36.76212],
          [-113.81676, 36.77662],
          [-113.80666, 36.78733],
          [-113.77903, 36.79042],
          [-113.76535, 36.80492],
          [-113.75524, 36.81563],
          [-113.74156, 36.83012],
          [-113.74541, 36.85225],
          [-113.73529, 36.86296],
          [-113.7216, 36.87744],
          [-113.71148, 36.88815],
          [-113.69779, 36.90264],
          [-113.70163, 36.92475],
          [-113.6915, 36.93546],
          [-113.6778, 36.94994],
          [-113.66767, 36.96064],
          [-113.65396, 36.97512],
          [-113.64382, 36.98582],
          [-113.6301, 37.00029],
          [-113.61996, 37.01099],
          [-113.60624, 37.02546],
          [-113.59609, 37.03615],
          [-113.56839, 37.0392],
          [-113.55466, 37.05367],
          [-113.54451, 37.06436],
          [-113.53077, 37.07882],
          [-113.52061, 37.0895],
          [-113.50686, 37.10396],
          [-113.4967, 37.11465],
          [-113.48295, 37.1291],
          [-113.47278, 37.13978],
          [-113.45902, 37.15424],
          [-113.46282, 37.17634],
          [-113.45265, 37.18702],
          [-113.43888, 37.20146],
          [-113.44268, 37.22356],
          [-113.43249, 37.23424],
          [-113.41872, 37.24868],
          [-113.42251, 37.27077],
          [-113.42631, 37.29287],
          [-113.41612, 37.30354],
          [-113.40233, 37.31797],
          [-113.40613, 37.34006],
          [-113.39593, 37.35073],
          [-113.38214, 37.36516],
          [-113.37194, 37.37583],
          [-113.35813, 37.39026],
          [-113.34793, 37.40092],
          [-113.32013, 37.40393],
          [-113.30632, 37.41835],
          [-113.2961, 37.42901],
          [-113.2683, 37.43201],
          [-113.24049, 37.435],
          [-113.21268, 37.43799],
          [-113.18486, 37.44097],
          [-113.15705, 37.44395],
          [-113.14321, 37.45835],
          [-113.13298, 37.469],
          [-113.10515, 37.47197],
          [-113.07733, 37.47494],
          [-113.06347, 37.48934],
          [-113.05323, 37.49998],
          [-113.03937, 37.51437],
          [-113.02912, 37.52501],
          [-113.00128, 37.52796],
          [-112.98741, 37.54235],
          [-112.97715, 37.55299],
          [-112.9493, 37.55593],
          [-112.93542, 37.57032],
          [-112.92516, 37.58095],
          [-112.91127, 37.59533],
          [-112.901, 37.60596],
          [-112.88711, 37.62033],
          [-112.87683, 37.63096],
          [-112.84896, 37.63388],
          [-112.83505, 37.64826],
          [-112.82477, 37.65888],
          [-112.79689, 37.66179],
          [-112.76901, 37.66471],
          [-112.74113, 37.66761],
          [-112.71324, 37.67052],
          [-112.69984, 37.66237],
          [-112.6817, 37.65134],
          [-112.65382, 37.65423],
          [-112.64042, 37.64608],
          [-112.63677, 37.624],
          [-112.61864, 37.61297],
          [-112.60525, 37.60481],
          [-112.58713, 37.59377],
          [-112.57374, 37.58561],
          [-112.55563, 37.57456],
          [-112.54225, 37.5664],
          [-112.52415, 37.55535],
          [-112.49628, 37.55822],
          [-112.46842, 37.56108],
          [-112.45505, 37.55291],
          [-112.43695, 37.54185],
          [-112.40909, 37.54471],
          [-112.38123, 37.54756],
          [-112.35337, 37.5504],
          [-112.3255, 37.55325],
          [-112.31214, 37.54506],
          [-112.29406, 37.53399],
          [-112.2662, 37.53682],
          [-112.25284, 37.52863],
          [-112.23477, 37.51755],
          [-112.22142, 37.50936],
          [-112.20336, 37.49828],
          [-112.17551, 37.50109],
          [-112.16216, 37.4929],
          [-112.14411, 37.4818],
          [-112.13077, 37.4736],
          [-112.11272, 37.46251],
          [-112.08487, 37.46531],
          [-112.07154, 37.45711],
          [-112.06801, 37.435],
          [-112.04998, 37.4239],
          [-112.02214, 37.42669],
          [-112.00881, 37.41848],
          [-112, 37.41304]
        ]
      }
    },
    {
      "type": "Feature",
      "id": "2026092712_f234_13000_001",
      "properties": {
        "product_id": "winter_storm_levels",
        "source_id": "nbm_snow_level",
        "parameter": "snow_level",
        "definition": "height of the wet-bulb 0.5 degree C surface",
        "level_ft_msl": 13000,
        "label": "13,000 ft MSL",
        "unit": "ft_msl",
        "cycle_time_utc": "2026-09-27T12:00:00Z",
        "valid_time_utc": "2026-10-07T06:00:00Z",
        "lead_hours": 234,
        "segment": 1,
        "length_m": 65118.7
      },
      "geometry": {
        "type": "LineString",
        "coordinates": [
          [-112.14944, 30.00853],
          [-112.14944, 30.00855],
          [-112.14882, 30.01608],
          [-112.13868, 30.04012],
          [-112.13053, 30.06023],
          [-112.12938, 30.06408],
          [-112.12747, 30.08722],
          [-112.136, 30.10921],
          [-112.1396, 30.13175],
          [-112.14264, 30.15434],
          [-112.139, 30.17767],
          [-112.14232, 30.20023],
          [-112.14564, 30.2228],
          [-112.14896, 30.24536],
          [-112.15228, 30.26792],
          [-112.15272, 30.29079],
          [-112.14092, 30.31129],
          [-112.13933, 30.31519],
          [-112.13323, 30.33878],
          [-112.12142, 30.35927],
          [-112.11984, 30.36317],
          [-112.12316, 30.38572],
          [-112.12577, 30.40836],
          [-112.12909, 30.43091],
          [-112.131, 30.45362],
          [-112.13432, 30.47617],
          [-112.13339, 30.49919],
          [-112.13672, 30.52174],
          [-112.12129, 30.5389],
          [-112.11812, 30.54669],
          [-112.12144, 30.56924],
          [-112.12678, 30.5761]
        ]
      }
    },
    {
      "type": "Feature",
      "id": "2026092712_f234_13000_002",
      "properties": {
        "product_id": "winter_storm_levels",
        "source_id": "nbm_snow_level",
        "parameter": "snow_level",
        "definition": "height of the wet-bulb 0.5 degree C surface",
        "level_ft_msl": 13000,
        "label": "13,000 ft MSL",
        "unit": "ft_msl",
        "cycle_time_utc": "2026-09-27T12:00:00Z",
        "valid_time_utc": "2026-10-07T06:00:00Z",
        "lead_hours": 234,
        "segment": 2,
        "length_m": 112951.7
      },
      "geometry": {
        "type": "LineString",
        "coordinates": [
          [-112.95961, 30.05228],
          [-112.96113, 30.06216],
          [-112.96461, 30.08471],
          [-112.95726, 30.09301],
          [-112.94201, 30.11026],
          [-112.94549, 30.13281],
          [-112.93814, 30.14111],
          [-112.92288, 30.15836],
          [-112.92635, 30.1809],
          [-112.919, 30.1892],
          [-112.90373, 30.20644],
          [-112.9072, 30.22899],
          [-112.89984, 30.23729],
          [-112.88457, 30.25453],
          [-112.87721, 30.26283],
          [-112.86193, 30.28006],
          [-112.85456, 30.28836],
          [-112.83927, 30.30559],
          [-112.83191, 30.31389],
          [-112.8058, 30.31687],
          [-112.79049, 30.33409],
          [-112.78313, 30.34239],
          [-112.76782, 30.35961],
          [-112.76045, 30.3679],
          [-112.73432, 30.37087],
          [-112.719, 30.38809],
          [-112.71162, 30.39638],
          [-112.68548, 30.39934],
          [-112.65935, 30.40229],
          [-112.64401, 30.4195],
          [-112.63663, 30.42779],
          [-112.61048, 30.43073],
          [-112.58434, 30.43368],
          [-112.55819, 30.43661],
          [-112.53204, 30.43955],
          [-112.50589, 30.44248],
          [-112.47974, 30.4454],
          [-112.45359, 30.44832],
          [-112.42743, 30.45124],
          [-112.41206, 30.46843],
          [-112.40465, 30.4767],
          [-112.37849, 30.47961],
          [-112.35233, 30.48251],
          [-112.32617, 30.48541],
          [-112.3, 30.48831],
          [-112.27383, 30.4912],
          [-112.25843, 30.50837],
          [-112.25101, 30.51663],
          [-112.22484, 30.51952],
          [-112.19866, 30.52239],
          [-112.18325, 30.53956],
          [-112.17582, 30.54782],
          [-112.1604, 30.56497],
          [-112.15297, 30.57324],
          [-112.12678, 30.5761]
        ]
      }
    }
  ]
}

