{
  "type": "FeatureCollection",
  "contract_version": "1.0.0",
  "bbox": [-130, 30.02313, -112, 44.5],
  "features": [
    {
      "type": "Feature",
      "id": "2026091512_f210_09000_001",
      "properties": {
        "product_id": "winter_storm_levels",
        "source_id": "nbm_snow_level",
        "parameter": "snow_level",
        "definition": "height of the wet-bulb 0.5 degree C surface",
        "level_ft_msl": 9000,
        "label": "9,000 ft MSL",
        "unit": "ft_msl",
        "cycle_time_utc": "2026-09-15T12:00:00Z",
        "valid_time_utc": "2026-09-24T06:00:00Z",
        "lead_hours": 210,
        "segment": 1,
        "length_m": 2335.2
      },
      "geometry": {
        "type": "LineString",
        "coordinates": [
          [-124.59921, 30.21728],
          [-124.58152, 30.22067],
          [-124.57631, 30.2178]
        ]
      }
    },
    {
      "type": "Feature",
      "id": "2026091512_f210_09000_002",
      "properties": {
        "product_id": "winter_storm_levels",
        "source_id": "nbm_snow_level",
        "parameter": "snow_level",
        "definition": "height of the wet-bulb 0.5 degree C surface",
        "level_ft_msl": 9000,
        "label": "9,000 ft MSL",
        "unit": "ft_msl",
        "cycle_time_utc": "2026-09-15T12:00:00Z",
        "valid_time_utc": "2026-09-24T06:00:00Z",
        "lead_hours": 210,
        "segment": 2,
        "length_m": 921502.4
      },
      "geometry": {
        "type": "LineString",
        "coordinates": [
          [-126.12406, 44.5],
          [-126.11925, 44.48532],
          [-126.11387, 44.46419],
          [-126.10704, 44.44329],
          [-126.10782, 44.44096],
          [-126.128, 44.41776],
          [-126.12116, 44.39686],
          [-126.11579, 44.37571],
          [-126.11657, 44.37338],
          [-126.12358, 44.35236],
          [-126.11675, 44.33146],
          [-126.10992, 44.31054],
          [-126.11819, 44.2871],
          [-126.11848, 44.28485],
          [-126.12548, 44.26382],
          [-126.13375, 44.24037],
          [-126.13404, 44.23812],
          [-126.14103, 44.21709],
          [-126.12176, 44.20045],
          [-126.1201, 44.19852],
          [-126.0982, 44.18012],
          [-126.09139, 44.15918],
          [-126.08458, 44.13825],
          [-126.08312, 44.11641],
          [-126.07096, 44.09636],
          [-126.05478, 44.08914],
          [-126.04035, 44.07941],
          [-126.01543, 44.06259],
          [-126.01363, 44.06179],
          [-125.97949, 44.04652],
          [-125.97842, 44.04559],
          [-125.97847, 44.04337],
          [-125.98548, 44.02232],
          [-125.97871, 44.00136],
          [-125.9595, 43.98468],
          [-125.95736, 43.98283],
          [-125.93603, 43.9643],
          [-125.91683, 43.94762],
          [-125.9147, 43.94576],
          [-125.88061, 43.93046],
          [-125.87882, 43.92966],
          [-125.84474, 43.91434],
          [-125.84149, 43.91378],
          [-125.81225, 43.90871],
          [-125.78313, 43.91356],
          [-125.754, 43.9184],
          [-125.72488, 43.92324],
          [-125.69574, 43.92808],
          [-125.67254, 43.94187],
          [-125.6698, 43.94288],
          [-125.64066, 43.9477],
          [-125.61157, 43.9527],
          [-125.58242, 43.95752],
          [-125.55327, 43.96233],
          [-125.52407, 43.96696],
          [-125.52099, 43.96692],
          [-125.49274, 43.96495],
          [-125.46137, 43.96275],
          [-125.44289, 43.95769],
          [-125.42378, 43.94096],
          [-125.42215, 43.93902],
          [-125.40578, 43.91963],
          [-125.38101, 43.90271],
          [-125.37995, 43.90178],
          [-125.36335, 43.88242],
          [-125.3386, 43.8655],
          [-125.33754, 43.86457],
          [-125.32096, 43.84519],
          [-125.29622, 43.82826],
          [-125.29492, 43.82737],
          [-125.2786, 43.80795],
          [-125.27466, 43.7865],
          [-125.27532, 43.76429],
          [-125.26872, 43.74327],
          [-125.25484, 43.72343],
          [-125.24824, 43.70241],
          [-125.24891, 43.68018],
          [-125.24246, 43.65913],
          [-125.24238, 43.65693],
          [-125.24516, 43.63656],
          [-125.23857, 43.61553],
          [-125.24167, 43.59289],
          [-125.245, 43.57022],
          [-125.2454, 43.56904],
          [-125.25293, 43.54678],
          [-125.26086, 43.52334],
          [-125.26093, 43.52112],
          [-125.26371, 43.50073],
          [-125.2622, 43.47884],
          [-125.27012, 43.45539],
          [-125.27051, 43.45422],
          [-125.27804, 43.43193],
          [-125.28595, 43.40848],
          [-125.28634, 43.4073],
          [-125.29386, 43.38501],
          [-125.30176, 43.36155],
          [-125.30216, 43.36038],
          [-125.31425, 43.33732],
          [-125.32125, 43.32397],
          [-125.32698, 43.31305],
          [-125.33994, 43.28873],
          [-125.34033, 43.28756],
          [-125.35241, 43.26449],
          [-125.35571, 43.24176],
          [-125.3561, 43.24059],
          [-125.36817, 43.21751],
          [-125.37147, 43.19478],
          [-125.37186, 43.19361],
          [-125.38392, 43.17052],
          [-125.3909, 43.15716],
          [-125.3966, 43.14622],
          [-125.41223, 43.12808],
          [-125.41892, 43.12031],
          [-125.43454, 43.10216],
          [-125.44123, 43.09439],
          [-125.45413, 43.07003],
          [-125.45419, 43.0678],
          [-125.45692, 43.04735],
          [-125.45032, 43.02624],
          [-125.45599, 43.00308],
          [-125.46151, 42.99401],
          [-125.47562, 42.97758],
          [-125.48257, 42.96419],
          [-125.48825, 42.95324],
          [-125.50113, 42.92886],
          [-125.50152, 42.92768],
          [-125.51352, 42.90455],
          [-125.52167, 42.89503],
          [-125.53575, 42.87858],
          [-125.54268, 42.86519],
          [-125.54836, 42.85423],
          [-125.56121, 42.82983],
          [-125.56126, 42.82759],
          [-125.56396, 42.80712],
          [-125.5696, 42.78392],
          [-125.57509, 42.77483],
          [-125.58915, 42.75837],
          [-125.59607, 42.74496],
          [-125.60173, 42.73399],
          [-125.60894, 42.71052],
          [-125.61163, 42.69782],
          [-125.61513, 42.6872],
          [-125.62291, 42.66362],
          [-125.62718, 42.65065],
          [-125.63283, 42.63967],
          [-125.64833, 42.62146],
          [-125.65498, 42.61365],
          [-125.67047, 42.59543],
          [-125.67711, 42.58762],
          [-125.6827, 42.56439],
          [-125.68341, 42.54198],
          [-125.6768, 42.52082],
          [-125.67019, 42.49965],
          [-125.6701, 42.49743],
          [-125.67061, 42.47728],
          [-125.67118, 42.45489],
          [-125.67893, 42.43127],
          [-125.67898, 42.42903],
          [-125.67949, 42.40887],
          [-125.67289, 42.38768],
          [-125.66629, 42.3665],
          [-125.65969, 42.34531],
          [-125.66026, 42.32289],
          [-125.66083, 42.30048],
          [-125.65581, 42.27901],
          [-125.64922, 42.25781],
          [-125.6519, 42.24508],
          [-125.65538, 42.23444],
          [-125.67003, 42.20961],
          [-125.67077, 42.20874],
          [-125.69207, 42.18352],
          [-125.69236, 42.18123],
          [-125.69287, 42.16104],
          [-125.6805, 42.14305],
          [-125.67913, 42.14105],
          [-125.67918, 42.13881],
          [-125.67969, 42.11861],
          [-125.68026, 42.09617],
          [-125.6782, 42.07417],
          [-125.66209, 42.05457],
          [-125.64759, 42.03693],
          [-125.64598, 42.03497],
          [-125.63941, 42.01374],
          [-125.63971, 42.01145],
          [-125.64237, 41.99088],
          [-125.64794, 41.96757],
          [-125.64137, 41.94632],
          [-125.62767, 41.9263],
          [-125.61839, 41.90552],
          [-125.61455, 41.88381],
          [-125.62202, 41.86016],
          [-125.62232, 41.85787],
          [-125.62283, 41.83764],
          [-125.61628, 41.81638],
          [-125.60844, 41.79534],
          [-125.6019, 41.77408],
          [-125.59087, 41.75582],
          [-125.58951, 41.75381],
          [-125.58273, 41.73259],
          [-125.57619, 41.71132],
          [-125.57648, 41.70903],
          [-125.57573, 41.689],
          [-125.57047, 41.6675],
          [-125.56394, 41.64622],
          [-125.55166, 41.62817],
          [-125.55006, 41.6262],
          [-125.53404, 41.60654],
          [-125.5159, 41.58725],
          [-125.50363, 41.56918],
          [-125.50203, 41.56721],
          [-125.49552, 41.54592],
          [-125.48901, 41.52462],
          [-125.4825, 41.50332],
          [-125.4828, 41.50103],
          [-125.48334, 41.48076],
          [-125.48845, 41.45747],
          [-125.49142, 41.43453],
          [-125.48492, 41.41322],
          [-125.46445, 41.39431],
          [-125.44479, 41.37637],
          [-125.44352, 41.37547],
          [-125.42307, 41.35654],
          [-125.40949, 41.33644],
          [-125.40301, 41.31511],
          [-125.39866, 41.29342],
          [-125.39219, 41.27209],
          [-125.37785, 41.25435],
          [-125.37579, 41.25246],
          [-125.35514, 41.23355],
          [-125.33946, 41.22614],
          [-125.30819, 41.22139],
          [-125.27981, 41.22624],
          [-125.26007, 41.2498],
          [-125.25788, 41.25242],
          [-125.23813, 41.27598],
          [-125.23593, 41.2786],
          [-125.21617, 41.30216],
          [-125.22261, 41.32349],
          [-125.22041, 41.32611],
          [-125.20064, 41.34965],
          [-125.20707, 41.37098],
          [-125.20488, 41.3736],
          [-125.18509, 41.39714],
          [-125.18289, 41.39975],
          [-125.16309, 41.42328],
          [-125.16953, 41.44461],
          [-125.17596, 41.46592],
          [-125.17376, 41.46854],
          [-125.15395, 41.49206],
          [-125.16039, 41.51337],
          [-125.15818, 41.51599],
          [-125.13836, 41.5395],
          [-125.13615, 41.54211],
          [-125.11632, 41.56562],
          [-125.12275, 41.58693],
          [-125.12055, 41.58954],
          [-125.1007, 41.61304],
          [-125.10713, 41.63434],
          [-125.10492, 41.63695],
          [-125.08506, 41.66045],
          [-125.0915, 41.68174],
          [-125.09793, 41.70304],
          [-125.09572, 41.70564],
          [-125.07585, 41.72913],
          [-125.07364, 41.73174],
          [-125.05375, 41.75522],
          [-125.05154, 41.75782],
          [-125.023, 41.76262],
          [-125.0031, 41.78609],
          [-125.00088, 41.78869],
          [-124.98097, 41.81216],
          [-124.98739, 41.83344],
          [-124.98518, 41.83604],
          [-124.96525, 41.8595],
          [-124.96303, 41.8621],
          [-124.94309, 41.88555],
          [-124.94088, 41.88816],
          [-124.92093, 41.9116],
          [-124.91871, 41.9142],
          [-124.89875, 41.93764],
          [-124.89653, 41.94024],
          [-124.87656, 41.96367],
          [-124.87434, 41.96628],
          [-124.85436, 41.9897],
          [-124.86077, 42.01096],
          [-124.86718, 42.03222],
          [-124.87359, 42.05348],
          [-124.90513, 42.06832],
          [-124.90863, 42.06997],
          [-124.94018, 42.08481],
          [-124.94369, 42.08645],
          [-124.95012, 42.1077],
          [-124.95655, 42.12895],
          [-124.96298, 42.15019],
          [-124.96942, 42.17143],
          [-124.97586, 42.19266],
          [-124.98231, 42.2139],
          [-124.98875, 42.23513],
          [-124.9952, 42.25636],
          [-125.00166, 42.27758],
          [-125.00811, 42.2988],
          [-125.01457, 42.32002],
          [-125.02103, 42.34124],
          [-125.0188, 42.34384],
          [-124.99878, 42.36723],
          [-125.00524, 42.38844],
          [-125.00302, 42.39104],
          [-124.98298, 42.41442],
          [-124.98076, 42.41701],
          [-124.96071, 42.44039],
          [-124.96717, 42.46159],
          [-124.96494, 42.46419],
          [-124.94488, 42.48755],
          [-124.94265, 42.49015],
          [-124.92258, 42.51351],
          [-124.92904, 42.5347],
          [-124.9268, 42.5373],
          [-124.90672, 42.56065],
          [-124.91318, 42.58184],
          [-124.91094, 42.58443],
          [-124.89085, 42.60778],
          [-124.8973, 42.62896],
          [-124.89507, 42.63155],
          [-124.87496, 42.65489],
          [-124.87272, 42.65748],
          [-124.8526, 42.68081],
          [-124.85037, 42.6834],
          [-124.83024, 42.70672],
          [-124.83668, 42.7279],
          [-124.83445, 42.73049],
          [-124.8143, 42.7538],
          [-124.82075, 42.77497],
          [-124.81851, 42.77756],
          [-124.79836, 42.80087],
          [-124.8048, 42.82203],
          [-124.80256, 42.82462],
          [-124.78239, 42.84791],
          [-124.78884, 42.86907],
          [-124.78659, 42.87166],
          [-124.76641, 42.89495],
          [-124.76417, 42.89754],
          [-124.74398, 42.92082],
          [-124.74173, 42.92341],
          [-124.72153, 42.94668],
          [-124.71928, 42.94927],
          [-124.69039, 42.95398],
          [-124.66149, 42.95868],
          [-124.63259, 42.96338],
          [-124.60369, 42.96808],
          [-124.57479, 42.97277],
          [-124.57126, 42.97112],
          [-124.53948, 42.9563],
          [-124.51922, 42.97955],
          [-124.51697, 42.98213],
          [-124.4967, 43.00538],
          [-124.49445, 43.00796],
          [-124.47417, 43.0312],
          [-124.47192, 43.03378],
          [-124.45163, 43.05701],
          [-124.44938, 43.05959],
          [-124.42044, 43.06425],
          [-124.40013, 43.08748],
          [-124.39787, 43.09006],
          [-124.36892, 43.09471],
          [-124.3486, 43.11792],
          [-124.34634, 43.1205],
          [-124.326, 43.14371],
          [-124.32374, 43.14628],
          [-124.30339, 43.16948],
          [-124.30113, 43.17206],
          [-124.28077, 43.19525],
          [-124.27851, 43.19783],
          [-124.25814, 43.22101],
          [-124.25588, 43.22359],
          [-124.2355, 43.24677],
          [-124.23324, 43.24935],
          [-124.21285, 43.27252],
          [-124.2192, 43.29364],
          [-124.21693, 43.29621],
          [-124.19653, 43.31938],
          [-124.19426, 43.32195],
          [-124.16523, 43.32657],
          [-124.14481, 43.34972],
          [-124.14254, 43.3523],
          [-124.12211, 43.37545],
          [-124.12845, 43.39656],
          [-124.12618, 43.39913],
          [-124.10573, 43.42227],
          [-124.11207, 43.44337],
          [-124.1098, 43.44594],
          [-124.08934, 43.46907],
          [-124.08706, 43.47164],
          [-124.06659, 43.49477],
          [-124.06432, 43.49734],
          [-124.04384, 43.52046],
          [-124.05017, 43.54155],
          [-124.04789, 43.54412],
          [-124.0274, 43.56723],
          [-124.02512, 43.5698],
          [-123.99601, 43.57438],
          [-123.9755, 43.59748],
          [-123.97322, 43.60004],
          [-123.9441, 43.60462],
          [-123.92357, 43.62771],
          [-123.92128, 43.63027],
          [-123.90074, 43.65336],
          [-123.90705, 43.67444],
          [-123.90477, 43.677],
          [-123.88421, 43.70008],
          [-123.88193, 43.70264],
          [-123.86136, 43.72571],
          [-123.85907, 43.72827],
          [-123.82991, 43.73282],
          [-123.80933, 43.75588],
          [-123.81562, 43.77695],
          [-123.81333, 43.77951],
          [-123.79273, 43.80256],
          [-123.79903, 43.82362],
          [-123.79674, 43.82618],
          [-123.77613, 43.84922],
          [-123.77384, 43.85178],
          [-123.75321, 43.87482],
          [-123.75092, 43.87738],
          [-123.73029, 43.9004],
          [-123.72799, 43.90296],
          [-123.70735, 43.92598],
          [-123.70505, 43.92854],
          [-123.6844, 43.95156],
          [-123.6821, 43.95411],
          [-123.65286, 43.95863],
          [-123.63219, 43.98164],
          [-123.62989, 43.98419],
          [-123.6092, 44.00719],
          [-123.60691, 44.00975],
          [-123.58621, 44.03274],
          [-123.58391, 44.03529],
          [-123.55464, 44.03979],
          [-123.53393, 44.06277],
          [-123.53162, 44.06533],
          [-123.50235, 44.06982],
          [-123.48161, 44.09279],
          [-123.47931, 44.09534],
          [-123.45002, 44.09982],
          [-123.44646, 44.09817],
          [-123.41449, 44.08326],
          [-123.41094, 44.08161],
          [-123.37898, 44.0667],
          [-123.34969, 44.07116],
          [-123.32041, 44.07563],
          [-123.29963, 44.09858],
          [-123.29732, 44.10113],
          [-123.27653, 44.12407],
          [-123.27422, 44.12662],
          [-123.25342, 44.14956],
          [-123.25111, 44.15211],
          [-123.2303, 44.17504],
          [-123.23649, 44.19607],
          [-123.23418, 44.19861],
          [-123.21336, 44.22154],
          [-123.21955, 44.24256],
          [-123.21724, 44.24511],
          [-123.1964, 44.26802],
          [-123.19408, 44.27057],
          [-123.17323, 44.29347],
          [-123.17092, 44.29602],
          [-123.15006, 44.31892],
          [-123.14774, 44.32146],
          [-123.12687, 44.34435],
          [-123.12455, 44.3469],
          [-123.10367, 44.36979],
          [-123.10134, 44.37233],
          [-123.08045, 44.39521],
          [-123.07813, 44.39775],
          [-123.04873, 44.40216],
          [-123.01933, 44.40657],
          [-122.99841, 44.42943],
          [-122.99608, 44.43197],
          [-122.96667, 44.43637],
          [-122.93725, 44.44077],
          [-122.9163, 44.46362],
          [-122.91398, 44.46616],
          [-122.88455, 44.47054],
          [-122.85512, 44.47492],
          [-122.83414, 44.49776],
          [-122.83208, 44.5]
        ]
      }
    },
    {
      "type": "Feature",
      "id": "2026091512_f210_09000_003",
      "properties": {
        "product_id": "winter_storm_levels",
        "source_id": "nbm_snow_level",
        "parameter": "snow_level",
        "definition": "height of the wet-bulb 0.5 degree C surface",
        "level_ft_msl": 9000,
        "label": "9,000 ft MSL",
        "unit": "ft_msl",
        "cycle_time_utc": "2026-09-15T12:00:00Z",
        "valid_time_utc": "2026-09-24T06:00:00Z",
        "lead_hours": 210,
        "segment": 3,
        "length_m": 158772.4
      },
      "geometry": {
        "type": "LineString",
        "coordinates": [
          [-128.73186, 44.5],
          [-128.72647, 44.49772],
          [-128.72282, 44.49617],
          [-128.68993, 44.4822],
          [-128.68627, 44.48065],
          [-128.65339, 44.46668],
          [-128.64974, 44.46513],
          [-128.64236, 44.44433],
          [-128.6095, 44.43035],
          [-128.60585, 44.4288],
          [-128.59848, 44.40799],
          [-128.59111, 44.38718],
          [-128.58374, 44.36637],
          [-128.57638, 44.34556],
          [-128.56902, 44.32474],
          [-128.56167, 44.30392],
          [-128.52887, 44.28991],
          [-128.52522, 44.28835],
          [-128.51788, 44.26753],
          [-128.4851, 44.25351],
          [-128.45601, 44.25876],
          [-128.45237, 44.2572],
          [-128.4196, 44.24317],
          [-128.39051, 44.24841],
          [-128.36142, 44.25364],
          [-128.33233, 44.25888],
          [-128.30323, 44.2641],
          [-128.27413, 44.26932],
          [-128.24503, 44.27454],
          [-128.21592, 44.27976],
          [-128.19627, 44.3032],
          [-128.19409, 44.3058],
          [-128.16497, 44.31101],
          [-128.13584, 44.3162],
          [-128.11617, 44.33963],
          [-128.11398, 44.34224],
          [-128.08485, 44.34743],
          [-128.06515, 44.37084],
          [-128.06296, 44.37345],
          [-128.04325, 44.39686],
          [-128.04106, 44.39946],
          [-128.02134, 44.42286],
          [-128.01915, 44.42546],
          [-127.98999, 44.43064],
          [-127.97025, 44.45403],
          [-127.96806, 44.45663],
          [-127.93888, 44.46179],
          [-127.9097, 44.46695],
          [-127.88994, 44.49033],
          [-127.88774, 44.49293],
          [-127.85855, 44.49808],
          [-127.85491, 44.49651],
          [-127.84769, 44.47569],
          [-127.84048, 44.45486],
          [-127.80773, 44.44074],
          [-127.8041, 44.43917],
          [-127.77136, 44.42505],
          [-127.74218, 44.43018],
          [-127.73855, 44.42861],
          [-127.70582, 44.41447],
          [-127.67665, 44.4196],
          [-127.64747, 44.42472],
          [-127.64383, 44.42315],
          [-127.61112, 44.40899],
          [-127.58194, 44.4141],
          [-127.55276, 44.41921],
          [-127.52357, 44.42431],
          [-127.49438, 44.42941],
          [-127.46519, 44.4345],
          [-127.43599, 44.43959],
          [-127.40679, 44.44467],
          [-127.37759, 44.44975],
          [-127.34839, 44.45482],
          [-127.32849, 44.47814],
          [-127.32628, 44.48074],
          [-127.29706, 44.4858],
          [-127.26784, 44.49086],
          [-127.23862, 44.49592],
          [-127.21498, 44.5]
        ]
      }
    },
    {
      "type": "Feature",
      "id": "2026091512_f210_09000_004",
      "properties": {
        "product_id": "winter_storm_levels",
        "source_id": "nbm_snow_level",
        "parameter": "snow_level",
        "definition": "height of the wet-bulb 0.5 degree C surface",
        "level_ft_msl": 9000,
        "label": "9,000 ft MSL",
        "unit": "ft_msl",
        "cycle_time_utc": "2026-09-15T12:00:00Z",
        "valid_time_utc": "2026-09-24T06:00:00Z",
        "lead_hours": 210,
        "segment": 4,
        "length_m": 84067
      },
      "geometry": {
        "type": "LineString",
        "coordinates": [
          [-130, 44.12856],
          [-129.98885, 44.13067],
          [-129.95988, 44.13615],
          [-129.94068, 44.1598],
          [-129.93854, 44.16243],
          [-129.90956, 44.1679],
          [-129.88058, 44.17337],
          [-129.85159, 44.17884],
          [-129.8226, 44.1843],
          [-129.79361, 44.18976],
          [-129.76462, 44.19522],
          [-129.73562, 44.20067],
          [-129.70661, 44.20611],
          [-129.68734, 44.22972],
          [-129.6852, 44.23234],
          [-129.65618, 44.23777],
          [-129.62716, 44.24321],
          [-129.59814, 44.24863],
          [-129.56912, 44.25405],
          [-129.5498, 44.27764],
          [-129.54765, 44.28026],
          [-129.51861, 44.28567],
          [-129.49928, 44.30925],
          [-129.49713, 44.31187],
          [-129.46808, 44.31727],
          [-129.44872, 44.34083],
          [-129.44657, 44.34345],
          [-129.4272, 44.36701],
          [-129.42505, 44.36963],
          [-129.39598, 44.37502],
          [-129.3766, 44.39857],
          [-129.37444, 44.40118],
          [-129.34536, 44.40657],
          [-129.32595, 44.4301],
          [-129.3238, 44.43272],
          [-129.2947, 44.43809],
          [-129.2656, 44.44346],
          [-129.2365, 44.44882],
          [-129.21706, 44.47234],
          [-129.2149, 44.47496],
          [-129.18579, 44.48031],
          [-129.16949, 44.5]
        ]
      }
    },
    {
      "type": "Feature",
      "id": "2026091512_f210_10000_001",
      "properties": {
        "product_id": "winter_storm_levels",
        "source_id": "nbm_snow_level",
        "parameter": "snow_level",
        "definition": "height of the wet-bulb 0.5 degree C surface",
        "level_ft_msl": 10000,
        "label": "10,000 ft MSL",
        "unit": "ft_msl",
        "cycle_time_utc": "2026-09-15T12:00:00Z",
        "valid_time_utc": "2026-09-24T06:00:00Z",
        "lead_hours": 210,
        "segment": 1,
        "length_m": 2116635.6
      },
      "geometry": {
        "type": "LineString",
        "coordinates": [
          [-118.84217, 30.24373],
          [-118.84578, 30.2613],
          [-118.82446, 30.28767],
          [-118.82907, 30.31006],
          [-118.80773, 30.33642],
          [-118.78639, 30.36278],
          [-118.79099, 30.38517],
          [-118.76963, 30.41153],
          [-118.77423, 30.43391],
          [-118.75287, 30.46026],
          [-118.73149, 30.48661],
          [-118.73608, 30.509],
          [-118.71469, 30.53534],
          [-118.71929, 30.55772],
          [-118.72388, 30.58011],
          [-118.70247, 30.60644],
          [-118.68106, 30.63278],
          [-118.65963, 30.65911],
          [-118.66422, 30.68149],
          [-118.64278, 30.70781],
          [-118.62133, 30.73413],
          [-118.59987, 30.76045],
          [-118.60446, 30.78283],
          [-118.58298, 30.80914],
          [-118.5615, 30.83544],
          [-118.54001, 30.86175],
          [-118.51851, 30.88805],
          [-118.49244, 30.89197],
          [-118.47092, 30.91826],
          [-118.4494, 30.94454],
          [-118.42331, 30.94845],
          [-118.40176, 30.97473],
          [-118.37567, 30.97863],
          [-118.34957, 30.98252],
          [-118.328, 31.00879],
          [-118.30189, 31.01268],
          [-118.28031, 31.03894],
          [-118.25872, 31.06519],
          [-118.23712, 31.09144],
          [-118.24164, 31.11382],
          [-118.22003, 31.14006],
          [-118.22455, 31.16244],
          [-118.25522, 31.18094],
          [-118.25975, 31.20331],
          [-118.26429, 31.22568],
          [-118.26882, 31.24804],
          [-118.27336, 31.27041],
          [-118.27789, 31.29278],
          [-118.28243, 31.31514],
          [-118.28697, 31.33751],
          [-118.3177, 31.35599],
          [-118.32225, 31.37835],
          [-118.353, 31.39682],
          [-118.35756, 31.41918],
          [-118.38832, 31.43764],
          [-118.39289, 31.46],
          [-118.39746, 31.48235],
          [-118.40203, 31.5047],
          [-118.4066, 31.52706],
          [-118.38494, 31.5533],
          [-118.38951, 31.57565],
          [-118.39409, 31.598],
          [-118.39866, 31.62035],
          [-118.40324, 31.6427],
          [-118.40781, 31.66504],
          [-118.41239, 31.68739],
          [-118.41697, 31.70973],
          [-118.39529, 31.73597],
          [-118.39987, 31.75831],
          [-118.40445, 31.78065],
          [-118.40903, 31.80299],
          [-118.38733, 31.82922],
          [-118.39191, 31.85156],
          [-118.39649, 31.87389],
          [-118.37477, 31.90012],
          [-118.37935, 31.92245],
          [-118.38394, 31.94479],
          [-118.38852, 31.96712],
          [-118.39311, 31.98945],
          [-118.3977, 32.01178],
          [-118.40229, 32.0341],
          [-118.40688, 32.05643],
          [-118.41148, 32.07876],
          [-118.41608, 32.10108],
          [-118.42067, 32.1234],
          [-118.42527, 32.14573],
          [-118.42988, 32.16805],
          [-118.43448, 32.19036],
          [-118.43908, 32.21268],
          [-118.44369, 32.235],
          [-118.4483, 32.25731],
          [-118.45291, 32.27963],
          [-118.45752, 32.30194],
          [-118.46214, 32.32425],
          [-118.46676, 32.34656],
          [-118.47137, 32.36887],
          [-118.47599, 32.39118],
          [-118.48061, 32.41349],
          [-118.48524, 32.43579],
          [-118.48986, 32.45809],
          [-118.49449, 32.4804],
          [-118.49912, 32.5027],
          [-118.5302, 32.52109],
          [-118.53483, 32.54339],
          [-118.53947, 32.56568],
          [-118.54411, 32.58798],
          [-118.54876, 32.61027],
          [-118.5534, 32.63257],
          [-118.55805, 32.65486],
          [-118.58918, 32.67323],
          [-118.59383, 32.69552],
          [-118.59849, 32.71781],
          [-118.62964, 32.73617],
          [-118.6343, 32.75845],
          [-118.63897, 32.78074],
          [-118.64364, 32.80302],
          [-118.67482, 32.82137],
          [-118.6795, 32.84365],
          [-118.68418, 32.86592],
          [-118.71539, 32.88426],
          [-118.72008, 32.90653],
          [-118.7513, 32.92487],
          [-118.756, 32.94714],
          [-118.78723, 32.96546],
          [-118.79194, 32.98772],
          [-118.8232, 33.00604],
          [-118.85446, 33.02435],
          [-118.85919, 33.04661],
          [-118.89047, 33.0649],
          [-118.8952, 33.08716],
          [-118.9265, 33.10545],
          [-118.93124, 33.12771],
          [-118.96256, 33.14599],
          [-118.9673, 33.16824],
          [-118.97205, 33.19049],
          [-119.0034, 33.20876],
          [-119.00815, 33.231],
          [-119.03951, 33.24926],
          [-119.04428, 33.2715],
          [-119.04905, 33.29375],
          [-119.08043, 33.31199],
          [-119.08521, 33.33423],
          [-119.11661, 33.35247],
          [-119.12139, 33.37471],
          [-119.15281, 33.39294],
          [-119.18424, 33.41116],
          [-119.18904, 33.43339],
          [-119.22048, 33.45161],
          [-119.25194, 33.46982],
          [-119.2834, 33.48802],
          [-119.28823, 33.51024],
          [-119.31971, 33.52843],
          [-119.32454, 33.55065],
          [-119.35604, 33.56883],
          [-119.38755, 33.58701],
          [-119.3924, 33.60922],
          [-119.42392, 33.62739],
          [-119.42878, 33.6496],
          [-119.46033, 33.66776],
          [-119.46519, 33.68996],
          [-119.49675, 33.70811],
          [-119.52832, 33.72626],
          [-119.53321, 33.74846],
          [-119.53809, 33.77065],
          [-119.56969, 33.78878],
          [-119.60129, 33.80691],
          [-119.60619, 33.8291],
          [-119.63781, 33.84722],
          [-119.64272, 33.8694],
          [-119.67436, 33.88751],
          [-119.67928, 33.9097],
          [-119.6842, 33.93188],
          [-119.71587, 33.94997],
          [-119.7208, 33.97215],
          [-119.75248, 33.99024],
          [-119.78417, 34.00832],
          [-119.81587, 34.02639],
          [-119.84758, 34.04445],
          [-119.8793, 34.06251],
          [-119.91103, 34.08056],
          [-119.94277, 34.0986],
          [-119.97452, 34.11664],
          [-120.00628, 34.13467],
          [-120.03306, 34.13053],
          [-120.06483, 34.14855],
          [-120.09662, 34.16656],
          [-120.12841, 34.18456],
          [-120.16022, 34.20256],
          [-120.19203, 34.22055],
          [-120.22386, 34.23853],
          [-120.2289, 34.26067],
          [-120.23395, 34.28282],
          [-120.21219, 34.30913],
          [-120.21723, 34.33127],
          [-120.22228, 34.35341],
          [-120.25415, 34.37138],
          [-120.2592, 34.39351],
          [-120.29109, 34.41147],
          [-120.32299, 34.42942],
          [-120.35489, 34.44737],
          [-120.38681, 34.4653],
          [-120.3919, 34.48743],
          [-120.39698, 34.50955],
          [-120.42893, 34.52748],
          [-120.43402, 34.5496],
          [-120.46598, 34.56752],
          [-120.47109, 34.58963],
          [-120.50306, 34.60754],
          [-120.53505, 34.62544],
          [-120.54017, 34.64755],
          [-120.57218, 34.66544],
          [-120.57731, 34.68755],
          [-120.55555, 34.71387],
          [-120.56068, 34.73597],
          [-120.59272, 34.75385],
          [-120.59786, 34.77595],
          [-120.62991, 34.79383],
          [-120.63506, 34.81592],
          [-120.64021, 34.83801],
          [-120.67228, 34.85588],
          [-120.67744, 34.87796],
          [-120.6826, 34.90005],
          [-120.7147, 34.9179],
          [-120.71988, 34.93999],
          [-120.72505, 34.96207],
          [-120.75717, 34.9799],
          [-120.76236, 35.00198],
          [-120.76754, 35.02406],
          [-120.77273, 35.04613],
          [-120.77792, 35.06821],
          [-120.78311, 35.09028],
          [-120.7883, 35.11235],
          [-120.7935, 35.13442],
          [-120.7987, 35.15648],
          [-120.8039, 35.17855],
          [-120.8091, 35.20061],
          [-120.8143, 35.22267],
          [-120.81951, 35.24473],
          [-120.82472, 35.26679],
          [-120.82993, 35.28884],
          [-120.83514, 35.3109],
          [-120.84035, 35.33295],
          [-120.81853, 35.35925],
          [-120.82374, 35.3813],
          [-120.82896, 35.40335],
          [-120.83418, 35.42539],
          [-120.8394, 35.44744],
          [-120.84462, 35.46948],
          [-120.82277, 35.49577],
          [-120.82799, 35.51781],
          [-120.83322, 35.53985],
          [-120.83844, 35.56188],
          [-120.81657, 35.58816],
          [-120.8218, 35.6102],
          [-120.82702, 35.63223],
          [-120.80514, 35.6585],
          [-120.81037, 35.68053],
          [-120.81559, 35.70255],
          [-120.79369, 35.72882],
          [-120.79892, 35.75084],
          [-120.77701, 35.7771],
          [-120.78223, 35.79912],
          [-120.7603, 35.82537],
          [-120.76553, 35.84739],
          [-120.77075, 35.8694],
          [-120.74881, 35.89565],
          [-120.75404, 35.91766],
          [-120.75926, 35.93967],
          [-120.7373, 35.96591],
          [-120.74253, 35.98791],
          [-120.72056, 36.01414],
          [-120.72578, 36.03615],
          [-120.70379, 36.06237],
          [-120.70902, 36.08437],
          [-120.68702, 36.11059],
          [-120.69224, 36.13258],
          [-120.69746, 36.15458],
          [-120.67544, 36.18078],
          [-120.68067, 36.20278],
          [-120.68589, 36.22476],
          [-120.66386, 36.25096],
          [-120.66908, 36.27295],
          [-120.67431, 36.29493],
          [-120.65226, 36.32113],
          [-120.65748, 36.34311],
          [-120.66271, 36.36508],
          [-120.66794, 36.38706],
          [-120.64587, 36.41324],
          [-120.6511, 36.43522],
          [-120.62901, 36.46139],
          [-120.63424, 36.48336],
          [-120.61214, 36.50953],
          [-120.59003, 36.53569],
          [-120.56269, 36.53989],
          [-120.53535, 36.54408],
          [-120.51322, 36.57023],
          [-120.49107, 36.59637],
          [-120.46891, 36.62251],
          [-120.44675, 36.64865],
          [-120.45195, 36.67061],
          [-120.42977, 36.69673],
          [-120.40757, 36.72285],
          [-120.41277, 36.74481],
          [-120.39056, 36.77092],
          [-120.39576, 36.79287],
          [-120.40095, 36.81482],
          [-120.37873, 36.84093],
          [-120.38393, 36.86287],
          [-120.38912, 36.88482],
          [-120.39432, 36.90676],
          [-120.37208, 36.93285],
          [-120.37728, 36.95479],
          [-120.38248, 36.97673],
          [-120.38768, 36.99866],
          [-120.39289, 37.02059],
          [-120.37062, 37.04668],
          [-120.37582, 37.0686],
          [-120.38103, 37.09053],
          [-120.38624, 37.11245],
          [-120.39145, 37.13437],
          [-120.39666, 37.15629],
          [-120.40187, 37.17821],
          [-120.40709, 37.20013],
          [-120.41231, 37.22204],
          [-120.41753, 37.24395],
          [-120.42275, 37.26586],
          [-120.40044, 37.29192],
          [-120.40566, 37.31383],
          [-120.41088, 37.33573],
          [-120.41611, 37.35763],
          [-120.42134, 37.37953],
          [-120.399, 37.40558],
          [-120.40423, 37.42748],
          [-120.40946, 37.44937],
          [-120.41469, 37.47126],
          [-120.41992, 37.49315],
          [-120.42516, 37.51504],
          [-120.43039, 37.53693],
          [-120.43563, 37.55881],
          [-120.44087, 37.58069],
          [-120.44612, 37.60257],
          [-120.45136, 37.62444],
          [-120.45661, 37.64632],
          [-120.46186, 37.66819],
          [-120.46711, 37.69006],
          [-120.47237, 37.71193],
          [-120.47762, 37.73379],
          [-120.51053, 37.7515],
          [-120.5158, 37.77336],
          [-120.52107, 37.79522],
          [-120.52634, 37.81707],
          [-120.53161, 37.83893],
          [-120.53689, 37.86078],
          [-120.54216, 37.88263],
          [-120.54744, 37.90448],
          [-120.55272, 37.92632],
          [-120.55801, 37.94817],
          [-120.56329, 37.97001],
          [-120.56858, 37.99185],
          [-120.57387, 38.01368],
          [-120.57916, 38.03552],
          [-120.55673, 38.06152],
          [-120.56202, 38.08335],
          [-120.56731, 38.10518],
          [-120.57261, 38.127],
          [-120.5779, 38.14883],
          [-120.5832, 38.17065],
          [-120.58851, 38.19247],
          [-120.59381, 38.21429],
          [-120.59912, 38.2361],
          [-120.60442, 38.25791],
          [-120.60973, 38.27972],
          [-120.61505, 38.30153],
          [-120.62036, 38.32334],
          [-120.62568, 38.34514],
          [-120.631, 38.36694],
          [-120.63632, 38.38874],
          [-120.64164, 38.41054],
          [-120.64697, 38.43234],
          [-120.6523, 38.45413],
          [-120.65763, 38.47592],
          [-120.66296, 38.49771],
          [-120.64045, 38.52366],
          [-120.64578, 38.54545],
          [-120.65111, 38.56723],
          [-120.65645, 38.58901],
          [-120.63392, 38.61496],
          [-120.63925, 38.63673],
          [-120.64459, 38.6585],
          [-120.62204, 38.68444],
          [-120.62738, 38.70621],
          [-120.60481, 38.73214],
          [-120.61015, 38.7539],
          [-120.61548, 38.77567],
          [-120.5929, 38.80159],
          [-120.59824, 38.82334],
          [-120.60358, 38.8451],
          [-120.60891, 38.86685],
          [-120.58631, 38.89276],
          [-120.59165, 38.91451],
          [-120.59699, 38.93626],
          [-120.60234, 38.958],
          [-120.57971, 38.9839],
          [-120.58505, 39.00564],
          [-120.5904, 39.02737],
          [-120.59574, 39.04911],
          [-120.60109, 39.07084],
          [-120.60644, 39.09257],
          [-120.58379, 39.11845],
          [-120.58914, 39.14018],
          [-120.59449, 39.1619],
          [-120.59985, 39.18363],
          [-120.6052, 39.20534],
          [-120.58253, 39.23121],
          [-120.58788, 39.25293],
          [-120.59324, 39.27464],
          [-120.57055, 39.30049],
          [-120.5759, 39.3222],
          [-120.58126, 39.34391],
          [-120.55855, 39.36975],
          [-120.56391, 39.39146],
          [-120.54118, 39.41729],
          [-120.54654, 39.43899],
          [-120.5238, 39.46482],
          [-120.52915, 39.48651],
          [-120.50639, 39.51234],
          [-120.51175, 39.53402],
          [-120.48898, 39.55984],
          [-120.49433, 39.58152],
          [-120.47155, 39.60733],
          [-120.4769, 39.629],
          [-120.4541, 39.6548],
          [-120.45945, 39.67648],
          [-120.43663, 39.70227],
          [-120.41381, 39.72805],
          [-120.41915, 39.74972],
          [-120.39631, 39.77549],
          [-120.40166, 39.79715],
          [-120.3788, 39.82292],
          [-120.35594, 39.84868],
          [-120.33306, 39.87443],
          [-120.31017, 39.90018],
          [-120.28727, 39.92592],
          [-120.26436, 39.95166],
          [-120.23612, 39.95574],
          [-120.21319, 39.98146],
          [-120.18493, 39.98553],
          [-120.15668, 39.9896],
          [-120.12842, 39.99366],
          [-120.10016, 39.99772],
          [-120.0719, 40.00177],
          [-120.04363, 40.00582],
          [-120.01537, 40.00986],
          [-119.99237, 40.03555],
          [-119.96409, 40.03958],
          [-119.93582, 40.04361],
          [-119.91279, 40.06929],
          [-119.88976, 40.09495],
          [-119.86146, 40.09897],
          [-119.8384, 40.12463],
          [-119.81534, 40.15028],
          [-119.78702, 40.15428],
          [-119.76394, 40.17992],
          [-119.74084, 40.20556],
          [-119.71251, 40.20955],
          [-119.68417, 40.21353],
          [-119.65584, 40.21752],
          [-119.6327, 40.24313],
          [-119.60436, 40.2471],
          [-119.57601, 40.25107],
          [-119.54766, 40.25503],
          [-119.52449, 40.28063],
          [-119.49613, 40.28459],
          [-119.47294, 40.31017],
          [-119.44457, 40.31412],
          [-119.41619, 40.31806],
          [-119.38782, 40.32199],
          [-119.35944, 40.32593],
          [-119.33106, 40.32985],
          [-119.30268, 40.33378],
          [-119.27943, 40.35933],
          [-119.25104, 40.36324],
          [-119.22265, 40.36715],
          [-119.19937, 40.39269],
          [-119.17097, 40.39659],
          [-119.14256, 40.40049],
          [-119.11926, 40.42601],
          [-119.09084, 40.4299],
          [-119.06243, 40.43378],
          [-119.0391, 40.45929],
          [-119.01067, 40.46317],
          [-118.98224, 40.46703],
          [-118.95888, 40.49253],
          [-118.93044, 40.49639],
          [-118.902, 40.50024],
          [-118.86849, 40.48246],
          [-118.84005, 40.48631],
          [-118.81161, 40.49015],
          [-118.78316, 40.49399],
          [-118.75471, 40.49782],
          [-118.72626, 40.50165],
          [-118.69781, 40.50547],
          [-118.66936, 40.50929],
          [-118.6409, 40.5131],
          [-118.61244, 40.51691],
          [-118.58398, 40.52072],
          [-118.55552, 40.52452],
          [-118.52705, 40.52831],
          [-118.49859, 40.5321],
          [-118.47012, 40.53589],
          [-118.44165, 40.53967],
          [-118.41317, 40.54345],
          [-118.3847, 40.54722],
          [-118.35622, 40.55099],
          [-118.33269, 40.57639],
          [-118.3042, 40.58015],
          [-118.28066, 40.60554],
          [-118.25216, 40.60928],
          [-118.22859, 40.63466],
          [-118.20501, 40.66004],
          [-118.1765, 40.66377],
          [-118.1529, 40.68914],
          [-118.12929, 40.71449],
          [-118.10566, 40.73984],
          [-118.08203, 40.76518],
          [-118.05838, 40.79052],
          [-118.06329, 40.81214],
          [-118.03963, 40.83746],
          [-118.01106, 40.84117],
          [-117.98738, 40.86649],
          [-117.96368, 40.8918],
          [-117.93998, 40.9171],
          [-117.91138, 40.92079],
          [-117.88766, 40.94608],
          [-117.85905, 40.94976],
          [-117.83531, 40.97504],
          [-117.80669, 40.97871],
          [-117.78293, 41.00398],
          [-117.7543, 41.00765],
          [-117.73052, 41.03291],
          [-117.70673, 41.05816],
          [-117.67808, 41.06181],
          [-117.64944, 41.06545],
          [-117.62561, 41.09069],
          [-117.59696, 41.09433],
          [-117.57312, 41.11955],
          [-117.54445, 41.12318],
          [-117.51578, 41.1268],
          [-117.49191, 41.15201],
          [-117.46323, 41.15563],
          [-117.43455, 41.15924],
          [-117.40587, 41.16284],
          [-117.37719, 41.16644],
          [-117.3485, 41.17003],
          [-117.32458, 41.19522],
          [-117.29589, 41.1988],
          [-117.26719, 41.20238],
          [-117.23849, 41.20596],
          [-117.21453, 41.23112],
          [-117.18582, 41.23469],
          [-117.16184, 41.25984],
          [-117.13312, 41.2634],
          [-117.1044, 41.26696],
          [-117.0804, 41.29209],
          [-117.05167, 41.29564],
          [-117.02293, 41.29918],
          [-116.9989, 41.3243],
          [-116.97016, 41.32783],
          [-116.94611, 41.35294],
          [-116.91735, 41.35647],
          [-116.89328, 41.38157],
          [-116.86452, 41.38508],
          [-116.84043, 41.41017],
          [-116.81165, 41.41367],
          [-116.78754, 41.43875],
          [-116.75876, 41.44225],
          [-116.73463, 41.46732],
          [-116.70583, 41.4708],
          [-116.68168, 41.49586],
          [-116.65288, 41.49934],
          [-116.62871, 41.52438],
          [-116.60453, 41.54942],
          [-116.58033, 41.57445],
          [-116.55151, 41.57791],
          [-116.52729, 41.60293],
          [-116.50307, 41.62795],
          [-116.47883, 41.65295],
          [-116.45458, 41.67795],
          [-116.43032, 41.70295],
          [-116.40604, 41.72793],
          [-116.38176, 41.75291],
          [-116.35746, 41.77789],
          [-116.33315, 41.80285],
          [-116.30883, 41.82781],
          [-116.31341, 41.84935],
          [-116.28907, 41.8743],
          [-116.29365, 41.89584],
          [-116.2693, 41.92078],
          [-116.27388, 41.94231],
          [-116.24951, 41.96724],
          [-116.22512, 41.99217],
          [-116.2297, 42.01369],
          [-116.2053, 42.0386],
          [-116.20987, 42.06012],
          [-116.18545, 42.08503],
          [-116.16103, 42.10993],
          [-116.13659, 42.13482],
          [-116.11214, 42.1597],
          [-116.08767, 42.18458],
          [-116.0632, 42.20945],
          [-116.03871, 42.23432],
          [-116.00967, 42.23768],
          [-115.98064, 42.24103],
          [-115.95612, 42.26588],
          [-115.92707, 42.26923],
          [-115.89802, 42.27257],
          [-115.87348, 42.29741],
          [-115.84442, 42.30074],
          [-115.81985, 42.32556],
          [-115.79528, 42.35038],
          [-115.77069, 42.37519],
          [-115.74609, 42.39999],
          [-115.75058, 42.42147],
          [-115.72596, 42.44626],
          [-115.69685, 42.44957],
          [-115.67222, 42.47435],
          [-115.64757, 42.49912],
          [-115.61844, 42.50242],
          [-115.59377, 42.52718],
          [-115.56909, 42.55193],
          [-115.53995, 42.55521],
          [-115.51524, 42.57996],
          [-115.49053, 42.60469],
          [-115.4658, 42.62942],
          [-115.47024, 42.65088],
          [-115.4455, 42.6756],
          [-115.42074, 42.70031],
          [-115.42517, 42.72177],
          [-115.4004, 42.74647],
          [-115.3712, 42.74972],
          [-115.3464, 42.77441],
          [-115.3216, 42.7991],
          [-115.29678, 42.82377],
          [-115.27196, 42.84844],
          [-115.27636, 42.86988],
          [-115.25152, 42.89454],
          [-115.25592, 42.91597],
          [-115.26032, 42.9374],
          [-115.26473, 42.95882],
          [-115.26914, 42.98025],
          [-115.27355, 43.00166],
          [-115.27797, 43.02308],
          [-115.28238, 43.04449],
          [-115.2868, 43.0659],
          [-115.26191, 43.09054],
          [-115.26632, 43.11194],
          [-115.27074, 43.13334],
          [-115.30449, 43.15151],
          [-115.30891, 43.17291],
          [-115.31334, 43.1943],
          [-115.34268, 43.19107],
          [-115.37646, 43.20922],
          [-115.41025, 43.22737],
          [-115.44406, 43.2455],
          [-115.44852, 43.26688],
          [-115.45298, 43.28826],
          [-115.45745, 43.30963],
          [-115.49129, 43.32775],
          [-115.49577, 43.34911],
          [-115.50024, 43.37048],
          [-115.53411, 43.38858],
          [-115.5092, 43.4132],
          [-115.51369, 43.43455],
          [-115.48876, 43.45916],
          [-115.45934, 43.46241],
          [-115.43439, 43.487],
          [-115.40497, 43.49024],
          [-115.37554, 43.49348],
          [-115.35056, 43.51805],
          [-115.32113, 43.52128],
          [-115.29613, 43.54585],
          [-115.26668, 43.54906],
          [-115.24166, 43.57362],
          [-115.2122, 43.57683],
          [-115.18716, 43.60137],
          [-115.1577, 43.60457],
          [-115.12823, 43.60776],
          [-115.09875, 43.61095],
          [-115.07368, 43.63547],
          [-115.04859, 43.65999],
          [-115.0191, 43.66316],
          [-114.99399, 43.68767],
          [-114.96449, 43.69083],
          [-114.93499, 43.694],
          [-114.90112, 43.67582],
          [-114.87598, 43.70031],
          [-114.84647, 43.70345],
          [-114.81696, 43.7066],
          [-114.79179, 43.73107],
          [-114.75794, 43.71287],
          [-114.72842, 43.716],
          [-114.70323, 43.74045],
          [-114.67802, 43.7649],
          [-114.68233, 43.78623],
          [-114.68665, 43.80755],
          [-114.69098, 43.82887],
          [-114.72486, 43.84707],
          [-114.72919, 43.86838],
          [-114.73352, 43.88969],
          [-114.73786, 43.911],
          [-114.71261, 43.93542],
          [-114.68736, 43.95984],
          [-114.66209, 43.98426],
          [-114.6368, 44.00866],
          [-114.64112, 44.02995],
          [-114.61582, 44.05435],
          [-114.62014, 44.07563],
          [-114.59482, 44.10002],
          [-114.59914, 44.1213],
          [-114.6331, 44.13948],
          [-114.63743, 44.16075],
          [-114.67141, 44.17892],
          [-114.70541, 44.19707],
          [-114.68008, 44.22145],
          [-114.65474, 44.24582],
          [-114.62939, 44.27018],
          [-114.63372, 44.29144],
          [-114.60835, 44.31579],
          [-114.58297, 44.34013],
          [-114.58729, 44.36138],
          [-114.56189, 44.38571],
          [-114.56621, 44.40695],
          [-114.5408, 44.43127],
          [-114.54511, 44.45251],
          [-114.54943, 44.47374],
          [-114.524, 44.49805],
          [-114.52439, 44.5]
        ]
      }
    },
    {
      "type": "Feature",
      "id": "2026091512_f210_11000_001",
      "properties": {
        "product_id": "winter_storm_levels",
        "source_id": "nbm_snow_level",
        "parameter": "snow_level",
        "definition": "height of the wet-bulb 0.5 degree C surface",
        "level_ft_msl": 11000,
        "label": "11,000 ft MSL",
        "unit": "ft_msl",
        "cycle_time_utc": "2026-09-15T12:00:00Z",
        "valid_time_utc": "2026-09-24T06:00:00Z",
        "lead_hours": 210,
        "segment": 1,
        "length_m": 1663093.3
      },
      "geometry": {
        "type": "LineString",
        "coordinates": [
          [-115.38266, 30.15796],
          [-115.38602, 30.17711],
          [-115.36615, 30.20041],
          [-115.36394, 30.203],
          [-115.36788, 30.22549],
          [-115.37182, 30.24798],
          [-115.37576, 30.27046],
          [-115.35588, 30.29376],
          [-115.35367, 30.29635],
          [-115.35761, 30.31884],
          [-115.36155, 30.34132],
          [-115.36455, 30.34323],
          [-115.39155, 30.3604],
          [-115.39549, 30.38288],
          [-115.3985, 30.38478],
          [-115.42551, 30.40195],
          [-115.42947, 30.42442],
          [-115.43247, 30.42633],
          [-115.4595, 30.44349],
          [-115.4625, 30.44539],
          [-115.48954, 30.46254],
          [-115.49254, 30.46445],
          [-115.51862, 30.46102],
          [-115.54566, 30.47816],
          [-115.54867, 30.48006],
          [-115.57573, 30.4972],
          [-115.57873, 30.4991],
          [-115.6058, 30.51623],
          [-115.6098, 30.5387],
          [-115.6128, 30.5406],
          [-115.63988, 30.55772],
          [-115.64389, 30.58019],
          [-115.6469, 30.58209],
          [-115.67399, 30.5992],
          [-115.67801, 30.62167],
          [-115.68202, 30.64413],
          [-115.68503, 30.64603],
          [-115.71215, 30.66314],
          [-115.71617, 30.6856],
          [-115.72019, 30.70806],
          [-115.72321, 30.70996],
          [-115.75034, 30.72706],
          [-115.75437, 30.74951],
          [-115.75841, 30.77197],
          [-115.76244, 30.79443],
          [-115.76648, 30.81688],
          [-115.77051, 30.83933],
          [-115.77455, 30.86179],
          [-115.77757, 30.86368],
          [-115.80475, 30.88077],
          [-115.8088, 30.90322],
          [-115.81285, 30.92566],
          [-115.8169, 30.94811],
          [-115.82095, 30.97056],
          [-115.825, 30.993],
          [-115.82906, 31.01545],
          [-115.83311, 31.03789],
          [-115.83717, 31.06034],
          [-115.84123, 31.08278],
          [-115.84529, 31.10522],
          [-115.84935, 31.12766],
          [-115.85342, 31.15009],
          [-115.85748, 31.17253],
          [-115.86051, 31.17443],
          [-115.88778, 31.19148],
          [-115.89185, 31.21392],
          [-115.89593, 31.23635],
          [-115.9, 31.25878],
          [-115.90408, 31.28122],
          [-115.90816, 31.30365],
          [-115.91224, 31.32607],
          [-115.91633, 31.3485],
          [-115.92041, 31.37093],
          [-115.9245, 31.39335],
          [-115.92859, 31.41578],
          [-115.90861, 31.4391],
          [-115.90639, 31.44169],
          [-115.90943, 31.44358],
          [-115.93677, 31.46062],
          [-115.94086, 31.48305],
          [-115.94495, 31.50547],
          [-115.94905, 31.52788],
          [-115.95315, 31.5503],
          [-115.95619, 31.55219],
          [-115.98355, 31.56922],
          [-115.98766, 31.59164],
          [-115.99177, 31.61405],
          [-115.99481, 31.61594],
          [-116.0222, 31.63296],
          [-116.02632, 31.65537],
          [-116.02936, 31.65727],
          [-116.05676, 31.67428],
          [-116.06089, 31.69669],
          [-116.06501, 31.71909],
          [-116.06914, 31.7415],
          [-116.07219, 31.74339],
          [-116.09962, 31.76039],
          [-116.10375, 31.78279],
          [-116.10789, 31.80519],
          [-116.11203, 31.8276],
          [-116.11617, 31.84999],
          [-116.12031, 31.87239],
          [-116.12445, 31.89479],
          [-116.1275, 31.89668],
          [-116.15498, 31.91366],
          [-116.15913, 31.93606],
          [-116.16328, 31.95845],
          [-116.16744, 31.98084],
          [-116.17159, 32.00323],
          [-116.17575, 32.02562],
          [-116.17991, 32.04801],
          [-116.18297, 32.0499],
          [-116.21049, 32.06687],
          [-116.21466, 32.08925],
          [-116.21883, 32.11164],
          [-116.223, 32.13402],
          [-116.22717, 32.1564],
          [-116.23134, 32.17878],
          [-116.23552, 32.20116],
          [-116.2397, 32.22354],
          [-116.24388, 32.24591],
          [-116.22382, 32.26923],
          [-116.22159, 32.27182],
          [-116.22577, 32.2942],
          [-116.22995, 32.31657],
          [-116.23413, 32.33894],
          [-116.23831, 32.36131],
          [-116.21824, 32.38462],
          [-116.21601, 32.38721],
          [-116.22019, 32.40958],
          [-116.2001, 32.43289],
          [-116.19787, 32.43548],
          [-116.20205, 32.45784],
          [-116.20623, 32.48021],
          [-116.18613, 32.50351],
          [-116.18389, 32.5061],
          [-116.18807, 32.52846],
          [-116.19225, 32.55082],
          [-116.17214, 32.57412],
          [-116.1699, 32.5767],
          [-116.17408, 32.59906],
          [-116.17826, 32.62142],
          [-116.18244, 32.64378],
          [-116.1623, 32.66707],
          [-116.16007, 32.66965],
          [-116.16425, 32.69201],
          [-116.16843, 32.71436],
          [-116.14828, 32.73765],
          [-116.14604, 32.74023],
          [-116.15022, 32.76258],
          [-116.13005, 32.78586],
          [-116.12781, 32.78845],
          [-116.13199, 32.8108],
          [-116.11182, 32.83407],
          [-116.10957, 32.83665],
          [-116.08939, 32.85992],
          [-116.08715, 32.86251],
          [-116.06695, 32.88577],
          [-116.06471, 32.88836],
          [-116.06888, 32.9107],
          [-116.07305, 32.93305],
          [-116.07722, 32.95539],
          [-116.0814, 32.97773],
          [-116.08557, 33.00007],
          [-116.08975, 33.02241],
          [-116.09393, 33.04474],
          [-116.0737, 33.068],
          [-116.07146, 33.07058],
          [-116.07563, 33.09292],
          [-116.07981, 33.11525],
          [-116.08399, 33.13758],
          [-116.08817, 33.15991],
          [-116.06793, 33.18316],
          [-116.06568, 33.18574],
          [-116.06986, 33.20807],
          [-116.07404, 33.2304],
          [-116.07822, 33.25272],
          [-116.08241, 33.27505],
          [-116.0866, 33.29737],
          [-116.09078, 33.31969],
          [-116.07051, 33.34293],
          [-116.06826, 33.34551],
          [-116.07244, 33.36783],
          [-116.07663, 33.39014],
          [-116.08082, 33.41246],
          [-116.08501, 33.43478],
          [-116.08921, 33.45709],
          [-116.0934, 33.4794],
          [-116.0965, 33.48128],
          [-116.12435, 33.49821],
          [-116.12745, 33.50009],
          [-116.15531, 33.51701],
          [-116.15841, 33.51889],
          [-116.18516, 33.51538],
          [-116.21304, 33.53229],
          [-116.21614, 33.53417],
          [-116.24289, 33.53064],
          [-116.26965, 33.52712],
          [-116.2964, 33.52359],
          [-116.32316, 33.52005],
          [-116.34991, 33.51651],
          [-116.37666, 33.51297],
          [-116.4034, 33.50942],
          [-116.43015, 33.50587],
          [-116.45806, 33.52274],
          [-116.46116, 33.52461],
          [-116.48791, 33.52105],
          [-116.51583, 33.53791],
          [-116.51894, 33.53978],
          [-116.54687, 33.55663],
          [-116.54997, 33.5585],
          [-116.57791, 33.57535],
          [-116.58102, 33.57722],
          [-116.60897, 33.59406],
          [-116.61208, 33.59593],
          [-116.64004, 33.61276],
          [-116.64435, 33.63505],
          [-116.64746, 33.63692],
          [-116.67543, 33.65375],
          [-116.67975, 33.67603],
          [-116.68286, 33.6779],
          [-116.71085, 33.69472],
          [-116.71518, 33.717],
          [-116.71829, 33.71887],
          [-116.7463, 33.73567],
          [-116.75063, 33.75795],
          [-116.75497, 33.78023],
          [-116.75931, 33.8025],
          [-116.76242, 33.80437],
          [-116.79045, 33.82117],
          [-116.7948, 33.84344],
          [-116.79915, 33.86571],
          [-116.8035, 33.88797],
          [-116.80662, 33.88984],
          [-116.83468, 33.90663],
          [-116.83904, 33.92889],
          [-116.84216, 33.93075],
          [-116.87024, 33.94753],
          [-116.87461, 33.96979],
          [-116.87773, 33.97166],
          [-116.90582, 33.98843],
          [-116.9102, 34.01068],
          [-116.91332, 34.01255],
          [-116.94143, 34.02931],
          [-116.94581, 34.05156],
          [-116.94894, 34.05342],
          [-116.97706, 34.07018],
          [-116.98146, 34.09243],
          [-116.98458, 34.09429],
          [-117.01272, 34.11103],
          [-117.01713, 34.13328],
          [-117.02025, 34.13514],
          [-117.04841, 34.15188],
          [-117.05282, 34.17412],
          [-117.05723, 34.19636],
          [-117.06165, 34.2186],
          [-117.06607, 34.24084],
          [-117.07048, 34.26307],
          [-117.0749, 34.28531],
          [-117.05466, 34.30861],
          [-117.05241, 34.31119],
          [-117.03216, 34.33448],
          [-117.0299, 34.33707],
          [-117.03432, 34.3593],
          [-117.01405, 34.38259],
          [-117.0118, 34.38518],
          [-117.01621, 34.4074],
          [-117.02063, 34.42963],
          [-117.00035, 34.45291],
          [-116.99809, 34.4555],
          [-117.00251, 34.47772],
          [-116.98221, 34.50099],
          [-116.97996, 34.50358],
          [-116.98437, 34.5258],
          [-116.98878, 34.54802],
          [-116.9932, 34.57024],
          [-116.99633, 34.5721],
          [-117.0246, 34.58882],
          [-117.02902, 34.61103],
          [-117.03345, 34.63324],
          [-117.03787, 34.65545],
          [-117.0423, 34.67766],
          [-117.04673, 34.69987],
          [-117.02641, 34.72313],
          [-117.02415, 34.72572],
          [-117.02858, 34.74792],
          [-117.03301, 34.77013],
          [-117.01267, 34.79338],
          [-117.01041, 34.79597],
          [-116.99006, 34.81922],
          [-116.98779, 34.8218],
          [-116.96743, 34.84505],
          [-116.96517, 34.84763],
          [-116.9448, 34.87087],
          [-116.94254, 34.87346],
          [-116.92216, 34.89669],
          [-116.91989, 34.89927],
          [-116.89951, 34.92251],
          [-116.89724, 34.92509],
          [-116.87684, 34.94832],
          [-116.87457, 34.9509],
          [-116.85417, 34.97412],
          [-116.8519, 34.9767],
          [-116.83148, 34.99992],
          [-116.82921, 35.0025],
          [-116.83361, 35.02469],
          [-116.81318, 35.0479],
          [-116.81091, 35.05048],
          [-116.79048, 35.07369],
          [-116.7882, 35.07627],
          [-116.7926, 35.09845],
          [-116.77215, 35.12166],
          [-116.76987, 35.12423],
          [-116.74941, 35.14743],
          [-116.74714, 35.15001],
          [-116.75153, 35.17219],
          [-116.73106, 35.19538],
          [-116.72878, 35.19796],
          [-116.7083, 35.22115],
          [-116.70602, 35.22372],
          [-116.71041, 35.2459],
          [-116.68991, 35.26908],
          [-116.68763, 35.27166],
          [-116.69202, 35.29383],
          [-116.67151, 35.31701],
          [-116.66923, 35.31958],
          [-116.67361, 35.34175],
          [-116.67799, 35.36392],
          [-116.68238, 35.38609],
          [-116.68676, 35.40826],
          [-116.69115, 35.43042],
          [-116.69431, 35.43228],
          [-116.72275, 35.44901],
          [-116.72715, 35.47117],
          [-116.73031, 35.47302],
          [-116.75876, 35.48974],
          [-116.76317, 35.5119],
          [-116.76633, 35.51375],
          [-116.7948, 35.53046],
          [-116.79921, 35.55261],
          [-116.80363, 35.57476],
          [-116.80805, 35.59691],
          [-116.81247, 35.61906],
          [-116.81689, 35.64121],
          [-116.82131, 35.66335],
          [-116.80076, 35.68651],
          [-116.79848, 35.68909],
          [-116.8029, 35.71123],
          [-116.80733, 35.73336],
          [-116.78676, 35.75652],
          [-116.78447, 35.75909],
          [-116.7889, 35.78123],
          [-116.79332, 35.80336],
          [-116.79775, 35.82549],
          [-116.80217, 35.84762],
          [-116.78159, 35.87077],
          [-116.7793, 35.87334],
          [-116.78372, 35.89547],
          [-116.76312, 35.9186],
          [-116.76083, 35.92117],
          [-116.76526, 35.9433],
          [-116.74464, 35.96643],
          [-116.74235, 35.969],
          [-116.74677, 35.99112],
          [-116.7512, 36.01324],
          [-116.73057, 36.03636],
          [-116.72827, 36.03893],
          [-116.73269, 36.06105],
          [-116.71205, 36.08417],
          [-116.70976, 36.08673],
          [-116.71418, 36.10885],
          [-116.7186, 36.13096],
          [-116.69794, 36.15407],
          [-116.69564, 36.15664],
          [-116.70006, 36.17874],
          [-116.70449, 36.20085],
          [-116.70891, 36.22295],
          [-116.71334, 36.24505],
          [-116.71776, 36.26715],
          [-116.72219, 36.28925],
          [-116.7015, 36.31234],
          [-116.6992, 36.31491],
          [-116.70363, 36.337],
          [-116.70806, 36.3591],
          [-116.71249, 36.38119],
          [-116.71693, 36.40327],
          [-116.72136, 36.42536],
          [-116.7258, 36.44744],
          [-116.73023, 36.46953],
          [-116.70951, 36.49261],
          [-116.70721, 36.49517],
          [-116.71165, 36.51725],
          [-116.71609, 36.53933],
          [-116.72053, 36.56141],
          [-116.72497, 36.58348],
          [-116.72941, 36.60555],
          [-116.73386, 36.62762],
          [-116.7383, 36.64969],
          [-116.71755, 36.67275],
          [-116.71524, 36.67532],
          [-116.71969, 36.69738],
          [-116.72414, 36.71944],
          [-116.70336, 36.7425],
          [-116.70106, 36.74507],
          [-116.7055, 36.76712],
          [-116.68472, 36.79018],
          [-116.68241, 36.79274],
          [-116.68685, 36.81479],
          [-116.66606, 36.83784],
          [-116.66374, 36.8404],
          [-116.66819, 36.86245],
          [-116.67263, 36.8845],
          [-116.65182, 36.90754],
          [-116.6495, 36.9101],
          [-116.65395, 36.93215],
          [-116.65839, 36.95419],
          [-116.66283, 36.97623],
          [-116.66728, 36.99827],
          [-116.67173, 37.02031],
          [-116.67618, 37.04234],
          [-116.68063, 37.06438],
          [-116.68509, 37.08641],
          [-116.66424, 37.10943],
          [-116.66192, 37.11199],
          [-116.66637, 37.13402],
          [-116.64551, 37.15703],
          [-116.64319, 37.15959],
          [-116.62232, 37.1826],
          [-116.62, 37.18516],
          [-116.59912, 37.20817],
          [-116.5968, 37.21072],
          [-116.57591, 37.23372],
          [-116.57358, 37.23628],
          [-116.57802, 37.2583],
          [-116.55712, 37.28129],
          [-116.55479, 37.28385],
          [-116.53388, 37.30684],
          [-116.53156, 37.30939],
          [-116.53599, 37.33141],
          [-116.51506, 37.35439],
          [-116.48737, 37.35791],
          [-116.48504, 37.36046],
          [-116.4641, 37.38344],
          [-116.46177, 37.38599],
          [-116.44082, 37.40896],
          [-116.43849, 37.41151],
          [-116.41752, 37.43447],
          [-116.41519, 37.43702],
          [-116.39422, 37.45998],
          [-116.39189, 37.46253],
          [-116.3709, 37.48548],
          [-116.36857, 37.48803],
          [-116.34757, 37.51098],
          [-116.31984, 37.51447],
          [-116.3175, 37.51702],
          [-116.29649, 37.53996],
          [-116.29416, 37.54251],
          [-116.27314, 37.56544],
          [-116.2708, 37.56799],
          [-116.24977, 37.59092],
          [-116.24743, 37.59346],
          [-116.22639, 37.61639],
          [-116.22405, 37.61893],
          [-116.203, 37.64185],
          [-116.20066, 37.6444],
          [-116.20504, 37.66639],
          [-116.20942, 37.68838],
          [-116.21381, 37.71037],
          [-116.21819, 37.73235],
          [-116.22258, 37.75434],
          [-116.22697, 37.77632],
          [-116.23136, 37.7983],
          [-116.23575, 37.82027],
          [-116.23897, 37.82212],
          [-116.26797, 37.83878],
          [-116.27237, 37.86075],
          [-116.27678, 37.88272],
          [-116.28, 37.88457],
          [-116.30902, 37.90121],
          [-116.31343, 37.92317],
          [-116.31666, 37.92502],
          [-116.3457, 37.94165],
          [-116.35012, 37.96361],
          [-116.35454, 37.98557],
          [-116.35777, 37.98742],
          [-116.38683, 38.00404],
          [-116.39127, 38.02599],
          [-116.3957, 38.04794],
          [-116.40014, 38.06989],
          [-116.40458, 38.09184],
          [-116.40902, 38.11378],
          [-116.41346, 38.13573],
          [-116.4179, 38.15767],
          [-116.42235, 38.17961],
          [-116.42558, 38.18145],
          [-116.45471, 38.19805],
          [-116.45916, 38.21998],
          [-116.46362, 38.24191],
          [-116.46808, 38.26384],
          [-116.47254, 38.28577],
          [-116.477, 38.30769],
          [-116.48147, 38.32961],
          [-116.48471, 38.33146],
          [-116.51388, 38.34803],
          [-116.51836, 38.36995],
          [-116.52283, 38.39186],
          [-116.52731, 38.41378],
          [-116.53179, 38.43569],
          [-116.51064, 38.45856],
          [-116.50829, 38.4611],
          [-116.51277, 38.48301],
          [-116.51725, 38.50492],
          [-116.5205, 38.50676],
          [-116.54972, 38.52331],
          [-116.55421, 38.54521],
          [-116.5587, 38.56711],
          [-116.53754, 38.58997],
          [-116.53518, 38.59251],
          [-116.53967, 38.61441],
          [-116.51849, 38.63726],
          [-116.51614, 38.6398],
          [-116.52062, 38.66169],
          [-116.49943, 38.68454],
          [-116.49707, 38.68708],
          [-116.47587, 38.70993],
          [-116.47351, 38.71246],
          [-116.47799, 38.73435],
          [-116.45678, 38.75718],
          [-116.45442, 38.75972],
          [-116.4589, 38.7816],
          [-116.43767, 38.80443],
          [-116.43531, 38.80697],
          [-116.41406, 38.82979],
          [-116.38598, 38.83327],
          [-116.38362, 38.83581],
          [-116.36236, 38.85863],
          [-116.33427, 38.8621],
          [-116.33191, 38.86463],
          [-116.31064, 38.88744],
          [-116.28254, 38.8909],
          [-116.25444, 38.89436],
          [-116.22633, 38.89782],
          [-116.22397, 38.90035],
          [-116.20266, 38.92314],
          [-116.17455, 38.92659],
          [-116.17218, 38.92912],
          [-116.15086, 38.9519],
          [-116.12274, 38.95533],
          [-116.12036, 38.95786],
          [-116.09902, 38.98064],
          [-116.09665, 38.98316],
          [-116.0753, 39.00593],
          [-116.07293, 39.00846],
          [-116.05157, 39.03122],
          [-116.0492, 39.03375],
          [-116.0536, 39.05561],
          [-116.05801, 39.07747],
          [-116.03663, 39.10022],
          [-116.03426, 39.10275],
          [-116.01287, 39.12549],
          [-115.9847, 39.1289],
          [-115.98232, 39.13143],
          [-115.96091, 39.15416],
          [-115.95853, 39.15669],
          [-115.96293, 39.17854],
          [-115.94151, 39.20127],
          [-115.93913, 39.20379],
          [-115.9177, 39.22652],
          [-115.91532, 39.22904],
          [-115.89388, 39.25176],
          [-115.89149, 39.25428],
          [-115.87004, 39.27699],
          [-115.86766, 39.27952],
          [-115.8462, 39.30222],
          [-115.81797, 39.3056],
          [-115.81559, 39.30813],
          [-115.79411, 39.33082],
          [-115.76588, 39.3342],
          [-115.76349, 39.33672],
          [-115.74199, 39.3594],
          [-115.71375, 39.36277],
          [-115.71136, 39.36529],
          [-115.68985, 39.38796],
          [-115.68746, 39.39048],
          [-115.66594, 39.41316],
          [-115.63768, 39.41651],
          [-115.63528, 39.41903],
          [-115.61374, 39.44169],
          [-115.61135, 39.4442],
          [-115.61568, 39.46603],
          [-115.59413, 39.48869],
          [-115.59173, 39.49121],
          [-115.57017, 39.51385],
          [-115.56777, 39.51637],
          [-115.5721, 39.53819],
          [-115.57643, 39.56002],
          [-115.55485, 39.58265],
          [-115.55245, 39.58517],
          [-115.53086, 39.6078],
          [-115.52846, 39.61032],
          [-115.50686, 39.63294],
          [-115.50446, 39.63546],
          [-115.50877, 39.65727],
          [-115.48716, 39.67989],
          [-115.48476, 39.6824],
          [-115.48907, 39.70421],
          [-115.46744, 39.72682],
          [-115.46504, 39.72934],
          [-115.46935, 39.75114],
          [-115.44771, 39.77375],
          [-115.4453, 39.77626],
          [-115.42365, 39.79886],
          [-115.42124, 39.80137],
          [-115.39958, 39.82396],
          [-115.39717, 39.82647],
          [-115.37549, 39.84906],
          [-115.37308, 39.85157],
          [-115.37738, 39.87336],
          [-115.35569, 39.89594],
          [-115.35328, 39.89845],
          [-115.33158, 39.92102],
          [-115.32917, 39.92353],
          [-115.30746, 39.9461],
          [-115.30505, 39.9486],
          [-115.30934, 39.97039],
          [-115.28761, 39.99295],
          [-115.2852, 39.99546],
          [-115.26347, 40.01801],
          [-115.26105, 40.02052],
          [-115.23931, 40.04307],
          [-115.23689, 40.04557],
          [-115.24117, 40.06734],
          [-115.21941, 40.08989],
          [-115.21699, 40.09239],
          [-115.19522, 40.11493],
          [-115.1928, 40.11743],
          [-115.17102, 40.13996],
          [-115.1686, 40.14246],
          [-115.14681, 40.16499],
          [-115.14439, 40.16749],
          [-115.12259, 40.19001],
          [-115.12016, 40.19251],
          [-115.09835, 40.21502],
          [-115.09593, 40.21752],
          [-115.0741, 40.24003],
          [-115.07168, 40.24253],
          [-115.04985, 40.26503],
          [-115.04742, 40.26753],
          [-115.02558, 40.29002],
          [-115.02315, 40.29252],
          [-115.00129, 40.31501],
          [-114.99887, 40.31751],
          [-114.977, 40.33999],
          [-114.97457, 40.34249],
          [-114.9527, 40.36496],
          [-114.95026, 40.36746],
          [-114.92838, 40.38993],
          [-114.92595, 40.39243],
          [-114.90405, 40.41489],
          [-114.90162, 40.41739],
          [-114.87971, 40.43985],
          [-114.87727, 40.44234],
          [-114.85536, 40.4648],
          [-114.82678, 40.468],
          [-114.82435, 40.4705],
          [-114.80241, 40.49294],
          [-114.77383, 40.49613],
          [-114.77139, 40.49863],
          [-114.74944, 40.52106],
          [-114.747, 40.52355],
          [-114.72503, 40.54598],
          [-114.69643, 40.54916],
          [-114.66783, 40.55234],
          [-114.66539, 40.55483],
          [-114.6434, 40.57725],
          [-114.61479, 40.58041],
          [-114.58618, 40.58358],
          [-114.55756, 40.58674],
          [-114.55512, 40.58923],
          [-114.5331, 40.61162],
          [-114.50447, 40.61477],
          [-114.47585, 40.61792],
          [-114.4734, 40.62041],
          [-114.45135, 40.64279],
          [-114.42272, 40.64593],
          [-114.39408, 40.64906],
          [-114.39163, 40.65154],
          [-114.36956, 40.67391],
          [-114.34091, 40.67703],
          [-114.33846, 40.67952],
          [-114.31638, 40.70188],
          [-114.28772, 40.70499],
          [-114.28526, 40.70748],
          [-114.26316, 40.72983],
          [-114.23449, 40.73293],
          [-114.20583, 40.73603],
          [-114.20337, 40.73851],
          [-114.18124, 40.76085],
          [-114.15256, 40.76394],
          [-114.12389, 40.76703],
          [-114.09441, 40.75025],
          [-114.09114, 40.74839],
          [-114.06246, 40.75146],
          [-114.03379, 40.75454],
          [-114.00511, 40.7576],
          [-113.97643, 40.76067],
          [-113.94774, 40.76373],
          [-113.91906, 40.76678],
          [-113.89037, 40.76983],
          [-113.86168, 40.77287],
          [-113.83225, 40.75605],
          [-113.82898, 40.75419],
          [-113.8003, 40.75722],
          [-113.77161, 40.76025],
          [-113.74292, 40.76328],
          [-113.71423, 40.7663],
          [-113.68554, 40.76931],
          [-113.65685, 40.77233],
          [-113.62815, 40.77533],
          [-113.62568, 40.77781],
          [-113.60342, 40.80007],
          [-113.57471, 40.80306],
          [-113.546, 40.80606],
          [-113.5173, 40.80905],
          [-113.48859, 40.81203],
          [-113.45987, 40.81501],
          [-113.4574, 40.81748],
          [-113.43509, 40.83971],
          [-113.40637, 40.84268],
          [-113.40389, 40.84515],
          [-113.38156, 40.86738],
          [-113.35283, 40.87034],
          [-113.3241, 40.8733],
          [-113.32162, 40.87576],
          [-113.29927, 40.89797],
          [-113.27053, 40.90092],
          [-113.26805, 40.90339],
          [-113.24568, 40.92559],
          [-113.21693, 40.92853],
          [-113.18818, 40.93146],
          [-113.15942, 40.93439],
          [-113.13067, 40.93732],
          [-113.10191, 40.94024],
          [-113.07315, 40.94315],
          [-113.04439, 40.94606],
          [-113.0419, 40.94853],
          [-113.01948, 40.97069],
          [-112.99071, 40.97359],
          [-112.98821, 40.97606],
          [-112.96577, 40.99821],
          [-112.93699, 41.0011],
          [-112.90821, 41.00399],
          [-112.90571, 41.00645],
          [-112.88325, 41.0286],
          [-112.85446, 41.03147],
          [-112.82567, 41.03435],
          [-112.79687, 41.03722],
          [-112.79437, 41.03968],
          [-112.77188, 41.0618],
          [-112.74307, 41.06466],
          [-112.71427, 41.06752],
          [-112.68546, 41.07037],
          [-112.65666, 41.07322],
          [-112.65415, 41.07567],
          [-112.63162, 41.09778],
          [-112.6028, 41.10061],
          [-112.57398, 41.10345],
          [-112.54516, 41.10627],
          [-112.51634, 41.1091],
          [-112.48752, 41.11192],
          [-112.48501, 41.11437],
          [-112.46243, 41.13645],
          [-112.4336, 41.13926],
          [-112.40476, 41.14206],
          [-112.37593, 41.14486],
          [-112.34709, 41.14766],
          [-112.31825, 41.15045],
          [-112.31574, 41.1529],
          [-112.29311, 41.17495],
          [-112.26427, 41.17773],
          [-112.23542, 41.18051],
          [-112.2329, 41.18296],
          [-112.21025, 41.205],
          [-112.18139, 41.20777],
          [-112.17887, 41.21021],
          [-112.1562, 41.23224],
          [-112.12734, 41.235],
          [-112.12482, 41.23745],
          [-112.10213, 41.25946],
          [-112.09961, 41.26191],
          [-112.07691, 41.28392],
          [-112.04802, 41.28667],
          [-112.0455, 41.28911],
          [-112.02279, 41.31111],
          [-112, 41.31327]
        ]
      }
    },
    {
      "type": "Feature",
      "id": "2026091512_f210_12000_001",
      "properties": {
        "product_id": "winter_storm_levels",
        "source_id": "nbm_snow_level",
        "parameter": "snow_level",
        "definition": "height of the wet-bulb 0.5 degree C surface",
        "level_ft_msl": 12000,
        "label": "12,000 ft MSL",
        "unit": "ft_msl",
        "cycle_time_utc": "2026-09-15T12:00:00Z",
        "valid_time_utc": "2026-09-24T06:00:00Z",
        "lead_hours": 210,
        "segment": 1,
        "length_m": 1132081.9
      },
      "geometry": {
        "type": "LineString",
        "coordinates": [
          [-112.41119, 30.02313],
          [-112.41261, 30.03268],
          [-112.41598, 30.05524],
          [-112.41935, 30.0778],
          [-112.42272, 30.10036],
          [-112.42609, 30.12292],
          [-112.42946, 30.14548],
          [-112.41128, 30.16586],
          [-112.40674, 30.17095],
          [-112.41011, 30.19351],
          [-112.41348, 30.21607],
          [-112.41685, 30.23862],
          [-112.39866, 30.259],
          [-112.39411, 30.26409],
          [-112.39748, 30.28664],
          [-112.40085, 30.3092],
          [-112.40675, 30.31312],
          [-112.43035, 30.32883],
          [-112.43373, 30.35139],
          [-112.43711, 30.37394],
          [-112.44049, 30.39649],
          [-112.44387, 30.41903],
          [-112.44726, 30.44158],
          [-112.45064, 30.46413],
          [-112.45655, 30.46805],
          [-112.48019, 30.48375],
          [-112.48358, 30.5063],
          [-112.48698, 30.52884],
          [-112.49289, 30.53276],
          [-112.51655, 30.54845],
          [-112.52246, 30.55238],
          [-112.54613, 30.56806],
          [-112.54953, 30.5906],
          [-112.55545, 30.59452],
          [-112.57913, 30.61021],
          [-112.58254, 30.63274],
          [-112.58596, 30.65528],
          [-112.59188, 30.6592],
          [-112.61558, 30.67487],
          [-112.6215, 30.67879],
          [-112.64521, 30.69446],
          [-112.65114, 30.69837],
          [-112.67485, 30.71404],
          [-112.68078, 30.71795],
          [-112.7045, 30.73361],
          [-112.70794, 30.75614],
          [-112.71387, 30.76005],
          [-112.7376, 30.77571],
          [-112.74105, 30.79823],
          [-112.74451, 30.82076],
          [-112.74796, 30.84328],
          [-112.7539, 30.8472],
          [-112.77765, 30.86284],
          [-112.78112, 30.88536],
          [-112.78458, 30.90788],
          [-112.78804, 30.9304],
          [-112.79151, 30.95292],
          [-112.79745, 30.95683],
          [-112.82124, 30.97247],
          [-112.82471, 30.99498],
          [-112.82818, 31.0175],
          [-112.83166, 31.04001],
          [-112.83514, 31.06253],
          [-112.83861, 31.08504],
          [-112.84209, 31.10755],
          [-112.84557, 31.13006],
          [-112.84906, 31.15257],
          [-112.85254, 31.17508],
          [-112.85602, 31.19759],
          [-112.85951, 31.2201],
          [-112.863, 31.2426],
          [-112.86649, 31.2651],
          [-112.86998, 31.28761],
          [-112.87347, 31.31011],
          [-112.87696, 31.33261],
          [-112.88046, 31.35511],
          [-112.88395, 31.37761],
          [-112.88745, 31.40011],
          [-112.89095, 31.4226],
          [-112.89445, 31.4451],
          [-112.89795, 31.46759],
          [-112.90145, 31.49009],
          [-112.90496, 31.51258],
          [-112.90846, 31.53507],
          [-112.91197, 31.55756],
          [-112.91548, 31.58005],
          [-112.91899, 31.60254],
          [-112.9225, 31.62502],
          [-112.92601, 31.64751],
          [-112.90769, 31.66789],
          [-112.9031, 31.67298],
          [-112.90661, 31.69547],
          [-112.91013, 31.71795],
          [-112.91364, 31.74043],
          [-112.91715, 31.76291],
          [-112.92067, 31.78539],
          [-112.92418, 31.80787],
          [-112.90584, 31.82824],
          [-112.90125, 31.83333],
          [-112.90476, 31.85581],
          [-112.90828, 31.87828],
          [-112.88991, 31.89865],
          [-112.88532, 31.90374],
          [-112.88884, 31.92621],
          [-112.89235, 31.94869],
          [-112.87397, 31.96905],
          [-112.86938, 31.97414],
          [-112.87289, 31.99661],
          [-112.87641, 32.01908],
          [-112.85801, 32.03943],
          [-112.85342, 32.04452],
          [-112.85693, 32.06699],
          [-112.86044, 32.08945],
          [-112.86395, 32.11192],
          [-112.84555, 32.13227],
          [-112.84094, 32.13736],
          [-112.84445, 32.15982],
          [-112.84797, 32.18228],
          [-112.85148, 32.20474],
          [-112.855, 32.2272],
          [-112.83657, 32.24754],
          [-112.83196, 32.25263],
          [-112.83548, 32.27509],
          [-112.83899, 32.29754],
          [-112.84251, 32.32],
          [-112.84603, 32.34245],
          [-112.84954, 32.3649],
          [-112.85306, 32.38735],
          [-112.85659, 32.4098],
          [-112.86011, 32.43225],
          [-112.86363, 32.45469],
          [-112.86716, 32.47714],
          [-112.87069, 32.49958],
          [-112.87422, 32.52203],
          [-112.87775, 32.54447],
          [-112.85927, 32.5648],
          [-112.85465, 32.56988],
          [-112.85818, 32.59232],
          [-112.86171, 32.61476],
          [-112.86524, 32.6372],
          [-112.86877, 32.65963],
          [-112.87231, 32.68207],
          [-112.87584, 32.7045],
          [-112.85734, 32.72482],
          [-112.85271, 32.7299],
          [-112.85624, 32.75233],
          [-112.85978, 32.77476],
          [-112.84126, 32.79508],
          [-112.83663, 32.80016],
          [-112.84016, 32.82259],
          [-112.8437, 32.84502],
          [-112.84723, 32.86744],
          [-112.8287, 32.88775],
          [-112.82406, 32.89283],
          [-112.8276, 32.91525],
          [-112.83113, 32.93767],
          [-112.83466, 32.96009],
          [-112.8382, 32.98251],
          [-112.84174, 33.00493],
          [-112.84528, 33.02734],
          [-112.84882, 33.04976],
          [-112.85236, 33.07217],
          [-112.8559, 33.09458],
          [-112.85945, 33.11699],
          [-112.86299, 33.1394],
          [-112.86654, 33.16181],
          [-112.87009, 33.18421],
          [-112.87615, 33.1881],
          [-112.8897, 33.20484],
          [-112.90397, 33.22605],
          [-112.90753, 33.24845],
          [-112.91109, 33.27085],
          [-112.91733, 33.29295],
          [-112.92072, 33.29713],
          [-112.94501, 33.31267],
          [-112.94858, 33.33506],
          [-112.95465, 33.33894],
          [-112.97896, 33.35447],
          [-112.98254, 33.37686],
          [-112.98861, 33.38074],
          [-113.01293, 33.39626],
          [-113.01652, 33.41865],
          [-113.0201, 33.44104],
          [-113.02619, 33.44492],
          [-113.05052, 33.46043],
          [-113.05412, 33.48281],
          [-113.06021, 33.48669],
          [-113.08456, 33.5022],
          [-113.09064, 33.50607],
          [-113.115, 33.52157],
          [-113.11861, 33.54395],
          [-113.12471, 33.54782],
          [-113.14908, 33.56332],
          [-113.1527, 33.58569],
          [-113.15879, 33.58956],
          [-113.18318, 33.60505],
          [-113.1868, 33.62742],
          [-113.19043, 33.64979],
          [-113.19653, 33.65366],
          [-113.22093, 33.66914],
          [-113.22457, 33.69151],
          [-113.23067, 33.69538],
          [-113.25509, 33.71085],
          [-113.25874, 33.73321],
          [-113.26484, 33.73708],
          [-113.28928, 33.75254],
          [-113.29293, 33.7749],
          [-113.29658, 33.79726],
          [-113.30269, 33.80113],
          [-113.32714, 33.81658],
          [-113.3308, 33.83894],
          [-113.33447, 33.86129],
          [-113.33813, 33.88364],
          [-113.31952, 33.90396],
          [-113.31486, 33.90904],
          [-113.31853, 33.93139],
          [-113.32219, 33.95374],
          [-113.32585, 33.97608],
          [-113.32952, 33.99843],
          [-113.33319, 34.02077],
          [-113.33685, 34.04312],
          [-113.31822, 34.06342],
          [-113.31355, 34.0685],
          [-113.31722, 34.09084],
          [-113.32089, 34.11318],
          [-113.32456, 34.13551],
          [-113.3059, 34.15581],
          [-113.30124, 34.16088],
          [-113.3049, 34.18322],
          [-113.30857, 34.20555],
          [-113.2899, 34.22584],
          [-113.28523, 34.23092],
          [-113.2889, 34.25325],
          [-113.29257, 34.27557],
          [-113.27388, 34.29586],
          [-113.26921, 34.30093],
          [-113.27287, 34.32326],
          [-113.27654, 34.34558],
          [-113.25784, 34.36586],
          [-113.25316, 34.37093],
          [-113.25683, 34.39325],
          [-113.23812, 34.41353],
          [-113.23344, 34.41859],
          [-113.2371, 34.44091],
          [-113.24076, 34.46323],
          [-113.24443, 34.48555],
          [-113.24809, 34.50786],
          [-113.25424, 34.51172],
          [-113.27884, 34.52715],
          [-113.28252, 34.54946],
          [-113.28619, 34.57177],
          [-113.29235, 34.57562],
          [-113.31697, 34.59105],
          [-113.32065, 34.61335],
          [-113.32434, 34.63565],
          [-113.32802, 34.65796],
          [-113.33171, 34.68026],
          [-113.33787, 34.68411],
          [-113.36252, 34.69952],
          [-113.36622, 34.72182],
          [-113.34747, 34.74208],
          [-113.34279, 34.74715],
          [-113.34648, 34.76944],
          [-113.32772, 34.7897],
          [-113.32303, 34.79477],
          [-113.30426, 34.81502],
          [-113.29957, 34.82009],
          [-113.30326, 34.84238],
          [-113.28448, 34.86263],
          [-113.27979, 34.86769],
          [-113.28347, 34.88998],
          [-113.28716, 34.91226],
          [-113.29085, 34.93455],
          [-113.29454, 34.95683],
          [-113.29823, 34.97911],
          [-113.30192, 35.00139],
          [-113.30562, 35.02367],
          [-113.30931, 35.04594],
          [-113.31549, 35.04979],
          [-113.34022, 35.06518],
          [-113.34393, 35.08746],
          [-113.35011, 35.0913],
          [-113.37485, 35.10669],
          [-113.38104, 35.11054],
          [-113.40579, 35.12592],
          [-113.41198, 35.12976],
          [-113.43674, 35.14514],
          [-113.44293, 35.14898],
          [-113.4677, 35.16435],
          [-113.47143, 35.18662],
          [-113.47517, 35.20888],
          [-113.48136, 35.21272],
          [-113.50615, 35.22808],
          [-113.50989, 35.25033],
          [-113.51609, 35.25417],
          [-113.5409, 35.26953],
          [-113.54465, 35.29178],
          [-113.55085, 35.29562],
          [-113.57567, 35.31097],
          [-113.57943, 35.33321],
          [-113.58319, 35.35546],
          [-113.5894, 35.3593],
          [-113.61423, 35.37463],
          [-113.618, 35.39688],
          [-113.62421, 35.40071],
          [-113.64906, 35.41604],
          [-113.65528, 35.41987],
          [-113.68257, 35.41679],
          [-113.70743, 35.43211],
          [-113.71364, 35.43594],
          [-113.74093, 35.43285],
          [-113.76581, 35.44816],
          [-113.77203, 35.45199],
          [-113.79691, 35.4673],
          [-113.80072, 35.48953],
          [-113.80453, 35.51176],
          [-113.80834, 35.53398],
          [-113.81216, 35.55621],
          [-113.81597, 35.57844],
          [-113.81979, 35.60066],
          [-113.82361, 35.62288],
          [-113.82743, 35.6451],
          [-113.83125, 35.66731],
          [-113.83508, 35.68953],
          [-113.8389, 35.71174],
          [-113.84273, 35.73396],
          [-113.84656, 35.75617],
          [-113.82772, 35.77642],
          [-113.82301, 35.78148],
          [-113.82684, 35.80369],
          [-113.80799, 35.82393],
          [-113.78061, 35.82703],
          [-113.77589, 35.83209],
          [-113.75703, 35.85233],
          [-113.75232, 35.85739],
          [-113.73345, 35.87762],
          [-113.70605, 35.88071],
          [-113.67864, 35.88379],
          [-113.65124, 35.88686],
          [-113.62628, 35.87156],
          [-113.62004, 35.86773],
          [-113.59264, 35.8708],
          [-113.5677, 35.85548],
          [-113.56146, 35.85165],
          [-113.53406, 35.85471],
          [-113.50666, 35.85776],
          [-113.47926, 35.86081],
          [-113.45433, 35.84548],
          [-113.4481, 35.84164],
          [-113.4207, 35.84468],
          [-113.41597, 35.84973],
          [-113.39704, 35.86993],
          [-113.3923, 35.87498],
          [-113.37337, 35.89517],
          [-113.34595, 35.8982],
          [-113.31853, 35.90122],
          [-113.31379, 35.90626],
          [-113.29484, 35.92644],
          [-113.26741, 35.92946],
          [-113.26267, 35.9345],
          [-113.24369, 35.95467],
          [-113.21626, 35.95768],
          [-113.21151, 35.96272],
          [-113.19253, 35.98288],
          [-113.18778, 35.98793],
          [-113.16878, 36.00809],
          [-113.14133, 36.01108],
          [-113.13658, 36.01612],
          [-113.11757, 36.03627],
          [-113.11282, 36.04131],
          [-113.0938, 36.06145],
          [-113.08905, 36.06649],
          [-113.07002, 36.08663],
          [-113.06526, 36.09167],
          [-113.06894, 36.11387],
          [-113.04991, 36.13401],
          [-113.04514, 36.13904],
          [-113.04883, 36.16124],
          [-113.02977, 36.18137],
          [-113.02501, 36.1864],
          [-113.02869, 36.20859],
          [-113.03237, 36.23079],
          [-113.03605, 36.25297],
          [-113.01698, 36.2731],
          [-113.01221, 36.27813],
          [-113.01589, 36.30031],
          [-112.99681, 36.32043],
          [-112.99204, 36.32546],
          [-112.97295, 36.34558],
          [-112.96817, 36.3506],
          [-112.94908, 36.37071],
          [-112.9443, 36.37574],
          [-112.92519, 36.39584],
          [-112.89764, 36.39879],
          [-112.87008, 36.40173],
          [-112.84253, 36.40467],
          [-112.81497, 36.40761],
          [-112.78741, 36.41054],
          [-112.76245, 36.39513],
          [-112.75621, 36.39128],
          [-112.75143, 36.3963],
          [-112.73228, 36.41638],
          [-112.70472, 36.4193],
          [-112.67715, 36.42221],
          [-112.64958, 36.42511],
          [-112.64479, 36.43013],
          [-112.62562, 36.4502],
          [-112.62083, 36.45521],
          [-112.62443, 36.47739],
          [-112.62804, 36.49957],
          [-112.63165, 36.52175],
          [-112.63526, 36.54392],
          [-112.63887, 36.56609],
          [-112.64248, 36.58826],
          [-112.64609, 36.61043],
          [-112.64971, 36.63259],
          [-112.6305, 36.65265],
          [-112.6257, 36.65766],
          [-112.60648, 36.67771],
          [-112.60168, 36.68272],
          [-112.58245, 36.70276],
          [-112.55481, 36.70565],
          [-112.52717, 36.70853],
          [-112.49952, 36.71141],
          [-112.47454, 36.69598],
          [-112.4683, 36.69212],
          [-112.44332, 36.67669],
          [-112.43708, 36.67283],
          [-112.40944, 36.67569],
          [-112.3818, 36.67855],
          [-112.37699, 36.68355],
          [-112.35772, 36.70357],
          [-112.3529, 36.70858],
          [-112.33363, 36.72859],
          [-112.30598, 36.73143],
          [-112.30115, 36.73644],
          [-112.28186, 36.75644],
          [-112.27704, 36.76144],
          [-112.28059, 36.7836],
          [-112.26128, 36.8036],
          [-112.25646, 36.8086],
          [-112.26, 36.83076],
          [-112.24069, 36.85075],
          [-112.23586, 36.85575],
          [-112.2394, 36.8779],
          [-112.22007, 36.89789],
          [-112.21524, 36.90288],
          [-112.21877, 36.92503],
          [-112.19944, 36.94501],
          [-112.1946, 36.95001],
          [-112.17525, 36.96998],
          [-112.17041, 36.97498],
          [-112.17395, 36.99712],
          [-112.15459, 37.01709],
          [-112.14974, 37.02208],
          [-112.15327, 37.04422],
          [-112.1339, 37.06419],
          [-112.12906, 37.06918],
          [-112.13258, 37.09132],
          [-112.1132, 37.11127],
          [-112.10835, 37.11626],
          [-112.08896, 37.13621],
          [-112.08411, 37.1412],
          [-112.08763, 37.16333],
          [-112.09115, 37.18546],
          [-112.09467, 37.20759],
          [-112.09819, 37.22972],
          [-112.10445, 37.23358],
          [-112.12951, 37.24904],
          [-112.13304, 37.27116],
          [-112.13657, 37.29328],
          [-112.14284, 37.29714],
          [-112.16791, 37.31258],
          [-112.17418, 37.31644],
          [-112.19927, 37.33188],
          [-112.20554, 37.33574],
          [-112.23063, 37.35117],
          [-112.23418, 37.37328],
          [-112.23774, 37.39539],
          [-112.2413, 37.41749],
          [-112.24486, 37.4396],
          [-112.25114, 37.44345],
          [-112.27626, 37.45887],
          [-112.27983, 37.48097],
          [-112.2834, 37.50307],
          [-112.28697, 37.52517],
          [-112.29054, 37.54726],
          [-112.29412, 37.56935],
          [-112.29769, 37.59144],
          [-112.27825, 37.61138],
          [-112.27339, 37.61636],
          [-112.27696, 37.63845],
          [-112.28053, 37.66053],
          [-112.28411, 37.68261],
          [-112.26465, 37.70254],
          [-112.25978, 37.70752],
          [-112.26335, 37.7296],
          [-112.24388, 37.74952],
          [-112.23901, 37.7545],
          [-112.24258, 37.77657],
          [-112.24615, 37.79864],
          [-112.22666, 37.81855],
          [-112.22179, 37.82353],
          [-112.22535, 37.8456],
          [-112.22893, 37.86767],
          [-112.20942, 37.88757],
          [-112.20454, 37.89255],
          [-112.20811, 37.91461],
          [-112.21168, 37.93667],
          [-112.19216, 37.95656],
          [-112.18727, 37.96154],
          [-112.16774, 37.98143],
          [-112.16286, 37.9864],
          [-112.14332, 38.00629],
          [-112.13843, 38.01126],
          [-112.14199, 38.03331],
          [-112.12244, 38.05319],
          [-112.11755, 38.05816],
          [-112.09798, 38.07804],
          [-112.09309, 38.08301],
          [-112.07352, 38.10288],
          [-112.06863, 38.10785],
          [-112.04905, 38.12771],
          [-112.04415, 38.13268],
          [-112.02456, 38.15254],
          [-112.01966, 38.15751],
          [-112.00006, 38.17736],
          [-112, 38.17743]
        ]
      }
    }
  ]
}

