{
  "type": "FeatureCollection",
  "contract_version": "1.0.0",
  "bbox": [-130, 30.25511, -112, 44.5],
  "features": [
    {
      "type": "Feature",
      "id": "2026101018_f120_08000_001",
      "properties": {
        "product_id": "winter_storm_levels",
        "source_id": "nbm_snow_level",
        "parameter": "snow_level",
        "definition": "height of the wet-bulb 0.5 degree C surface",
        "level_ft_msl": 8000,
        "label": "8,000 ft MSL",
        "unit": "ft_msl",
        "cycle_time_utc": "2026-10-10T18:00:00Z",
        "valid_time_utc": "2026-10-15T18:00:00Z",
        "lead_hours": 120,
        "segment": 1,
        "length_m": 80037.6
      },
      "geometry": {
        "type": "LineString",
        "coordinates": [
          [-112.68417, 43.79047],
          [-112.68029, 43.7691],
          [-112.65769, 43.75656],
          [-112.64682, 43.75052],
          [-112.62423, 43.73798],
          [-112.59465, 43.74078],
          [-112.56506, 43.74356],
          [-112.53547, 43.74635],
          [-112.50588, 43.74912],
          [-112.47628, 43.7519],
          [-112.45889, 43.7682],
          [-112.45052, 43.77604],
          [-112.43312, 43.79234],
          [-112.42474, 43.80018],
          [-112.40733, 43.81647],
          [-112.39895, 43.82431],
          [-112.38153, 43.84059],
          [-112.38535, 43.86196],
          [-112.38918, 43.88332],
          [-112.393, 43.90468],
          [-112.39682, 43.92604],
          [-112.40065, 43.94739],
          [-112.42325, 43.95994],
          [-112.45291, 43.95718],
          [-112.4638, 43.96322],
          [-112.48642, 43.97576],
          [-112.50384, 43.95948],
          [-112.51222, 43.95164],
          [-112.52964, 43.93536],
          [-112.53802, 43.92752],
          [-112.55542, 43.91123],
          [-112.5638, 43.90338],
          [-112.5812, 43.88709],
          [-112.58957, 43.87924],
          [-112.6192, 43.87645],
          [-112.63658, 43.86015],
          [-112.63271, 43.83879],
          [-112.64107, 43.83094],
          [-112.65845, 43.81463],
          [-112.66681, 43.80678],
          [-112.68417, 43.79047]
        ]
      }
    },
    {
      "type": "Feature",
      "id": "2026101018_f120_08000_002",
      "properties": {
        "product_id": "winter_storm_levels",
        "source_id": "nbm_snow_level",
        "parameter": "snow_level",
        "definition": "height of the wet-bulb 0.5 degree C surface",
        "level_ft_msl": 8000,
        "label": "8,000 ft MSL",
        "unit": "ft_msl",
        "cycle_time_utc": "2026-10-10T18:00:00Z",
        "valid_time_utc": "2026-10-15T18:00:00Z",
        "lead_hours": 120,
        "segment": 2,
        "length_m": 153242.4
      },
      "geometry": {
        "type": "LineString",
        "coordinates": [
          [-114.53888, 42.81836],
          [-114.53464, 42.7969],
          [-114.5304, 42.77544],
          [-114.52615, 42.75397],
          [-114.50356, 42.74158],
          [-114.49268, 42.73561],
          [-114.4701, 42.72322],
          [-114.44087, 42.72632],
          [-114.41164, 42.72942],
          [-114.40077, 42.72345],
          [-114.3782, 42.71104],
          [-114.34897, 42.71413],
          [-114.31974, 42.71721],
          [-114.2905, 42.72029],
          [-114.26127, 42.72336],
          [-114.23203, 42.72643],
          [-114.2028, 42.7295],
          [-114.17356, 42.73256],
          [-114.14431, 42.73561],
          [-114.12738, 42.75217],
          [-114.11922, 42.76014],
          [-114.08997, 42.76319],
          [-114.06072, 42.76623],
          [-114.04376, 42.78278],
          [-114.0356, 42.79074],
          [-114.00634, 42.79377],
          [-113.97707, 42.7968],
          [-113.9478, 42.79983],
          [-113.91854, 42.80284],
          [-113.90155, 42.81937],
          [-113.89337, 42.82733],
          [-113.86409, 42.83034],
          [-113.83481, 42.83335],
          [-113.81781, 42.84987],
          [-113.80962, 42.85782],
          [-113.79261, 42.87433],
          [-113.7967, 42.8958],
          [-113.80079, 42.91726],
          [-113.80488, 42.93872],
          [-113.82743, 42.95118],
          [-113.83829, 42.95718],
          [-113.86085, 42.96964],
          [-113.87171, 42.97563],
          [-113.89428, 42.98808],
          [-113.90515, 42.99408],
          [-113.92772, 43.00652],
          [-113.95705, 43.00351],
          [-113.98638, 43.00048],
          [-114.0157, 42.99746],
          [-114.04503, 42.99443],
          [-114.07435, 42.99139],
          [-114.10367, 42.98835],
          [-114.13298, 42.98531],
          [-114.14996, 42.96877],
          [-114.15813, 42.96081],
          [-114.18744, 42.95776],
          [-114.21674, 42.9547],
          [-114.24605, 42.95164],
          [-114.27535, 42.94857],
          [-114.30465, 42.9455],
          [-114.32159, 42.92894],
          [-114.32974, 42.92097],
          [-114.35903, 42.91789],
          [-114.38832, 42.9148],
          [-114.41761, 42.91171],
          [-114.43452, 42.89515],
          [-114.44266, 42.88717],
          [-114.47194, 42.88407],
          [-114.48884, 42.86749],
          [-114.49698, 42.85951],
          [-114.51387, 42.84293],
          [-114.522, 42.83495],
          [-114.53888, 42.81836]
        ]
      }
    },
    {
      "type": "Feature",
      "id": "2026101018_f120_09000_001",
      "properties": {
        "product_id": "winter_storm_levels",
        "source_id": "nbm_snow_level",
        "parameter": "snow_level",
        "definition": "height of the wet-bulb 0.5 degree C surface",
        "level_ft_msl": 9000,
        "label": "9,000 ft MSL",
        "unit": "ft_msl",
        "cycle_time_utc": "2026-10-10T18:00:00Z",
        "valid_time_utc": "2026-10-15T18:00:00Z",
        "lead_hours": 120,
        "segment": 1,
        "length_m": 2474614.2
      },
      "geometry": {
        "type": "LineString",
        "coordinates": [
          [-124.32738, 44.5],
          [-124.31696, 44.49081],
          [-124.30058, 44.47635],
          [-124.29583, 44.47216],
          [-124.2747, 44.4535],
          [-124.25834, 44.43904],
          [-124.25359, 44.43484],
          [-124.23248, 44.41617],
          [-124.21862, 44.40983],
          [-124.19671, 44.39979],
          [-124.18036, 44.38532],
          [-124.17232, 44.38163],
          [-124.14709, 44.37706],
          [-124.1252, 44.36702],
          [-124.10887, 44.35253],
          [-124.10083, 44.34884],
          [-124.07314, 44.33612],
          [-124.0684, 44.33192],
          [-124.03671, 44.31735],
          [-124.03269, 44.3155],
          [-124.01165, 44.29679],
          [-123.99782, 44.29043],
          [-123.97596, 44.28036],
          [-123.95967, 44.26586],
          [-123.95164, 44.26216],
          [-123.924, 44.24941],
          [-123.91927, 44.2452],
          [-123.88762, 44.2306],
          [-123.88361, 44.22875],
          [-123.85198, 44.21413],
          [-123.84797, 44.21228],
          [-123.81634, 44.19766],
          [-123.81233, 44.19581],
          [-123.78072, 44.18118],
          [-123.77671, 44.17933],
          [-123.75575, 44.16058],
          [-123.74196, 44.15419],
          [-123.72015, 44.14408],
          [-123.70636, 44.13769],
          [-123.68457, 44.12758],
          [-123.66835, 44.11304],
          [-123.66034, 44.10932],
          [-123.63278, 44.09652],
          [-123.62478, 44.0928],
          [-123.59722, 44.07999],
          [-123.58923, 44.07627],
          [-123.56168, 44.06346],
          [-123.55369, 44.05974],
          [-123.52615, 44.04692],
          [-123.51816, 44.04319],
          [-123.49064, 44.03037],
          [-123.48594, 44.02614],
          [-123.46507, 44.00733],
          [-123.45131, 44.00092],
          [-123.42957, 43.99077],
          [-123.41582, 43.98435],
          [-123.39409, 43.97419],
          [-123.38035, 43.96777],
          [-123.35862, 43.95761],
          [-123.34488, 43.95118],
          [-123.31253, 43.94512],
          [-123.30525, 43.94375],
          [-123.27778, 43.93088],
          [-123.26981, 43.92715],
          [-123.24474, 43.92244],
          [-123.2131, 43.91873],
          [-123.18385, 43.92317],
          [-123.15391, 43.92524],
          [-123.14663, 43.92387],
          [-123.12157, 43.91915],
          [-123.08994, 43.91541],
          [-123.06068, 43.91984],
          [-123.03143, 43.92426],
          [-123.00217, 43.92868],
          [-122.97222, 43.93072],
          [-122.94295, 43.93513],
          [-122.91369, 43.93954],
          [-122.8851, 43.94631],
          [-122.85583, 43.9507],
          [-122.82656, 43.95509],
          [-122.79728, 43.95948],
          [-122.768, 43.96386],
          [-122.75002, 43.98358],
          [-122.74479, 43.98931],
          [-122.7155, 43.99368],
          [-122.6975, 44.01339],
          [-122.69228, 44.01912],
          [-122.67427, 44.03883],
          [-122.66904, 44.04455],
          [-122.65102, 44.06426],
          [-122.64579, 44.06998],
          [-122.62776, 44.08967],
          [-122.62253, 44.09539],
          [-122.60449, 44.11509],
          [-122.59925, 44.1208],
          [-122.56991, 44.12515],
          [-122.55186, 44.14483],
          [-122.54662, 44.15055],
          [-122.52856, 44.17023],
          [-122.52331, 44.17594],
          [-122.50524, 44.19562],
          [-122.49999, 44.20133],
          [-122.48191, 44.22099],
          [-122.47666, 44.2267],
          [-122.44728, 44.23103],
          [-122.41791, 44.23535],
          [-122.3998, 44.255],
          [-122.39454, 44.26071],
          [-122.36516, 44.26502],
          [-122.33576, 44.26932],
          [-122.30637, 44.27362],
          [-122.29841, 44.26985],
          [-122.27098, 44.25687],
          [-122.24158, 44.26116],
          [-122.21219, 44.26544],
          [-122.18279, 44.26972],
          [-122.15339, 44.274],
          [-122.12398, 44.27827],
          [-122.09458, 44.28254],
          [-122.06517, 44.2868],
          [-122.03576, 44.29106],
          [-122.00634, 44.29531],
          [-121.99839, 44.29153],
          [-121.971, 44.2785],
          [-121.94158, 44.28274],
          [-121.93363, 44.27896],
          [-121.90625, 44.26592],
          [-121.87684, 44.27016],
          [-121.86889, 44.26637],
          [-121.84152, 44.25332],
          [-121.83358, 44.24953],
          [-121.80622, 44.23648],
          [-121.77681, 44.2407],
          [-121.76887, 44.2369],
          [-121.74152, 44.22384],
          [-121.73359, 44.22005],
          [-121.70625, 44.20697],
          [-121.69831, 44.20318],
          [-121.69245, 44.1821],
          [-121.66513, 44.16902],
          [-121.6572, 44.16522],
          [-121.65134, 44.14414],
          [-121.62404, 44.13105],
          [-121.61611, 44.12724],
          [-121.61027, 44.10615],
          [-121.60443, 44.08506],
          [-121.57715, 44.07196],
          [-121.56923, 44.06815],
          [-121.5634, 44.04705],
          [-121.53613, 44.03394],
          [-121.52822, 44.03013],
          [-121.5224, 44.00902],
          [-121.51659, 43.98791],
          [-121.48934, 43.97479],
          [-121.48143, 43.97098],
          [-121.47563, 43.94986],
          [-121.46983, 43.92874],
          [-121.46403, 43.90762],
          [-121.45823, 43.88649],
          [-121.43103, 43.87335],
          [-121.40171, 43.87752],
          [-121.39382, 43.8737],
          [-121.36662, 43.86055],
          [-121.33731, 43.86471],
          [-121.30799, 43.86887],
          [-121.27867, 43.87302],
          [-121.27078, 43.8692],
          [-121.2436, 43.85603],
          [-121.21429, 43.86017],
          [-121.2064, 43.85635],
          [-121.17923, 43.84317],
          [-121.17135, 43.83934],
          [-121.16562, 43.81819],
          [-121.13847, 43.80501],
          [-121.13059, 43.80118],
          [-121.12487, 43.78002],
          [-121.11916, 43.75887],
          [-121.11344, 43.73771],
          [-121.10773, 43.71655],
          [-121.10203, 43.69539],
          [-121.09632, 43.67422],
          [-121.09062, 43.65305],
          [-121.08492, 43.63188],
          [-121.07922, 43.6107],
          [-121.07352, 43.58952],
          [-121.06783, 43.56834],
          [-121.07313, 43.56264],
          [-121.09137, 43.54303],
          [-121.08567, 43.52184],
          [-121.09097, 43.51614],
          [-121.1092, 43.49652],
          [-121.11449, 43.49082],
          [-121.1437, 43.48668],
          [-121.16191, 43.46705],
          [-121.15621, 43.44585],
          [-121.16149, 43.44015],
          [-121.1797, 43.42051],
          [-121.17399, 43.39931],
          [-121.16829, 43.3781],
          [-121.16258, 43.35689],
          [-121.15689, 43.33568],
          [-121.15119, 43.31447],
          [-121.1455, 43.29325],
          [-121.1398, 43.27203],
          [-121.11281, 43.25879],
          [-121.10497, 43.25495],
          [-121.09929, 43.23372],
          [-121.09361, 43.21249],
          [-121.06664, 43.19924],
          [-121.05881, 43.1954],
          [-121.03185, 43.18214],
          [-121.02402, 43.17829],
          [-120.99707, 43.16503],
          [-120.96795, 43.16915],
          [-120.96012, 43.16529],
          [-120.93318, 43.15202],
          [-120.92536, 43.14817],
          [-120.89843, 43.13489],
          [-120.86931, 43.13899],
          [-120.84019, 43.1431],
          [-120.83238, 43.13924],
          [-120.80546, 43.12594],
          [-120.79764, 43.12208],
          [-120.77074, 43.10878],
          [-120.74162, 43.11287],
          [-120.73381, 43.10901],
          [-120.70692, 43.0957],
          [-120.6778, 43.09977],
          [-120.67, 43.09591],
          [-120.64311, 43.08259],
          [-120.63531, 43.07872],
          [-120.60843, 43.06539],
          [-120.57932, 43.06945],
          [-120.57152, 43.06558],
          [-120.54466, 43.05224],
          [-120.53686, 43.04837],
          [-120.51001, 43.03503],
          [-120.50222, 43.03115],
          [-120.47537, 43.0178],
          [-120.46758, 43.01392],
          [-120.44075, 43.00057],
          [-120.41165, 43.0046],
          [-120.40386, 43.00072],
          [-120.39835, 42.97944],
          [-120.37153, 42.96607],
          [-120.36375, 42.96219],
          [-120.33694, 42.94881],
          [-120.32916, 42.94493],
          [-120.32366, 42.92364],
          [-120.31817, 42.90234],
          [-120.29138, 42.88896],
          [-120.28361, 42.88507],
          [-120.25683, 42.87167],
          [-120.24906, 42.86778],
          [-120.2223, 42.85438],
          [-120.21453, 42.85049],
          [-120.20906, 42.82918],
          [-120.18231, 42.81578],
          [-120.17455, 42.81188],
          [-120.14781, 42.79846],
          [-120.14004, 42.79457],
          [-120.11331, 42.78115],
          [-120.08427, 42.78514],
          [-120.05522, 42.78913],
          [-120.04746, 42.78523],
          [-120.04203, 42.76391],
          [-120.01532, 42.75047],
          [-119.98628, 42.75444],
          [-119.97853, 42.75054],
          [-119.97312, 42.72921],
          [-119.96771, 42.70788],
          [-119.94103, 42.69443],
          [-119.93328, 42.69052],
          [-119.92788, 42.66919],
          [-119.90122, 42.65572],
          [-119.89347, 42.65181],
          [-119.88809, 42.63047],
          [-119.86143, 42.617],
          [-119.8537, 42.61309],
          [-119.82705, 42.59961],
          [-119.81932, 42.59569],
          [-119.79269, 42.58221],
          [-119.78495, 42.57829],
          [-119.77959, 42.55694],
          [-119.77424, 42.53558],
          [-119.74762, 42.52208],
          [-119.7399, 42.51816],
          [-119.73455, 42.4968],
          [-119.72921, 42.47543],
          [-119.72386, 42.45406],
          [-119.71852, 42.43269],
          [-119.72384, 42.427],
          [-119.74214, 42.40737],
          [-119.74745, 42.40168],
          [-119.76574, 42.38205],
          [-119.77105, 42.37635],
          [-119.78933, 42.35672],
          [-119.79463, 42.35102],
          [-119.81291, 42.33138],
          [-119.81821, 42.32568],
          [-119.83647, 42.30603],
          [-119.84177, 42.30033],
          [-119.86003, 42.28068],
          [-119.86532, 42.27498],
          [-119.88357, 42.25532],
          [-119.88886, 42.24962],
          [-119.9071, 42.22996],
          [-119.91239, 42.22425],
          [-119.93062, 42.20458],
          [-119.92525, 42.18319],
          [-119.93054, 42.17748],
          [-119.94875, 42.15781],
          [-119.94338, 42.1364],
          [-119.93801, 42.115],
          [-119.93264, 42.09359],
          [-119.92727, 42.07218],
          [-119.92191, 42.05076],
          [-119.91655, 42.02934],
          [-119.92183, 42.02363],
          [-119.94002, 42.00394],
          [-119.93465, 41.98252],
          [-119.92929, 41.96109],
          [-119.92394, 41.93966],
          [-119.91858, 41.91823],
          [-119.92386, 41.91251],
          [-119.94202, 41.89281],
          [-119.93667, 41.87138],
          [-119.94194, 41.86566],
          [-119.96009, 41.84595],
          [-119.96536, 41.84023],
          [-119.98351, 41.82051],
          [-119.98878, 41.81479],
          [-120.00691, 41.79507],
          [-120.00155, 41.77362],
          [-120.00681, 41.7679],
          [-120.02494, 41.74817],
          [-120.0302, 41.74244],
          [-120.05894, 41.73844],
          [-120.07705, 41.7187],
          [-120.08231, 41.71297],
          [-120.10041, 41.69323],
          [-120.10566, 41.6875],
          [-120.12376, 41.66776],
          [-120.12901, 41.66202],
          [-120.14709, 41.64227],
          [-120.15234, 41.63654],
          [-120.17041, 41.61678],
          [-120.16502, 41.59532],
          [-120.15963, 41.57385],
          [-120.16487, 41.56812],
          [-120.18293, 41.54835],
          [-120.17754, 41.52688],
          [-120.17216, 41.50541],
          [-120.16677, 41.48393],
          [-120.16139, 41.46245],
          [-120.15601, 41.44097],
          [-120.15063, 41.41949],
          [-120.14525, 41.398],
          [-120.13988, 41.37651],
          [-120.13451, 41.35502],
          [-120.12914, 41.33352],
          [-120.12377, 41.31202],
          [-120.11841, 41.29052],
          [-120.11304, 41.26902],
          [-120.10768, 41.24751],
          [-120.10233, 41.226],
          [-120.07601, 41.21245],
          [-120.06837, 41.20852],
          [-120.06303, 41.187],
          [-120.05768, 41.16548],
          [-120.06291, 41.15974],
          [-120.08092, 41.13994],
          [-120.07557, 41.11841],
          [-120.07023, 41.09689],
          [-120.07545, 41.09114],
          [-120.09344, 41.07133],
          [-120.0881, 41.0498],
          [-120.09332, 41.04405],
          [-120.1113, 41.02424],
          [-120.10595, 41.0027],
          [-120.11117, 40.99695],
          [-120.12914, 40.97713],
          [-120.12379, 40.95559],
          [-120.11844, 40.93404],
          [-120.12365, 40.92829],
          [-120.14161, 40.90846],
          [-120.14682, 40.9027],
          [-120.16476, 40.88287],
          [-120.15941, 40.86132],
          [-120.16462, 40.85556],
          [-120.18255, 40.83572],
          [-120.18776, 40.82996],
          [-120.20568, 40.81011],
          [-120.21088, 40.80435],
          [-120.2288, 40.7845],
          [-120.22344, 40.76294],
          [-120.22864, 40.75717],
          [-120.24654, 40.73731],
          [-120.24118, 40.71575],
          [-120.24638, 40.70998],
          [-120.26427, 40.69012],
          [-120.26946, 40.68435],
          [-120.28734, 40.66448],
          [-120.29253, 40.65871],
          [-120.31041, 40.63884],
          [-120.3156, 40.63307],
          [-120.33346, 40.61319],
          [-120.32809, 40.59161],
          [-120.33327, 40.58584],
          [-120.35113, 40.56595],
          [-120.34575, 40.54437],
          [-120.34038, 40.52279],
          [-120.33501, 40.5012],
          [-120.32965, 40.47962],
          [-120.33483, 40.47384],
          [-120.35266, 40.45394],
          [-120.34729, 40.43235],
          [-120.32115, 40.41878],
          [-120.31356, 40.41483],
          [-120.28743, 40.40126],
          [-120.27984, 40.39731],
          [-120.25372, 40.38373],
          [-120.24613, 40.37978],
          [-120.24079, 40.35818],
          [-120.23545, 40.33657],
          [-120.20935, 40.32298],
          [-120.20177, 40.31903],
          [-120.19644, 40.29742],
          [-120.19111, 40.2758],
          [-120.16503, 40.2622],
          [-120.15746, 40.25824],
          [-120.15214, 40.23662],
          [-120.12608, 40.22301],
          [-120.11851, 40.21906],
          [-120.1132, 40.19743],
          [-120.08715, 40.18381],
          [-120.07959, 40.17985],
          [-120.05354, 40.16622],
          [-120.04598, 40.16226],
          [-120.01995, 40.14863],
          [-120.01239, 40.14467],
          [-120.00711, 40.12303],
          [-119.98109, 40.10939],
          [-119.97354, 40.10543],
          [-119.94753, 40.09178],
          [-119.93998, 40.08781],
          [-119.93471, 40.06617],
          [-119.92945, 40.04452],
          [-119.92419, 40.02287],
          [-119.92937, 40.01709],
          [-119.94721, 39.99719],
          [-119.95238, 39.99141],
          [-119.97021, 39.9715],
          [-119.96494, 39.94984],
          [-119.95968, 39.92818],
          [-119.96485, 39.9224],
          [-119.98266, 39.90248],
          [-119.9774, 39.88082],
          [-119.97214, 39.85915],
          [-119.96688, 39.83748],
          [-119.96163, 39.81581],
          [-119.95637, 39.79413],
          [-119.96154, 39.78835],
          [-119.97933, 39.76842],
          [-119.97407, 39.74674],
          [-119.96882, 39.72506],
          [-119.96357, 39.70337],
          [-119.95832, 39.68169],
          [-119.95307, 39.66],
          [-119.94783, 39.63831],
          [-119.94259, 39.61661],
          [-119.93735, 39.59491],
          [-119.93211, 39.57322],
          [-119.90624, 39.55952],
          [-119.89873, 39.55555],
          [-119.8935, 39.53384],
          [-119.88827, 39.51214],
          [-119.88305, 39.49043],
          [-119.87783, 39.46872],
          [-119.87261, 39.447],
          [-119.8565, 39.42685],
          [-119.85129, 39.40513],
          [-119.84608, 39.38341],
          [-119.83115, 39.36813],
          [-119.82682, 39.3637],
          [-119.82162, 39.34197],
          [-119.81325, 39.32069],
          [-119.80806, 39.29896],
          [-119.80286, 39.27723],
          [-119.79767, 39.25549],
          [-119.79248, 39.23375],
          [-119.78729, 39.21201],
          [-119.7821, 39.19027],
          [-119.77691, 39.16852],
          [-119.77173, 39.14678],
          [-119.77687, 39.14098],
          [-119.79459, 39.121],
          [-119.7894, 39.09925],
          [-119.78422, 39.0775],
          [-119.77904, 39.05574],
          [-119.77386, 39.03398],
          [-119.76869, 39.01222],
          [-119.74297, 38.99847],
          [-119.73551, 38.99447],
          [-119.73034, 38.97271],
          [-119.72518, 38.95094],
          [-119.72002, 38.92917],
          [-119.71486, 38.90739],
          [-119.7097, 38.88562],
          [-119.70455, 38.86384],
          [-119.69939, 38.84206],
          [-119.67373, 38.82828],
          [-119.66628, 38.82428],
          [-119.66114, 38.8025],
          [-119.65599, 38.78071],
          [-119.65086, 38.75892],
          [-119.64572, 38.73713],
          [-119.64058, 38.71533],
          [-119.63545, 38.69353],
          [-119.63032, 38.67173],
          [-119.62519, 38.64993],
          [-119.62007, 38.62813],
          [-119.61494, 38.60632],
          [-119.58935, 38.59252],
          [-119.58192, 38.58851],
          [-119.5768, 38.5667],
          [-119.57169, 38.54489],
          [-119.56658, 38.52307],
          [-119.54101, 38.50926],
          [-119.53359, 38.50524],
          [-119.52849, 38.48342],
          [-119.52339, 38.4616],
          [-119.51829, 38.43977],
          [-119.5132, 38.41795],
          [-119.48766, 38.40412],
          [-119.48025, 38.4001],
          [-119.47517, 38.37827],
          [-119.47008, 38.35643],
          [-119.465, 38.3346],
          [-119.44914, 38.3143],
          [-119.43442, 38.29892],
          [-119.43015, 38.29445],
          [-119.42195, 38.27305],
          [-119.41688, 38.2512],
          [-119.41182, 38.22936],
          [-119.38634, 38.2155],
          [-119.37894, 38.21148],
          [-119.37389, 38.18962],
          [-119.34843, 38.17576],
          [-119.34103, 38.17174],
          [-119.31558, 38.15787],
          [-119.30819, 38.15384],
          [-119.30315, 38.13198],
          [-119.27771, 38.11811],
          [-119.27033, 38.11408],
          [-119.2653, 38.09221],
          [-119.23987, 38.07833],
          [-119.23562, 38.07385],
          [-119.22747, 38.05242],
          [-119.2117, 38.03208],
          [-119.19705, 38.01666],
          [-119.1928, 38.01218],
          [-119.18467, 37.99074],
          [-119.16891, 37.97039],
          [-119.15428, 37.95496],
          [-119.14691, 37.95092],
          [-119.14192, 37.92904],
          [-119.12617, 37.90868],
          [-119.11156, 37.89324],
          [-119.10732, 37.88875],
          [-119.09921, 37.8673],
          [-119.09423, 37.84541],
          [-119.07851, 37.82504],
          [-119.06391, 37.80959],
          [-119.05967, 37.8051],
          [-119.05159, 37.78364],
          [-119.04662, 37.76174],
          [-119.03092, 37.74135],
          [-119.01634, 37.72589],
          [-119.00899, 37.72185],
          [-119.00404, 37.69994],
          [-118.97874, 37.68599],
          [-118.97139, 37.68194],
          [-118.96645, 37.66003],
          [-118.94116, 37.64607],
          [-118.93382, 37.64202],
          [-118.92888, 37.6201],
          [-118.90552, 37.61464],
          [-118.87594, 37.61004],
          [-118.86861, 37.60599],
          [-118.84335, 37.59202],
          [-118.83601, 37.58796],
          [-118.81076, 37.57399],
          [-118.80343, 37.56993],
          [-118.77819, 37.55594],
          [-118.77398, 37.55145],
          [-118.75525, 37.53146],
          [-118.74074, 37.51596],
          [-118.73652, 37.51146],
          [-118.71781, 37.49146],
          [-118.71292, 37.46952],
          [-118.69843, 37.45402],
          [-118.69422, 37.44952],
          [-118.68116, 37.42872],
          [-118.67065, 37.40757],
          [-118.65616, 37.39206],
          [-118.653, 37.38741],
          [-118.64709, 37.3656],
          [-118.62842, 37.34558],
          [-118.61999, 37.32413],
          [-118.60909, 37.30811],
          [-118.6049, 37.3036],
          [-118.58624, 37.28357],
          [-118.57179, 37.26805],
          [-118.56759, 37.26354],
          [-118.56275, 37.24157],
          [-118.54411, 37.22154],
          [-118.52967, 37.206],
          [-118.52548, 37.20149],
          [-118.52065, 37.17952],
          [-118.50203, 37.15947],
          [-118.4876, 37.14393],
          [-118.48342, 37.13942],
          [-118.47859, 37.11744],
          [-118.46, 37.09739],
          [-118.45518, 37.0754],
          [-118.44681, 37.05392],
          [-118.43596, 37.03787],
          [-118.43178, 37.03335],
          [-118.42697, 37.01137],
          [-118.42217, 36.98938],
          [-118.41737, 36.96738],
          [-118.3988, 36.94731],
          [-118.39401, 36.92531],
          [-118.38921, 36.90331],
          [-118.38442, 36.88131],
          [-118.37005, 36.86574],
          [-118.36588, 36.86122],
          [-118.36109, 36.83922],
          [-118.35631, 36.81721],
          [-118.35152, 36.7952],
          [-118.333, 36.77511],
          [-118.32823, 36.75309],
          [-118.31388, 36.73751],
          [-118.31075, 36.73285],
          [-118.30495, 36.71097],
          [-118.30018, 36.68895],
          [-118.28729, 36.66806],
          [-118.27693, 36.64682],
          [-118.26862, 36.62529],
          [-118.25785, 36.6092],
          [-118.25472, 36.60453],
          [-118.24894, 36.58265],
          [-118.23607, 36.56174],
          [-118.22573, 36.54049],
          [-118.21744, 36.51895],
          [-118.2127, 36.49691],
          [-118.20194, 36.48081],
          [-118.1978, 36.47628],
          [-118.19306, 36.45424],
          [-118.18022, 36.43332],
          [-118.1699, 36.41205],
          [-118.16517, 36.39],
          [-118.16045, 36.36796],
          [-118.15572, 36.3459],
          [-118.151, 36.32385],
          [-118.14628, 36.30179],
          [-118.14156, 36.27974],
          [-118.13685, 36.25768],
          [-118.14273, 36.23414],
          [-118.13802, 36.21208],
          [-118.13331, 36.19002],
          [-118.13167, 36.16752],
          [-118.13369, 36.16213],
          [-118.14063, 36.14355],
          [-118.13592, 36.12148],
          [-118.1418, 36.09793],
          [-118.14016, 36.07543],
          [-118.14217, 36.07004],
          [-118.14911, 36.05145],
          [-118.15498, 36.0279],
          [-118.15027, 36.00582],
          [-118.14557, 35.98374],
          [-118.14086, 35.96166],
          [-118.13616, 35.93958],
          [-118.13146, 35.91749],
          [-118.12676, 35.8954],
          [-118.12207, 35.87331],
          [-118.11737, 35.85122],
          [-118.11268, 35.82912],
          [-118.10799, 35.80703],
          [-118.1033, 35.78493],
          [-118.09861, 35.76283],
          [-118.09393, 35.74073],
          [-118.08925, 35.71863],
          [-118.08456, 35.69652],
          [-118.07989, 35.67442],
          [-118.07521, 35.65231],
          [-118.07053, 35.6302],
          [-118.0756, 35.62437],
          [-118.09306, 35.60428],
          [-118.08838, 35.58217],
          [-118.0837, 35.56006],
          [-118.07903, 35.53794],
          [-118.0841, 35.53211],
          [-118.10154, 35.51202],
          [-118.09686, 35.4899],
          [-118.09219, 35.46777],
          [-118.09725, 35.46194],
          [-118.11467, 35.44184],
          [-118.11, 35.41972],
          [-118.10533, 35.39759],
          [-118.11038, 35.39176],
          [-118.12779, 35.37165],
          [-118.12312, 35.34952],
          [-118.12817, 35.34369],
          [-118.14558, 35.32358],
          [-118.1409, 35.30144],
          [-118.14595, 35.29561],
          [-118.16334, 35.27549],
          [-118.15866, 35.25336],
          [-118.16371, 35.24752],
          [-118.18109, 35.2274],
          [-118.17641, 35.20526],
          [-118.17173, 35.18312],
          [-118.17678, 35.17728],
          [-118.19414, 35.15715],
          [-118.18947, 35.13501],
          [-118.19451, 35.12917],
          [-118.21186, 35.10904],
          [-118.20718, 35.08689],
          [-118.2025, 35.06474],
          [-118.20754, 35.0589],
          [-118.22488, 35.03876],
          [-118.2202, 35.01661],
          [-118.21553, 34.99446],
          [-118.22056, 34.98861],
          [-118.23789, 34.96847],
          [-118.23321, 34.94631],
          [-118.22853, 34.92416],
          [-118.22385, 34.902],
          [-118.21918, 34.87984],
          [-118.21451, 34.85767],
          [-118.20984, 34.83551],
          [-118.20517, 34.81334],
          [-118.20051, 34.79118],
          [-118.19584, 34.76901],
          [-118.17131, 34.75479],
          [-118.16419, 34.75066],
          [-118.13968, 34.73644],
          [-118.13256, 34.73231],
          [-118.12791, 34.71014],
          [-118.1034, 34.69591],
          [-118.09629, 34.69178],
          [-118.09165, 34.6696],
          [-118.06716, 34.65536],
          [-118.06005, 34.65123],
          [-118.05542, 34.62905],
          [-118.03094, 34.6148],
          [-118.02384, 34.61067],
          [-117.99936, 34.59642],
          [-117.99226, 34.59228],
          [-117.9678, 34.57803],
          [-117.9607, 34.57389],
          [-117.93624, 34.55963],
          [-117.92914, 34.55549],
          [-117.9047, 34.54123],
          [-117.87775, 34.54501],
          [-117.87066, 34.54087],
          [-117.84622, 34.52659],
          [-117.83913, 34.52245],
          [-117.8147, 34.50817],
          [-117.80761, 34.50402],
          [-117.78319, 34.48974],
          [-117.75625, 34.4935],
          [-117.74917, 34.48935],
          [-117.72476, 34.47506],
          [-117.71767, 34.47091],
          [-117.69327, 34.45661],
          [-117.68619, 34.45246],
          [-117.6618, 34.43815],
          [-117.63487, 34.4419],
          [-117.62779, 34.43774],
          [-117.60341, 34.42343],
          [-117.57648, 34.42716],
          [-117.5694, 34.42301],
          [-117.54503, 34.40868],
          [-117.51811, 34.41241],
          [-117.49118, 34.41613],
          [-117.48411, 34.41197],
          [-117.45975, 34.39763],
          [-117.43282, 34.40134],
          [-117.4059, 34.40505],
          [-117.37897, 34.40875],
          [-117.35204, 34.41245],
          [-117.32511, 34.41615],
          [-117.29817, 34.41984],
          [-117.27124, 34.42352],
          [-117.2443, 34.4272],
          [-117.21736, 34.43088],
          [-117.2103, 34.42671],
          [-117.18597, 34.41233],
          [-117.15903, 34.416],
          [-117.15197, 34.41182],
          [-117.12766, 34.39744],
          [-117.10072, 34.40109],
          [-117.09366, 34.39692],
          [-117.06936, 34.38252],
          [-117.0623, 34.37834],
          [-117.03801, 34.36394],
          [-117.03095, 34.35976],
          [-117.00666, 34.34535],
          [-116.97974, 34.34899],
          [-116.97269, 34.34481],
          [-116.94841, 34.33039],
          [-116.94136, 34.32621],
          [-116.91709, 34.31179],
          [-116.91005, 34.3076],
          [-116.88579, 34.29317],
          [-116.85887, 34.29679],
          [-116.85183, 34.2926],
          [-116.82757, 34.27817],
          [-116.82053, 34.27397],
          [-116.81617, 34.25173],
          [-116.79193, 34.23729],
          [-116.78489, 34.2331],
          [-116.76066, 34.21865],
          [-116.75363, 34.21445],
          [-116.72941, 34.2],
          [-116.72238, 34.1958],
          [-116.69816, 34.18134],
          [-116.69114, 34.17714],
          [-116.6868, 34.15489],
          [-116.6626, 34.14043],
          [-116.65557, 34.13623],
          [-116.65124, 34.11397],
          [-116.64691, 34.09171],
          [-116.62273, 34.07724],
          [-116.61571, 34.07304],
          [-116.61139, 34.05078],
          [-116.60707, 34.02851],
          [-116.60275, 34.00625],
          [-116.59844, 33.98398],
          [-116.60351, 33.97817],
          [-116.62097, 33.95814],
          [-116.61666, 33.93587],
          [-116.61234, 33.9136],
          [-116.60803, 33.89133],
          [-116.60371, 33.86905],
          [-116.5994, 33.84678],
          [-116.5951, 33.8245],
          [-116.59079, 33.80223],
          [-116.56668, 33.78773],
          [-116.55968, 33.78352],
          [-116.55538, 33.76124],
          [-116.53128, 33.74674],
          [-116.52429, 33.74253],
          [-116.52, 33.72025],
          [-116.51571, 33.69796],
          [-116.49163, 33.68345],
          [-116.48464, 33.67924],
          [-116.48036, 33.65695],
          [-116.47608, 33.63466],
          [-116.45202, 33.62014],
          [-116.44503, 33.61592],
          [-116.44077, 33.59363],
          [-116.4365, 33.57133],
          [-116.41246, 33.55681],
          [-116.40548, 33.55259],
          [-116.40122, 33.53029],
          [-116.37719, 33.51576],
          [-116.37021, 33.51154],
          [-116.36596, 33.48923],
          [-116.34195, 33.47469],
          [-116.33497, 33.47047],
          [-116.33073, 33.44817],
          [-116.32649, 33.42586],
          [-116.30249, 33.41131],
          [-116.29553, 33.40709],
          [-116.2913, 33.38478],
          [-116.28707, 33.36246],
          [-116.28284, 33.34015],
          [-116.27861, 33.31784],
          [-116.27438, 33.29552],
          [-116.27016, 33.2732],
          [-116.26594, 33.25088],
          [-116.26172, 33.22856],
          [-116.23777, 33.214],
          [-116.23082, 33.20977],
          [-116.22661, 33.18744],
          [-116.20267, 33.17287],
          [-116.19573, 33.16864],
          [-116.1718, 33.15406],
          [-116.16485, 33.14983],
          [-116.16066, 33.1275],
          [-116.13674, 33.11291],
          [-116.1298, 33.10868],
          [-116.12561, 33.08635],
          [-116.10171, 33.07176],
          [-116.09478, 33.06752],
          [-116.07088, 33.05292],
          [-116.06395, 33.04868],
          [-116.04007, 33.03408],
          [-116.01342, 33.03757],
          [-115.98677, 33.04106],
          [-115.96012, 33.04455],
          [-115.93347, 33.04803],
          [-115.90682, 33.0515],
          [-115.88016, 33.05497],
          [-115.87323, 33.05072],
          [-115.84937, 33.0361],
          [-115.82272, 33.03956],
          [-115.81579, 33.03531],
          [-115.79195, 33.02067],
          [-115.76529, 33.02412],
          [-115.75837, 33.01987],
          [-115.73453, 33.00522],
          [-115.70788, 33.00866],
          [-115.68123, 33.0121],
          [-115.67432, 33.00785],
          [-115.65049, 32.99319],
          [-115.62384, 32.99661],
          [-115.59719, 33.00004],
          [-115.59028, 32.99578],
          [-115.56646, 32.98111],
          [-115.53982, 32.98452],
          [-115.51317, 32.98793],
          [-115.48651, 32.99134],
          [-115.45986, 32.99474],
          [-115.43321, 32.99814],
          [-115.41568, 33.01809],
          [-115.41059, 33.02388],
          [-115.39306, 33.04384],
          [-115.38797, 33.04963],
          [-115.37043, 33.06958],
          [-115.36534, 33.07537],
          [-115.33866, 33.07875],
          [-115.31198, 33.08213],
          [-115.30507, 33.07785],
          [-115.28128, 33.06314],
          [-115.27437, 33.05887],
          [-115.25059, 33.04415],
          [-115.22392, 33.04751],
          [-115.19724, 33.05087],
          [-115.17967, 33.0708],
          [-115.18367, 33.09316],
          [-115.17857, 33.09894],
          [-115.16098, 33.11886],
          [-115.16498, 33.14122],
          [-115.15988, 33.147],
          [-115.14228, 33.16692],
          [-115.14628, 33.18927],
          [-115.15028, 33.21163],
          [-115.17408, 33.22635],
          [-115.181, 33.23063],
          [-115.20481, 33.24535],
          [-115.21173, 33.24962],
          [-115.23555, 33.26433],
          [-115.24247, 33.26861],
          [-115.24649, 33.29095],
          [-115.25051, 33.31329],
          [-115.25454, 33.33563],
          [-115.27838, 33.35034],
          [-115.28531, 33.35461],
          [-115.28934, 33.37695],
          [-115.29337, 33.39928],
          [-115.29741, 33.42162],
          [-115.30145, 33.44395],
          [-115.29633, 33.44974],
          [-115.27871, 33.46965],
          [-115.2736, 33.47543],
          [-115.25597, 33.49535],
          [-115.25085, 33.50113],
          [-115.23322, 33.52104],
          [-115.2281, 33.52682],
          [-115.21046, 33.54672],
          [-115.20533, 33.5525],
          [-115.17854, 33.55585],
          [-115.16088, 33.57575],
          [-115.15576, 33.58153],
          [-115.12896, 33.58487],
          [-115.10215, 33.58821],
          [-115.07535, 33.59154],
          [-115.04854, 33.59487],
          [-115.03085, 33.61475],
          [-115.02572, 33.62052],
          [-115.00803, 33.6404],
          [-115.00289, 33.64617],
          [-114.98519, 33.66605],
          [-114.98917, 33.68837],
          [-114.98403, 33.69414],
          [-114.96632, 33.71401],
          [-114.96118, 33.71978],
          [-114.93434, 33.72309],
          [-114.91661, 33.74295],
          [-114.91147, 33.74872],
          [-114.88462, 33.75202],
          [-114.86688, 33.77187],
          [-114.86173, 33.77764],
          [-114.83487, 33.78093],
          [-114.81712, 33.80078],
          [-114.81196, 33.80654],
          [-114.79421, 33.82639],
          [-114.78905, 33.83215],
          [-114.76218, 33.83543],
          [-114.7444, 33.85526],
          [-114.73924, 33.86102],
          [-114.71236, 33.86429],
          [-114.69458, 33.88412],
          [-114.69851, 33.90644],
          [-114.69334, 33.9122],
          [-114.67555, 33.93203],
          [-114.67038, 33.93778],
          [-114.65257, 33.9576],
          [-114.6474, 33.96336],
          [-114.62959, 33.98318],
          [-114.63352, 34.00549],
          [-114.62834, 34.01125],
          [-114.61052, 34.03106],
          [-114.60534, 34.03681],
          [-114.57842, 34.04006],
          [-114.56058, 34.05986],
          [-114.5554, 34.06561],
          [-114.53755, 34.08542],
          [-114.53237, 34.09116],
          [-114.50543, 34.0944],
          [-114.48757, 34.11419],
          [-114.48238, 34.11994],
          [-114.46452, 34.13973],
          [-114.45933, 34.14548],
          [-114.43237, 34.1487],
          [-114.40541, 34.15192],
          [-114.38753, 34.1717],
          [-114.38233, 34.17744],
          [-114.35537, 34.18065],
          [-114.33747, 34.20042],
          [-114.33227, 34.20616],
          [-114.30529, 34.20936],
          [-114.28738, 34.22913],
          [-114.28218, 34.23487],
          [-114.26426, 34.25463],
          [-114.25906, 34.26037],
          [-114.24113, 34.28013],
          [-114.23592, 34.28586],
          [-114.20892, 34.28905],
          [-114.19098, 34.3088],
          [-114.18577, 34.31453],
          [-114.16782, 34.33428],
          [-114.16261, 34.34001],
          [-114.1356, 34.34318],
          [-114.11763, 34.36292],
          [-114.11242, 34.36865],
          [-114.08539, 34.37182],
          [-114.05837, 34.37498],
          [-114.04039, 34.39471],
          [-114.03517, 34.40043],
          [-114.01718, 34.42016],
          [-114.01195, 34.42589],
          [-113.98492, 34.42903],
          [-113.95788, 34.43217],
          [-113.93084, 34.43531],
          [-113.9239, 34.431],
          [-113.9, 34.41614],
          [-113.87296, 34.41927],
          [-113.85494, 34.43897],
          [-113.8497, 34.44469],
          [-113.83167, 34.4644],
          [-113.83546, 34.4867],
          [-113.85936, 34.50156],
          [-113.8663, 34.50588],
          [-113.89021, 34.52074],
          [-113.89716, 34.52505],
          [-113.92108, 34.53991],
          [-113.92802, 34.54422],
          [-113.93183, 34.56651],
          [-113.95576, 34.58136],
          [-113.96271, 34.58567],
          [-113.98665, 34.60051],
          [-113.99361, 34.60482],
          [-114.01756, 34.61965],
          [-114.02451, 34.62396],
          [-114.02834, 34.64625],
          [-114.03217, 34.66853],
          [-114.036, 34.69082],
          [-114.05997, 34.70564],
          [-114.06693, 34.70995],
          [-114.07077, 34.73223],
          [-114.07461, 34.75451],
          [-114.07845, 34.77678],
          [-114.08229, 34.79906],
          [-114.08614, 34.82133],
          [-114.08998, 34.8436],
          [-114.09383, 34.86587],
          [-114.09768, 34.88814],
          [-114.09244, 34.89386],
          [-114.07438, 34.91356],
          [-114.07822, 34.93583],
          [-114.08207, 34.95809],
          [-114.07682, 34.96381],
          [-114.05875, 34.98351],
          [-114.0626, 35.00577],
          [-114.06644, 35.02803],
          [-114.06119, 35.03374],
          [-114.0431, 35.05343],
          [-114.03785, 35.05915],
          [-114.01975, 35.07884],
          [-114.0145, 35.08455],
          [-113.99639, 35.10423],
          [-113.99114, 35.10994],
          [-113.96393, 35.11308],
          [-113.94581, 35.13275],
          [-113.94055, 35.13847],
          [-113.91334, 35.14159],
          [-113.89521, 35.16126],
          [-113.88994, 35.16697],
          [-113.8718, 35.18663],
          [-113.86653, 35.19234],
          [-113.8393, 35.19545],
          [-113.81207, 35.19856],
          [-113.79391, 35.21822],
          [-113.78864, 35.22392],
          [-113.77047, 35.24357],
          [-113.7652, 35.24927],
          [-113.73795, 35.25237],
          [-113.71977, 35.27201],
          [-113.72356, 35.29426],
          [-113.71828, 35.29996],
          [-113.70008, 35.31959],
          [-113.6948, 35.32529],
          [-113.6766, 35.34492],
          [-113.67131, 35.35062],
          [-113.6531, 35.37025],
          [-113.64782, 35.37595],
          [-113.62054, 35.37902],
          [-113.60231, 35.39864],
          [-113.59702, 35.40434],
          [-113.56973, 35.40741],
          [-113.54244, 35.41047],
          [-113.51515, 35.41353],
          [-113.48786, 35.41658],
          [-113.46056, 35.41963],
          [-113.43327, 35.42268],
          [-113.415, 35.44227],
          [-113.4097, 35.44796],
          [-113.3824, 35.451],
          [-113.35509, 35.45403],
          [-113.32778, 35.45706],
          [-113.3095, 35.47664],
          [-113.30419, 35.48233],
          [-113.27687, 35.48534],
          [-113.24955, 35.48836],
          [-113.22223, 35.49137],
          [-113.19491, 35.49438],
          [-113.18794, 35.49005],
          [-113.16391, 35.47513],
          [-113.13659, 35.47813],
          [-113.10927, 35.48112],
          [-113.08195, 35.48411],
          [-113.05463, 35.48709],
          [-113.02731, 35.49007],
          [-112.99998, 35.49304],
          [-112.97266, 35.49601],
          [-112.94533, 35.49897],
          [-112.918, 35.50193],
          [-112.89067, 35.50489],
          [-112.86334, 35.50784],
          [-112.85637, 35.5035],
          [-112.83239, 35.48854],
          [-112.80506, 35.49148],
          [-112.77772, 35.49441],
          [-112.77076, 35.49007],
          [-112.74679, 35.47509],
          [-112.71946, 35.47802],
          [-112.69213, 35.48094],
          [-112.68518, 35.47659],
          [-112.66122, 35.46161],
          [-112.63389, 35.46452],
          [-112.60656, 35.46743],
          [-112.59961, 35.46307],
          [-112.57567, 35.44807],
          [-112.54834, 35.45097],
          [-112.52102, 35.45387],
          [-112.49369, 35.45676],
          [-112.46636, 35.45965],
          [-112.43902, 35.46253],
          [-112.41169, 35.46541],
          [-112.38435, 35.46828],
          [-112.35702, 35.47115],
          [-112.32968, 35.47401],
          [-112.30234, 35.47687],
          [-112.275, 35.47972],
          [-112.24766, 35.48257],
          [-112.22031, 35.48542],
          [-112.19297, 35.48826],
          [-112.16562, 35.4911],
          [-112.13827, 35.49393],
          [-112.13134, 35.48956],
          [-112.10746, 35.47449],
          [-112.08011, 35.47731],
          [-112.05276, 35.48013],
          [-112.02542, 35.48294],
          [-112, 35.48556]
        ]
      }
    },
    {
      "type": "Feature",
      "id": "2026101018_f120_10000_001",
      "properties": {
        "product_id": "winter_storm_levels",
        "source_id": "nbm_snow_level",
        "parameter": "snow_level",
        "definition": "height of the wet-bulb 0.5 degree C surface",
        "level_ft_msl": 10000,
        "label": "10,000 ft MSL",
        "unit": "ft_msl",
        "cycle_time_utc": "2026-10-10T18:00:00Z",
        "valid_time_utc": "2026-10-15T18:00:00Z",
        "lead_hours": 120,
        "segment": 1,
        "length_m": 2098091.2
      },
      "geometry": {
        "type": "LineString",
        "coordinates": [
          [-130, 36.30258],
          [-129.99674, 36.30709],
          [-129.99427, 36.31051],
          [-129.97697, 36.33444],
          [-129.9745, 36.33786],
          [-129.95719, 36.36179],
          [-129.95472, 36.36521],
          [-129.9374, 36.38913],
          [-129.93493, 36.39255],
          [-129.91761, 36.41647],
          [-129.91513, 36.41988],
          [-129.8978, 36.4438],
          [-129.90488, 36.46543],
          [-129.9024, 36.46884],
          [-129.88506, 36.49275],
          [-129.88258, 36.49617],
          [-129.86523, 36.52007],
          [-129.86275, 36.52349],
          [-129.83583, 36.52917],
          [-129.80892, 36.53485],
          [-129.782, 36.54053],
          [-129.75507, 36.5462],
          [-129.72815, 36.55187],
          [-129.70122, 36.55753],
          [-129.67429, 36.56319],
          [-129.65688, 36.58707],
          [-129.65439, 36.59048],
          [-129.62745, 36.59613],
          [-129.61002, 36.62],
          [-129.60753, 36.62341],
          [-129.58058, 36.62905],
          [-129.56314, 36.65291],
          [-129.56065, 36.65632],
          [-129.53369, 36.66195],
          [-129.51623, 36.6858],
          [-129.51374, 36.68921],
          [-129.49627, 36.71306],
          [-129.49378, 36.71647],
          [-129.47631, 36.74031],
          [-129.48332, 36.76194],
          [-129.48083, 36.76534],
          [-129.46334, 36.78918],
          [-129.46084, 36.79259],
          [-129.44335, 36.81642],
          [-129.44085, 36.81982],
          [-129.42335, 36.84365],
          [-129.42085, 36.84706],
          [-129.40334, 36.87088],
          [-129.40084, 36.87428],
          [-129.37382, 36.87989],
          [-129.35629, 36.9037],
          [-129.35379, 36.90711],
          [-129.33625, 36.93092],
          [-129.33375, 36.93432],
          [-129.3162, 36.95813],
          [-129.3137, 36.96153],
          [-129.28665, 36.96712],
          [-129.25959, 36.9727],
          [-129.23253, 36.97828],
          [-129.21496, 37.00207],
          [-129.21245, 37.00547],
          [-129.19487, 37.02926],
          [-129.19236, 37.03266],
          [-129.17477, 37.05644],
          [-129.17225, 37.05984],
          [-129.15466, 37.08362],
          [-129.15214, 37.08701],
          [-129.12505, 37.09257],
          [-129.10744, 37.11634],
          [-129.10492, 37.11974],
          [-129.07782, 37.12529],
          [-129.06019, 37.14905],
          [-129.05767, 37.15245],
          [-129.03055, 37.15799],
          [-129.01291, 37.18175],
          [-129.01039, 37.18514],
          [-128.99273, 37.20889],
          [-128.99021, 37.21228],
          [-128.97255, 37.23603],
          [-128.97002, 37.23942],
          [-128.95235, 37.26316],
          [-128.9593, 37.28476],
          [-128.95677, 37.28815],
          [-128.93909, 37.31189],
          [-128.93656, 37.31528],
          [-128.9094, 37.3208],
          [-128.8917, 37.34453],
          [-128.88917, 37.34791],
          [-128.862, 37.35343],
          [-128.84429, 37.37715],
          [-128.84175, 37.38053],
          [-128.82403, 37.40425],
          [-128.8215, 37.40764],
          [-128.80377, 37.43134],
          [-128.81069, 37.45294],
          [-128.80816, 37.45633],
          [-128.79042, 37.48003],
          [-128.79734, 37.50162],
          [-128.79481, 37.505],
          [-128.77705, 37.5287],
          [-128.78398, 37.55029],
          [-128.79091, 37.57187],
          [-128.78837, 37.57526],
          [-128.7706, 37.59895],
          [-128.76807, 37.60233],
          [-128.74082, 37.60782],
          [-128.71358, 37.6133],
          [-128.68633, 37.61878],
          [-128.66854, 37.64245],
          [-128.66599, 37.64583],
          [-128.63873, 37.6513],
          [-128.63446, 37.64929],
          [-128.60457, 37.63519],
          [-128.57732, 37.64065],
          [-128.55006, 37.6461],
          [-128.53222, 37.66976],
          [-128.52968, 37.67314],
          [-128.5024, 37.67859],
          [-128.47513, 37.68403],
          [-128.44785, 37.68947],
          [-128.42057, 37.6949],
          [-128.4163, 37.69288],
          [-128.38643, 37.67874],
          [-128.38216, 37.67672],
          [-128.3523, 37.66258],
          [-128.33442, 37.68621],
          [-128.33187, 37.68959],
          [-128.31398, 37.71322],
          [-128.31142, 37.7166],
          [-128.29353, 37.74022],
          [-128.30037, 37.76181],
          [-128.29781, 37.76518],
          [-128.27991, 37.7888],
          [-128.27735, 37.79218],
          [-128.25003, 37.79758],
          [-128.22272, 37.80298],
          [-128.1954, 37.80838],
          [-128.16807, 37.81377],
          [-128.14075, 37.81916],
          [-128.1228, 37.84275],
          [-128.12023, 37.84612],
          [-128.0929, 37.8515],
          [-128.08863, 37.84948],
          [-128.05875, 37.83529],
          [-128.03142, 37.84066],
          [-128.01344, 37.86424],
          [-128.01087, 37.86761],
          [-127.98352, 37.87297],
          [-127.96553, 37.89655],
          [-127.96296, 37.89992],
          [-127.9356, 37.90527],
          [-127.91759, 37.92884],
          [-127.91501, 37.9322],
          [-127.89699, 37.95577],
          [-127.89442, 37.95913],
          [-127.87639, 37.98269],
          [-127.87382, 37.98606],
          [-127.85578, 38.00961],
          [-127.86255, 38.03119],
          [-127.85997, 38.03455],
          [-127.84192, 38.0581],
          [-127.83934, 38.06146],
          [-127.82129, 38.08501],
          [-127.82806, 38.10658],
          [-127.82548, 38.10994],
          [-127.80741, 38.13348],
          [-127.80482, 38.13684],
          [-127.78675, 38.16037],
          [-127.78416, 38.16373],
          [-127.76607, 38.18726],
          [-127.76349, 38.19062],
          [-127.74539, 38.21414],
          [-127.74281, 38.2175],
          [-127.7247, 38.24102],
          [-127.73146, 38.26258],
          [-127.72887, 38.26594],
          [-127.71076, 38.28945],
          [-127.70817, 38.29281],
          [-127.69004, 38.31631],
          [-127.68745, 38.31967],
          [-127.65997, 38.32497],
          [-127.64183, 38.34846],
          [-127.63924, 38.35182],
          [-127.62109, 38.37531],
          [-127.61849, 38.37867],
          [-127.60033, 38.40215],
          [-127.59774, 38.40551],
          [-127.57957, 38.42899],
          [-127.58631, 38.45054],
          [-127.58371, 38.45389],
          [-127.56553, 38.47737],
          [-127.56293, 38.48072],
          [-127.53541, 38.486],
          [-127.50788, 38.49127],
          [-127.48967, 38.51473],
          [-127.48707, 38.51808],
          [-127.46886, 38.54154],
          [-127.46625, 38.54489],
          [-127.4387, 38.55015],
          [-127.42047, 38.5736],
          [-127.42719, 38.59514],
          [-127.42459, 38.59849],
          [-127.40635, 38.62194],
          [-127.40374, 38.62529],
          [-127.38549, 38.64872],
          [-127.38288, 38.65207],
          [-127.36462, 38.6755],
          [-127.36201, 38.67885],
          [-127.34374, 38.70228],
          [-127.35046, 38.72381],
          [-127.34785, 38.72716],
          [-127.32957, 38.75058],
          [-127.32695, 38.75393],
          [-127.30866, 38.77734],
          [-127.30605, 38.78069],
          [-127.28775, 38.8041],
          [-127.28514, 38.80744],
          [-127.26683, 38.83085],
          [-127.27353, 38.85237],
          [-127.27092, 38.85572],
          [-127.24328, 38.86094],
          [-127.22495, 38.88433],
          [-127.22233, 38.88767],
          [-127.19468, 38.89289],
          [-127.17634, 38.91627],
          [-127.17372, 38.91961],
          [-127.15536, 38.943],
          [-127.16205, 38.96451],
          [-127.16874, 38.98603],
          [-127.17544, 39.00754],
          [-127.18214, 39.02905],
          [-127.18884, 39.05056],
          [-127.18621, 39.0539],
          [-127.16784, 39.07727],
          [-127.17454, 39.09877],
          [-127.18124, 39.12027],
          [-127.17862, 39.12361],
          [-127.1509, 39.12881],
          [-127.13251, 39.15217],
          [-127.12988, 39.1555],
          [-127.10215, 39.16069],
          [-127.08374, 39.18404],
          [-127.08111, 39.18738],
          [-127.06269, 39.21072],
          [-127.06006, 39.21405],
          [-127.03232, 39.21923],
          [-127.01388, 39.24257],
          [-127.01125, 39.2459],
          [-126.9928, 39.26923],
          [-126.99016, 39.27256],
          [-126.97171, 39.29589],
          [-126.96907, 39.29922],
          [-126.9413, 39.30438],
          [-126.92283, 39.3277],
          [-126.92019, 39.33103],
          [-126.89241, 39.33618],
          [-126.87392, 39.35949],
          [-126.87128, 39.36282],
          [-126.85278, 39.38612],
          [-126.85014, 39.38945],
          [-126.83163, 39.41274],
          [-126.82899, 39.41607],
          [-126.80118, 39.42121],
          [-126.79687, 39.41916],
          [-126.79023, 39.39768],
          [-126.76009, 39.38336],
          [-126.75578, 39.38132],
          [-126.74915, 39.35983],
          [-126.71903, 39.34551],
          [-126.71473, 39.34346],
          [-126.68462, 39.32913],
          [-126.65683, 39.33425],
          [-126.65252, 39.3322],
          [-126.62243, 39.31786],
          [-126.61813, 39.31581],
          [-126.61153, 39.29431],
          [-126.60493, 39.2728],
          [-126.57485, 39.25845],
          [-126.57056, 39.2564],
          [-126.56397, 39.23489],
          [-126.55739, 39.21337],
          [-126.52733, 39.19901],
          [-126.52304, 39.19696],
          [-126.51647, 39.17544],
          [-126.48643, 39.16106],
          [-126.48214, 39.15901],
          [-126.47558, 39.13748],
          [-126.44556, 39.1231],
          [-126.44127, 39.12104],
          [-126.41126, 39.10665],
          [-126.38351, 39.11173],
          [-126.35576, 39.1168],
          [-126.32801, 39.12187],
          [-126.30026, 39.12694],
          [-126.29597, 39.12488],
          [-126.26598, 39.11046],
          [-126.23822, 39.11551],
          [-126.21046, 39.12056],
          [-126.1827, 39.12561],
          [-126.1641, 39.14886],
          [-126.16144, 39.15219],
          [-126.14282, 39.17544],
          [-126.14016, 39.17876],
          [-126.12153, 39.202],
          [-126.12803, 39.22353],
          [-126.13452, 39.24506],
          [-126.13186, 39.24838],
          [-126.11322, 39.27162],
          [-126.11972, 39.29314],
          [-126.12621, 39.31466],
          [-126.12355, 39.31798],
          [-126.1049, 39.34121],
          [-126.11139, 39.36272],
          [-126.10873, 39.36604],
          [-126.09006, 39.38926],
          [-126.08739, 39.39258],
          [-126.06872, 39.4158],
          [-126.07521, 39.43731],
          [-126.07254, 39.44062],
          [-126.05386, 39.46383],
          [-126.05119, 39.46715],
          [-126.03249, 39.49035],
          [-126.02982, 39.49366],
          [-126.01111, 39.51686],
          [-126.00843, 39.52018],
          [-125.98972, 39.54337],
          [-125.99621, 39.56487],
          [-125.99353, 39.56818],
          [-125.9748, 39.59137],
          [-125.97213, 39.59468],
          [-125.94423, 39.59967],
          [-125.92548, 39.62285],
          [-125.9228, 39.62616],
          [-125.90405, 39.64933],
          [-125.91053, 39.67083],
          [-125.90785, 39.67414],
          [-125.88908, 39.6973],
          [-125.8864, 39.70061],
          [-125.86762, 39.72377],
          [-125.86494, 39.72708],
          [-125.84615, 39.75023],
          [-125.84347, 39.75354],
          [-125.82467, 39.77669],
          [-125.82199, 39.77999],
          [-125.80318, 39.80314],
          [-125.80049, 39.80644],
          [-125.77253, 39.81141],
          [-125.74456, 39.81637],
          [-125.7166, 39.82132],
          [-125.68862, 39.82627],
          [-125.66065, 39.83122],
          [-125.63267, 39.83616],
          [-125.6047, 39.84109],
          [-125.58583, 39.86421],
          [-125.58314, 39.86751],
          [-125.55515, 39.87244],
          [-125.53626, 39.89554],
          [-125.53357, 39.89884],
          [-125.51468, 39.92194],
          [-125.51198, 39.92524],
          [-125.49308, 39.94833],
          [-125.49037, 39.95163],
          [-125.46236, 39.95654],
          [-125.43434, 39.96145],
          [-125.41541, 39.98453],
          [-125.41271, 39.98783],
          [-125.40841, 39.98576],
          [-125.37829, 39.97125],
          [-125.35026, 39.97614],
          [-125.32223, 39.98103],
          [-125.2942, 39.98591],
          [-125.26617, 39.99079],
          [-125.26187, 39.98872],
          [-125.23177, 39.97418],
          [-125.20373, 39.97905],
          [-125.19944, 39.97698],
          [-125.16935, 39.96243],
          [-125.14132, 39.96729],
          [-125.11328, 39.97215],
          [-125.08524, 39.977],
          [-125.0572, 39.98184],
          [-125.02915, 39.98669],
          [-125.0011, 39.99152],
          [-124.97305, 39.99636],
          [-124.945, 40.00118],
          [-124.92596, 40.02421],
          [-124.92324, 40.0275],
          [-124.90419, 40.05051],
          [-124.90147, 40.0538],
          [-124.87339, 40.05862],
          [-124.85433, 40.08163],
          [-124.8516, 40.08491],
          [-124.83253, 40.10792],
          [-124.83881, 40.1294],
          [-124.83608, 40.13269],
          [-124.817, 40.15568],
          [-124.81427, 40.15897],
          [-124.79517, 40.18196],
          [-124.80145, 40.20344],
          [-124.79872, 40.20672],
          [-124.7706, 40.21152],
          [-124.75149, 40.2345],
          [-124.74875, 40.23778],
          [-124.72063, 40.24257],
          [-124.69249, 40.24735],
          [-124.67335, 40.27032],
          [-124.67062, 40.2736],
          [-124.64247, 40.27837],
          [-124.61433, 40.28314],
          [-124.58618, 40.2879],
          [-124.58188, 40.28581],
          [-124.5518, 40.27119],
          [-124.5475, 40.2691],
          [-124.54127, 40.24762],
          [-124.5112, 40.23299],
          [-124.5069, 40.23089],
          [-124.50068, 40.20941],
          [-124.47063, 40.19477],
          [-124.46633, 40.19267],
          [-124.43629, 40.17802],
          [-124.432, 40.17593],
          [-124.40197, 40.16127],
          [-124.39768, 40.15917],
          [-124.39148, 40.13768],
          [-124.36147, 40.12301],
          [-124.35718, 40.12092],
          [-124.35099, 40.09942],
          [-124.34481, 40.07791],
          [-124.33864, 40.05641],
          [-124.33246, 40.0349],
          [-124.32629, 40.01339],
          [-124.32012, 39.99188],
          [-124.31395, 39.97036],
          [-124.30778, 39.94885],
          [-124.30162, 39.92733],
          [-124.29546, 39.9058],
          [-124.2893, 39.88428],
          [-124.28314, 39.86275],
          [-124.27699, 39.84122],
          [-124.27973, 39.83794],
          [-124.29888, 39.81496],
          [-124.29272, 39.79343],
          [-124.28657, 39.77189],
          [-124.28042, 39.75035],
          [-124.27428, 39.72881],
          [-124.2444, 39.71409],
          [-124.24013, 39.71199],
          [-124.23399, 39.69044],
          [-124.22786, 39.66889],
          [-124.22173, 39.64734],
          [-124.2156, 39.62578],
          [-124.20948, 39.60423],
          [-124.20336, 39.58266],
          [-124.17352, 39.56792],
          [-124.16926, 39.56582],
          [-124.16315, 39.54425],
          [-124.13334, 39.5295],
          [-124.12908, 39.52739],
          [-124.12298, 39.50582],
          [-124.11688, 39.48425],
          [-124.11078, 39.46267],
          [-124.10469, 39.4411],
          [-124.0986, 39.41951],
          [-124.10133, 39.41623],
          [-124.12044, 39.39323],
          [-124.11435, 39.37164],
          [-124.10826, 39.35005],
          [-124.10217, 39.32846],
          [-124.09609, 39.30687],
          [-124.09001, 39.28528],
          [-124.08393, 39.26368],
          [-124.07785, 39.24208],
          [-124.04813, 39.22729],
          [-124.04389, 39.22518],
          [-124.01418, 39.21039],
          [-124.00994, 39.20827],
          [-123.98024, 39.19347],
          [-123.95236, 39.19816],
          [-123.94812, 39.19604],
          [-123.94207, 39.17443],
          [-123.93603, 39.15282],
          [-123.92999, 39.1312],
          [-123.92395, 39.10958],
          [-123.89429, 39.09476],
          [-123.89006, 39.09264],
          [-123.88403, 39.07102],
          [-123.87801, 39.04939],
          [-123.87198, 39.02777],
          [-123.84236, 39.01293],
          [-123.83813, 39.01081],
          [-123.80851, 38.99597],
          [-123.80428, 38.99385],
          [-123.79827, 38.97221],
          [-123.76867, 38.95736],
          [-123.76445, 38.95523],
          [-123.75845, 38.93359],
          [-123.75246, 38.91195],
          [-123.74647, 38.8903],
          [-123.74049, 38.86865],
          [-123.74321, 38.86536],
          [-123.7623, 38.84234],
          [-123.75632, 38.82069],
          [-123.75033, 38.79903],
          [-123.72079, 38.78416],
          [-123.71657, 38.78203],
          [-123.71059, 38.76037],
          [-123.71332, 38.75708],
          [-123.7324, 38.73405],
          [-123.72642, 38.71238],
          [-123.72045, 38.69072],
          [-123.71448, 38.66905],
          [-123.68498, 38.65416],
          [-123.68076, 38.65203],
          [-123.6748, 38.63036],
          [-123.64531, 38.61546],
          [-123.6411, 38.61333],
          [-123.63515, 38.59165],
          [-123.60568, 38.57675],
          [-123.60147, 38.57462],
          [-123.59553, 38.55293],
          [-123.5896, 38.53124],
          [-123.58366, 38.50955],
          [-123.58639, 38.50626],
          [-123.60545, 38.48322],
          [-123.59951, 38.46152],
          [-123.59358, 38.43983],
          [-123.58765, 38.41813],
          [-123.55823, 38.4032],
          [-123.55403, 38.40107],
          [-123.52463, 38.38614],
          [-123.52043, 38.38401],
          [-123.51451, 38.3623],
          [-123.48512, 38.34736],
          [-123.48092, 38.34522],
          [-123.47502, 38.32351],
          [-123.44565, 38.30856],
          [-123.44145, 38.30642],
          [-123.43556, 38.28471],
          [-123.4062, 38.26975],
          [-123.40201, 38.26761],
          [-123.39613, 38.24589],
          [-123.36679, 38.23092],
          [-123.3626, 38.22878],
          [-123.35673, 38.20705],
          [-123.3274, 38.19207],
          [-123.32321, 38.18993],
          [-123.31735, 38.1682],
          [-123.31149, 38.14647],
          [-123.30564, 38.12473],
          [-123.29978, 38.10299],
          [-123.27049, 38.088],
          [-123.26631, 38.08586],
          [-123.23703, 38.07085],
          [-123.23285, 38.06871],
          [-123.20358, 38.0537],
          [-123.1994, 38.05156],
          [-123.19357, 38.02981],
          [-123.16432, 38.01479],
          [-123.16014, 38.01264],
          [-123.15432, 37.99089],
          [-123.1485, 37.96913],
          [-123.14269, 37.94738],
          [-123.13688, 37.92562],
          [-123.10766, 37.91058],
          [-123.10349, 37.90843],
          [-123.09769, 37.88667],
          [-123.09189, 37.8649],
          [-123.0627, 37.84986],
          [-123.05853, 37.84771],
          [-123.02934, 37.83265],
          [-123.02517, 37.8305],
          [-123.01939, 37.80873],
          [-122.99022, 37.79366],
          [-122.98606, 37.79151],
          [-122.98029, 37.76973],
          [-122.97452, 37.74795],
          [-122.96875, 37.72617],
          [-122.96299, 37.70438],
          [-122.95723, 37.68259],
          [-122.9281, 37.66751],
          [-122.92394, 37.66536],
          [-122.91819, 37.64356],
          [-122.91244, 37.62177],
          [-122.88334, 37.60668],
          [-122.87918, 37.60452],
          [-122.87345, 37.58272],
          [-122.86771, 37.56092],
          [-122.83863, 37.54581],
          [-122.83448, 37.54366],
          [-122.82875, 37.52185],
          [-122.82303, 37.50004],
          [-122.8173, 37.47823],
          [-122.78825, 37.46311],
          [-122.7841, 37.46095],
          [-122.77839, 37.43913],
          [-122.77268, 37.41732],
          [-122.74365, 37.40219],
          [-122.73951, 37.40003],
          [-122.73381, 37.3782],
          [-122.7048, 37.36307],
          [-122.70065, 37.3609],
          [-122.69496, 37.33907],
          [-122.68928, 37.31724],
          [-122.68359, 37.29541],
          [-122.67791, 37.27358],
          [-122.67223, 37.25174],
          [-122.66655, 37.2299],
          [-122.66088, 37.20806],
          [-122.6552, 37.18622],
          [-122.64953, 37.16437],
          [-122.64386, 37.14253],
          [-122.64658, 37.13923],
          [-122.6656, 37.11616],
          [-122.65993, 37.09431],
          [-122.65426, 37.07246],
          [-122.6486, 37.0506],
          [-122.64294, 37.02875],
          [-122.61403, 37.01357],
          [-122.6099, 37.0114],
          [-122.60425, 36.98954],
          [-122.5986, 36.96768],
          [-122.56971, 36.95249],
          [-122.56559, 36.95032],
          [-122.5683, 36.94703],
          [-122.5873, 36.92395],
          [-122.58166, 36.90208],
          [-122.57602, 36.8802],
          [-122.57038, 36.85833],
          [-122.57309, 36.85503],
          [-122.59208, 36.83194],
          [-122.59479, 36.82864],
          [-122.61376, 36.80555],
          [-122.61647, 36.80225],
          [-122.63544, 36.77915],
          [-122.62979, 36.75727],
          [-122.6325, 36.75397],
          [-122.65145, 36.73086],
          [-122.65416, 36.72756],
          [-122.67311, 36.70445],
          [-122.67581, 36.70115],
          [-122.69475, 36.67803],
          [-122.69745, 36.67473],
          [-122.71638, 36.65161],
          [-122.71908, 36.64831],
          [-122.738, 36.62518],
          [-122.73234, 36.60329],
          [-122.73504, 36.59999],
          [-122.75394, 36.57686],
          [-122.74828, 36.55497],
          [-122.71949, 36.53978],
          [-122.71538, 36.53761],
          [-122.68659, 36.52242],
          [-122.68248, 36.52025],
          [-122.67684, 36.49835],
          [-122.67954, 36.49505],
          [-122.69844, 36.47192],
          [-122.69279, 36.45001],
          [-122.69549, 36.44671],
          [-122.71438, 36.42357],
          [-122.70874, 36.40166],
          [-122.7031, 36.37975],
          [-122.69746, 36.35784],
          [-122.69182, 36.33593],
          [-122.68619, 36.31401],
          [-122.68056, 36.2921],
          [-122.67493, 36.27018],
          [-122.67762, 36.26687],
          [-122.69648, 36.24372],
          [-122.69917, 36.24041],
          [-122.71802, 36.21725],
          [-122.72072, 36.21394],
          [-122.73956, 36.19078],
          [-122.74225, 36.18747],
          [-122.76108, 36.16431],
          [-122.75544, 36.14238],
          [-122.7498, 36.12045],
          [-122.74417, 36.09852],
          [-122.73854, 36.07659],
          [-122.73291, 36.05466],
          [-122.72728, 36.03272],
          [-122.72165, 36.01078],
          [-122.72434, 36.00747],
          [-122.74315, 35.98429],
          [-122.73752, 35.96235],
          [-122.7319, 35.94041],
          [-122.72627, 35.91846],
          [-122.72896, 35.91515],
          [-122.74775, 35.89196],
          [-122.74213, 35.87001],
          [-122.73651, 35.84806],
          [-122.73089, 35.82611],
          [-122.73357, 35.8228],
          [-122.75234, 35.7996],
          [-122.74672, 35.77765],
          [-122.7494, 35.77433],
          [-122.76816, 35.75113],
          [-122.76254, 35.72917],
          [-122.75693, 35.70721],
          [-122.75961, 35.7039],
          [-122.77835, 35.68069],
          [-122.77273, 35.65873],
          [-122.77541, 35.65541],
          [-122.79414, 35.6322],
          [-122.78853, 35.61023],
          [-122.7912, 35.60692],
          [-122.80992, 35.5837],
          [-122.8043, 35.56173],
          [-122.79869, 35.53976],
          [-122.79307, 35.51778],
          [-122.78746, 35.49581],
          [-122.79013, 35.49249],
          [-122.80884, 35.46926],
          [-122.80322, 35.44728],
          [-122.80589, 35.44396],
          [-122.82459, 35.42073],
          [-122.82726, 35.41741],
          [-122.84594, 35.39417],
          [-122.84032, 35.37219],
          [-122.84299, 35.36887],
          [-122.86166, 35.34562],
          [-122.85604, 35.32364],
          [-122.85043, 35.30165],
          [-122.85309, 35.29833],
          [-122.87175, 35.27508],
          [-122.86614, 35.25309],
          [-122.86052, 35.2311],
          [-122.85491, 35.20911],
          [-122.82645, 35.19387],
          [-122.82239, 35.19169],
          [-122.81679, 35.16969],
          [-122.81119, 35.14769],
          [-122.81385, 35.14437],
          [-122.83249, 35.12111],
          [-122.83515, 35.11779],
          [-122.85378, 35.09453],
          [-122.85644, 35.0912],
          [-122.87506, 35.06794],
          [-122.87772, 35.06461],
          [-122.89634, 35.04134],
          [-122.89073, 35.01934],
          [-122.89339, 35.01601],
          [-122.91199, 34.99273],
          [-122.90638, 34.97072],
          [-122.90077, 34.94871],
          [-122.90343, 34.94539],
          [-122.92201, 34.92211],
          [-122.89362, 34.90687],
          [-122.88956, 34.90469],
          [-122.86118, 34.88944],
          [-122.85712, 34.88726],
          [-122.85153, 34.86524],
          [-122.85419, 34.86192],
          [-122.87277, 34.83863],
          [-122.86718, 34.81661],
          [-122.86158, 34.79459],
          [-122.85599, 34.77257],
          [-122.85041, 34.75054],
          [-122.84482, 34.72851],
          [-122.81649, 34.71325],
          [-122.81244, 34.71107],
          [-122.80687, 34.68904],
          [-122.80952, 34.68571],
          [-122.82808, 34.66242],
          [-122.82251, 34.64038],
          [-122.81693, 34.61835],
          [-122.81958, 34.61502],
          [-122.83813, 34.59172],
          [-122.83256, 34.56968],
          [-122.82698, 34.54764],
          [-122.82141, 34.5256],
          [-122.81585, 34.50356],
          [-122.81028, 34.48151],
          [-122.80472, 34.45946],
          [-122.79916, 34.43741],
          [-122.7936, 34.41536],
          [-122.78804, 34.39331],
          [-122.78249, 34.37126],
          [-122.77693, 34.3492],
          [-122.77138, 34.32714],
          [-122.76583, 34.30508],
          [-122.76848, 34.30175],
          [-122.78699, 34.27844],
          [-122.78144, 34.25638],
          [-122.77589, 34.23431],
          [-122.77035, 34.21225],
          [-122.74215, 34.19695],
          [-122.73813, 34.19476],
          [-122.73259, 34.17269],
          [-122.72706, 34.15062],
          [-122.72153, 34.12855],
          [-122.716, 34.10648],
          [-122.71047, 34.0844],
          [-122.70495, 34.06233],
          [-122.69943, 34.04025],
          [-122.69391, 34.01817],
          [-122.68839, 33.99609],
          [-122.69103, 33.99275],
          [-122.7095, 33.96943],
          [-122.70398, 33.94734],
          [-122.69847, 33.92526],
          [-122.7011, 33.92192],
          [-122.71956, 33.89859],
          [-122.71405, 33.8765],
          [-122.70853, 33.85441],
          [-122.70302, 33.83232],
          [-122.67493, 33.81699],
          [-122.67092, 33.8148],
          [-122.66542, 33.79271],
          [-122.63734, 33.77737],
          [-122.63333, 33.77518],
          [-122.62784, 33.75308],
          [-122.62234, 33.73098],
          [-122.62498, 33.72765],
          [-122.64342, 33.70431],
          [-122.63793, 33.68221],
          [-122.63244, 33.6601],
          [-122.62695, 33.638],
          [-122.62147, 33.61589],
          [-122.61598, 33.59378],
          [-122.6105, 33.57167],
          [-122.60502, 33.54956],
          [-122.60765, 33.54622],
          [-122.62607, 33.52288],
          [-122.62059, 33.50076],
          [-122.59259, 33.48541],
          [-122.5886, 33.48321],
          [-122.58312, 33.4611],
          [-122.57766, 33.43898],
          [-122.54968, 33.42361],
          [-122.54568, 33.42141],
          [-122.54022, 33.39929],
          [-122.53477, 33.37717],
          [-122.50681, 33.36179],
          [-122.50282, 33.35959],
          [-122.49737, 33.33747],
          [-122.49193, 33.31534],
          [-122.48648, 33.2932],
          [-122.48104, 33.27107],
          [-122.4756, 33.24894],
          [-122.47016, 33.2268],
          [-122.46473, 33.20466],
          [-122.46735, 33.20133],
          [-122.48575, 33.17798],
          [-122.48031, 33.15584],
          [-122.48294, 33.1525],
          [-122.50132, 33.12914],
          [-122.49588, 33.107],
          [-122.49044, 33.08486],
          [-122.48501, 33.06272],
          [-122.47958, 33.04057],
          [-122.47415, 33.01842],
          [-122.46873, 32.99627],
          [-122.4633, 32.97412],
          [-122.43546, 32.95872],
          [-122.43148, 32.95652],
          [-122.42606, 32.93436],
          [-122.42065, 32.91221],
          [-122.42327, 32.90887],
          [-122.44163, 32.88551],
          [-122.43621, 32.86335],
          [-122.4308, 32.84119],
          [-122.42539, 32.81903],
          [-122.42801, 32.81569],
          [-122.44635, 32.79232],
          [-122.44094, 32.77016],
          [-122.43553, 32.74799],
          [-122.43012, 32.72583],
          [-122.42472, 32.70366],
          [-122.41932, 32.68149],
          [-122.41392, 32.65933],
          [-122.40852, 32.63715],
          [-122.38076, 32.62173],
          [-122.3768, 32.61952],
          [-122.37141, 32.59735],
          [-122.36603, 32.57517],
          [-122.36864, 32.57184],
          [-122.38695, 32.54846],
          [-122.38156, 32.52628],
          [-122.37618, 32.5041],
          [-122.3708, 32.48192],
          [-122.36542, 32.45974],
          [-122.36004, 32.43756],
          [-122.35466, 32.41537],
          [-122.34929, 32.39319],
          [-122.3519, 32.38985],
          [-122.37018, 32.36646],
          [-122.36481, 32.34427],
          [-122.35943, 32.32208],
          [-122.36204, 32.31874],
          [-122.38031, 32.29535],
          [-122.37494, 32.27316],
          [-122.37755, 32.26982],
          [-122.39581, 32.24643],
          [-122.39043, 32.22423],
          [-122.38506, 32.20204],
          [-122.37969, 32.17984],
          [-122.3823, 32.1765],
          [-122.40054, 32.1531],
          [-122.39517, 32.1309],
          [-122.3898, 32.1087],
          [-122.38443, 32.0865],
          [-122.38704, 32.08316],
          [-122.40527, 32.05975],
          [-122.40787, 32.05641],
          [-122.42609, 32.033],
          [-122.42072, 32.0108],
          [-122.41535, 31.98859],
          [-122.38775, 31.97315],
          [-122.38381, 31.97094],
          [-122.37845, 31.94873],
          [-122.37309, 31.92652],
          [-122.36774, 31.90431],
          [-122.36238, 31.8821],
          [-122.36498, 31.87876],
          [-122.38318, 31.85535],
          [-122.38578, 31.852],
          [-122.40398, 31.82858],
          [-122.39862, 31.80637],
          [-122.37106, 31.79091],
          [-122.36713, 31.7887],
          [-122.36178, 31.76649],
          [-122.35644, 31.74427],
          [-122.35109, 31.72205],
          [-122.34575, 31.69983],
          [-122.34835, 31.69649],
          [-122.36652, 31.67306],
          [-122.36118, 31.65084],
          [-122.35584, 31.62862],
          [-122.3505, 31.6064],
          [-122.3531, 31.60305],
          [-122.37125, 31.57962],
          [-122.36592, 31.5574],
          [-122.36851, 31.55405],
          [-122.38666, 31.53062],
          [-122.38132, 31.50839],
          [-122.38391, 31.50504],
          [-122.40205, 31.48161],
          [-122.39671, 31.45938],
          [-122.39137, 31.43715],
          [-122.38603, 31.41492],
          [-122.38862, 31.41157],
          [-122.40674, 31.38813],
          [-122.40141, 31.3659],
          [-122.39607, 31.34366],
          [-122.39074, 31.32143],
          [-122.38541, 31.29919],
          [-122.38008, 31.27695],
          [-122.37475, 31.25471],
          [-122.36943, 31.23247],
          [-122.37201, 31.22912],
          [-122.39011, 31.20568],
          [-122.3927, 31.20233],
          [-122.41078, 31.17888],
          [-122.41337, 31.17553],
          [-122.43145, 31.15208],
          [-122.42612, 31.12983],
          [-122.42079, 31.10759],
          [-122.41546, 31.08534],
          [-122.38808, 31.06987],
          [-122.38416, 31.06765],
          [-122.37885, 31.04541],
          [-122.37353, 31.02316],
          [-122.36822, 31.00091],
          [-122.36291, 30.97866],
          [-122.3576, 30.9564],
          [-122.35229, 30.93415],
          [-122.34698, 30.91189],
          [-122.34168, 30.88964],
          [-122.33638, 30.86738],
          [-122.33108, 30.84512],
          [-122.32578, 30.82286],
          [-122.32048, 30.8006],
          [-122.31519, 30.77834],
          [-122.3099, 30.75608],
          [-122.30461, 30.73382],
          [-122.29932, 30.71155],
          [-122.3019, 30.7082],
          [-122.31993, 30.68474],
          [-122.31464, 30.66247],
          [-122.31722, 30.65912],
          [-122.33524, 30.63566],
          [-122.33781, 30.63231],
          [-122.35582, 30.60884],
          [-122.35053, 30.58657],
          [-122.34524, 30.5643],
          [-122.33995, 30.54203],
          [-122.3127, 30.52653],
          [-122.30881, 30.52431],
          [-122.30353, 30.50204],
          [-122.29826, 30.47977],
          [-122.29298, 30.45749],
          [-122.28771, 30.43522],
          [-122.28244, 30.41294],
          [-122.25523, 30.39742],
          [-122.25134, 30.3952],
          [-122.22414, 30.37968],
          [-122.22025, 30.37746],
          [-122.19306, 30.36193],
          [-122.16724, 30.36646],
          [-122.14141, 30.37098],
          [-122.13753, 30.36876],
          [-122.11035, 30.35322],
          [-122.10646, 30.351],
          [-122.10123, 30.32871],
          [-122.07406, 30.31316],
          [-122.07018, 30.31093],
          [-122.06496, 30.28865],
          [-122.05974, 30.26636],
          [-122.04013, 30.25511]
        ]
      }
    }
  ]
}

