{
  "type": "FeatureCollection",
  "contract_version": "1.0.0",
  "bbox": [-130, 30.09346, -112, 44.5],
  "features": [
    {
      "type": "Feature",
      "id": "2026093018_f234_09000_001",
      "properties": {
        "product_id": "winter_storm_levels",
        "source_id": "nbm_snow_level",
        "parameter": "snow_level",
        "definition": "height of the wet-bulb 0.5 degree C surface",
        "level_ft_msl": 9000,
        "label": "9,000 ft MSL",
        "unit": "ft_msl",
        "cycle_time_utc": "2026-09-30T18:00:00Z",
        "valid_time_utc": "2026-10-10T12:00:00Z",
        "lead_hours": 234,
        "segment": 1,
        "length_m": 252489.6
      },
      "geometry": {
        "type": "LineString",
        "coordinates": [
          [-130, 43.51333],
          [-129.99626, 43.50305],
          [-129.98866, 43.48217],
          [-129.98107, 43.46129],
          [-129.98301, 43.43914],
          [-129.98306, 43.43857],
          [-129.97559, 43.41766],
          [-129.98238, 43.39402],
          [-129.9748, 43.37312],
          [-129.98141, 43.35006],
          [-129.98158, 43.34947],
          [-129.97436, 43.3285],
          [-129.98078, 43.30492],
          [-129.98739, 43.28184],
          [-129.98744, 43.28128],
          [-129.97999, 43.26035],
          [-129.97241, 43.23944],
          [-129.97186, 43.23898],
          [-129.94316, 43.2445],
          [-129.94263, 43.24516],
          [-129.92201, 43.27092],
          [-129.89329, 43.27642],
          [-129.89276, 43.27708],
          [-129.87213, 43.30283],
          [-129.8716, 43.30349],
          [-129.85095, 43.32924],
          [-129.85042, 43.3299],
          [-129.82976, 43.35563],
          [-129.82923, 43.35629],
          [-129.80856, 43.38202],
          [-129.80803, 43.38268],
          [-129.78735, 43.40841],
          [-129.78682, 43.40907],
          [-129.76613, 43.43478],
          [-129.76559, 43.43544],
          [-129.74489, 43.46115],
          [-129.71611, 43.46662],
          [-129.71558, 43.46728],
          [-129.69485, 43.49298],
          [-129.66606, 43.49844],
          [-129.66553, 43.4991],
          [-129.64478, 43.52479],
          [-129.61597, 43.53025],
          [-129.58716, 43.5357],
          [-129.55835, 43.54114],
          [-129.52953, 43.54658],
          [-129.529, 43.54724],
          [-129.50821, 43.5729],
          [-129.47938, 43.57834],
          [-129.45055, 43.58376],
          [-129.45001, 43.58442],
          [-129.4292, 43.61007],
          [-129.42866, 43.61073],
          [-129.40783, 43.63637],
          [-129.4073, 43.63703],
          [-129.38646, 43.66267],
          [-129.38593, 43.66332],
          [-129.36508, 43.68895],
          [-129.36454, 43.68961],
          [-129.34368, 43.71523],
          [-129.34314, 43.71589],
          [-129.32227, 43.74151],
          [-129.32173, 43.74216],
          [-129.30085, 43.76777],
          [-129.30031, 43.76843],
          [-129.27942, 43.79403],
          [-129.27888, 43.79469],
          [-129.25798, 43.82029],
          [-129.22906, 43.82567],
          [-129.22852, 43.82633],
          [-129.2076, 43.85191],
          [-129.20706, 43.85257],
          [-129.18612, 43.87815],
          [-129.18559, 43.8788],
          [-129.16464, 43.90437],
          [-129.13569, 43.90974],
          [-129.13515, 43.9104],
          [-129.11418, 43.93596],
          [-129.08522, 43.94132],
          [-129.08469, 43.94197],
          [-129.0637, 43.96752],
          [-129.03473, 43.97287],
          [-129.03419, 43.97352],
          [-129.01318, 43.99906],
          [-128.9842, 44.0044],
          [-128.98366, 44.00506],
          [-128.96263, 44.03059],
          [-128.93363, 44.03592],
          [-128.90464, 44.04125],
          [-128.9041, 44.0419],
          [-128.88304, 44.06741],
          [-128.85403, 44.07273],
          [-128.82501, 44.07804],
          [-128.82447, 44.0787],
          [-128.80339, 44.1042],
          [-128.77436, 44.1095],
          [-128.77382, 44.11015],
          [-128.75271, 44.13564],
          [-128.72368, 44.14094],
          [-128.69464, 44.14623],
          [-128.69409, 44.14688],
          [-128.67296, 44.17235],
          [-128.6439, 44.17763],
          [-128.64336, 44.17829],
          [-128.62221, 44.20375],
          [-128.59314, 44.20902],
          [-128.56407, 44.21429],
          [-128.56353, 44.21494],
          [-128.54235, 44.24039],
          [-128.51327, 44.24565],
          [-128.48418, 44.2509],
          [-128.48364, 44.25155],
          [-128.46242, 44.27699],
          [-128.43333, 44.28223],
          [-128.40423, 44.28747],
          [-128.40369, 44.28812],
          [-128.38244, 44.31354],
          [-128.35333, 44.31877],
          [-128.32422, 44.324],
          [-128.32367, 44.32465],
          [-128.3024, 44.35005],
          [-128.27328, 44.35527],
          [-128.27273, 44.35592],
          [-128.25144, 44.38131],
          [-128.2223, 44.38652],
          [-128.22175, 44.38717],
          [-128.20044, 44.41255],
          [-128.17129, 44.41775],
          [-128.17074, 44.4184],
          [-128.14941, 44.44377],
          [-128.14886, 44.44442],
          [-128.12752, 44.46978],
          [-128.12697, 44.47043],
          [-128.10562, 44.49578],
          [-128.10507, 44.49643],
          [-128.10206, 44.5]
        ]
      }
    },
    {
      "type": "Feature",
      "id": "2026093018_f234_09000_002",
      "properties": {
        "product_id": "winter_storm_levels",
        "source_id": "nbm_snow_level",
        "parameter": "snow_level",
        "definition": "height of the wet-bulb 0.5 degree C surface",
        "level_ft_msl": 9000,
        "label": "9,000 ft MSL",
        "unit": "ft_msl",
        "cycle_time_utc": "2026-09-30T18:00:00Z",
        "valid_time_utc": "2026-10-10T12:00:00Z",
        "lead_hours": 234,
        "segment": 2,
        "length_m": 17739.8
      },
      "geometry": {
        "type": "LineString",
        "coordinates": [
          [-130, 43.544],
          [-129.9994, 43.5471],
          [-129.99592, 43.55921],
          [-129.99027, 43.57117],
          [-129.97867, 43.59571],
          [-129.97852, 43.59601],
          [-129.95758, 43.62205],
          [-129.95741, 43.62264],
          [-129.95545, 43.64477],
          [-129.96305, 43.66562],
          [-129.97613, 43.674],
          [-130, 43.67766]
        ]
      }
    },
    {
      "type": "Feature",
      "id": "2026093018_f234_10000_001",
      "properties": {
        "product_id": "winter_storm_levels",
        "source_id": "nbm_snow_level",
        "parameter": "snow_level",
        "definition": "height of the wet-bulb 0.5 degree C surface",
        "level_ft_msl": 10000,
        "label": "10,000 ft MSL",
        "unit": "ft_msl",
        "cycle_time_utc": "2026-09-30T18:00:00Z",
        "valid_time_utc": "2026-10-10T12:00:00Z",
        "lead_hours": 234,
        "segment": 1,
        "length_m": 299397.8
      },
      "geometry": {
        "type": "LineString",
        "coordinates": [
          [-125.176, 41.48832],
          [-125.16956, 41.46701],
          [-125.16313, 41.44569],
          [-125.13261, 41.43125],
          [-125.12826, 41.42919],
          [-125.12183, 41.40787],
          [-125.11541, 41.38654],
          [-125.10899, 41.36521],
          [-125.10257, 41.34388],
          [-125.0721, 41.32942],
          [-125.06775, 41.32736],
          [-125.06134, 41.30602],
          [-125.05494, 41.28468],
          [-125.04854, 41.26333],
          [-125.0181, 41.24886],
          [-125.01375, 41.2468],
          [-124.98332, 41.23232],
          [-124.97897, 41.23025],
          [-124.94855, 41.21576],
          [-124.94421, 41.21369],
          [-124.91379, 41.1992],
          [-124.88541, 41.20399],
          [-124.86613, 41.22686],
          [-124.86338, 41.23013],
          [-124.83498, 41.23491],
          [-124.81569, 41.25777],
          [-124.81293, 41.26104],
          [-124.78452, 41.26581],
          [-124.76521, 41.28866],
          [-124.77155, 41.31001],
          [-124.76879, 41.31328],
          [-124.74947, 41.33612],
          [-124.74671, 41.33939],
          [-124.72737, 41.36223],
          [-124.72461, 41.36549],
          [-124.70527, 41.38833],
          [-124.7116, 41.40967],
          [-124.70884, 41.41293],
          [-124.68948, 41.43576],
          [-124.68672, 41.43902],
          [-124.66735, 41.46184],
          [-124.66458, 41.4651],
          [-124.64521, 41.48792],
          [-124.65153, 41.50925],
          [-124.64877, 41.51251],
          [-124.62938, 41.53531],
          [-124.62661, 41.53857],
          [-124.60721, 41.56137],
          [-124.60444, 41.56463],
          [-124.58503, 41.58743],
          [-124.59135, 41.60875],
          [-124.58858, 41.61201],
          [-124.56915, 41.6348],
          [-124.57548, 41.65611],
          [-124.5727, 41.65937],
          [-124.55327, 41.68215],
          [-124.55959, 41.70346],
          [-124.55681, 41.70671],
          [-124.53736, 41.72949],
          [-124.53459, 41.73274],
          [-124.51513, 41.75551],
          [-124.52145, 41.77681],
          [-124.51867, 41.78006],
          [-124.4992, 41.80282],
          [-124.50552, 41.82412],
          [-124.51184, 41.84542],
          [-124.50905, 41.84867],
          [-124.48957, 41.87142],
          [-124.49589, 41.89271],
          [-124.49311, 41.89596],
          [-124.47361, 41.9187],
          [-124.47082, 41.92195],
          [-124.45131, 41.94469],
          [-124.44853, 41.94793],
          [-124.42901, 41.97066],
          [-124.43532, 41.99194],
          [-124.43253, 41.99519],
          [-124.413, 42.01791],
          [-124.41932, 42.03919],
          [-124.41653, 42.04243],
          [-124.39698, 42.06515],
          [-124.39419, 42.06839],
          [-124.37464, 42.0911],
          [-124.38095, 42.11237],
          [-124.37815, 42.11561],
          [-124.35859, 42.13831],
          [-124.35579, 42.14156],
          [-124.33621, 42.16425],
          [-124.34252, 42.18551],
          [-124.34883, 42.20677],
          [-124.35514, 42.22802],
          [-124.38578, 42.24252],
          [-124.41449, 42.23784],
          [-124.44319, 42.23316],
          [-124.46275, 42.21046],
          [-124.46555, 42.20721],
          [-124.49423, 42.20252],
          [-124.52292, 42.19782],
          [-124.5516, 42.19312],
          [-124.58028, 42.18841],
          [-124.59981, 42.16569],
          [-124.6026, 42.16244],
          [-124.63127, 42.15772],
          [-124.65993, 42.153],
          [-124.67943, 42.13027],
          [-124.68222, 42.12702],
          [-124.71087, 42.12229],
          [-124.73036, 42.09955],
          [-124.73314, 42.0963],
          [-124.76178, 42.09156],
          [-124.78125, 42.06881],
          [-124.78403, 42.06556],
          [-124.81266, 42.06081],
          [-124.83211, 42.03805],
          [-124.83489, 42.0348],
          [-124.85433, 42.01203],
          [-124.8571, 42.00878],
          [-124.88572, 42.00402],
          [-124.90514, 41.98124],
          [-124.90791, 41.97799],
          [-124.92732, 41.95521],
          [-124.9301, 41.95195],
          [-124.9495, 41.92917],
          [-124.95227, 41.92591],
          [-124.97166, 41.90312],
          [-124.97443, 41.89986],
          [-124.99381, 41.87707],
          [-124.99658, 41.87381],
          [-125.01595, 41.851],
          [-125.01872, 41.84775],
          [-125.03808, 41.82494],
          [-125.04084, 41.82168],
          [-125.06019, 41.79886],
          [-125.06296, 41.7956],
          [-125.0823, 41.77278],
          [-125.07586, 41.7515],
          [-125.07862, 41.74824],
          [-125.09795, 41.72541],
          [-125.10071, 41.72214],
          [-125.12003, 41.69931],
          [-125.12279, 41.69605],
          [-125.1421, 41.67321],
          [-125.13566, 41.65191],
          [-125.13841, 41.64865],
          [-125.15771, 41.6258],
          [-125.15127, 41.6045],
          [-125.14482, 41.5832],
          [-125.14758, 41.57993],
          [-125.16686, 41.55708],
          [-125.16042, 41.53577],
          [-125.15398, 41.51446],
          [-125.15673, 41.51119],
          [-125.176, 41.48832]
        ]
      }
    },
    {
      "type": "Feature",
      "id": "2026093018_f234_10000_002",
      "properties": {
        "product_id": "winter_storm_levels",
        "source_id": "nbm_snow_level",
        "parameter": "snow_level",
        "definition": "height of the wet-bulb 0.5 degree C surface",
        "level_ft_msl": 10000,
        "label": "10,000 ft MSL",
        "unit": "ft_msl",
        "cycle_time_utc": "2026-09-30T18:00:00Z",
        "valid_time_utc": "2026-10-10T12:00:00Z",
        "lead_hours": 234,
        "segment": 2,
        "length_m": 59905.8
      },
      "geometry": {
        "type": "LineString",
        "coordinates": [
          [-127.08367, 38.54619],
          [-127.07702, 38.52462],
          [-127.04709, 38.5103],
          [-127.04282, 38.50826],
          [-127.03618, 38.48669],
          [-127.00627, 38.47236],
          [-126.97872, 38.47755],
          [-126.95116, 38.48273],
          [-126.93284, 38.50613],
          [-126.93022, 38.50948],
          [-126.91188, 38.53288],
          [-126.90926, 38.53622],
          [-126.89092, 38.55962],
          [-126.89753, 38.58118],
          [-126.89491, 38.58452],
          [-126.87655, 38.60791],
          [-126.88316, 38.62947],
          [-126.9131, 38.64381],
          [-126.91738, 38.64586],
          [-126.94733, 38.6602],
          [-126.96568, 38.63681],
          [-126.9683, 38.63346],
          [-126.99589, 38.62828],
          [-127.02348, 38.6231],
          [-127.04181, 38.59969],
          [-127.04443, 38.59635],
          [-127.06274, 38.57294],
          [-127.06536, 38.5696],
          [-127.08367, 38.54619]
        ]
      }
    },
    {
      "type": "Feature",
      "id": "2026093018_f234_10000_003",
      "properties": {
        "product_id": "winter_storm_levels",
        "source_id": "nbm_snow_level",
        "parameter": "snow_level",
        "definition": "height of the wet-bulb 0.5 degree C surface",
        "level_ft_msl": 10000,
        "label": "10,000 ft MSL",
        "unit": "ft_msl",
        "cycle_time_utc": "2026-09-30T18:00:00Z",
        "valid_time_utc": "2026-10-10T12:00:00Z",
        "lead_hours": 234,
        "segment": 3,
        "length_m": 37535.2
      },
      "geometry": {
        "type": "LineString",
        "coordinates": [
          [-127.22232, 38.42866],
          [-127.21565, 38.40709],
          [-127.20899, 38.38552],
          [-127.17908, 38.37122],
          [-127.16083, 38.39466],
          [-127.15822, 38.39801],
          [-127.13995, 38.42144],
          [-127.13734, 38.42479],
          [-127.10981, 38.43],
          [-127.09153, 38.45343],
          [-127.09817, 38.47499],
          [-127.12809, 38.48931],
          [-127.15564, 38.4841],
          [-127.17392, 38.46067],
          [-127.17653, 38.45732],
          [-127.20406, 38.4521],
          [-127.22232, 38.42866]
        ]
      }
    },
    {
      "type": "Feature",
      "id": "2026093018_f234_10000_004",
      "properties": {
        "product_id": "winter_storm_levels",
        "source_id": "nbm_snow_level",
        "parameter": "snow_level",
        "definition": "height of the wet-bulb 0.5 degree C surface",
        "level_ft_msl": 10000,
        "label": "10,000 ft MSL",
        "unit": "ft_msl",
        "cycle_time_utc": "2026-09-30T18:00:00Z",
        "valid_time_utc": "2026-10-10T12:00:00Z",
        "lead_hours": 234,
        "segment": 4,
        "length_m": 1450063.2
      },
      "geometry": {
        "type": "LineString",
        "coordinates": [
          [-130, 35.83208],
          [-129.98218, 35.82367],
          [-129.97795, 35.82167],
          [-129.95122, 35.82739],
          [-129.92448, 35.8331],
          [-129.89773, 35.83881],
          [-129.87099, 35.84452],
          [-129.84424, 35.85022],
          [-129.81749, 35.85592],
          [-129.79074, 35.86161],
          [-129.76398, 35.8673],
          [-129.73443, 35.85329],
          [-129.73021, 35.85129],
          [-129.70345, 35.85697],
          [-129.67669, 35.86264],
          [-129.64993, 35.86831],
          [-129.62317, 35.87398],
          [-129.62069, 35.8774],
          [-129.60338, 35.90133],
          [-129.57385, 35.8873],
          [-129.56963, 35.8853],
          [-129.54285, 35.89095],
          [-129.51608, 35.89659],
          [-129.4893, 35.90224],
          [-129.46252, 35.90788],
          [-129.43573, 35.91351],
          [-129.40895, 35.91914],
          [-129.38216, 35.92477],
          [-129.35536, 35.93039],
          [-129.35288, 35.9338],
          [-129.3355, 35.9577],
          [-129.3087, 35.96331],
          [-129.28189, 35.96892],
          [-129.27941, 35.97233],
          [-129.26201, 35.99622],
          [-129.23519, 36.00182],
          [-129.20837, 36.00742],
          [-129.20588, 36.01083],
          [-129.18846, 36.0347],
          [-129.16163, 36.04029],
          [-129.1348, 36.04587],
          [-129.10796, 36.05145],
          [-129.10547, 36.05486],
          [-129.08802, 36.07872],
          [-129.06118, 36.0843],
          [-129.03433, 36.08986],
          [-129.03183, 36.09327],
          [-129.01436, 36.11712],
          [-128.9875, 36.12268],
          [-128.96064, 36.12823],
          [-128.93377, 36.13378],
          [-128.93128, 36.13719],
          [-128.91377, 36.16102],
          [-128.8869, 36.16657],
          [-128.86002, 36.1721],
          [-128.83314, 36.17763],
          [-128.83064, 36.18104],
          [-128.81311, 36.20486],
          [-128.78622, 36.21038],
          [-128.75932, 36.2159],
          [-128.73243, 36.22142],
          [-128.70553, 36.22693],
          [-128.67863, 36.23244],
          [-128.65172, 36.23794],
          [-128.64921, 36.24134],
          [-128.63163, 36.26514],
          [-128.60472, 36.27063],
          [-128.5778, 36.27612],
          [-128.55088, 36.28161],
          [-128.52396, 36.28709],
          [-128.49703, 36.29256],
          [-128.47011, 36.29804],
          [-128.44318, 36.3035],
          [-128.44066, 36.3069],
          [-128.42302, 36.33067],
          [-128.39608, 36.33613],
          [-128.36914, 36.34158],
          [-128.36661, 36.34498],
          [-128.34896, 36.36874],
          [-128.322, 36.37419],
          [-128.29504, 36.37963],
          [-128.26809, 36.38507],
          [-128.26556, 36.38846],
          [-128.24787, 36.4122],
          [-128.2209, 36.41763],
          [-128.19393, 36.42306],
          [-128.16695, 36.42848],
          [-128.13998, 36.43389],
          [-128.13745, 36.43728],
          [-128.11972, 36.46101],
          [-128.09273, 36.46642],
          [-128.06574, 36.47182],
          [-128.03875, 36.47722],
          [-128.03621, 36.48061],
          [-128.01846, 36.50432],
          [-127.99146, 36.50972],
          [-127.96445, 36.5151],
          [-127.96191, 36.51849],
          [-127.94414, 36.54219],
          [-127.9416, 36.54558],
          [-127.92381, 36.56927],
          [-127.89679, 36.57465],
          [-127.89425, 36.57803],
          [-127.87645, 36.60172],
          [-127.8739, 36.6051],
          [-127.8561, 36.62879],
          [-127.82905, 36.63415],
          [-127.82651, 36.63753],
          [-127.80868, 36.66121],
          [-127.80614, 36.66459],
          [-127.7883, 36.68827],
          [-127.78576, 36.69165],
          [-127.76791, 36.71532],
          [-127.76536, 36.7187],
          [-127.74751, 36.74236],
          [-127.74496, 36.74574],
          [-127.7271, 36.7694],
          [-127.70002, 36.77474],
          [-127.69747, 36.77812],
          [-127.67959, 36.80177],
          [-127.67704, 36.80514],
          [-127.65915, 36.82879],
          [-127.63205, 36.83412],
          [-127.6295, 36.83749],
          [-127.6116, 36.86113],
          [-127.60904, 36.86451],
          [-127.59113, 36.88814],
          [-127.56401, 36.89346],
          [-127.56145, 36.89683],
          [-127.54352, 36.92046],
          [-127.51639, 36.92576],
          [-127.48926, 36.93107],
          [-127.4867, 36.93444],
          [-127.46875, 36.95805],
          [-127.44161, 36.96335],
          [-127.43904, 36.96672],
          [-127.42108, 36.99033],
          [-127.41851, 36.9937],
          [-127.40054, 37.0173],
          [-127.37338, 37.02258],
          [-127.34621, 37.02786],
          [-127.34364, 37.03123],
          [-127.32565, 37.05482],
          [-127.29847, 37.06009],
          [-127.2959, 37.06346],
          [-127.27789, 37.08704],
          [-127.25071, 37.0923],
          [-127.22352, 37.09756],
          [-127.22094, 37.10092],
          [-127.20291, 37.12449],
          [-127.17571, 37.12974],
          [-127.17313, 37.13311],
          [-127.15509, 37.15667],
          [-127.15251, 37.16004],
          [-127.13445, 37.18359],
          [-127.10723, 37.18883],
          [-127.10465, 37.19219],
          [-127.08658, 37.21574],
          [-127.05935, 37.22097],
          [-127.05677, 37.22433],
          [-127.03868, 37.24787],
          [-127.03609, 37.25124],
          [-127.04265, 37.27292],
          [-127.02455, 37.29645],
          [-127.02197, 37.29981],
          [-127.00386, 37.32335],
          [-126.9766, 37.32856],
          [-126.97401, 37.33192],
          [-126.95589, 37.35544],
          [-126.92862, 37.36064],
          [-126.92603, 37.364],
          [-126.90789, 37.38752],
          [-126.90529, 37.39088],
          [-126.88714, 37.41439],
          [-126.85986, 37.41958],
          [-126.85726, 37.42293],
          [-126.8638, 37.44461],
          [-126.84563, 37.46811],
          [-126.84303, 37.47146],
          [-126.84957, 37.49313],
          [-126.83139, 37.51662],
          [-126.82879, 37.51998],
          [-126.8106, 37.54347],
          [-126.808, 37.54682],
          [-126.81454, 37.56849],
          [-126.82107, 37.59015],
          [-126.82761, 37.6118],
          [-126.8094, 37.63528],
          [-126.8068, 37.63864],
          [-126.81334, 37.66029],
          [-126.81988, 37.68195],
          [-126.82642, 37.70359],
          [-126.83297, 37.72524],
          [-126.81475, 37.74871],
          [-126.81214, 37.75206],
          [-126.79391, 37.77553],
          [-126.79131, 37.77888],
          [-126.79785, 37.80052],
          [-126.80439, 37.82216],
          [-126.78615, 37.84562],
          [-126.78354, 37.84897],
          [-126.79009, 37.87061],
          [-126.77183, 37.89406],
          [-126.76922, 37.89741],
          [-126.77577, 37.91904],
          [-126.7575, 37.94248],
          [-126.75489, 37.94583],
          [-126.73661, 37.96927],
          [-126.734, 37.97262],
          [-126.74054, 37.99425],
          [-126.72226, 38.01768],
          [-126.71964, 38.02103],
          [-126.72619, 38.04265],
          [-126.70789, 38.06608],
          [-126.70527, 38.06942],
          [-126.68696, 38.09284],
          [-126.68435, 38.09619],
          [-126.66603, 38.11961],
          [-126.66341, 38.12295],
          [-126.66995, 38.14457],
          [-126.65162, 38.16798],
          [-126.649, 38.17132],
          [-126.63066, 38.19473],
          [-126.62804, 38.19807],
          [-126.63458, 38.21968],
          [-126.61623, 38.24308],
          [-126.6136, 38.24642],
          [-126.62014, 38.26802],
          [-126.60178, 38.29142],
          [-126.59915, 38.29476],
          [-126.60569, 38.31636],
          [-126.58732, 38.33975],
          [-126.58469, 38.34309],
          [-126.56631, 38.36647],
          [-126.56368, 38.36981],
          [-126.54529, 38.39318],
          [-126.51773, 38.3983],
          [-126.51511, 38.40164],
          [-126.4967, 38.425],
          [-126.49407, 38.42834],
          [-126.47565, 38.4517],
          [-126.44808, 38.45681],
          [-126.44544, 38.46014],
          [-126.42701, 38.4835],
          [-126.42438, 38.48683],
          [-126.40593, 38.51018],
          [-126.37834, 38.51527],
          [-126.37571, 38.51861],
          [-126.35725, 38.54195],
          [-126.32964, 38.54703],
          [-126.32701, 38.55036],
          [-126.30853, 38.5737],
          [-126.30589, 38.57703],
          [-126.28741, 38.60036],
          [-126.28476, 38.60369],
          [-126.26627, 38.62701],
          [-126.23864, 38.63208],
          [-126.236, 38.63541],
          [-126.21749, 38.65872],
          [-126.18985, 38.66378],
          [-126.1872, 38.66711],
          [-126.16868, 38.69041],
          [-126.14103, 38.69546],
          [-126.13838, 38.69879],
          [-126.11983, 38.72208],
          [-126.09217, 38.72712],
          [-126.08952, 38.73045],
          [-126.07096, 38.75374],
          [-126.06831, 38.75707],
          [-126.04974, 38.78035],
          [-126.04709, 38.78367],
          [-126.02851, 38.80695],
          [-126.00083, 38.81198],
          [-125.99817, 38.8153],
          [-125.97958, 38.83857],
          [-125.97692, 38.84189],
          [-125.95832, 38.86516],
          [-125.93061, 38.87017],
          [-125.92795, 38.87349],
          [-125.90933, 38.89675],
          [-125.90667, 38.90007],
          [-125.88804, 38.92332],
          [-125.88538, 38.92664],
          [-125.86674, 38.94988],
          [-125.86408, 38.9532],
          [-125.84543, 38.97644],
          [-125.84276, 38.97976],
          [-125.82411, 39.003],
          [-125.79636, 39.00798],
          [-125.79369, 39.0113],
          [-125.77502, 39.03453],
          [-125.77235, 39.03785],
          [-125.75367, 39.06107],
          [-125.751, 39.06438],
          [-125.7323, 39.0876],
          [-125.72963, 39.09092],
          [-125.71093, 39.11413],
          [-125.70826, 39.11744],
          [-125.68955, 39.14065],
          [-125.68687, 39.14396],
          [-125.66815, 39.16716],
          [-125.66548, 39.17048],
          [-125.64675, 39.19367],
          [-125.64407, 39.19698],
          [-125.62533, 39.22017],
          [-125.59751, 39.22512],
          [-125.59484, 39.22844],
          [-125.57608, 39.25162],
          [-125.5734, 39.25493],
          [-125.55463, 39.2781],
          [-125.55195, 39.28141],
          [-125.55833, 39.30296],
          [-125.53956, 39.32613],
          [-125.53687, 39.32944],
          [-125.51809, 39.3526],
          [-125.5154, 39.35591],
          [-125.4966, 39.37907],
          [-125.49392, 39.38238],
          [-125.47511, 39.40553],
          [-125.44724, 39.41045],
          [-125.44455, 39.41376],
          [-125.42573, 39.4369],
          [-125.42304, 39.44021],
          [-125.40421, 39.46335],
          [-125.40152, 39.46665],
          [-125.38267, 39.48979],
          [-125.37998, 39.49309],
          [-125.36113, 39.51622],
          [-125.35844, 39.51952],
          [-125.33958, 39.54265],
          [-125.33688, 39.54595],
          [-125.31801, 39.56907],
          [-125.31531, 39.57237],
          [-125.29643, 39.59548],
          [-125.29374, 39.59878],
          [-125.30009, 39.6203],
          [-125.28119, 39.64341],
          [-125.27849, 39.64671],
          [-125.25959, 39.66981],
          [-125.25689, 39.67311],
          [-125.23798, 39.69621],
          [-125.23528, 39.69951],
          [-125.21636, 39.7226],
          [-125.21365, 39.72589],
          [-125.19472, 39.74898],
          [-125.19202, 39.75228],
          [-125.17308, 39.77536],
          [-125.17037, 39.77865],
          [-125.15142, 39.80173],
          [-125.14871, 39.80502],
          [-125.15505, 39.82653],
          [-125.13608, 39.84959],
          [-125.13337, 39.85289],
          [-125.1144, 39.87595],
          [-125.11169, 39.87924],
          [-125.09271, 39.9023],
          [-125.09, 39.90559],
          [-125.07101, 39.92864],
          [-125.0683, 39.93194],
          [-125.0493, 39.95498],
          [-125.04658, 39.95827],
          [-125.02757, 39.98131],
          [-125.02485, 39.9846],
          [-125.00584, 40.00764],
          [-125.00312, 40.01093],
          [-124.98409, 40.03396],
          [-124.98137, 40.03725],
          [-124.96233, 40.06027],
          [-124.95961, 40.06356],
          [-124.96592, 40.08504],
          [-124.94687, 40.10806],
          [-124.94415, 40.11135],
          [-124.92509, 40.13436],
          [-124.92236, 40.13765],
          [-124.90329, 40.16065],
          [-124.90057, 40.16394],
          [-124.88149, 40.18694],
          [-124.87876, 40.19022],
          [-124.88506, 40.2117],
          [-124.86597, 40.23469],
          [-124.86324, 40.23797],
          [-124.86954, 40.25944],
          [-124.85043, 40.28243],
          [-124.8477, 40.28571],
          [-124.854, 40.30717],
          [-124.83488, 40.33015],
          [-124.83215, 40.33343],
          [-124.83845, 40.35489],
          [-124.81932, 40.37786],
          [-124.81659, 40.38114],
          [-124.82288, 40.40259],
          [-124.80374, 40.42556],
          [-124.80101, 40.42884],
          [-124.78186, 40.4518],
          [-124.77912, 40.45508],
          [-124.75996, 40.47803],
          [-124.75722, 40.48131],
          [-124.76351, 40.50275],
          [-124.74434, 40.5257],
          [-124.7416, 40.52898],
          [-124.72242, 40.55192],
          [-124.71968, 40.55519],
          [-124.72596, 40.57663],
          [-124.70677, 40.59956],
          [-124.70403, 40.60284],
          [-124.71031, 40.62427],
          [-124.69111, 40.64719],
          [-124.68836, 40.65047],
          [-124.69465, 40.6719],
          [-124.67543, 40.69481],
          [-124.67268, 40.69809],
          [-124.67897, 40.71951],
          [-124.65974, 40.74242],
          [-124.65699, 40.74569],
          [-124.63775, 40.7686],
          [-124.635, 40.77187],
          [-124.64128, 40.79329],
          [-124.64757, 40.8147],
          [-124.62831, 40.83759],
          [-124.62556, 40.84086],
          [-124.60629, 40.86375],
          [-124.60354, 40.86702],
          [-124.58426, 40.88991],
          [-124.58151, 40.89318],
          [-124.58779, 40.91458],
          [-124.5685, 40.93746],
          [-124.56574, 40.94072],
          [-124.54644, 40.9636],
          [-124.54368, 40.96686],
          [-124.52437, 40.98973],
          [-124.52161, 40.99299],
          [-124.52789, 41.01439],
          [-124.50857, 41.03725],
          [-124.50581, 41.04051],
          [-124.48647, 41.06336],
          [-124.48371, 41.06663],
          [-124.46437, 41.08948],
          [-124.46161, 41.09274],
          [-124.46787, 41.11412],
          [-124.44852, 41.13696],
          [-124.44575, 41.14022],
          [-124.42639, 41.16306],
          [-124.42362, 41.16632],
          [-124.40425, 41.18915],
          [-124.40148, 41.19241],
          [-124.3821, 41.21523],
          [-124.37933, 41.21849],
          [-124.38559, 41.23986],
          [-124.36619, 41.26268],
          [-124.36342, 41.26594],
          [-124.34401, 41.28875],
          [-124.34124, 41.292],
          [-124.32182, 41.31481],
          [-124.31905, 41.31807],
          [-124.29962, 41.34086],
          [-124.29685, 41.34412],
          [-124.27741, 41.36691],
          [-124.27463, 41.37017],
          [-124.25519, 41.39295],
          [-124.25241, 41.39621],
          [-124.25865, 41.41756],
          [-124.23919, 41.44034],
          [-124.23641, 41.4436],
          [-124.21694, 41.46637],
          [-124.21416, 41.46962],
          [-124.19468, 41.49239],
          [-124.1919, 41.49564],
          [-124.17241, 41.5184],
          [-124.1439, 41.52307],
          [-124.14112, 41.52632],
          [-124.12161, 41.54907],
          [-124.11882, 41.55232],
          [-124.09931, 41.57507],
          [-124.09652, 41.57832],
          [-124.07699, 41.60106],
          [-124.0742, 41.60431],
          [-124.05467, 41.62704],
          [-124.05188, 41.63029],
          [-124.03233, 41.65302],
          [-124.02954, 41.65626],
          [-124.00998, 41.67899],
          [-124.00719, 41.68223],
          [-123.98762, 41.70495],
          [-123.98483, 41.7082],
          [-123.96525, 41.73091],
          [-123.96245, 41.73415],
          [-123.94287, 41.75686],
          [-123.91428, 41.76148],
          [-123.91148, 41.76472],
          [-123.89188, 41.78742],
          [-123.88908, 41.79066],
          [-123.86946, 41.81335],
          [-123.86666, 41.81659],
          [-123.84704, 41.83928],
          [-123.84423, 41.84252],
          [-123.8246, 41.8652],
          [-123.82179, 41.86844],
          [-123.82797, 41.88975],
          [-123.80833, 41.91242],
          [-123.80552, 41.91566],
          [-123.78586, 41.93833],
          [-123.78306, 41.94157],
          [-123.76339, 41.96423],
          [-123.76058, 41.96746],
          [-123.7409, 41.99012],
          [-123.73809, 41.99335],
          [-123.7184, 42.016],
          [-123.71559, 42.01924],
          [-123.69589, 42.04188],
          [-123.69308, 42.04511],
          [-123.69924, 42.06641],
          [-123.67953, 42.08904],
          [-123.67672, 42.09228],
          [-123.657, 42.11491],
          [-123.65418, 42.11814],
          [-123.66034, 42.13943],
          [-123.64061, 42.16205],
          [-123.63779, 42.16528],
          [-123.61804, 42.18789],
          [-123.61522, 42.19112],
          [-123.59547, 42.21373],
          [-123.59265, 42.21696],
          [-123.57288, 42.23957],
          [-123.57006, 42.24279],
          [-123.55029, 42.26539],
          [-123.54746, 42.26862],
          [-123.52768, 42.29121],
          [-123.49892, 42.29575],
          [-123.49609, 42.29898],
          [-123.47629, 42.32156],
          [-123.47346, 42.32479],
          [-123.45365, 42.34736],
          [-123.45082, 42.35059],
          [-123.431, 42.37316],
          [-123.40221, 42.37768],
          [-123.39938, 42.3809],
          [-123.37954, 42.40346],
          [-123.35074, 42.40798],
          [-123.34791, 42.4112],
          [-123.32805, 42.43375],
          [-123.32521, 42.43697],
          [-123.30535, 42.45952],
          [-123.27653, 42.46402],
          [-123.27369, 42.46724],
          [-123.2538, 42.48977],
          [-123.22498, 42.49427],
          [-123.22213, 42.49749],
          [-123.20223, 42.52001],
          [-123.17339, 42.52449],
          [-123.17055, 42.52771],
          [-123.15063, 42.55023],
          [-123.14778, 42.55344],
          [-123.12785, 42.57595],
          [-123.125, 42.57917],
          [-123.10506, 42.60167],
          [-123.10221, 42.60489],
          [-123.08226, 42.62739],
          [-123.07941, 42.6306],
          [-123.05945, 42.65309],
          [-123.03057, 42.65755],
          [-123.02771, 42.66076],
          [-123.00774, 42.68324],
          [-122.97884, 42.68769],
          [-122.94994, 42.69214],
          [-122.94709, 42.69535],
          [-122.92708, 42.71782],
          [-122.89818, 42.72225],
          [-122.89532, 42.72546],
          [-122.87529, 42.74792],
          [-122.84638, 42.75235],
          [-122.81745, 42.75677],
          [-122.78853, 42.76119],
          [-122.78566, 42.76439],
          [-122.76561, 42.78683],
          [-122.73668, 42.79124],
          [-122.73381, 42.79445],
          [-122.71374, 42.81688],
          [-122.68479, 42.82128],
          [-122.68192, 42.82448],
          [-122.66183, 42.84691],
          [-122.63287, 42.8513],
          [-122.63, 42.8545],
          [-122.6099, 42.87691],
          [-122.60702, 42.88011],
          [-122.5869, 42.90252],
          [-122.55793, 42.9069],
          [-122.55505, 42.9101],
          [-122.53492, 42.93249],
          [-122.53204, 42.93569],
          [-122.51189, 42.95808],
          [-122.50901, 42.96128],
          [-122.48886, 42.98367],
          [-122.48598, 42.98686],
          [-122.46581, 43.00924],
          [-122.46293, 43.01244],
          [-122.44275, 43.03481],
          [-122.43987, 43.03801],
          [-122.44583, 43.05922],
          [-122.42563, 43.08158],
          [-122.42275, 43.08478],
          [-122.40255, 43.10714],
          [-122.39966, 43.11033],
          [-122.37945, 43.13268],
          [-122.37656, 43.13587],
          [-122.35634, 43.15822],
          [-122.35345, 43.16141],
          [-122.33322, 43.18375],
          [-122.33033, 43.18694],
          [-122.31009, 43.20928],
          [-122.30719, 43.21247],
          [-122.28694, 43.2348],
          [-122.28405, 43.23798],
          [-122.26378, 43.26031],
          [-122.26089, 43.2635],
          [-122.26682, 43.28468],
          [-122.24654, 43.30699],
          [-122.24364, 43.31018],
          [-122.22336, 43.33249],
          [-122.19424, 43.3368],
          [-122.19134, 43.33998],
          [-122.17103, 43.36228],
          [-122.16813, 43.36547],
          [-122.14781, 43.38776],
          [-122.11867, 43.39205],
          [-122.11577, 43.39524],
          [-122.09544, 43.41752],
          [-122.06629, 43.4218],
          [-122.06338, 43.42499],
          [-122.04303, 43.44726],
          [-122.04012, 43.45044],
          [-122.01976, 43.4727],
          [-121.99059, 43.47698],
          [-121.96142, 43.48125],
          [-121.93224, 43.48551],
          [-121.90158, 43.47071],
          [-121.8972, 43.4686],
          [-121.86802, 43.47285],
          [-121.83737, 43.45804],
          [-121.833, 43.45593],
          [-121.80382, 43.46017],
          [-121.77319, 43.44535],
          [-121.76881, 43.44323],
          [-121.73964, 43.44747],
          [-121.71047, 43.4517],
          [-121.68129, 43.45592],
          [-121.65211, 43.46014],
          [-121.64919, 43.46332],
          [-121.62874, 43.48554],
          [-121.59954, 43.48975],
          [-121.57035, 43.49396],
          [-121.56743, 43.49713],
          [-121.54695, 43.51934],
          [-121.51774, 43.52354],
          [-121.51482, 43.52671],
          [-121.49432, 43.5489],
          [-121.46511, 43.55309],
          [-121.46218, 43.55626],
          [-121.44166, 43.57845],
          [-121.43873, 43.58162],
          [-121.4182, 43.6038],
          [-121.41527, 43.60697],
          [-121.42104, 43.62814],
          [-121.4005, 43.65031],
          [-121.39757, 43.65347],
          [-121.37702, 43.67564],
          [-121.37408, 43.67881],
          [-121.35352, 43.70097],
          [-121.35058, 43.70413],
          [-121.33001, 43.72629],
          [-121.32707, 43.72945],
          [-121.30649, 43.7516],
          [-121.30355, 43.75476],
          [-121.28295, 43.7769],
          [-121.28001, 43.78006],
          [-121.25941, 43.8022],
          [-121.25646, 43.80536],
          [-121.23585, 43.82749],
          [-121.2329, 43.83065],
          [-121.21228, 43.85277],
          [-121.20933, 43.85593],
          [-121.1887, 43.87805],
          [-121.15937, 43.88218],
          [-121.15642, 43.88534],
          [-121.13577, 43.90745],
          [-121.10643, 43.91157],
          [-121.10348, 43.91473],
          [-121.08281, 43.93682],
          [-121.05346, 43.94094],
          [-121.02411, 43.94505],
          [-120.99475, 43.94915],
          [-120.9918, 43.95231],
          [-120.97109, 43.97438],
          [-120.94173, 43.97848],
          [-120.91236, 43.98257],
          [-120.88299, 43.98666],
          [-120.85362, 43.99074],
          [-120.85066, 43.99389],
          [-120.82991, 44.01595],
          [-120.80053, 44.02002],
          [-120.79756, 44.02317],
          [-120.7768, 44.04522],
          [-120.74741, 44.04928],
          [-120.71801, 44.05334],
          [-120.68861, 44.05739],
          [-120.68564, 44.06054],
          [-120.66484, 44.08257],
          [-120.63543, 44.08662],
          [-120.60602, 44.09066],
          [-120.60305, 44.0938],
          [-120.58223, 44.11582],
          [-120.5528, 44.11985],
          [-120.54983, 44.12299],
          [-120.52898, 44.145],
          [-120.49955, 44.14902],
          [-120.47011, 44.15304],
          [-120.44067, 44.15705],
          [-120.43769, 44.16019],
          [-120.41682, 44.18218],
          [-120.38737, 44.18618],
          [-120.38439, 44.18932],
          [-120.36349, 44.2113],
          [-120.33403, 44.21529],
          [-120.33104, 44.21843],
          [-120.31013, 44.2404],
          [-120.30715, 44.24354],
          [-120.28622, 44.2655],
          [-120.25674, 44.26948],
          [-120.25375, 44.27261],
          [-120.23281, 44.29456],
          [-120.20332, 44.29854],
          [-120.20033, 44.30167],
          [-120.17937, 44.32361],
          [-120.14986, 44.32757],
          [-120.14687, 44.33071],
          [-120.12589, 44.35264],
          [-120.09638, 44.35659],
          [-120.09338, 44.35972],
          [-120.07238, 44.38164],
          [-120.04286, 44.38559],
          [-120.01333, 44.38953],
          [-120.01033, 44.39266],
          [-119.98931, 44.41456],
          [-119.95977, 44.41849],
          [-119.95677, 44.42162],
          [-119.93573, 44.44352],
          [-119.90618, 44.44744],
          [-119.87663, 44.45136],
          [-119.84707, 44.45527],
          [-119.84406, 44.4584],
          [-119.82299, 44.48027],
          [-119.79342, 44.48418],
          [-119.76386, 44.48807],
          [-119.76084, 44.4912],
          [-119.75235, 44.5]
        ]
      }
    },
    {
      "type": "Feature",
      "id": "2026093018_f234_10000_005",
      "properties": {
        "product_id": "winter_storm_levels",
        "source_id": "nbm_snow_level",
        "parameter": "snow_level",
        "definition": "height of the wet-bulb 0.5 degree C surface",
        "level_ft_msl": 10000,
        "label": "10,000 ft MSL",
        "unit": "ft_msl",
        "cycle_time_utc": "2026-09-30T18:00:00Z",
        "valid_time_utc": "2026-10-10T12:00:00Z",
        "lead_hours": 234,
        "segment": 5,
        "length_m": 134864.1
      },
      "geometry": {
        "type": "LineString",
        "coordinates": [
          [-130, 37.14133],
          [-129.98085, 37.14535],
          [-129.96342, 37.16921],
          [-129.96093, 37.17262],
          [-129.93386, 37.1783],
          [-129.91641, 37.20215],
          [-129.91347, 37.20421],
          [-129.88683, 37.21123],
          [-129.86937, 37.23507],
          [-129.86687, 37.23848],
          [-129.83978, 37.24415],
          [-129.8223, 37.26798],
          [-129.8198, 37.27138],
          [-129.80231, 37.29521],
          [-129.79981, 37.29861],
          [-129.77581, 37.3137],
          [-129.75519, 37.32809],
          [-129.75269, 37.33149],
          [-129.73518, 37.3553],
          [-129.73267, 37.3587],
          [-129.70554, 37.36435],
          [-129.68801, 37.38815],
          [-129.68551, 37.39155],
          [-129.66797, 37.41535],
          [-129.66546, 37.41875],
          [-129.64791, 37.44255],
          [-129.64541, 37.44595],
          [-129.62785, 37.46974],
          [-129.62534, 37.47314],
          [-129.60778, 37.49692],
          [-129.60527, 37.50032],
          [-129.58769, 37.5241],
          [-129.58518, 37.5275],
          [-129.5676, 37.55128],
          [-129.56508, 37.55467],
          [-129.54749, 37.57844],
          [-129.55458, 37.59999],
          [-129.56166, 37.62154],
          [-129.56875, 37.64309],
          [-129.57585, 37.66463],
          [-129.60587, 37.67857],
          [-129.61016, 37.68056],
          [-129.61727, 37.70209],
          [-129.62437, 37.72363],
          [-129.63148, 37.74517],
          [-129.66154, 37.75908],
          [-129.66583, 37.76107],
          [-129.67295, 37.7826],
          [-129.68008, 37.80413],
          [-129.6872, 37.82565],
          [-129.69433, 37.84717],
          [-129.70147, 37.86869],
          [-129.7086, 37.89021],
          [-129.71574, 37.91173],
          [-129.74585, 37.92562],
          [-129.75015, 37.92761],
          [-129.78027, 37.94149],
          [-129.78458, 37.94348],
          [-129.81471, 37.95736],
          [-129.84198, 37.95171],
          [-129.84629, 37.95369],
          [-129.87643, 37.96756],
          [-129.9037, 37.9619],
          [-129.93097, 37.95623],
          [-129.95824, 37.95056],
          [-129.98551, 37.94489],
          [-130, 37.94187]
        ]
      }
    },
    {
      "type": "Feature",
      "id": "2026093018_f234_11000_001",
      "properties": {
        "product_id": "winter_storm_levels",
        "source_id": "nbm_snow_level",
        "parameter": "snow_level",
        "definition": "height of the wet-bulb 0.5 degree C surface",
        "level_ft_msl": 11000,
        "label": "11,000 ft MSL",
        "unit": "ft_msl",
        "cycle_time_utc": "2026-09-30T18:00:00Z",
        "valid_time_utc": "2026-10-10T12:00:00Z",
        "lead_hours": 234,
        "segment": 1,
        "length_m": 2571435.6
      },
      "geometry": {
        "type": "LineString",
        "coordinates": [
          [-126.28939, 30.16937],
          [-126.29451, 30.18821],
          [-126.27932, 30.2094],
          [-126.2537, 30.2146],
          [-126.24928, 30.22075],
          [-126.23408, 30.24194],
          [-126.22967, 30.24809],
          [-126.21446, 30.26927],
          [-126.21004, 30.27542],
          [-126.19483, 30.2966],
          [-126.16918, 30.30179],
          [-126.16476, 30.30793],
          [-126.14954, 30.32911],
          [-126.12501, 30.31596],
          [-126.11789, 30.31214],
          [-126.09224, 30.31731],
          [-126.06658, 30.32248],
          [-126.04093, 30.32764],
          [-126.01527, 30.3328],
          [-125.98961, 30.33796],
          [-125.9651, 30.32478],
          [-125.95798, 30.32096],
          [-125.93232, 30.32611],
          [-125.92789, 30.33225],
          [-125.91262, 30.3534],
          [-125.88695, 30.35853],
          [-125.86127, 30.36367],
          [-125.8356, 30.3688],
          [-125.80992, 30.37392],
          [-125.78543, 30.36072],
          [-125.77831, 30.35689],
          [-125.77387, 30.36302],
          [-125.75857, 30.38416],
          [-125.73288, 30.38927],
          [-125.7072, 30.39438],
          [-125.68151, 30.39948],
          [-125.65582, 30.40458],
          [-125.65137, 30.41072],
          [-125.63604, 30.43184],
          [-125.61034, 30.43693],
          [-125.60588, 30.44306],
          [-125.61179, 30.46522],
          [-125.61769, 30.48737],
          [-125.6236, 30.50953],
          [-125.60825, 30.53064],
          [-125.58253, 30.53573],
          [-125.57807, 30.54186],
          [-125.58397, 30.56401],
          [-125.5686, 30.58512],
          [-125.56414, 30.59125],
          [-125.57005, 30.6134],
          [-125.57595, 30.63555],
          [-125.58186, 30.65771],
          [-125.58777, 30.67986],
          [-125.57239, 30.70096],
          [-125.56792, 30.70709],
          [-125.55253, 30.72819],
          [-125.54806, 30.73431],
          [-125.55397, 30.75646],
          [-125.55988, 30.77861],
          [-125.54448, 30.79971],
          [-125.54001, 30.80583],
          [-125.54592, 30.82798],
          [-125.53051, 30.84907],
          [-125.52604, 30.8552],
          [-125.53195, 30.87734],
          [-125.53786, 30.89948],
          [-125.54377, 30.92163],
          [-125.54969, 30.94377],
          [-125.55561, 30.96591],
          [-125.56153, 30.98805],
          [-125.56867, 30.99188],
          [-125.5945, 30.9868],
          [-125.6191, 31.00002],
          [-125.62625, 31.00386],
          [-125.65207, 30.99877],
          [-125.67789, 30.99367],
          [-125.70371, 30.98858],
          [-125.72953, 30.98347],
          [-125.75415, 30.99667],
          [-125.7613, 31.0005],
          [-125.78712, 30.99539],
          [-125.81293, 30.99027],
          [-125.83757, 31.00345],
          [-125.84472, 31.00728],
          [-125.87054, 31.00215],
          [-125.875, 30.99602],
          [-125.89036, 30.9749],
          [-125.89482, 30.96877],
          [-125.91018, 30.94764],
          [-125.93598, 30.9425],
          [-125.96178, 30.93736],
          [-125.98642, 30.95052],
          [-125.99357, 30.95434],
          [-126.01937, 30.94919],
          [-126.04516, 30.94404],
          [-126.07095, 30.93888],
          [-126.0754, 30.93274],
          [-126.09072, 30.9116],
          [-126.1165, 30.90643],
          [-126.14115, 30.91957],
          [-126.14831, 30.92338],
          [-126.17297, 30.93651],
          [-126.18013, 30.94032],
          [-126.20592, 30.93514],
          [-126.2317, 30.92996],
          [-126.25748, 30.92477],
          [-126.28215, 30.93788],
          [-126.28931, 30.94169],
          [-126.31509, 30.93649],
          [-126.33977, 30.94959],
          [-126.34584, 30.9717],
          [-126.35301, 30.97551],
          [-126.37879, 30.9703],
          [-126.40458, 30.96509],
          [-126.43036, 30.95987],
          [-126.45506, 30.97296],
          [-126.46223, 30.97675],
          [-126.48801, 30.97153],
          [-126.51378, 30.9663],
          [-126.53849, 30.97937],
          [-126.54567, 30.98316],
          [-126.57145, 30.97792],
          [-126.59616, 30.99099],
          [-126.60334, 30.99478],
          [-126.62807, 31.00784],
          [-126.63419, 31.02993],
          [-126.64137, 31.03372],
          [-126.66716, 31.02847],
          [-126.6919, 31.04152],
          [-126.69908, 31.0453],
          [-126.72383, 31.05834],
          [-126.72998, 31.08043],
          [-126.73613, 31.10252],
          [-126.74331, 31.10631],
          [-126.76808, 31.11934],
          [-126.77424, 31.14143],
          [-126.7804, 31.16351],
          [-126.78759, 31.16729],
          [-126.81238, 31.18032],
          [-126.81957, 31.1841],
          [-126.84436, 31.19712],
          [-126.85156, 31.2009],
          [-126.87636, 31.21391],
          [-126.88356, 31.21769],
          [-126.90836, 31.2307],
          [-126.91455, 31.25277],
          [-126.92176, 31.25655],
          [-126.94657, 31.26955],
          [-126.95378, 31.27332],
          [-126.9786, 31.28632],
          [-126.98481, 31.30839],
          [-126.99202, 31.31216],
          [-127.01785, 31.30685],
          [-127.04368, 31.30154],
          [-127.06852, 31.31452],
          [-127.05332, 31.33574],
          [-127.04891, 31.3419],
          [-127.03371, 31.36312],
          [-127.0293, 31.36928],
          [-127.01409, 31.3905],
          [-126.98824, 31.39581],
          [-126.96239, 31.40111],
          [-126.95797, 31.40727],
          [-126.94274, 31.42848],
          [-126.91688, 31.43377],
          [-126.91245, 31.43993],
          [-126.91866, 31.46199],
          [-126.90342, 31.4832],
          [-126.87754, 31.48848],
          [-126.87311, 31.49464],
          [-126.85786, 31.51583],
          [-126.85343, 31.52199],
          [-126.83817, 31.54318],
          [-126.81228, 31.54846],
          [-126.80784, 31.55461],
          [-126.79257, 31.5758],
          [-126.76667, 31.58107],
          [-126.76223, 31.58722],
          [-126.74694, 31.6084],
          [-126.72103, 31.61366],
          [-126.69512, 31.61892],
          [-126.67026, 31.60588],
          [-126.66304, 31.6021],
          [-126.63713, 31.60735],
          [-126.61227, 31.59431],
          [-126.60506, 31.59052],
          [-126.58021, 31.57747],
          [-126.573, 31.57369],
          [-126.54709, 31.57892],
          [-126.52225, 31.56586],
          [-126.51504, 31.56207],
          [-126.48913, 31.5673],
          [-126.46321, 31.57252],
          [-126.43839, 31.55945],
          [-126.43118, 31.55565],
          [-126.40527, 31.56086],
          [-126.38045, 31.54778],
          [-126.37434, 31.5257],
          [-126.36714, 31.5219],
          [-126.34123, 31.5271],
          [-126.31643, 31.51401],
          [-126.30923, 31.51021],
          [-126.28332, 31.5154],
          [-126.25741, 31.52059],
          [-126.2315, 31.52577],
          [-126.22703, 31.53191],
          [-126.21166, 31.55304],
          [-126.18573, 31.55822],
          [-126.16094, 31.5451],
          [-126.15375, 31.5413],
          [-126.14928, 31.54743],
          [-126.13388, 31.56855],
          [-126.10795, 31.57372],
          [-126.08202, 31.57887],
          [-126.07755, 31.58501],
          [-126.06214, 31.60612],
          [-126.05766, 31.61225],
          [-126.04224, 31.63336],
          [-126.03776, 31.63949],
          [-126.02234, 31.6606],
          [-125.99638, 31.66574],
          [-125.9919, 31.67187],
          [-125.97646, 31.69297],
          [-125.97198, 31.6991],
          [-125.95653, 31.7202],
          [-125.95205, 31.72633],
          [-125.93659, 31.74742],
          [-125.9321, 31.75355],
          [-125.91664, 31.77464],
          [-125.91215, 31.78077],
          [-125.89668, 31.80186],
          [-125.89219, 31.80798],
          [-125.89822, 31.83007],
          [-125.90425, 31.85215],
          [-125.88877, 31.87324],
          [-125.88428, 31.87936],
          [-125.86879, 31.90045],
          [-125.86429, 31.90657],
          [-125.87032, 31.92865],
          [-125.85483, 31.94973],
          [-125.85033, 31.95585],
          [-125.83482, 31.97693],
          [-125.83032, 31.98305],
          [-125.81481, 32.00412],
          [-125.78877, 32.00923],
          [-125.78426, 32.01534],
          [-125.76874, 32.03641],
          [-125.74269, 32.04151],
          [-125.73818, 32.04762],
          [-125.72264, 32.06868],
          [-125.71813, 32.0748],
          [-125.70259, 32.09586],
          [-125.67652, 32.10094],
          [-125.672, 32.10705],
          [-125.65645, 32.12811],
          [-125.65193, 32.13422],
          [-125.63637, 32.15527],
          [-125.61028, 32.16034],
          [-125.5842, 32.16541],
          [-125.55811, 32.17048],
          [-125.53202, 32.17554],
          [-125.50592, 32.1806],
          [-125.5014, 32.1867],
          [-125.4858, 32.20774],
          [-125.48127, 32.21384],
          [-125.46566, 32.23487],
          [-125.46113, 32.24097],
          [-125.4671, 32.26306],
          [-125.47307, 32.28514],
          [-125.47904, 32.30722],
          [-125.48502, 32.3293],
          [-125.4694, 32.35032],
          [-125.46486, 32.35643],
          [-125.44923, 32.37745],
          [-125.42309, 32.38249],
          [-125.39694, 32.38753],
          [-125.3708, 32.39256],
          [-125.36625, 32.39866],
          [-125.3506, 32.41967],
          [-125.34605, 32.42577],
          [-125.33039, 32.44677],
          [-125.32585, 32.45287],
          [-125.31018, 32.47387],
          [-125.30563, 32.47997],
          [-125.28996, 32.50097],
          [-125.2854, 32.50706],
          [-125.26972, 32.52806],
          [-125.26517, 32.53415],
          [-125.24948, 32.55514],
          [-125.24492, 32.56124],
          [-125.22923, 32.58223],
          [-125.20303, 32.58723],
          [-125.19847, 32.59332],
          [-125.2044, 32.6154],
          [-125.18869, 32.63638],
          [-125.18413, 32.64247],
          [-125.19006, 32.66454],
          [-125.196, 32.68661],
          [-125.20194, 32.70868],
          [-125.18622, 32.72966],
          [-125.18165, 32.73575],
          [-125.18759, 32.75782],
          [-125.17186, 32.77879],
          [-125.16729, 32.78488],
          [-125.17323, 32.80695],
          [-125.15748, 32.82791],
          [-125.15291, 32.834],
          [-125.15885, 32.85606],
          [-125.1431, 32.87703],
          [-125.13852, 32.88312],
          [-125.14577, 32.88696],
          [-125.17074, 32.90019],
          [-125.17668, 32.92225],
          [-125.16092, 32.94321],
          [-125.15635, 32.9493],
          [-125.14058, 32.97026],
          [-125.136, 32.97634],
          [-125.14195, 32.9984],
          [-125.12617, 33.01935],
          [-125.12159, 33.02544],
          [-125.12753, 33.04749],
          [-125.11175, 33.06844],
          [-125.10716, 33.07452],
          [-125.11311, 33.09658],
          [-125.09731, 33.11752],
          [-125.09272, 33.12361],
          [-125.09867, 33.14565],
          [-125.08286, 33.1666],
          [-125.07827, 33.17268],
          [-125.08422, 33.19473],
          [-125.09016, 33.21677],
          [-125.09611, 33.23882],
          [-125.08029, 33.25975],
          [-125.0757, 33.26583],
          [-125.08165, 33.28787],
          [-125.08759, 33.30991],
          [-125.09355, 33.33195],
          [-125.07772, 33.35289],
          [-125.07312, 33.35896],
          [-125.07907, 33.381],
          [-125.06323, 33.40193],
          [-125.05863, 33.408],
          [-125.06458, 33.43004],
          [-125.04873, 33.45096],
          [-125.04413, 33.45704],
          [-125.05008, 33.47907],
          [-125.03422, 33.49999],
          [-125.02961, 33.50606],
          [-125.03556, 33.52809],
          [-125.01969, 33.54901],
          [-125.01508, 33.55508],
          [-124.99921, 33.57599],
          [-124.9946, 33.58207],
          [-124.97871, 33.60297],
          [-124.9741, 33.60904],
          [-124.95821, 33.62995],
          [-124.95359, 33.63602],
          [-124.95953, 33.65804],
          [-124.94363, 33.67895],
          [-124.93901, 33.68501],
          [-124.9231, 33.70591],
          [-124.91848, 33.71198],
          [-124.90257, 33.73287],
          [-124.87609, 33.73781],
          [-124.87146, 33.74387],
          [-124.85553, 33.76476],
          [-124.8509, 33.77082],
          [-124.83497, 33.79171],
          [-124.83034, 33.79777],
          [-124.81439, 33.81865],
          [-124.80976, 33.82471],
          [-124.79381, 33.84559],
          [-124.78917, 33.85165],
          [-124.77321, 33.87252],
          [-124.76858, 33.87858],
          [-124.75261, 33.89945],
          [-124.74797, 33.90551],
          [-124.732, 33.92638],
          [-124.72736, 33.93244],
          [-124.71137, 33.9533],
          [-124.70673, 33.95935],
          [-124.69074, 33.98021],
          [-124.6861, 33.98627],
          [-124.692, 34.00828],
          [-124.676, 34.02914],
          [-124.67136, 34.03519],
          [-124.67727, 34.0572],
          [-124.68318, 34.07921],
          [-124.68909, 34.10122],
          [-124.69501, 34.12322],
          [-124.70092, 34.14522],
          [-124.70684, 34.16723],
          [-124.71277, 34.18923],
          [-124.69674, 34.21007],
          [-124.69209, 34.21612],
          [-124.69801, 34.23812],
          [-124.70394, 34.26012],
          [-124.6879, 34.28096],
          [-124.68325, 34.28701],
          [-124.6672, 34.30784],
          [-124.66254, 34.31389],
          [-124.64649, 34.33473],
          [-124.64183, 34.34077],
          [-124.62577, 34.3616],
          [-124.62111, 34.36765],
          [-124.62703, 34.38964],
          [-124.61096, 34.41046],
          [-124.60629, 34.41651],
          [-124.61221, 34.4385],
          [-124.61813, 34.46048],
          [-124.62405, 34.48247],
          [-124.62997, 34.50445],
          [-124.61389, 34.52527],
          [-124.60922, 34.53131],
          [-124.61514, 34.55329],
          [-124.62107, 34.57527],
          [-124.62699, 34.59725],
          [-124.6109, 34.61806],
          [-124.60622, 34.6241],
          [-124.59011, 34.64491],
          [-124.5634, 34.64978],
          [-124.55873, 34.65582],
          [-124.54261, 34.67662],
          [-124.53793, 34.68266],
          [-124.5218, 34.70345],
          [-124.51712, 34.70949],
          [-124.50098, 34.73029],
          [-124.4963, 34.73632],
          [-124.48015, 34.75711],
          [-124.47547, 34.76315],
          [-124.45932, 34.78393],
          [-124.45463, 34.78997],
          [-124.43847, 34.81075],
          [-124.41171, 34.81559],
          [-124.40702, 34.82163],
          [-124.39084, 34.8424],
          [-124.36408, 34.84724],
          [-124.35938, 34.85327],
          [-124.3432, 34.87404],
          [-124.3385, 34.88007],
          [-124.3223, 34.90083],
          [-124.3176, 34.90686],
          [-124.3014, 34.92762],
          [-124.2967, 34.93365],
          [-124.28049, 34.95441],
          [-124.27578, 34.96043],
          [-124.25956, 34.98118],
          [-124.25485, 34.98721],
          [-124.23863, 35.00796],
          [-124.21182, 35.01277],
          [-124.2071, 35.01879],
          [-124.19087, 35.03953],
          [-124.16404, 35.04433],
          [-124.15933, 35.05036],
          [-124.14308, 35.07109],
          [-124.13836, 35.07711],
          [-124.1221, 35.09784],
          [-124.09526, 35.10263],
          [-124.09053, 35.10865],
          [-124.07426, 35.12938],
          [-124.04741, 35.13416],
          [-124.02056, 35.13893],
          [-123.99371, 35.1437],
          [-123.96685, 35.14847],
          [-123.93999, 35.15323],
          [-123.91467, 35.1399],
          [-123.90731, 35.13603],
          [-123.88046, 35.14078],
          [-123.8536, 35.14553],
          [-123.82673, 35.15027],
          [-123.80142, 35.13692],
          [-123.79407, 35.13305],
          [-123.76877, 35.11969],
          [-123.76142, 35.11581],
          [-123.73456, 35.12054],
          [-123.70927, 35.10718],
          [-123.70193, 35.1033],
          [-123.67507, 35.10802],
          [-123.64821, 35.11273],
          [-123.62293, 35.09935],
          [-123.61559, 35.09547],
          [-123.61084, 35.10147],
          [-123.59448, 35.12215],
          [-123.56761, 35.12685],
          [-123.56286, 35.13286],
          [-123.54648, 35.15353],
          [-123.54173, 35.15953],
          [-123.52535, 35.1802],
          [-123.49846, 35.18489],
          [-123.4937, 35.19089],
          [-123.4773, 35.21155],
          [-123.47254, 35.21755],
          [-123.45614, 35.2382],
          [-123.45138, 35.2442],
          [-123.43496, 35.26485],
          [-123.4302, 35.27085],
          [-123.41378, 35.2915],
          [-123.40901, 35.29749],
          [-123.41474, 35.31946],
          [-123.39831, 35.34011],
          [-123.39353, 35.3461],
          [-123.3771, 35.36674],
          [-123.37232, 35.37273],
          [-123.35588, 35.39337],
          [-123.3511, 35.39936],
          [-123.35682, 35.42132],
          [-123.34037, 35.44195],
          [-123.33559, 35.44794],
          [-123.34131, 35.4699],
          [-123.32484, 35.49053],
          [-123.32006, 35.49652],
          [-123.32578, 35.51847],
          [-123.3315, 35.54043],
          [-123.31502, 35.56105],
          [-123.31023, 35.56704],
          [-123.31595, 35.58899],
          [-123.32168, 35.61094],
          [-123.30519, 35.63155],
          [-123.3004, 35.63754],
          [-123.30612, 35.65948],
          [-123.28962, 35.68009],
          [-123.28483, 35.68608],
          [-123.29055, 35.70802],
          [-123.27404, 35.72862],
          [-123.26924, 35.73461],
          [-123.25272, 35.75521],
          [-123.22568, 35.75984],
          [-123.22089, 35.76582],
          [-123.20435, 35.78642],
          [-123.19955, 35.7924],
          [-123.18301, 35.81299],
          [-123.15596, 35.81761],
          [-123.1289, 35.82223],
          [-123.12409, 35.82821],
          [-123.10753, 35.84879],
          [-123.08047, 35.8534],
          [-123.07566, 35.85937],
          [-123.05908, 35.87995],
          [-123.05427, 35.88592],
          [-123.03769, 35.90649],
          [-123.0106, 35.91109],
          [-123.00579, 35.91706],
          [-122.98919, 35.93762],
          [-122.98437, 35.94359],
          [-122.96777, 35.96415],
          [-122.96295, 35.97011],
          [-122.94633, 35.99067],
          [-122.91923, 35.99525],
          [-122.9144, 36.00122],
          [-122.92006, 36.02315],
          [-122.90343, 36.04369],
          [-122.89861, 36.04966],
          [-122.88197, 36.0702],
          [-122.87714, 36.07616],
          [-122.8605, 36.0967],
          [-122.85566, 36.10266],
          [-122.83901, 36.1232],
          [-122.83417, 36.12916],
          [-122.83983, 36.15108],
          [-122.82317, 36.17161],
          [-122.81833, 36.17757],
          [-122.82398, 36.19949],
          [-122.80731, 36.22001],
          [-122.80247, 36.22597],
          [-122.80812, 36.24789],
          [-122.79143, 36.26841],
          [-122.78659, 36.27436],
          [-122.79224, 36.29628],
          [-122.77555, 36.31679],
          [-122.7707, 36.32274],
          [-122.754, 36.34325],
          [-122.74915, 36.34921],
          [-122.73244, 36.36971],
          [-122.72759, 36.37566],
          [-122.71087, 36.39616],
          [-122.70601, 36.40211],
          [-122.68929, 36.42261],
          [-122.68443, 36.42856],
          [-122.69007, 36.45047],
          [-122.67333, 36.47096],
          [-122.66847, 36.4769],
          [-122.67411, 36.49881],
          [-122.65737, 36.51929],
          [-122.6525, 36.52524],
          [-122.65814, 36.54714],
          [-122.64138, 36.56762],
          [-122.63652, 36.57356],
          [-122.61975, 36.59404],
          [-122.61488, 36.59998],
          [-122.62052, 36.62188],
          [-122.60374, 36.64235],
          [-122.59887, 36.64829],
          [-122.58209, 36.66876],
          [-122.57721, 36.6747],
          [-122.58284, 36.69659],
          [-122.56605, 36.71705],
          [-122.56117, 36.72299],
          [-122.54437, 36.74344],
          [-122.53949, 36.74938],
          [-122.54512, 36.77127],
          [-122.5283, 36.79172],
          [-122.52342, 36.79765],
          [-122.5066, 36.8181],
          [-122.50171, 36.82404],
          [-122.50734, 36.84592],
          [-122.49051, 36.86636],
          [-122.48562, 36.87229],
          [-122.46878, 36.89273],
          [-122.46389, 36.89866],
          [-122.44704, 36.9191],
          [-122.44215, 36.92503],
          [-122.44776, 36.9469],
          [-122.45338, 36.96877],
          [-122.43652, 36.9892],
          [-122.43163, 36.99513],
          [-122.41476, 37.01555],
          [-122.40986, 37.02148],
          [-122.41547, 37.04334],
          [-122.39859, 37.06376],
          [-122.39369, 37.06969],
          [-122.3768, 37.0901],
          [-122.3719, 37.09602],
          [-122.37751, 37.11788],
          [-122.36061, 37.13829],
          [-122.3557, 37.14422],
          [-122.36131, 37.16607],
          [-122.36693, 37.18793],
          [-122.35001, 37.20833],
          [-122.3451, 37.21425],
          [-122.35072, 37.2361],
          [-122.33379, 37.25649],
          [-122.32888, 37.26242],
          [-122.33449, 37.28426],
          [-122.31756, 37.30465],
          [-122.31264, 37.31057],
          [-122.31825, 37.33241],
          [-122.30131, 37.3528],
          [-122.29639, 37.35871],
          [-122.27943, 37.37909],
          [-122.27451, 37.38501],
          [-122.28012, 37.40685],
          [-122.26316, 37.42722],
          [-122.25823, 37.43314],
          [-122.24126, 37.45351],
          [-122.23633, 37.45942],
          [-122.21935, 37.47978],
          [-122.21442, 37.4857],
          [-122.22002, 37.50753],
          [-122.20303, 37.52789],
          [-122.1981, 37.5338],
          [-122.1811, 37.55415],
          [-122.17616, 37.56006],
          [-122.15916, 37.58041],
          [-122.13162, 37.58484],
          [-122.12668, 37.59075],
          [-122.10966, 37.61109],
          [-122.10471, 37.617],
          [-122.08768, 37.63733],
          [-122.06013, 37.64175],
          [-122.05518, 37.64766],
          [-122.03814, 37.66799],
          [-122.01057, 37.67239],
          [-122.00562, 37.6783],
          [-121.98856, 37.69862],
          [-121.98361, 37.70452],
          [-121.96654, 37.72484],
          [-121.96158, 37.73074],
          [-121.96714, 37.75255],
          [-121.95007, 37.77287],
          [-121.92247, 37.77726],
          [-121.91751, 37.78316],
          [-121.90042, 37.80346],
          [-121.89545, 37.80936],
          [-121.87836, 37.82966],
          [-121.87339, 37.83555],
          [-121.85628, 37.85585],
          [-121.85131, 37.86174],
          [-121.85686, 37.88355],
          [-121.83974, 37.90384],
          [-121.83477, 37.90973],
          [-121.81764, 37.93002],
          [-121.81267, 37.93591],
          [-121.79554, 37.95619],
          [-121.79056, 37.96208],
          [-121.7961, 37.98388],
          [-121.77895, 38.00416],
          [-121.77397, 38.01004],
          [-121.77951, 38.03184],
          [-121.76235, 38.05211],
          [-121.75737, 38.058],
          [-121.76291, 38.07979],
          [-121.76844, 38.10158],
          [-121.75127, 38.12184],
          [-121.74629, 38.12773],
          [-121.75183, 38.14951],
          [-121.75737, 38.1713],
          [-121.76291, 38.19308],
          [-121.74572, 38.21334],
          [-121.74073, 38.21922],
          [-121.72354, 38.23947],
          [-121.71854, 38.24535],
          [-121.72408, 38.26712],
          [-121.70688, 38.28737],
          [-121.70188, 38.29324],
          [-121.70742, 38.31502],
          [-121.71296, 38.33679],
          [-121.69574, 38.35702],
          [-121.69074, 38.3629],
          [-121.67351, 38.38313],
          [-121.66851, 38.38901],
          [-121.67404, 38.41077],
          [-121.67958, 38.43253],
          [-121.66234, 38.45276],
          [-121.65733, 38.45863],
          [-121.66287, 38.48039],
          [-121.64562, 38.50061],
          [-121.64061, 38.50648],
          [-121.64614, 38.52823],
          [-121.65168, 38.54998],
          [-121.63442, 38.5702],
          [-121.6294, 38.57606],
          [-121.63494, 38.59781],
          [-121.64048, 38.61956],
          [-121.6232, 38.63976],
          [-121.61818, 38.64563],
          [-121.62372, 38.66737],
          [-121.60643, 38.68757],
          [-121.60141, 38.69343],
          [-121.60695, 38.71517],
          [-121.58965, 38.73536],
          [-121.58462, 38.74122],
          [-121.56732, 38.76141],
          [-121.56229, 38.76727],
          [-121.56782, 38.789],
          [-121.5505, 38.80918],
          [-121.54547, 38.81504],
          [-121.52814, 38.83522],
          [-121.52311, 38.84108],
          [-121.50578, 38.86125],
          [-121.50074, 38.86711],
          [-121.48339, 38.88727],
          [-121.47836, 38.89313],
          [-121.48388, 38.91485],
          [-121.46652, 38.93501],
          [-121.46148, 38.94086],
          [-121.467, 38.96258],
          [-121.47253, 38.9843],
          [-121.45516, 39.00445],
          [-121.45011, 39.0103],
          [-121.43274, 39.03045],
          [-121.42769, 39.0363],
          [-121.4103, 39.05645],
          [-121.40525, 39.06229],
          [-121.38786, 39.08243],
          [-121.3828, 39.08828],
          [-121.38832, 39.10999],
          [-121.37091, 39.13012],
          [-121.36585, 39.13596],
          [-121.34844, 39.15609],
          [-121.34338, 39.16194],
          [-121.32596, 39.18206],
          [-121.3209, 39.1879],
          [-121.30346, 39.20802],
          [-121.2984, 39.21386],
          [-121.3039, 39.23556],
          [-121.28646, 39.25567],
          [-121.28139, 39.26151],
          [-121.2869, 39.2832],
          [-121.26944, 39.30331],
          [-121.26437, 39.30915],
          [-121.26987, 39.33083],
          [-121.2524, 39.35093],
          [-121.24733, 39.35677],
          [-121.22986, 39.37687],
          [-121.22478, 39.3827],
          [-121.23028, 39.40438],
          [-121.21279, 39.42447],
          [-121.20771, 39.4303],
          [-121.19022, 39.45039],
          [-121.18514, 39.45622],
          [-121.16763, 39.4763],
          [-121.16255, 39.48213],
          [-121.16804, 39.5038],
          [-121.15052, 39.52387],
          [-121.14544, 39.5297],
          [-121.12791, 39.54977],
          [-121.12283, 39.5556],
          [-121.10529, 39.57566],
          [-121.1002, 39.58149],
          [-121.10568, 39.60315],
          [-121.08814, 39.62321],
          [-121.08304, 39.62903],
          [-121.06549, 39.64908],
          [-121.0604, 39.65491],
          [-121.04283, 39.67496],
          [-121.0147, 39.67917],
          [-121.0096, 39.68498],
          [-120.99202, 39.70503],
          [-120.98692, 39.71084],
          [-120.99238, 39.7325],
          [-120.97479, 39.75253],
          [-120.96969, 39.75835],
          [-120.95209, 39.77838],
          [-120.94698, 39.78419],
          [-120.92938, 39.80422],
          [-120.92426, 39.81003],
          [-120.90665, 39.83005],
          [-120.90153, 39.83586],
          [-120.88391, 39.85588],
          [-120.8788, 39.86169],
          [-120.86116, 39.8817],
          [-120.85604, 39.88751],
          [-120.83841, 39.90751],
          [-120.83328, 39.91332],
          [-120.81563, 39.93332],
          [-120.81051, 39.93913],
          [-120.79285, 39.95912],
          [-120.78772, 39.96493],
          [-120.77006, 39.98492],
          [-120.76493, 39.99072],
          [-120.74725, 40.01071],
          [-120.74212, 40.01651],
          [-120.74755, 40.03814],
          [-120.72986, 40.05812],
          [-120.72473, 40.06392],
          [-120.73016, 40.08554],
          [-120.71246, 40.10551],
          [-120.70732, 40.11131],
          [-120.71275, 40.13293],
          [-120.69504, 40.15289],
          [-120.68989, 40.15869],
          [-120.69532, 40.1803],
          [-120.6776, 40.20026],
          [-120.67245, 40.20606],
          [-120.65472, 40.22601],
          [-120.64958, 40.23181],
          [-120.63184, 40.25176],
          [-120.60353, 40.25589],
          [-120.59837, 40.26168],
          [-120.58062, 40.28162],
          [-120.5523, 40.28574],
          [-120.54714, 40.29153],
          [-120.52938, 40.31147],
          [-120.52422, 40.31725],
          [-120.50644, 40.33718],
          [-120.50128, 40.34297],
          [-120.48349, 40.36289],
          [-120.47833, 40.36868],
          [-120.46053, 40.38859],
          [-120.43218, 40.3927],
          [-120.42701, 40.39848],
          [-120.4092, 40.41839],
          [-120.40403, 40.42417],
          [-120.38621, 40.44407],
          [-120.35783, 40.44816],
          [-120.35266, 40.45394],
          [-120.33483, 40.47384],
          [-120.32965, 40.47962],
          [-120.3118, 40.49951],
          [-120.30662, 40.50528],
          [-120.28877, 40.52517],
          [-120.28359, 40.53094],
          [-120.26573, 40.55083],
          [-120.23732, 40.55489],
          [-120.23213, 40.56067],
          [-120.21426, 40.58054],
          [-120.20907, 40.58631],
          [-120.19118, 40.60618],
          [-120.18599, 40.61195],
          [-120.16809, 40.63181],
          [-120.13966, 40.63586],
          [-120.13446, 40.64163],
          [-120.11656, 40.66148],
          [-120.11136, 40.66725],
          [-120.09344, 40.6871],
          [-120.06499, 40.69114],
          [-120.05978, 40.6969],
          [-120.04185, 40.71674],
          [-120.01339, 40.72077],
          [-120.00818, 40.72653],
          [-119.99023, 40.74636],
          [-119.96176, 40.75038],
          [-119.95655, 40.75614],
          [-119.93858, 40.77597],
          [-119.9101, 40.77998],
          [-119.90488, 40.78573],
          [-119.88691, 40.80555],
          [-119.85841, 40.80955],
          [-119.82992, 40.81355],
          [-119.82469, 40.8193],
          [-119.8067, 40.83911],
          [-119.77819, 40.8431],
          [-119.77296, 40.84884],
          [-119.75495, 40.86864],
          [-119.72643, 40.87262],
          [-119.7212, 40.87837],
          [-119.70317, 40.89816],
          [-119.69794, 40.9039],
          [-119.6799, 40.92369],
          [-119.65136, 40.92765],
          [-119.64612, 40.9334],
          [-119.62807, 40.95317],
          [-119.62283, 40.95891],
          [-119.60476, 40.97869],
          [-119.57621, 40.98264],
          [-119.57097, 40.98838],
          [-119.55289, 41.00814],
          [-119.52433, 41.01209],
          [-119.49576, 41.01603],
          [-119.49051, 41.02176],
          [-119.47241, 41.04151],
          [-119.44384, 41.04544],
          [-119.41526, 41.04937],
          [-119.38668, 41.05329],
          [-119.38142, 41.05902],
          [-119.36329, 41.07876],
          [-119.3347, 41.08267],
          [-119.30611, 41.08658],
          [-119.27752, 41.09048],
          [-119.27225, 41.09621],
          [-119.2541, 41.11593],
          [-119.22549, 41.11982],
          [-119.19689, 41.12371],
          [-119.19161, 41.12944],
          [-119.17344, 41.14915],
          [-119.14482, 41.15303],
          [-119.1162, 41.1569],
          [-119.11092, 41.16262],
          [-119.09272, 41.18232],
          [-119.0641, 41.18619],
          [-119.05881, 41.19191],
          [-119.0406, 41.2116],
          [-119.01196, 41.21545],
          [-119.00667, 41.22117],
          [-118.98844, 41.24085],
          [-118.95979, 41.2447],
          [-118.93114, 41.24854],
          [-118.90249, 41.25238],
          [-118.87383, 41.25622],
          [-118.84518, 41.26005],
          [-118.83987, 41.26576],
          [-118.82161, 41.28542],
          [-118.79294, 41.28924],
          [-118.76427, 41.29306],
          [-118.75896, 41.29876],
          [-118.74067, 41.31841],
          [-118.71199, 41.32222],
          [-118.68331, 41.32602],
          [-118.67799, 41.33173],
          [-118.65968, 41.35136],
          [-118.63099, 41.35516],
          [-118.6023, 41.35895],
          [-118.59698, 41.36465],
          [-118.57864, 41.38427],
          [-118.54994, 41.38805],
          [-118.52123, 41.39183],
          [-118.51591, 41.39752],
          [-118.49755, 41.41714],
          [-118.46884, 41.4209],
          [-118.44012, 41.42467],
          [-118.43478, 41.43036],
          [-118.41641, 41.44996],
          [-118.38768, 41.45371],
          [-118.35895, 41.45746],
          [-118.35361, 41.46315],
          [-118.33521, 41.48274],
          [-118.30647, 41.48648],
          [-118.27773, 41.49022],
          [-118.27238, 41.4959],
          [-118.25396, 41.51548],
          [-118.22521, 41.5192],
          [-118.21986, 41.52489],
          [-118.20142, 41.54445],
          [-118.17266, 41.54817],
          [-118.14389, 41.55189],
          [-118.11513, 41.55559],
          [-118.10977, 41.56127],
          [-118.0913, 41.58083],
          [-118.06253, 41.58453],
          [-118.03375, 41.58822],
          [-118.02838, 41.59389],
          [-118.0099, 41.61344],
          [-117.98111, 41.61712],
          [-117.97574, 41.62279],
          [-117.95724, 41.64233],
          [-117.92844, 41.646],
          [-117.89964, 41.64968],
          [-117.87083, 41.65335],
          [-117.84203, 41.65701],
          [-117.81322, 41.66067],
          [-117.78441, 41.66432],
          [-117.7556, 41.66797],
          [-117.72678, 41.67162],
          [-117.69796, 41.67526],
          [-117.66915, 41.67889],
          [-117.64033, 41.68252],
          [-117.6115, 41.68615],
          [-117.58268, 41.68977],
          [-117.55385, 41.69339],
          [-117.52502, 41.697],
          [-117.49619, 41.70061],
          [-117.49079, 41.70626],
          [-117.47218, 41.72573],
          [-117.44334, 41.72933],
          [-117.43793, 41.73498],
          [-117.41931, 41.75445],
          [-117.39046, 41.75804],
          [-117.38505, 41.76369],
          [-117.36641, 41.78315],
          [-117.33755, 41.78673],
          [-117.30869, 41.7903],
          [-117.27982, 41.79387],
          [-117.25095, 41.79744],
          [-117.22208, 41.801],
          [-117.19321, 41.80456],
          [-117.16714, 41.79063],
          [-117.15958, 41.78659],
          [-117.13352, 41.77266],
          [-117.12876, 41.75113],
          [-117.1212, 41.74708],
          [-117.09234, 41.75062],
          [-117.06348, 41.75416],
          [-117.03462, 41.75769],
          [-117.00575, 41.76122],
          [-117.00032, 41.76686],
          [-116.98161, 41.78628],
          [-116.95273, 41.7898],
          [-116.92385, 41.79331],
          [-116.89782, 41.77934],
          [-116.89027, 41.77529],
          [-116.86139, 41.77879],
          [-116.83251, 41.78229],
          [-116.82707, 41.78793],
          [-116.80832, 41.80732],
          [-116.77943, 41.81081],
          [-116.75054, 41.8143],
          [-116.72453, 41.80031],
          [-116.71698, 41.79625],
          [-116.6881, 41.79973],
          [-116.68264, 41.80535],
          [-116.66386, 41.82473],
          [-116.63497, 41.8282],
          [-116.62951, 41.83383],
          [-116.61071, 41.8532],
          [-116.5818, 41.85666],
          [-116.57634, 41.86228],
          [-116.55753, 41.88164],
          [-116.55207, 41.88726],
          [-116.53325, 41.90662],
          [-116.52778, 41.91224],
          [-116.53241, 41.93376],
          [-116.51358, 41.95311],
          [-116.50811, 41.95873],
          [-116.48926, 41.97808],
          [-116.48379, 41.98369],
          [-116.46494, 42.00303],
          [-116.45946, 42.00865],
          [-116.46409, 42.03016],
          [-116.44522, 42.04949],
          [-116.43974, 42.0551],
          [-116.44436, 42.07661],
          [-116.42549, 42.09594],
          [-116.42, 42.10155],
          [-116.40112, 42.12087],
          [-116.39563, 42.12648],
          [-116.37673, 42.14579],
          [-116.34773, 42.14921],
          [-116.34225, 42.15481],
          [-116.32333, 42.17412],
          [-116.31784, 42.17972],
          [-116.29892, 42.19902],
          [-116.2699, 42.20243],
          [-116.24088, 42.20582],
          [-116.21484, 42.19179],
          [-116.20728, 42.18772],
          [-116.17826, 42.19111],
          [-116.17276, 42.19671],
          [-116.15381, 42.21599],
          [-116.12478, 42.21937],
          [-116.09575, 42.22275],
          [-116.09025, 42.22834],
          [-116.07127, 42.24761],
          [-116.04223, 42.25098],
          [-116.03672, 42.25657],
          [-116.01773, 42.27583],
          [-116.01221, 42.28143],
          [-115.99321, 42.30068],
          [-115.9877, 42.30627],
          [-115.96869, 42.32552],
          [-115.96317, 42.33111],
          [-115.9677, 42.3526],
          [-115.94868, 42.37184],
          [-115.94315, 42.37743],
          [-115.92412, 42.39667],
          [-115.9186, 42.40225],
          [-115.89955, 42.42149],
          [-115.89403, 42.42707],
          [-115.87497, 42.4463],
          [-115.84587, 42.44963],
          [-115.84034, 42.45521],
          [-115.82127, 42.47443],
          [-115.81573, 42.48001],
          [-115.79666, 42.49922],
          [-115.79112, 42.5048],
          [-115.77203, 42.52401],
          [-115.76649, 42.52959],
          [-115.7474, 42.54879],
          [-115.71826, 42.5521],
          [-115.68912, 42.5554],
          [-115.68357, 42.56097],
          [-115.66446, 42.58017],
          [-115.63531, 42.58346],
          [-115.60616, 42.58675],
          [-115.6006, 42.59232],
          [-115.58146, 42.6115],
          [-115.5523, 42.61478],
          [-115.52314, 42.61805],
          [-115.49397, 42.62133],
          [-115.4648, 42.62459],
          [-115.43876, 42.61049],
          [-115.43121, 42.60639],
          [-115.40204, 42.60965],
          [-115.37601, 42.59553],
          [-115.36846, 42.59143],
          [-115.34244, 42.57731],
          [-115.33489, 42.57321],
          [-115.30573, 42.57645],
          [-115.27657, 42.57969],
          [-115.24741, 42.58293],
          [-115.22141, 42.56879],
          [-115.21386, 42.56468],
          [-115.18787, 42.55053],
          [-115.18033, 42.54643],
          [-115.15118, 42.54964],
          [-115.12202, 42.55286],
          [-115.09286, 42.55607],
          [-115.06689, 42.5419],
          [-115.05935, 42.53779],
          [-115.03019, 42.54099],
          [-115.00104, 42.54419],
          [-114.97187, 42.54738],
          [-114.94271, 42.55056],
          [-114.91355, 42.55374],
          [-114.8876, 42.53955],
          [-114.88007, 42.53543],
          [-114.85091, 42.5386],
          [-114.82175, 42.54177],
          [-114.79582, 42.52757],
          [-114.7883, 42.52344],
          [-114.76238, 42.50923],
          [-114.75485, 42.50511],
          [-114.72895, 42.49089],
          [-114.72143, 42.48676],
          [-114.69227, 42.48991],
          [-114.66638, 42.47568],
          [-114.65886, 42.47155],
          [-114.62971, 42.47469],
          [-114.60383, 42.46045],
          [-114.59632, 42.45632],
          [-114.56717, 42.45945],
          [-114.5413, 42.4452],
          [-114.53379, 42.44106],
          [-114.50464, 42.44418],
          [-114.4755, 42.4473],
          [-114.44635, 42.4504],
          [-114.4172, 42.45351],
          [-114.39135, 42.43924],
          [-114.38385, 42.4351],
          [-114.3547, 42.43819],
          [-114.32555, 42.44128],
          [-114.2964, 42.44437],
          [-114.27057, 42.43008],
          [-114.26307, 42.42593],
          [-114.23392, 42.42901],
          [-114.20477, 42.43208],
          [-114.17896, 42.41778],
          [-114.17147, 42.41363],
          [-114.14232, 42.41669],
          [-114.11652, 42.40238],
          [-114.10904, 42.39822],
          [-114.07989, 42.40128],
          [-114.0541, 42.38696],
          [-114.04662, 42.3828],
          [-114.02084, 42.36847],
          [-114.01336, 42.36431],
          [-113.9876, 42.34998],
          [-113.98012, 42.34582],
          [-113.95098, 42.34885],
          [-113.92523, 42.33451],
          [-113.92114, 42.31297],
          [-113.91366, 42.30881],
          [-113.88793, 42.29445],
          [-113.88045, 42.29029],
          [-113.85473, 42.27593],
          [-113.85065, 42.25438],
          [-113.84318, 42.25021],
          [-113.81747, 42.23585],
          [-113.81001, 42.23168],
          [-113.78431, 42.21731],
          [-113.77685, 42.21313],
          [-113.75115, 42.19875],
          [-113.74369, 42.19458],
          [-113.71801, 42.18019],
          [-113.71055, 42.17602],
          [-113.68146, 42.17901],
          [-113.65579, 42.16461],
          [-113.64834, 42.16043],
          [-113.61925, 42.16342],
          [-113.59016, 42.1664],
          [-113.56106, 42.16937],
          [-113.53197, 42.17234],
          [-113.50632, 42.15792],
          [-113.49887, 42.15373],
          [-113.49322, 42.15925],
          [-113.47377, 42.17826],
          [-113.44467, 42.18121],
          [-113.41556, 42.18416],
          [-113.38646, 42.18711],
          [-113.35735, 42.19005],
          [-113.32825, 42.19299],
          [-113.29914, 42.19592],
          [-113.29348, 42.20143],
          [-113.27397, 42.22041],
          [-113.24485, 42.22333],
          [-113.21573, 42.22625],
          [-113.18661, 42.22916],
          [-113.18094, 42.23467],
          [-113.16141, 42.25363],
          [-113.15574, 42.25914],
          [-113.1362, 42.2781],
          [-113.13053, 42.2836],
          [-113.11098, 42.30255],
          [-113.08183, 42.30545],
          [-113.07615, 42.31095],
          [-113.05659, 42.32989],
          [-113.0509, 42.33539],
          [-113.03133, 42.35433],
          [-113.02565, 42.35983],
          [-113.00606, 42.37877],
          [-113.00037, 42.38426],
          [-112.98078, 42.40319],
          [-112.97509, 42.40869],
          [-112.95549, 42.42761],
          [-112.9498, 42.4331],
          [-112.93018, 42.45202],
          [-112.92449, 42.45751],
          [-112.90486, 42.47642],
          [-112.89917, 42.48191],
          [-112.87953, 42.50082],
          [-112.87383, 42.50631],
          [-112.87771, 42.52784],
          [-112.85806, 42.54674],
          [-112.82884, 42.54959],
          [-112.82313, 42.55508],
          [-112.80347, 42.57397],
          [-112.77423, 42.57681],
          [-112.76852, 42.58229],
          [-112.74885, 42.60117],
          [-112.7196, 42.60401],
          [-112.71389, 42.60949],
          [-112.69419, 42.62836],
          [-112.66494, 42.63118],
          [-112.65922, 42.63666],
          [-112.63951, 42.65552],
          [-112.61025, 42.65834],
          [-112.58098, 42.66115],
          [-112.57525, 42.66662],
          [-112.55552, 42.68547],
          [-112.52625, 42.68827],
          [-112.49697, 42.69107],
          [-112.46769, 42.69386],
          [-112.43841, 42.69664],
          [-112.40913, 42.69942],
          [-112.37985, 42.7022],
          [-112.35056, 42.70497],
          [-112.32128, 42.70774],
          [-112.29199, 42.7105],
          [-112.2627, 42.71326],
          [-112.23341, 42.71601],
          [-112.20411, 42.71876],
          [-112.17482, 42.7215],
          [-112.14552, 42.72424],
          [-112.11622, 42.72698],
          [-112.08692, 42.7297],
          [-112.05762, 42.73243],
          [-112.02832, 42.73515],
          [-112, 42.73777]
        ]
      }
    },
    {
      "type": "Feature",
      "id": "2026093018_f234_12000_001",
      "properties": {
        "product_id": "winter_storm_levels",
        "source_id": "nbm_snow_level",
        "parameter": "snow_level",
        "definition": "height of the wet-bulb 0.5 degree C surface",
        "level_ft_msl": 12000,
        "label": "12,000 ft MSL",
        "unit": "ft_msl",
        "cycle_time_utc": "2026-09-30T18:00:00Z",
        "valid_time_utc": "2026-10-10T12:00:00Z",
        "lead_hours": 234,
        "segment": 1,
        "length_m": 194255.1
      },
      "geometry": {
        "type": "LineString",
        "coordinates": [
          [-113.80564, 30.09346],
          [-113.79906, 30.10101],
          [-113.78393, 30.11834],
          [-113.75788, 30.12147],
          [-113.7506, 30.12982],
          [-113.73546, 30.14714],
          [-113.7094, 30.15027],
          [-113.68335, 30.1534],
          [-113.65729, 30.15652],
          [-113.63123, 30.15964],
          [-113.60518, 30.16275],
          [-113.57911, 30.16586],
          [-113.57181, 30.17419],
          [-113.55664, 30.1915],
          [-113.53057, 30.1946],
          [-113.52327, 30.20293],
          [-113.50809, 30.22023],
          [-113.48201, 30.22332],
          [-113.45593, 30.22641],
          [-113.44862, 30.23474],
          [-113.43342, 30.25203],
          [-113.40734, 30.25511],
          [-113.38125, 30.25818],
          [-113.35516, 30.26126],
          [-113.32907, 30.26432],
          [-113.32175, 30.27264],
          [-113.30653, 30.28992],
          [-113.28043, 30.29298],
          [-113.25433, 30.29603],
          [-113.22823, 30.29908],
          [-113.20213, 30.30213],
          [-113.17603, 30.30517],
          [-113.14992, 30.30821],
          [-113.14258, 30.31652],
          [-113.12733, 30.33378],
          [-113.10122, 30.33681],
          [-113.07511, 30.33983],
          [-113.04899, 30.34285],
          [-113.02288, 30.34587],
          [-112.99676, 30.34888],
          [-112.97064, 30.35189],
          [-112.94452, 30.35489],
          [-112.93716, 30.36319],
          [-112.92188, 30.38043],
          [-112.89575, 30.38343],
          [-112.86962, 30.38642],
          [-112.86225, 30.39471],
          [-112.84695, 30.41194],
          [-112.82082, 30.41492],
          [-112.81344, 30.42322],
          [-112.79813, 30.44044],
          [-112.77199, 30.44342],
          [-112.74584, 30.44638],
          [-112.73846, 30.45467],
          [-112.72313, 30.47189],
          [-112.69698, 30.47485],
          [-112.6896, 30.48314],
          [-112.67425, 30.50035],
          [-112.64809, 30.5033],
          [-112.62193, 30.50625],
          [-112.59577, 30.50919],
          [-112.56961, 30.51213],
          [-112.54344, 30.51507],
          [-112.51727, 30.518],
          [-112.49732, 30.50476],
          [-112.48771, 30.49838],
          [-112.46155, 30.50131],
          [-112.4416, 30.48806],
          [-112.432, 30.48168],
          [-112.40584, 30.48459],
          [-112.3859, 30.47134],
          [-112.3763, 30.46495],
          [-112.35014, 30.46786],
          [-112.32398, 30.47076],
          [-112.29782, 30.47365],
          [-112.27165, 30.47654],
          [-112.24549, 30.47943],
          [-112.21932, 30.48231],
          [-112.19941, 30.46903],
          [-112.18982, 30.46264],
          [-112.16366, 30.46551],
          [-112.13749, 30.46838],
          [-112.11133, 30.47124],
          [-112.08516, 30.4741],
          [-112.05899, 30.47696],
          [-112.03282, 30.47981],
          [-112.00665, 30.48265],
          [-112, 30.48337]
        ]
      }
    }
  ]
}

