{
  "type": "FeatureCollection",
  "contract_version": "1.0.0",
  "bbox": [-125.79972, 30.18521, -112, 44.46933],
  "features": [
    {
      "type": "Feature",
      "id": "2026090112_f216_11000_001",
      "properties": {
        "product_id": "winter_storm_levels",
        "source_id": "nbm_snow_level",
        "parameter": "snow_level",
        "definition": "height of the wet-bulb 0.5 degree C surface",
        "level_ft_msl": 11000,
        "label": "11,000 ft MSL",
        "unit": "ft_msl",
        "cycle_time_utc": "2026-09-01T12:00:00Z",
        "valid_time_utc": "2026-09-10T12:00:00Z",
        "lead_hours": 216,
        "segment": 1,
        "length_m": 2584228.6
      },
      "geometry": {
        "type": "LineString",
        "coordinates": [
          [-125.79724, 30.18521],
          [-125.79972, 30.19448],
          [-125.79184, 30.2054],
          [-125.78, 30.22177],
          [-125.78593, 30.24392],
          [-125.79186, 30.26608],
          [-125.78397, 30.27699],
          [-125.77213, 30.29336],
          [-125.77806, 30.31552],
          [-125.77016, 30.32642],
          [-125.75831, 30.34279],
          [-125.75042, 30.3537],
          [-125.73856, 30.37006],
          [-125.73066, 30.38096],
          [-125.70498, 30.38607],
          [-125.69312, 30.40243],
          [-125.68521, 30.41333],
          [-125.65951, 30.41843],
          [-125.64764, 30.43478],
          [-125.63973, 30.44568],
          [-125.62785, 30.46203],
          [-125.61993, 30.47293],
          [-125.60805, 30.48928],
          [-125.61396, 30.51144],
          [-125.60603, 30.52233],
          [-125.59414, 30.53868],
          [-125.60005, 30.56083],
          [-125.60596, 30.58299],
          [-125.59803, 30.59388],
          [-125.58613, 30.61022],
          [-125.59204, 30.63238],
          [-125.59795, 30.65453],
          [-125.60387, 30.67668],
          [-125.60978, 30.69883],
          [-125.60184, 30.70972],
          [-125.58993, 30.72606],
          [-125.58199, 30.73695],
          [-125.57008, 30.75329],
          [-125.56213, 30.76418],
          [-125.55022, 30.78051],
          [-125.54227, 30.7914],
          [-125.53034, 30.80774],
          [-125.53625, 30.82988],
          [-125.54216, 30.85203],
          [-125.53421, 30.86291],
          [-125.52227, 30.87924],
          [-125.52818, 30.90139],
          [-125.53409, 30.92353],
          [-125.52613, 30.93442],
          [-125.51419, 30.95074],
          [-125.50623, 30.96163],
          [-125.49428, 30.97795],
          [-125.50019, 31.00009],
          [-125.5061, 31.02223],
          [-125.51202, 31.04437],
          [-125.51793, 31.06651],
          [-125.52385, 31.08864],
          [-125.51588, 31.09952],
          [-125.50392, 31.11584],
          [-125.50984, 31.13798],
          [-125.50186, 31.14886],
          [-125.48989, 31.16518],
          [-125.48191, 31.17606],
          [-125.45604, 31.18111],
          [-125.44407, 31.19743],
          [-125.43608, 31.2083],
          [-125.4102, 31.21336],
          [-125.39821, 31.22967],
          [-125.39022, 31.24054],
          [-125.37823, 31.25685],
          [-125.38413, 31.27898],
          [-125.37613, 31.28985],
          [-125.35023, 31.29489],
          [-125.33823, 31.31119],
          [-125.33022, 31.32206],
          [-125.30431, 31.32709],
          [-125.2923, 31.34339],
          [-125.28429, 31.35426],
          [-125.27227, 31.37055],
          [-125.26425, 31.38142],
          [-125.25223, 31.39771],
          [-125.24421, 31.40857],
          [-125.23218, 31.42486],
          [-125.22416, 31.43572],
          [-125.21212, 31.45201],
          [-125.20409, 31.46287],
          [-125.19205, 31.47915],
          [-125.18402, 31.49001],
          [-125.17197, 31.50629],
          [-125.17785, 31.52842],
          [-125.16981, 31.53928],
          [-125.15776, 31.55556],
          [-125.14972, 31.56641],
          [-125.13766, 31.58269],
          [-125.12962, 31.59354],
          [-125.11755, 31.60982],
          [-125.1095, 31.62067],
          [-125.09743, 31.63694],
          [-125.08938, 31.64779],
          [-125.07731, 31.66406],
          [-125.08317, 31.68618],
          [-125.07512, 31.69703],
          [-125.06303, 31.7133],
          [-125.0689, 31.73542],
          [-125.06084, 31.74627],
          [-125.04874, 31.76253],
          [-125.04068, 31.77338],
          [-125.02858, 31.78964],
          [-125.02052, 31.80048],
          [-125.00841, 31.81674],
          [-125.00034, 31.82758],
          [-124.98823, 31.84384],
          [-124.98016, 31.85468],
          [-124.96804, 31.87093],
          [-124.95997, 31.88177],
          [-124.94785, 31.89802],
          [-124.9537, 31.92014],
          [-124.94561, 31.93097],
          [-124.93349, 31.94722],
          [-124.9254, 31.95806],
          [-124.91327, 31.97431],
          [-124.90517, 31.98514],
          [-124.89304, 32.00138],
          [-124.88494, 32.01221],
          [-124.8728, 32.02845],
          [-124.8647, 32.03928],
          [-124.85255, 32.05552],
          [-124.84445, 32.06635],
          [-124.83229, 32.08259],
          [-124.82418, 32.09341],
          [-124.79808, 32.09835],
          [-124.78591, 32.11459],
          [-124.7778, 32.12541],
          [-124.75168, 32.13034],
          [-124.73951, 32.14657],
          [-124.73139, 32.15739],
          [-124.71921, 32.17361],
          [-124.71108, 32.18443],
          [-124.6989, 32.20065],
          [-124.69077, 32.21147],
          [-124.67858, 32.22769],
          [-124.67045, 32.2385],
          [-124.65825, 32.25472],
          [-124.65011, 32.26553],
          [-124.62396, 32.27044],
          [-124.61175, 32.28666],
          [-124.60361, 32.29746],
          [-124.59139, 32.31368],
          [-124.58325, 32.32448],
          [-124.57103, 32.34069],
          [-124.56288, 32.3515],
          [-124.5367, 32.35639],
          [-124.52447, 32.3726],
          [-124.51632, 32.3834],
          [-124.50408, 32.3996],
          [-124.49592, 32.4104],
          [-124.48368, 32.4266],
          [-124.47552, 32.43739],
          [-124.46327, 32.45359],
          [-124.4551, 32.46439],
          [-124.44285, 32.48058],
          [-124.43468, 32.49138],
          [-124.40846, 32.49625],
          [-124.3962, 32.51244],
          [-124.38802, 32.52323],
          [-124.3618, 32.5281],
          [-124.33558, 32.53296],
          [-124.3233, 32.54914],
          [-124.31511, 32.55993],
          [-124.28888, 32.56478],
          [-124.26264, 32.56963],
          [-124.25035, 32.58581],
          [-124.24215, 32.59659],
          [-124.21591, 32.60143],
          [-124.20361, 32.6176],
          [-124.1954, 32.62838],
          [-124.18309, 32.64455],
          [-124.17489, 32.65532],
          [-124.14862, 32.66015],
          [-124.13631, 32.67632],
          [-124.12809, 32.68709],
          [-124.10182, 32.69191],
          [-124.08949, 32.70807],
          [-124.08127, 32.71884],
          [-124.06894, 32.735],
          [-124.06071, 32.74576],
          [-124.03443, 32.75058],
          [-124.02208, 32.76673],
          [-124.01385, 32.77749],
          [-124.0015, 32.79364],
          [-123.99327, 32.8044],
          [-123.96696, 32.8092],
          [-123.9546, 32.82534],
          [-123.94636, 32.8361],
          [-123.92005, 32.8409],
          [-123.90768, 32.85703],
          [-123.89943, 32.86779],
          [-123.87311, 32.87257],
          [-123.86073, 32.88871],
          [-123.85247, 32.89946],
          [-123.82614, 32.90424],
          [-123.81375, 32.92036],
          [-123.80549, 32.93111],
          [-123.77915, 32.93588],
          [-123.76675, 32.952],
          [-123.75848, 32.96275],
          [-123.74607, 32.97887],
          [-123.7378, 32.98962],
          [-123.71144, 32.99437],
          [-123.69903, 33.01049],
          [-123.69075, 33.02123],
          [-123.67832, 33.03734],
          [-123.67004, 33.04809],
          [-123.64367, 33.05283],
          [-123.63123, 33.06894],
          [-123.62294, 33.07967],
          [-123.59656, 33.08441],
          [-123.58412, 33.10051],
          [-123.57582, 33.11125],
          [-123.56337, 33.12735],
          [-123.55507, 33.13808],
          [-123.52867, 33.1428],
          [-123.51622, 33.1589],
          [-123.50791, 33.16963],
          [-123.49544, 33.18572],
          [-123.48713, 33.19645],
          [-123.46072, 33.20116],
          [-123.44824, 33.21725],
          [-123.43992, 33.22797],
          [-123.42744, 33.24406],
          [-123.41912, 33.25478],
          [-123.40663, 33.27086],
          [-123.39718, 33.27716],
          [-123.38053, 33.2986],
          [-123.37636, 33.30396],
          [-123.35104, 33.31307],
          [-123.33854, 33.32914],
          [-123.32908, 33.33544],
          [-123.30543, 33.35117],
          [-123.29917, 33.35921],
          [-123.28457, 33.37796],
          [-123.27037, 33.38739],
          [-123.2609, 33.39368],
          [-123.2442, 33.4151],
          [-123.23965, 33.41898],
          [-123.21634, 33.43617],
          [-123.20213, 33.4456],
          [-123.19228, 33.45041],
          [-123.16896, 33.4676],
          [-123.15474, 33.47702],
          [-123.14526, 33.4833],
          [-123.12852, 33.50471],
          [-123.12397, 33.50858],
          [-123.10062, 33.52575],
          [-123.08639, 33.53517],
          [-123.07653, 33.53997],
          [-123.05317, 33.55714],
          [-123.03893, 33.56655],
          [-123.02943, 33.57282],
          [-123.01266, 33.59421],
          [-123.00791, 33.59734],
          [-122.98472, 33.61523],
          [-122.97842, 33.62324],
          [-122.96244, 33.63679],
          [-122.94417, 33.65227],
          [-122.9396, 33.65614],
          [-122.91675, 33.67549],
          [-122.90989, 33.68129],
          [-122.89389, 33.69483],
          [-122.8756, 33.7103],
          [-122.87084, 33.71344],
          [-122.84631, 33.72614],
          [-122.82801, 33.74161],
          [-122.82325, 33.74474],
          [-122.79944, 33.76038],
          [-122.78747, 33.77167],
          [-122.777, 33.78154],
          [-122.75291, 33.79607],
          [-122.74603, 33.80187],
          [-122.73, 33.81539],
          [-122.71166, 33.83083],
          [-122.7069, 33.83396],
          [-122.68415, 33.854],
          [-122.67728, 33.85979],
          [-122.66122, 33.8733],
          [-122.64287, 33.88874],
          [-122.6381, 33.89186],
          [-122.61533, 33.91189],
          [-122.60845, 33.91767],
          [-122.59238, 33.93118],
          [-122.574, 33.9466],
          [-122.56923, 33.94972],
          [-122.54534, 33.96532],
          [-122.53333, 33.97658],
          [-122.52282, 33.98644],
          [-122.49864, 34.00092],
          [-122.49175, 34.0067],
          [-122.47501, 34.01761],
          [-122.45082, 34.03209],
          [-122.44392, 34.03786],
          [-122.42718, 34.04877],
          [-122.40325, 34.06434],
          [-122.39873, 34.06856],
          [-122.38068, 34.08543],
          [-122.36864, 34.09668],
          [-122.35874, 34.10909],
          [-122.34031, 34.12448],
          [-122.33552, 34.1276],
          [-122.31083, 34.14021],
          [-122.28623, 34.15318],
          [-122.27904, 34.15785],
          [-122.26226, 34.16873],
          [-122.23693, 34.17875],
          [-122.21159, 34.18877],
          [-122.20439, 34.19343],
          [-122.1876, 34.2043],
          [-122.16225, 34.21431],
          [-122.14305, 34.22673],
          [-122.13825, 34.22984],
          [-122.11533, 34.24977],
          [-122.10038, 34.25688],
          [-122.09041, 34.26161],
          [-122.0673, 34.28081],
          [-122.04057, 34.28527],
          [-122.02561, 34.29237],
          [-122.01563, 34.2971],
          [-121.9907, 34.30892],
          [-121.96576, 34.32073],
          [-121.95079, 34.32782],
          [-121.94063, 34.33181],
          [-121.91523, 34.34177],
          [-121.89117, 34.35726],
          [-121.88395, 34.3619],
          [-121.8671, 34.37274],
          [-121.84276, 34.38711],
          [-121.8358, 34.39285],
          [-121.81894, 34.40368],
          [-121.79459, 34.41805],
          [-121.78763, 34.42379],
          [-121.77139, 34.43719],
          [-121.75282, 34.4525],
          [-121.748, 34.45559],
          [-121.72255, 34.46553],
          [-121.69817, 34.47987],
          [-121.68317, 34.48693],
          [-121.67316, 34.49164],
          [-121.64886, 34.50634],
          [-121.62339, 34.51626],
          [-121.61615, 34.52089],
          [-121.59987, 34.53427],
          [-121.58127, 34.54956],
          [-121.57661, 34.55338],
          [-121.55335, 34.57248],
          [-121.54636, 34.57821],
          [-121.53131, 34.59673],
          [-121.51681, 34.60598],
          [-121.50661, 34.60994],
          [-121.48111, 34.61983],
          [-121.4556, 34.62972],
          [-121.43625, 34.64204],
          [-121.43141, 34.64512],
          [-121.4059, 34.655],
          [-121.37905, 34.65936],
          [-121.35353, 34.66923],
          [-121.32773, 34.67799],
          [-121.31268, 34.68501],
          [-121.30264, 34.68969],
          [-121.27824, 34.70433],
          [-121.25243, 34.71308],
          [-121.22583, 34.71851],
          [-121.2105, 34.72442],
          [-121.20046, 34.72909],
          [-121.17534, 34.74077],
          [-121.15047, 34.75355],
          [-121.13514, 34.75945],
          [-121.12543, 34.76559],
          [-121.10169, 34.78315],
          [-121.08661, 34.79015],
          [-121.0769, 34.79628],
          [-121.05141, 34.80647],
          [-121.02651, 34.81923],
          [-121.01116, 34.82512],
          [-121.0011, 34.82978],
          [-120.97593, 34.84142],
          [-120.95076, 34.85307],
          [-120.93566, 34.86005],
          [-120.92594, 34.86618],
          [-120.90041, 34.87634],
          [-120.87471, 34.88576],
          [-120.84857, 34.89333],
          [-120.84127, 34.89792],
          [-120.82606, 34.91636],
          [-120.81146, 34.92554],
          [-120.80172, 34.93166],
          [-120.78432, 34.95273],
          [-120.77997, 34.95799],
          [-120.75562, 34.97328],
          [-120.72919, 34.97973],
          [-120.71406, 34.98669],
          [-120.70534, 34.99722],
          [-120.67994, 35.00808],
          [-120.66531, 35.01724],
          [-120.6566, 35.02777],
          [-120.63118, 35.03862],
          [-120.61655, 35.04777],
          [-120.62171, 35.06985],
          [-120.64099, 35.08056],
          [-120.65384, 35.0877],
          [-120.65901, 35.10978],
          [-120.66418, 35.13185],
          [-120.66935, 35.15392],
          [-120.67453, 35.17599],
          [-120.69383, 35.18669],
          [-120.70671, 35.19382],
          [-120.72602, 35.20452],
          [-120.73889, 35.21165],
          [-120.75821, 35.22234],
          [-120.77109, 35.22947],
          [-120.79042, 35.24016],
          [-120.8033, 35.24728],
          [-120.80851, 35.26934],
          [-120.82784, 35.28002],
          [-120.84073, 35.28714],
          [-120.86007, 35.29782],
          [-120.87297, 35.30494],
          [-120.89232, 35.31561],
          [-120.90522, 35.32273],
          [-120.91045, 35.34477],
          [-120.9298, 35.35544],
          [-120.94271, 35.36255],
          [-120.96207, 35.37322],
          [-120.97499, 35.38032],
          [-120.98023, 35.40237],
          [-120.99961, 35.41302],
          [-121.01252, 35.42013],
          [-121.01778, 35.44217],
          [-121.03716, 35.45282],
          [-121.05009, 35.45992],
          [-121.06948, 35.47057],
          [-121.08241, 35.47766],
          [-121.08768, 35.49969],
          [-121.10708, 35.51034],
          [-121.12002, 35.51743],
          [-121.1253, 35.53946],
          [-121.14472, 35.55009],
          [-121.15766, 35.55718],
          [-121.17708, 35.56781],
          [-121.19003, 35.5749],
          [-121.19532, 35.59692],
          [-121.21475, 35.60755],
          [-121.22771, 35.61463],
          [-121.23302, 35.63665],
          [-121.23832, 35.65866],
          [-121.24364, 35.68068],
          [-121.24895, 35.70269],
          [-121.2684, 35.7133],
          [-121.28137, 35.72038],
          [-121.2867, 35.74239],
          [-121.29202, 35.76439],
          [-121.29735, 35.78639],
          [-121.30268, 35.8084],
          [-121.30801, 35.8304],
          [-121.31334, 35.85239],
          [-121.31868, 35.87439],
          [-121.32402, 35.89638],
          [-121.31529, 35.90691],
          [-121.3022, 35.9227],
          [-121.30754, 35.94469],
          [-121.29881, 35.95521],
          [-121.28571, 35.971],
          [-121.29104, 35.99299],
          [-121.29638, 36.01497],
          [-121.30172, 36.03696],
          [-121.29298, 36.04748],
          [-121.27987, 36.06326],
          [-121.27113, 36.07377],
          [-121.24393, 36.07809],
          [-121.23081, 36.09386],
          [-121.22206, 36.10437],
          [-121.20893, 36.12014],
          [-121.20018, 36.13066],
          [-121.18705, 36.14642],
          [-121.17829, 36.15693],
          [-121.16515, 36.1727],
          [-121.17047, 36.19467],
          [-121.17579, 36.21665],
          [-121.19533, 36.22725],
          [-121.20836, 36.23432],
          [-121.21369, 36.25629],
          [-121.21902, 36.27826],
          [-121.22436, 36.30022],
          [-121.2297, 36.32219],
          [-121.23504, 36.34415],
          [-121.24039, 36.36611],
          [-121.25996, 36.3767],
          [-121.27301, 36.38376],
          [-121.29258, 36.39435],
          [-121.30564, 36.4014],
          [-121.311, 36.42335],
          [-121.31636, 36.44531],
          [-121.32173, 36.46725],
          [-121.32709, 36.4892],
          [-121.33246, 36.51115],
          [-121.33784, 36.53309],
          [-121.34321, 36.55503],
          [-121.34859, 36.57697],
          [-121.35396, 36.59891],
          [-121.35934, 36.62084],
          [-121.36473, 36.64277],
          [-121.37011, 36.66471],
          [-121.3755, 36.68663],
          [-121.38089, 36.70856],
          [-121.38628, 36.73049],
          [-121.39167, 36.75241],
          [-121.41133, 36.76297],
          [-121.42443, 36.77001],
          [-121.42984, 36.79192],
          [-121.43524, 36.81384],
          [-121.42645, 36.82434],
          [-121.41327, 36.84008],
          [-121.41867, 36.86199],
          [-121.40988, 36.87249],
          [-121.39668, 36.88823],
          [-121.40209, 36.91014],
          [-121.39329, 36.92063],
          [-121.38009, 36.93636],
          [-121.37128, 36.94685],
          [-121.34387, 36.95117],
          [-121.33066, 36.9669],
          [-121.32185, 36.97738],
          [-121.30863, 36.99311],
          [-121.29982, 37.00359],
          [-121.28659, 37.01931],
          [-121.27777, 37.0298],
          [-121.26454, 37.04552],
          [-121.25572, 37.05599],
          [-121.24248, 37.07171],
          [-121.23365, 37.08219],
          [-121.22041, 37.0979],
          [-121.21157, 37.10837],
          [-121.19832, 37.12408],
          [-121.18949, 37.13456],
          [-121.17623, 37.15026],
          [-121.16739, 37.16073],
          [-121.15412, 37.17644],
          [-121.14528, 37.1869],
          [-121.13201, 37.2026],
          [-121.13737, 37.22449],
          [-121.14274, 37.24638],
          [-121.14811, 37.26827],
          [-121.13926, 37.27873],
          [-121.12598, 37.29443],
          [-121.13135, 37.31631],
          [-121.13672, 37.33819],
          [-121.14209, 37.36007],
          [-121.14747, 37.38194],
          [-121.15284, 37.40382],
          [-121.15822, 37.42569],
          [-121.17798, 37.43625],
          [-121.19115, 37.44328],
          [-121.19654, 37.46515],
          [-121.2163, 37.4757],
          [-121.22948, 37.48274],
          [-121.23488, 37.5046],
          [-121.24028, 37.52646],
          [-121.26007, 37.537],
          [-121.27326, 37.54403],
          [-121.29304, 37.55457],
          [-121.30624, 37.56159],
          [-121.31166, 37.58345],
          [-121.31708, 37.6053],
          [-121.33688, 37.61583],
          [-121.35008, 37.62285],
          [-121.35552, 37.6447],
          [-121.37533, 37.65522],
          [-121.38854, 37.66224],
          [-121.39398, 37.68408],
          [-121.41381, 37.6946],
          [-121.42703, 37.70161],
          [-121.43248, 37.72345],
          [-121.43793, 37.74528],
          [-121.44339, 37.76711],
          [-121.44884, 37.78894],
          [-121.43998, 37.7994],
          [-121.42667, 37.81508],
          [-121.43213, 37.83691],
          [-121.43759, 37.85873],
          [-121.44305, 37.88056],
          [-121.43417, 37.89101],
          [-121.42086, 37.90668],
          [-121.42632, 37.9285],
          [-121.43178, 37.95032],
          [-121.43724, 37.97213],
          [-121.42836, 37.98258],
          [-121.41503, 37.99825],
          [-121.4205, 38.02006],
          [-121.42596, 38.04187],
          [-121.41707, 38.05231],
          [-121.40373, 38.06798],
          [-121.4092, 38.08978],
          [-121.41467, 38.11158],
          [-121.40577, 38.12202],
          [-121.39242, 38.13768],
          [-121.39789, 38.15948],
          [-121.38898, 38.16992],
          [-121.37563, 38.18557],
          [-121.36672, 38.19601],
          [-121.35336, 38.21166],
          [-121.34445, 38.22209],
          [-121.33108, 38.23774],
          [-121.33653, 38.25953],
          [-121.32762, 38.26996],
          [-121.29986, 38.27424],
          [-121.28648, 38.28988],
          [-121.27756, 38.30031],
          [-121.26417, 38.31594],
          [-121.25524, 38.32637],
          [-121.24184, 38.342],
          [-121.24729, 38.36378],
          [-121.23835, 38.3742],
          [-121.22495, 38.38983],
          [-121.21601, 38.40025],
          [-121.18822, 38.40451],
          [-121.1748, 38.42013],
          [-121.16586, 38.43055],
          [-121.15244, 38.44617],
          [-121.14349, 38.45658],
          [-121.13006, 38.47219],
          [-121.1211, 38.4826],
          [-121.10767, 38.49822],
          [-121.09871, 38.50862],
          [-121.07088, 38.51286],
          [-121.04306, 38.5171],
          [-121.0296, 38.53271],
          [-121.02063, 38.54311],
          [-120.9928, 38.54734],
          [-120.97934, 38.56293],
          [-120.97036, 38.57333],
          [-120.95689, 38.58892],
          [-120.94791, 38.59932],
          [-120.93443, 38.61491],
          [-120.93983, 38.63668],
          [-120.94523, 38.65844],
          [-120.93624, 38.66883],
          [-120.92275, 38.68442],
          [-120.92815, 38.70617],
          [-120.91915, 38.71656],
          [-120.90566, 38.73214],
          [-120.89666, 38.74253],
          [-120.88316, 38.7581],
          [-120.88855, 38.77986],
          [-120.89395, 38.80161],
          [-120.88494, 38.81199],
          [-120.87143, 38.82756],
          [-120.86242, 38.83794],
          [-120.8489, 38.85351],
          [-120.85429, 38.87525],
          [-120.84527, 38.88563],
          [-120.83175, 38.90119],
          [-120.82273, 38.91156],
          [-120.80919, 38.92712],
          [-120.80017, 38.93749],
          [-120.78663, 38.95305],
          [-120.79201, 38.97479],
          [-120.78298, 38.98515],
          [-120.76943, 39.00071],
          [-120.77481, 39.02244],
          [-120.78019, 39.04417],
          [-120.77116, 39.05453],
          [-120.7576, 39.07008],
          [-120.74855, 39.08044],
          [-120.73499, 39.09598],
          [-120.72594, 39.10634],
          [-120.71237, 39.12188],
          [-120.71774, 39.1436],
          [-120.72312, 39.16532],
          [-120.71407, 39.17567],
          [-120.70048, 39.1912],
          [-120.70586, 39.21292],
          [-120.6968, 39.22327],
          [-120.68321, 39.2388],
          [-120.68859, 39.26051],
          [-120.67952, 39.27086],
          [-120.66592, 39.28638],
          [-120.65685, 39.29673],
          [-120.64324, 39.31224],
          [-120.63417, 39.32259],
          [-120.62055, 39.3381],
          [-120.61147, 39.34844],
          [-120.59785, 39.36395],
          [-120.60321, 39.38565],
          [-120.59413, 39.39599],
          [-120.5805, 39.4115],
          [-120.57141, 39.42183],
          [-120.54332, 39.42597],
          [-120.52968, 39.44147],
          [-120.52058, 39.4518],
          [-120.49249, 39.45593],
          [-120.47911, 39.44891],
          [-120.45905, 39.43836],
          [-120.43095, 39.44248],
          [-120.41729, 39.45797],
          [-120.40818, 39.4683],
          [-120.38007, 39.47241],
          [-120.35196, 39.47652],
          [-120.33829, 39.492],
          [-120.32917, 39.50232],
          [-120.30105, 39.50642],
          [-120.28736, 39.52189],
          [-120.27823, 39.53221],
          [-120.2501, 39.5363],
          [-120.2364, 39.55177],
          [-120.22727, 39.56208],
          [-120.19913, 39.56616],
          [-120.18542, 39.58162],
          [-120.17627, 39.59193],
          [-120.16256, 39.60739],
          [-120.15341, 39.61769],
          [-120.13968, 39.63315],
          [-120.13053, 39.64345],
          [-120.1168, 39.6589],
          [-120.10764, 39.6692],
          [-120.07947, 39.67326],
          [-120.06573, 39.6887],
          [-120.05656, 39.699],
          [-120.02838, 39.70305],
          [-120.01463, 39.71849],
          [-120.00546, 39.72878],
          [-119.99208, 39.72172],
          [-119.97201, 39.71114],
          [-119.95863, 39.70408],
          [-119.95339, 39.68239],
          [-119.93333, 39.6718],
          [-119.91997, 39.66474],
          [-119.91473, 39.64305],
          [-119.90949, 39.62135],
          [-119.88945, 39.61075],
          [-119.8761, 39.60368],
          [-119.87087, 39.58198],
          [-119.85085, 39.57138],
          [-119.8375, 39.56431],
          [-119.81748, 39.55369],
          [-119.78933, 39.55771],
          [-119.77555, 39.57314],
          [-119.76637, 39.58343],
          [-119.73821, 39.58743],
          [-119.71004, 39.59144],
          [-119.69626, 39.60686],
          [-119.68706, 39.61714],
          [-119.67327, 39.63256],
          [-119.66407, 39.64284],
          [-119.65027, 39.65825],
          [-119.64107, 39.66852],
          [-119.62726, 39.68394],
          [-119.61806, 39.69421],
          [-119.60424, 39.70962],
          [-119.60942, 39.73131],
          [-119.6146, 39.753],
          [-119.61978, 39.77469],
          [-119.62496, 39.79638],
          [-119.64501, 39.807],
          [-119.65837, 39.81408],
          [-119.66357, 39.83576],
          [-119.68362, 39.84637],
          [-119.697, 39.85345],
          [-119.71706, 39.86405],
          [-119.73044, 39.87113],
          [-119.75051, 39.88173],
          [-119.7639, 39.8888],
          [-119.76912, 39.91047],
          [-119.77434, 39.93214],
          [-119.77956, 39.9538],
          [-119.78479, 39.97546],
          [-119.77557, 39.98573],
          [-119.76174, 40.00113],
          [-119.75252, 40.01139],
          [-119.73868, 40.02678],
          [-119.72945, 40.03704],
          [-119.71561, 40.05243],
          [-119.70638, 40.06269],
          [-119.69253, 40.07808],
          [-119.68329, 40.08833],
          [-119.65499, 40.09232],
          [-119.62669, 40.0963],
          [-119.59838, 40.10027],
          [-119.57007, 40.10424],
          [-119.54176, 40.10821],
          [-119.52788, 40.12358],
          [-119.51862, 40.13382],
          [-119.4903, 40.13778],
          [-119.46198, 40.14173],
          [-119.43365, 40.14568],
          [-119.40532, 40.14962],
          [-119.37699, 40.15356],
          [-119.34866, 40.15749],
          [-119.32033, 40.16142],
          [-119.29199, 40.16535],
          [-119.26365, 40.16927],
          [-119.23531, 40.17318],
          [-119.20697, 40.17709],
          [-119.17862, 40.181],
          [-119.15028, 40.1849],
          [-119.13633, 40.20023],
          [-119.12703, 40.21045],
          [-119.09867, 40.21435],
          [-119.07031, 40.21824],
          [-119.04195, 40.22212],
          [-119.02798, 40.23744],
          [-119.01866, 40.24765],
          [-118.99029, 40.25153],
          [-118.96192, 40.2554],
          [-118.94854, 40.24828],
          [-118.92848, 40.23761],
          [-118.90011, 40.24147],
          [-118.87173, 40.24532],
          [-118.84336, 40.24917],
          [-118.81498, 40.25302],
          [-118.7866, 40.25686],
          [-118.75822, 40.2607],
          [-118.72983, 40.26453],
          [-118.70145, 40.26836],
          [-118.68742, 40.28365],
          [-118.67807, 40.29384],
          [-118.64967, 40.29766],
          [-118.62127, 40.30148],
          [-118.59287, 40.30529],
          [-118.56447, 40.30909],
          [-118.53606, 40.31289],
          [-118.52271, 40.30575],
          [-118.50268, 40.29503],
          [-118.47428, 40.29882],
          [-118.44587, 40.30261],
          [-118.43252, 40.29545],
          [-118.41251, 40.28472],
          [-118.3841, 40.2885],
          [-118.3557, 40.29227],
          [-118.32729, 40.29604],
          [-118.29888, 40.2998],
          [-118.27047, 40.30356],
          [-118.24205, 40.30732],
          [-118.21363, 40.31107],
          [-118.18522, 40.31481],
          [-118.1568, 40.31855],
          [-118.12837, 40.32229],
          [-118.11505, 40.31511],
          [-118.09506, 40.30434],
          [-118.06664, 40.30807],
          [-118.05332, 40.30089],
          [-118.03334, 40.29012],
          [-118.00492, 40.29383],
          [-117.9765, 40.29754],
          [-117.94807, 40.30125],
          [-117.91965, 40.30495],
          [-117.9055, 40.32018],
          [-117.89607, 40.33033],
          [-117.86763, 40.33402],
          [-117.8392, 40.33771],
          [-117.82503, 40.35293],
          [-117.81559, 40.36307],
          [-117.78714, 40.36675],
          [-117.75869, 40.37043],
          [-117.74451, 40.38564],
          [-117.73506, 40.39577],
          [-117.7066, 40.39944],
          [-117.69241, 40.41464],
          [-117.68294, 40.42478],
          [-117.65448, 40.42843],
          [-117.64027, 40.44363],
          [-117.6308, 40.45376],
          [-117.60232, 40.45741],
          [-117.57384, 40.46105],
          [-117.55962, 40.47624],
          [-117.55014, 40.48636],
          [-117.53592, 40.50154],
          [-117.52643, 40.51166],
          [-117.5122, 40.52684],
          [-117.51697, 40.5485],
          [-117.50748, 40.55862],
          [-117.49324, 40.57379],
          [-117.48374, 40.58391],
          [-117.46949, 40.59908],
          [-117.45999, 40.60919],
          [-117.44574, 40.62435],
          [-117.43623, 40.63446],
          [-117.42197, 40.64962],
          [-117.41245, 40.65973],
          [-117.39818, 40.67489],
          [-117.38867, 40.68499],
          [-117.37439, 40.70014],
          [-117.36487, 40.71025],
          [-117.35059, 40.72539],
          [-117.34106, 40.73549],
          [-117.31249, 40.73909],
          [-117.28392, 40.74268],
          [-117.2706, 40.73546],
          [-117.26587, 40.71381],
          [-117.24589, 40.70297],
          [-117.23258, 40.69575],
          [-117.22785, 40.67409],
          [-117.22313, 40.65244],
          [-117.23266, 40.64234],
          [-117.2612, 40.63875],
          [-117.28974, 40.63516],
          [-117.30402, 40.62001],
          [-117.29929, 40.59835],
          [-117.3088, 40.58825],
          [-117.32307, 40.57309],
          [-117.33259, 40.56298],
          [-117.34685, 40.54782],
          [-117.35636, 40.53771],
          [-117.38487, 40.5341],
          [-117.39912, 40.51894],
          [-117.39437, 40.49727],
          [-117.37442, 40.48643],
          [-117.36113, 40.4792],
          [-117.35638, 40.45753],
          [-117.35164, 40.43585],
          [-117.34691, 40.41417],
          [-117.34217, 40.39249],
          [-117.33744, 40.3708],
          [-117.31752, 40.35995],
          [-117.30424, 40.35272],
          [-117.29952, 40.33103],
          [-117.27962, 40.32017],
          [-117.26635, 40.31293],
          [-117.24645, 40.30207],
          [-117.23319, 40.29483],
          [-117.2133, 40.28396],
          [-117.18485, 40.28755],
          [-117.1706, 40.30272],
          [-117.16109, 40.31283],
          [-117.13264, 40.3164],
          [-117.11837, 40.33157],
          [-117.10886, 40.34167],
          [-117.09459, 40.35683],
          [-117.08507, 40.36694],
          [-117.0708, 40.38209],
          [-117.06128, 40.39219],
          [-117.04699, 40.40734],
          [-117.03746, 40.41744],
          [-117.02317, 40.43259],
          [-117.01364, 40.44268],
          [-116.99934, 40.45783],
          [-117.00401, 40.47951],
          [-116.99447, 40.4896],
          [-116.96596, 40.49315],
          [-116.95165, 40.50829],
          [-116.94211, 40.51837],
          [-116.92779, 40.53351],
          [-116.91824, 40.54359],
          [-116.90391, 40.55872],
          [-116.89436, 40.5688],
          [-116.88002, 40.58393],
          [-116.87046, 40.59401],
          [-116.84192, 40.59753],
          [-116.82757, 40.61265],
          [-116.81801, 40.62272],
          [-116.78945, 40.62624],
          [-116.7609, 40.62975],
          [-116.74654, 40.64486],
          [-116.73696, 40.65493],
          [-116.70839, 40.65843],
          [-116.67983, 40.66193],
          [-116.65126, 40.66542],
          [-116.62269, 40.66891],
          [-116.59411, 40.67239],
          [-116.56554, 40.67587],
          [-116.55114, 40.69096],
          [-116.54154, 40.70102],
          [-116.52714, 40.7161],
          [-116.51753, 40.72616],
          [-116.50312, 40.74124],
          [-116.49351, 40.75129],
          [-116.47909, 40.76637],
          [-116.48366, 40.78803],
          [-116.47405, 40.79808],
          [-116.45962, 40.81315],
          [-116.46419, 40.83481],
          [-116.45457, 40.84485],
          [-116.44013, 40.85992],
          [-116.4447, 40.88157],
          [-116.43507, 40.89161],
          [-116.42062, 40.90667],
          [-116.41099, 40.91671],
          [-116.39653, 40.93177],
          [-116.40109, 40.95342],
          [-116.39145, 40.96345],
          [-116.37699, 40.9785],
          [-116.36735, 40.98854],
          [-116.35288, 41.00358],
          [-116.34323, 41.01361],
          [-116.32875, 41.02866],
          [-116.3191, 41.03868],
          [-116.30461, 41.05372],
          [-116.29495, 41.06375],
          [-116.28046, 41.07878],
          [-116.2708, 41.0888],
          [-116.2563, 41.10384],
          [-116.24663, 41.11386],
          [-116.21792, 41.11727],
          [-116.20341, 41.1323],
          [-116.19373, 41.14231],
          [-116.17922, 41.15733],
          [-116.16954, 41.16734],
          [-116.15501, 41.18236],
          [-116.14533, 41.19237],
          [-116.11659, 41.19577],
          [-116.10205, 41.21078],
          [-116.09236, 41.22078],
          [-116.06361, 41.22417],
          [-116.04907, 41.23918],
          [-116.03936, 41.24918],
          [-116.02481, 41.26418],
          [-116.0151, 41.27417],
          [-115.98634, 41.27755],
          [-115.97177, 41.29254],
          [-115.96206, 41.30254],
          [-115.93329, 41.3059],
          [-115.91871, 41.32089],
          [-115.90898, 41.33088],
          [-115.8802, 41.33424],
          [-115.86561, 41.34922],
          [-115.85588, 41.3592],
          [-115.82709, 41.36255],
          [-115.81249, 41.37752],
          [-115.80275, 41.3875],
          [-115.78814, 41.40247],
          [-115.7784, 41.41245],
          [-115.74959, 41.41578],
          [-115.73496, 41.43075],
          [-115.72521, 41.44072],
          [-115.69639, 41.44405],
          [-115.68176, 41.459],
          [-115.672, 41.46897],
          [-115.64317, 41.47229],
          [-115.62853, 41.48724],
          [-115.61876, 41.4972],
          [-115.60411, 41.51215],
          [-115.59433, 41.52211],
          [-115.57967, 41.53705],
          [-115.5699, 41.54701],
          [-115.55523, 41.56194],
          [-115.54545, 41.5719],
          [-115.53078, 41.58683],
          [-115.53518, 41.60842],
          [-115.52539, 41.61838],
          [-115.51071, 41.6333],
          [-115.51511, 41.65489],
          [-115.50532, 41.66484],
          [-115.49063, 41.67976],
          [-115.49503, 41.70134],
          [-115.48523, 41.71128],
          [-115.47052, 41.7262],
          [-115.47492, 41.74777],
          [-115.46512, 41.75771],
          [-115.4504, 41.77262],
          [-115.4548, 41.79419],
          [-115.44499, 41.80413],
          [-115.43026, 41.81904],
          [-115.42045, 41.82897],
          [-115.40572, 41.84387],
          [-115.41011, 41.86543],
          [-115.4145, 41.88699],
          [-115.40467, 41.89692],
          [-115.38993, 41.91181],
          [-115.39432, 41.93337],
          [-115.39871, 41.95492],
          [-115.40311, 41.97647],
          [-115.4075, 41.99801],
          [-115.42754, 42.00897],
          [-115.44089, 42.01628],
          [-115.4453, 42.03782],
          [-115.44971, 42.05936],
          [-115.45412, 42.08089],
          [-115.47417, 42.09184],
          [-115.48754, 42.09914],
          [-115.49196, 42.12067],
          [-115.49638, 42.14219],
          [-115.50081, 42.16372],
          [-115.50523, 42.18523],
          [-115.50966, 42.20675],
          [-115.49981, 42.21667],
          [-115.48503, 42.23154],
          [-115.48946, 42.25305],
          [-115.47961, 42.26297],
          [-115.46482, 42.27783],
          [-115.46924, 42.29934],
          [-115.45938, 42.30925],
          [-115.44459, 42.32411],
          [-115.43472, 42.33402],
          [-115.41992, 42.34888],
          [-115.42433, 42.37037],
          [-115.41446, 42.38028],
          [-115.39965, 42.39513],
          [-115.40406, 42.41662],
          [-115.39418, 42.42652],
          [-115.37936, 42.44137],
          [-115.36948, 42.45126],
          [-115.35465, 42.4661],
          [-115.34476, 42.476],
          [-115.32992, 42.49084],
          [-115.32003, 42.50073],
          [-115.30518, 42.51556],
          [-115.29529, 42.52545],
          [-115.28043, 42.54028],
          [-115.27053, 42.55016],
          [-115.24138, 42.5534],
          [-115.22651, 42.56822],
          [-115.2166, 42.5781],
          [-115.20173, 42.59292],
          [-115.19181, 42.6028],
          [-115.17694, 42.61761],
          [-115.16701, 42.62749],
          [-115.15213, 42.6423],
          [-115.1422, 42.65217],
          [-115.12731, 42.66698],
          [-115.13168, 42.68844],
          [-115.12174, 42.69831],
          [-115.10684, 42.71311],
          [-115.0969, 42.72297],
          [-115.08199, 42.73777],
          [-115.07205, 42.74763],
          [-115.04283, 42.75083],
          [-115.02791, 42.76562],
          [-115.01796, 42.77548],
          [-115.00303, 42.79026],
          [-114.99307, 42.80012],
          [-114.97813, 42.8149],
          [-114.98248, 42.83635],
          [-114.97251, 42.8462],
          [-114.95757, 42.86097],
          [-114.9619, 42.88242],
          [-114.96624, 42.90385],
          [-114.95627, 42.9137],
          [-114.94131, 42.92847],
          [-114.93134, 42.93831],
          [-114.91637, 42.95308],
          [-114.9207, 42.97451],
          [-114.91072, 42.98435],
          [-114.89574, 42.9991],
          [-114.88576, 43.00894],
          [-114.87077, 43.02369],
          [-114.8751, 43.04512],
          [-114.87943, 43.06653],
          [-114.88376, 43.08795],
          [-114.88809, 43.10936],
          [-114.89243, 43.13078],
          [-114.89676, 43.15218],
          [-114.88676, 43.16201],
          [-114.87175, 43.17675],
          [-114.87609, 43.19815],
          [-114.86608, 43.20798],
          [-114.85106, 43.22271],
          [-114.85539, 43.2441],
          [-114.84537, 43.25392],
          [-114.83035, 43.26865],
          [-114.82032, 43.27847],
          [-114.80529, 43.29319],
          [-114.79526, 43.30301],
          [-114.78022, 43.31772],
          [-114.77019, 43.32754],
          [-114.75514, 43.34225],
          [-114.75945, 43.36363],
          [-114.76377, 43.38501],
          [-114.76809, 43.40639],
          [-114.77241, 43.42776],
          [-114.76237, 43.43757],
          [-114.7473, 43.45227],
          [-114.75162, 43.47364],
          [-114.75594, 43.495],
          [-114.74589, 43.5048],
          [-114.73081, 43.5195],
          [-114.73513, 43.54085],
          [-114.72507, 43.55065],
          [-114.70998, 43.56534],
          [-114.69991, 43.57513],
          [-114.67044, 43.57825],
          [-114.65534, 43.59294],
          [-114.64526, 43.60272],
          [-114.61578, 43.60584],
          [-114.60066, 43.62051],
          [-114.59058, 43.63029],
          [-114.57546, 43.64497],
          [-114.56537, 43.65475],
          [-114.53587, 43.65785],
          [-114.52073, 43.67251],
          [-114.51064, 43.68229],
          [-114.48113, 43.68538],
          [-114.45161, 43.68846],
          [-114.43646, 43.70312],
          [-114.42635, 43.71288],
          [-114.39683, 43.71596],
          [-114.3673, 43.71903],
          [-114.35213, 43.73368],
          [-114.34201, 43.74344],
          [-114.31248, 43.7465],
          [-114.29729, 43.76114],
          [-114.28717, 43.7709],
          [-114.25762, 43.77395],
          [-114.22807, 43.777],
          [-114.19852, 43.78005],
          [-114.16897, 43.78308],
          [-114.13941, 43.78612],
          [-114.10986, 43.78915],
          [-114.0803, 43.79217],
          [-114.05074, 43.7952],
          [-114.02118, 43.79821],
          [-113.99161, 43.80122],
          [-113.96205, 43.80423],
          [-113.93248, 43.80723],
          [-113.90291, 43.81023],
          [-113.87334, 43.81322],
          [-113.84377, 43.81621],
          [-113.8285, 43.8308],
          [-113.81832, 43.84053],
          [-113.78874, 43.84351],
          [-113.75916, 43.84648],
          [-113.72957, 43.84945],
          [-113.71428, 43.86403],
          [-113.70409, 43.87375],
          [-113.67449, 43.87671],
          [-113.6449, 43.87966],
          [-113.6153, 43.88262],
          [-113.59999, 43.89718],
          [-113.58978, 43.90689],
          [-113.56017, 43.90984],
          [-113.54485, 43.9244],
          [-113.53463, 43.9341],
          [-113.50501, 43.93704],
          [-113.47539, 43.93996],
          [-113.44577, 43.94289],
          [-113.41614, 43.9458],
          [-113.38652, 43.94872],
          [-113.37305, 43.94135],
          [-113.35285, 43.93029],
          [-113.3375, 43.94483],
          [-113.32726, 43.95453],
          [-113.29763, 43.95743],
          [-113.26799, 43.96032],
          [-113.25262, 43.97485],
          [-113.24237, 43.98454],
          [-113.21272, 43.98743],
          [-113.19734, 44.00195],
          [-113.18708, 44.01163],
          [-113.17169, 44.02616],
          [-113.16142, 44.03583],
          [-113.13176, 44.03871],
          [-113.11636, 44.05322],
          [-113.10608, 44.06289],
          [-113.09067, 44.0774],
          [-113.08039, 44.08708],
          [-113.05071, 44.08993],
          [-113.03529, 44.10444],
          [-113.025, 44.1141],
          [-112.99531, 44.11695],
          [-112.96562, 44.1198],
          [-112.95018, 44.13429],
          [-112.93988, 44.14395],
          [-112.92443, 44.15844],
          [-112.91413, 44.16809],
          [-112.89867, 44.18258],
          [-112.88836, 44.19223],
          [-112.85864, 44.19506],
          [-112.84317, 44.20953],
          [-112.83286, 44.21918],
          [-112.81738, 44.23366],
          [-112.80706, 44.2433],
          [-112.79157, 44.25777],
          [-112.78124, 44.26742],
          [-112.7515, 44.27022],
          [-112.736, 44.28468],
          [-112.72567, 44.29432],
          [-112.69591, 44.29712],
          [-112.6804, 44.31157],
          [-112.67006, 44.32121],
          [-112.65454, 44.33566],
          [-112.64419, 44.34529],
          [-112.62866, 44.35973],
          [-112.61831, 44.36936],
          [-112.58853, 44.37214],
          [-112.55875, 44.37492],
          [-112.52897, 44.37769],
          [-112.49918, 44.38045],
          [-112.4694, 44.38321],
          [-112.43961, 44.38597],
          [-112.40982, 44.38872],
          [-112.39425, 44.40314],
          [-112.38387, 44.41275],
          [-112.35407, 44.4155],
          [-112.32427, 44.41823],
          [-112.30868, 44.43264],
          [-112.29829, 44.44225],
          [-112.28484, 44.43483],
          [-112.26466, 44.42369],
          [-112.23486, 44.42642],
          [-112.20505, 44.42913],
          [-112.17524, 44.43185],
          [-112.15963, 44.44625],
          [-112.14922, 44.45584],
          [-112.1194, 44.45855],
          [-112.08958, 44.46125],
          [-112.05975, 44.46394],
          [-112.02993, 44.46663],
          [-112.0001, 44.46932],
          [-112, 44.46933]
        ]
      }
    },
    {
      "type": "Feature",
      "id": "2026090112_f216_12000_001",
      "properties": {
        "product_id": "winter_storm_levels",
        "source_id": "nbm_snow_level",
        "parameter": "snow_level",
        "definition": "height of the wet-bulb 0.5 degree C surface",
        "level_ft_msl": 12000,
        "label": "12,000 ft MSL",
        "unit": "ft_msl",
        "cycle_time_utc": "2026-09-01T12:00:00Z",
        "valid_time_utc": "2026-09-10T12:00:00Z",
        "lead_hours": 216,
        "segment": 1,
        "length_m": 9326.8
      },
      "geometry": {
        "type": "LineString",
        "coordinates": [
          [-120.19039, 31.85138],
          [-120.18546, 31.8291],
          [-120.17611, 31.82367],
          [-120.16972, 31.83161],
          [-120.17465, 31.85389],
          [-120.184, 31.85932],
          [-120.19039, 31.85138]
        ]
      }
    },
    {
      "type": "Feature",
      "id": "2026090112_f216_12000_002",
      "properties": {
        "product_id": "winter_storm_levels",
        "source_id": "nbm_snow_level",
        "parameter": "snow_level",
        "definition": "height of the wet-bulb 0.5 degree C surface",
        "level_ft_msl": 12000,
        "label": "12,000 ft MSL",
        "unit": "ft_msl",
        "cycle_time_utc": "2026-09-01T12:00:00Z",
        "valid_time_utc": "2026-09-10T12:00:00Z",
        "lead_hours": 216,
        "segment": 2,
        "length_m": 1899970.8
      },
      "geometry": {
        "type": "LineString",
        "coordinates": [
          [-120.24471, 30.25674],
          [-120.24778, 30.27083],
          [-120.25266, 30.29317],
          [-120.25753, 30.31552],
          [-120.26241, 30.33787],
          [-120.2673, 30.36021],
          [-120.27218, 30.38255],
          [-120.27707, 30.4049],
          [-120.28195, 30.42724],
          [-120.30351, 30.43992],
          [-120.31276, 30.44536],
          [-120.31765, 30.4677],
          [-120.32255, 30.49004],
          [-120.32745, 30.51238],
          [-120.33235, 30.53471],
          [-120.33726, 30.55705],
          [-120.34216, 30.57938],
          [-120.34707, 30.60171],
          [-120.35198, 30.62405],
          [-120.37358, 30.63672],
          [-120.38284, 30.64215],
          [-120.38776, 30.66448],
          [-120.39268, 30.68681],
          [-120.4143, 30.69947],
          [-120.42357, 30.7049],
          [-120.4285, 30.72722],
          [-120.43343, 30.74955],
          [-120.43836, 30.77187],
          [-120.43205, 30.77984],
          [-120.41731, 30.79843],
          [-120.42224, 30.82075],
          [-120.41592, 30.82872],
          [-120.40117, 30.84731],
          [-120.4061, 30.86963],
          [-120.39978, 30.87759],
          [-120.38503, 30.89618],
          [-120.38995, 30.9185],
          [-120.41162, 30.93116],
          [-120.4209, 30.93658],
          [-120.42584, 30.9589],
          [-120.43078, 30.98121],
          [-120.45246, 30.99387],
          [-120.46175, 30.99929],
          [-120.4667, 31.0216],
          [-120.46038, 31.02957],
          [-120.44561, 31.04815],
          [-120.43928, 31.05612],
          [-120.42451, 31.0747],
          [-120.41818, 31.08266],
          [-120.39213, 31.08689],
          [-120.37734, 31.10547],
          [-120.38228, 31.12778],
          [-120.37594, 31.13574],
          [-120.36115, 31.15432],
          [-120.36608, 31.17662],
          [-120.37102, 31.19893],
          [-120.36468, 31.20689],
          [-120.34988, 31.22546],
          [-120.35481, 31.24777],
          [-120.34847, 31.25572],
          [-120.33365, 31.27429],
          [-120.3273, 31.28225],
          [-120.31249, 31.30081],
          [-120.30613, 31.30877],
          [-120.29131, 31.32733],
          [-120.29624, 31.34963],
          [-120.28988, 31.35758],
          [-120.27505, 31.37614],
          [-120.29678, 31.38881],
          [-120.3061, 31.39423],
          [-120.31104, 31.41653],
          [-120.31597, 31.43883],
          [-120.32091, 31.46113],
          [-120.32585, 31.48343],
          [-120.3308, 31.50572],
          [-120.33574, 31.52802],
          [-120.34069, 31.55031],
          [-120.34563, 31.5726],
          [-120.35058, 31.59489],
          [-120.35554, 31.61718],
          [-120.34917, 31.62513],
          [-120.33431, 31.64368],
          [-120.32794, 31.65164],
          [-120.31308, 31.67018],
          [-120.3067, 31.67813],
          [-120.29183, 31.69668],
          [-120.29678, 31.71897],
          [-120.2904, 31.72692],
          [-120.2642, 31.73112],
          [-120.23799, 31.73532],
          [-120.21179, 31.73951],
          [-120.19689, 31.75805],
          [-120.19051, 31.76599],
          [-120.16429, 31.77018],
          [-120.14938, 31.78871],
          [-120.14299, 31.79665],
          [-120.11677, 31.80083],
          [-120.09055, 31.805],
          [-120.07562, 31.82353],
          [-120.06922, 31.83146],
          [-120.05429, 31.84998],
          [-120.04789, 31.85792],
          [-120.03296, 31.87643],
          [-120.02655, 31.88437],
          [-120.01161, 31.90288],
          [-120.0052, 31.91081],
          [-119.99025, 31.92932],
          [-119.99515, 31.95161],
          [-119.98874, 31.95954],
          [-119.96247, 31.96369],
          [-119.94751, 31.98219],
          [-119.9524, 32.00448],
          [-119.94598, 32.01241],
          [-119.93101, 32.03091],
          [-119.9359, 32.05319],
          [-119.92948, 32.06111],
          [-119.91449, 32.07961],
          [-119.90807, 32.08754],
          [-119.89308, 32.10603],
          [-119.88666, 32.11395],
          [-119.87166, 32.13244],
          [-119.86523, 32.14037],
          [-119.85023, 32.15885],
          [-119.8438, 32.16678],
          [-119.81748, 32.1709],
          [-119.79116, 32.17503],
          [-119.76483, 32.17914],
          [-119.74981, 32.19762],
          [-119.74337, 32.20554],
          [-119.72834, 32.22401],
          [-119.72189, 32.23192],
          [-119.69555, 32.23603],
          [-119.66921, 32.24013],
          [-119.65986, 32.23468],
          [-119.63803, 32.22195],
          [-119.62298, 32.24041],
          [-119.61653, 32.24832],
          [-119.59018, 32.25241],
          [-119.57512, 32.27087],
          [-119.56866, 32.27878],
          [-119.54231, 32.28286],
          [-119.51595, 32.28693],
          [-119.4896, 32.291],
          [-119.46324, 32.29507],
          [-119.44815, 32.31351],
          [-119.44168, 32.32142],
          [-119.41531, 32.32548],
          [-119.38894, 32.32953],
          [-119.36257, 32.33358],
          [-119.34746, 32.35201],
          [-119.34098, 32.35991],
          [-119.3146, 32.36395],
          [-119.28822, 32.36799],
          [-119.26183, 32.37202],
          [-119.25249, 32.36655],
          [-119.23068, 32.35377],
          [-119.2043, 32.35779],
          [-119.17791, 32.36181],
          [-119.16277, 32.38022],
          [-119.15628, 32.38811],
          [-119.12988, 32.39213],
          [-119.10349, 32.39613],
          [-119.07709, 32.40013],
          [-119.05069, 32.40413],
          [-119.03552, 32.42253],
          [-119.02902, 32.43042],
          [-119.01384, 32.44881],
          [-119.00734, 32.4567],
          [-118.99215, 32.47509],
          [-118.98564, 32.48297],
          [-118.95922, 32.48695],
          [-118.94403, 32.50534],
          [-118.93751, 32.51322],
          [-118.92231, 32.5316],
          [-118.91579, 32.53948],
          [-118.90058, 32.55786],
          [-118.89407, 32.56574],
          [-118.87885, 32.58411],
          [-118.88356, 32.6064],
          [-118.88827, 32.62868],
          [-118.88174, 32.63656],
          [-118.86651, 32.65493],
          [-118.85999, 32.6628],
          [-118.84475, 32.68117],
          [-118.83822, 32.68904],
          [-118.81175, 32.693],
          [-118.78527, 32.69695],
          [-118.77002, 32.71531],
          [-118.76348, 32.72318],
          [-118.737, 32.72712],
          [-118.71051, 32.73106],
          [-118.69524, 32.74942],
          [-118.6887, 32.75728],
          [-118.67342, 32.77563],
          [-118.66687, 32.78349],
          [-118.64037, 32.78742],
          [-118.61387, 32.79134],
          [-118.58736, 32.79526],
          [-118.57207, 32.8136],
          [-118.56551, 32.82146],
          [-118.53899, 32.82537],
          [-118.51248, 32.82927],
          [-118.49716, 32.8476],
          [-118.4906, 32.85546],
          [-118.46408, 32.85935],
          [-118.43755, 32.86325],
          [-118.42222, 32.88157],
          [-118.41565, 32.88942],
          [-118.38911, 32.8933],
          [-118.36257, 32.89718],
          [-118.33604, 32.90106],
          [-118.32669, 32.89554],
          [-118.30489, 32.88265],
          [-118.27835, 32.88651],
          [-118.25181, 32.89038],
          [-118.22527, 32.89424],
          [-118.21593, 32.88871],
          [-118.19414, 32.8758],
          [-118.1676, 32.87965],
          [-118.14106, 32.88349],
          [-118.11451, 32.88733],
          [-118.09913, 32.90562],
          [-118.09253, 32.91346],
          [-118.07714, 32.93174],
          [-118.07054, 32.93958],
          [-118.04398, 32.94341],
          [-118.02858, 32.96169],
          [-118.02198, 32.96952],
          [-118.00657, 32.9878],
          [-117.99996, 32.99563],
          [-117.98454, 33.0139],
          [-117.97793, 33.02173],
          [-117.96251, 33.04],
          [-117.9559, 33.04783],
          [-117.94047, 33.0661],
          [-117.94501, 33.08838],
          [-117.93839, 33.09621],
          [-117.92295, 33.11447],
          [-117.91633, 33.1223],
          [-117.88973, 33.1261],
          [-117.87427, 33.14435],
          [-117.87881, 33.16663],
          [-117.87218, 33.17446],
          [-117.85672, 33.19271],
          [-117.85009, 33.20053],
          [-117.83462, 33.21878],
          [-117.82799, 33.2266],
          [-117.81251, 33.24485],
          [-117.80588, 33.25266],
          [-117.77924, 33.25645],
          [-117.76375, 33.27468],
          [-117.76827, 33.29696],
          [-117.76163, 33.30478],
          [-117.74613, 33.32301],
          [-117.75064, 33.34529],
          [-117.744, 33.3531],
          [-117.72849, 33.37133],
          [-117.72184, 33.37915],
          [-117.70633, 33.39737],
          [-117.69968, 33.40519],
          [-117.68416, 33.42341],
          [-117.68866, 33.44568],
          [-117.68201, 33.45349],
          [-117.66648, 33.47171],
          [-117.65982, 33.47952],
          [-117.64428, 33.49774],
          [-117.64879, 33.52],
          [-117.65329, 33.54227],
          [-117.64663, 33.55008],
          [-117.63108, 33.56829],
          [-117.63558, 33.59055],
          [-117.64009, 33.61281],
          [-117.64459, 33.63507],
          [-117.63792, 33.64288],
          [-117.62236, 33.66108],
          [-117.62686, 33.68334],
          [-117.62019, 33.69114],
          [-117.60462, 33.70935],
          [-117.60912, 33.7316],
          [-117.60244, 33.7394],
          [-117.58686, 33.7576],
          [-117.59136, 33.77985],
          [-117.58468, 33.78765],
          [-117.56909, 33.80585],
          [-117.57359, 33.8281],
          [-117.5669, 33.83589],
          [-117.5513, 33.85408],
          [-117.54461, 33.86188],
          [-117.529, 33.88007],
          [-117.5335, 33.90231],
          [-117.5268, 33.91011],
          [-117.51119, 33.92829],
          [-117.50449, 33.93608],
          [-117.47768, 33.93981],
          [-117.46205, 33.95798],
          [-117.45534, 33.96577],
          [-117.43971, 33.98394],
          [-117.433, 33.99173],
          [-117.41736, 34.0099],
          [-117.41065, 34.01769],
          [-117.395, 34.03585],
          [-117.38829, 34.04364],
          [-117.37263, 34.0618],
          [-117.36591, 34.06958],
          [-117.35024, 34.08774],
          [-117.34353, 34.09552],
          [-117.32785, 34.11368],
          [-117.33232, 34.13592],
          [-117.3256, 34.1437],
          [-117.30991, 34.16185],
          [-117.31438, 34.18408],
          [-117.31884, 34.20632],
          [-117.32331, 34.22855],
          [-117.32778, 34.25078],
          [-117.32105, 34.25855],
          [-117.30535, 34.2767],
          [-117.30982, 34.29893],
          [-117.31428, 34.32115],
          [-117.31876, 34.34338],
          [-117.32323, 34.3656],
          [-117.31649, 34.37337],
          [-117.30077, 34.39151],
          [-117.30525, 34.41373],
          [-117.30972, 34.43595],
          [-117.30298, 34.44372],
          [-117.28725, 34.46186],
          [-117.29172, 34.48407],
          [-117.29619, 34.50629],
          [-117.28945, 34.51405],
          [-117.2737, 34.53218],
          [-117.27817, 34.55439],
          [-117.28265, 34.5766],
          [-117.2759, 34.58437],
          [-117.26014, 34.60249],
          [-117.26461, 34.6247],
          [-117.25786, 34.63247],
          [-117.2421, 34.65058],
          [-117.24656, 34.67279],
          [-117.23981, 34.68055],
          [-117.22403, 34.69866],
          [-117.2285, 34.72087],
          [-117.22174, 34.72863],
          [-117.20595, 34.74674],
          [-117.19919, 34.7545],
          [-117.1834, 34.7726],
          [-117.17663, 34.78036],
          [-117.16083, 34.79846],
          [-117.15406, 34.80622],
          [-117.13825, 34.82432],
          [-117.13148, 34.83207],
          [-117.11566, 34.85017],
          [-117.10888, 34.85792],
          [-117.09306, 34.87601],
          [-117.08628, 34.88377],
          [-117.07045, 34.90185],
          [-117.06367, 34.9096],
          [-117.04783, 34.92769],
          [-117.05228, 34.94988],
          [-117.05672, 34.97207],
          [-117.06116, 34.99425],
          [-117.05437, 35.002],
          [-117.03852, 35.02008],
          [-117.0606, 35.03306],
          [-117.07006, 35.03862],
          [-117.07451, 35.0608],
          [-117.07896, 35.08298],
          [-117.08342, 35.10516],
          [-117.10551, 35.11813],
          [-117.11499, 35.12369],
          [-117.11945, 35.14586],
          [-117.14156, 35.15883],
          [-117.15104, 35.16438],
          [-117.17315, 35.17734],
          [-117.18263, 35.18289],
          [-117.18711, 35.20506],
          [-117.20924, 35.21802],
          [-117.21873, 35.22357],
          [-117.24086, 35.23651],
          [-117.25035, 35.24206],
          [-117.27249, 35.255],
          [-117.28199, 35.26055],
          [-117.30414, 35.27349],
          [-117.31363, 35.27903],
          [-117.33579, 35.29196],
          [-117.34529, 35.29751],
          [-117.36746, 35.31043],
          [-117.3946, 35.30674],
          [-117.40411, 35.31228],
          [-117.42628, 35.3252],
          [-117.45343, 35.3215],
          [-117.46294, 35.32703],
          [-117.48512, 35.33995],
          [-117.49463, 35.34548],
          [-117.51683, 35.35838],
          [-117.52634, 35.36391],
          [-117.54854, 35.37681],
          [-117.55806, 35.38234],
          [-117.58026, 35.39524],
          [-117.59608, 35.37713],
          [-117.60285, 35.36937],
          [-117.63001, 35.36564],
          [-117.65716, 35.36191],
          [-117.66668, 35.36743],
          [-117.67127, 35.38957],
          [-117.67585, 35.41171],
          [-117.66908, 35.41947],
          [-117.64191, 35.42321],
          [-117.61474, 35.42694],
          [-117.60522, 35.42141],
          [-117.583, 35.40852],
          [-117.55584, 35.41224],
          [-117.54001, 35.43034],
          [-117.53323, 35.4381],
          [-117.50605, 35.44181],
          [-117.47887, 35.44552],
          [-117.45169, 35.44922],
          [-117.42451, 35.45292],
          [-117.415, 35.44739],
          [-117.3928, 35.43447],
          [-117.36562, 35.43816],
          [-117.33844, 35.44185],
          [-117.32893, 35.43631],
          [-117.30674, 35.42338],
          [-117.27956, 35.42705],
          [-117.25238, 35.43072],
          [-117.22519, 35.43439],
          [-117.21569, 35.42884],
          [-117.19352, 35.4159],
          [-117.16634, 35.41956],
          [-117.13915, 35.42321],
          [-117.11197, 35.42686],
          [-117.08478, 35.4305],
          [-117.05759, 35.43414],
          [-117.0304, 35.43777],
          [-117.00321, 35.4414],
          [-116.98729, 35.45945],
          [-116.98046, 35.46718],
          [-116.96453, 35.48523],
          [-116.95771, 35.49296],
          [-116.94177, 35.511],
          [-116.94621, 35.53315],
          [-116.95066, 35.5553],
          [-116.95511, 35.57744],
          [-116.95956, 35.59959],
          [-116.98174, 35.61255],
          [-116.99125, 35.61811],
          [-116.9957, 35.64025],
          [-117.0179, 35.65321],
          [-117.02741, 35.65876],
          [-117.03188, 35.6809],
          [-117.05408, 35.69385],
          [-117.0636, 35.6994],
          [-117.06808, 35.72153],
          [-117.0903, 35.73448],
          [-117.09982, 35.74003],
          [-117.12205, 35.75297],
          [-117.13158, 35.75851],
          [-117.15381, 35.77145],
          [-117.16334, 35.77699],
          [-117.18558, 35.78992],
          [-117.21285, 35.78627],
          [-117.22239, 35.79181],
          [-117.24464, 35.80473],
          [-117.27191, 35.80107],
          [-117.29919, 35.7974],
          [-117.32646, 35.79372],
          [-117.35372, 35.79004],
          [-117.36327, 35.79558],
          [-117.38554, 35.80848],
          [-117.41281, 35.80479],
          [-117.42235, 35.81032],
          [-117.44463, 35.82321],
          [-117.45418, 35.82874],
          [-117.47647, 35.84163],
          [-117.48602, 35.84715],
          [-117.50831, 35.86004],
          [-117.51787, 35.86556],
          [-117.54017, 35.87844],
          [-117.54973, 35.88396],
          [-117.57203, 35.89683],
          [-117.5816, 35.90235],
          [-117.60391, 35.91522],
          [-117.61348, 35.92073],
          [-117.6358, 35.9336],
          [-117.64537, 35.93911],
          [-117.6677, 35.95197],
          [-117.67727, 35.95748],
          [-117.69961, 35.97033],
          [-117.70919, 35.97584],
          [-117.73153, 35.98869],
          [-117.74111, 35.9942],
          [-117.74573, 36.01629],
          [-117.76809, 36.02913],
          [-117.77768, 36.03463],
          [-117.78231, 36.05672],
          [-117.80468, 36.06956],
          [-117.81427, 36.07506],
          [-117.83665, 36.08789],
          [-117.84624, 36.09338],
          [-117.85089, 36.11546],
          [-117.87328, 36.12829],
          [-117.88288, 36.13378],
          [-117.90528, 36.1466],
          [-117.91488, 36.15209],
          [-117.91954, 36.17417],
          [-117.92421, 36.19624],
          [-117.94663, 36.20905],
          [-117.95624, 36.21454],
          [-117.96091, 36.23661],
          [-117.98334, 36.24941],
          [-117.99295, 36.2549],
          [-117.99764, 36.27696],
          [-118.00233, 36.29902],
          [-118.02478, 36.31182],
          [-118.0344, 36.3173],
          [-118.03909, 36.33936],
          [-118.06155, 36.35215],
          [-118.07118, 36.35763],
          [-118.07589, 36.37968],
          [-118.09836, 36.39246],
          [-118.10799, 36.39794],
          [-118.11271, 36.41999],
          [-118.13519, 36.43276],
          [-118.14483, 36.43823],
          [-118.14955, 36.46028],
          [-118.17205, 36.47305],
          [-118.18169, 36.47852],
          [-118.2042, 36.49128],
          [-118.21384, 36.49675],
          [-118.21858, 36.51879],
          [-118.2411, 36.53154],
          [-118.25075, 36.53701],
          [-118.2555, 36.55904],
          [-118.27803, 36.57179],
          [-118.28769, 36.57725],
          [-118.31023, 36.59],
          [-118.31989, 36.59546],
          [-118.32465, 36.61748],
          [-118.32942, 36.63951],
          [-118.33419, 36.66153],
          [-118.33897, 36.68355],
          [-118.33216, 36.69131],
          [-118.31628, 36.7094],
          [-118.30947, 36.71715],
          [-118.29358, 36.73524],
          [-118.28677, 36.74299],
          [-118.25929, 36.7468],
          [-118.23181, 36.75062],
          [-118.20433, 36.75442],
          [-118.19467, 36.74896],
          [-118.17211, 36.73621],
          [-118.14463, 36.74001],
          [-118.13497, 36.73454],
          [-118.11242, 36.72178],
          [-118.08494, 36.72557],
          [-118.07528, 36.7201],
          [-118.05275, 36.70733],
          [-118.02527, 36.71111],
          [-117.9978, 36.71488],
          [-117.98814, 36.70941],
          [-117.96562, 36.69663],
          [-117.93814, 36.70039],
          [-117.92849, 36.69491],
          [-117.90598, 36.68212],
          [-117.89633, 36.67664],
          [-117.87383, 36.66384],
          [-117.86418, 36.65836],
          [-117.84168, 36.64556],
          [-117.83204, 36.64007],
          [-117.80955, 36.62727],
          [-117.79992, 36.62178],
          [-117.77743, 36.60897],
          [-117.7678, 36.60348],
          [-117.74532, 36.59066],
          [-117.73569, 36.58517],
          [-117.71322, 36.57235],
          [-117.70359, 36.56685],
          [-117.68113, 36.55403],
          [-117.67151, 36.54853],
          [-117.64906, 36.5357],
          [-117.62161, 36.53941],
          [-117.59416, 36.54312],
          [-117.58454, 36.53762],
          [-117.5621, 36.52478],
          [-117.53466, 36.52848],
          [-117.50721, 36.53218],
          [-117.47976, 36.53587],
          [-117.45231, 36.53956],
          [-117.42486, 36.54324],
          [-117.3974, 36.54692],
          [-117.38139, 36.56494],
          [-117.37452, 36.57266],
          [-117.34706, 36.57633],
          [-117.33103, 36.59433],
          [-117.32416, 36.60205],
          [-117.29668, 36.60571],
          [-117.26921, 36.60937],
          [-117.25316, 36.62737],
          [-117.24628, 36.63508],
          [-117.2188, 36.63873],
          [-117.19131, 36.64237],
          [-117.16382, 36.64601],
          [-117.13633, 36.64965],
          [-117.10884, 36.65328],
          [-117.09276, 36.67126],
          [-117.08587, 36.67896],
          [-117.06978, 36.69694],
          [-117.06288, 36.70464],
          [-117.04679, 36.72261],
          [-117.03989, 36.73031],
          [-117.02378, 36.74828],
          [-117.01688, 36.75597],
          [-117.00077, 36.77394],
          [-116.99386, 36.78163],
          [-116.97775, 36.79959],
          [-116.97084, 36.80729],
          [-116.95471, 36.82524],
          [-116.95921, 36.84729],
          [-116.9523, 36.85498],
          [-116.93616, 36.87293],
          [-116.94066, 36.89497],
          [-116.93374, 36.90266],
          [-116.91759, 36.92061],
          [-116.91067, 36.9283],
          [-116.89452, 36.94624],
          [-116.88759, 36.95392],
          [-116.87143, 36.97186],
          [-116.8645, 36.97955],
          [-116.84833, 36.99748],
          [-116.8414, 37.00516],
          [-116.82522, 37.02309],
          [-116.8297, 37.04512],
          [-116.82277, 37.0528],
          [-116.80658, 37.07073],
          [-116.79964, 37.07841],
          [-116.78345, 37.09633],
          [-116.7765, 37.10401],
          [-116.7603, 37.12192],
          [-116.76477, 37.14394],
          [-116.75783, 37.15162],
          [-116.74162, 37.16953],
          [-116.73467, 37.17721],
          [-116.71844, 37.19511],
          [-116.72291, 37.21713],
          [-116.71596, 37.2248],
          [-116.69973, 37.2427],
          [-116.70419, 37.26472],
          [-116.69723, 37.27239],
          [-116.66957, 37.27594],
          [-116.65332, 37.29383],
          [-116.64636, 37.3015],
          [-116.61868, 37.30504],
          [-116.60243, 37.32293],
          [-116.59546, 37.33059],
          [-116.56777, 37.33413],
          [-116.5515, 37.35201],
          [-116.54453, 37.35967],
          [-116.52825, 37.37754],
          [-116.52127, 37.3852],
          [-116.49357, 37.38872],
          [-116.47728, 37.40659],
          [-116.47029, 37.41425],
          [-116.45399, 37.43211],
          [-116.447, 37.43977],
          [-116.41929, 37.44327],
          [-116.39157, 37.44678],
          [-116.36385, 37.45028],
          [-116.34753, 37.46813],
          [-116.34053, 37.47578],
          [-116.3128, 37.47927],
          [-116.29647, 37.49711],
          [-116.28946, 37.50476],
          [-116.26173, 37.50824],
          [-116.24538, 37.52608],
          [-116.23837, 37.53372],
          [-116.22201, 37.55155],
          [-116.215, 37.55919],
          [-116.19863, 37.57702],
          [-116.19162, 37.58466],
          [-116.17525, 37.60249],
          [-116.16823, 37.61012],
          [-116.15185, 37.62795],
          [-116.14483, 37.63558],
          [-116.12844, 37.6534],
          [-116.1328, 37.67539],
          [-116.12578, 37.68303],
          [-116.10938, 37.70084],
          [-116.10235, 37.70847],
          [-116.08594, 37.72628],
          [-116.07891, 37.73391],
          [-116.0625, 37.75171],
          [-116.05546, 37.75934],
          [-116.03904, 37.77714],
          [-116.032, 37.78476],
          [-116.01557, 37.80256],
          [-116.00853, 37.81018],
          [-115.99209, 37.82797],
          [-115.98504, 37.8356],
          [-115.9686, 37.85338],
          [-115.97294, 37.87536],
          [-115.96589, 37.88298],
          [-115.94943, 37.90076],
          [-115.94238, 37.90838],
          [-115.92592, 37.92616],
          [-115.91886, 37.93378],
          [-115.90239, 37.95155],
          [-115.89533, 37.95916],
          [-115.87885, 37.97693],
          [-115.87178, 37.98455],
          [-115.8553, 38.00231],
          [-115.84823, 38.00992],
          [-115.83173, 38.02768],
          [-115.82466, 38.03529],
          [-115.80816, 38.05305],
          [-115.81248, 38.07501],
          [-115.8054, 38.08262],
          [-115.78889, 38.10037],
          [-115.78181, 38.10798],
          [-115.76529, 38.12572],
          [-115.75821, 38.13333],
          [-115.74168, 38.15107],
          [-115.73459, 38.15867],
          [-115.71806, 38.17641],
          [-115.71097, 38.18401],
          [-115.69442, 38.20174],
          [-115.69872, 38.2237],
          [-115.69163, 38.2313],
          [-115.67507, 38.24902],
          [-115.66798, 38.25662],
          [-115.65141, 38.27434],
          [-115.64431, 38.28194],
          [-115.62774, 38.29966],
          [-115.62064, 38.30725],
          [-115.60406, 38.32497],
          [-115.59695, 38.33256],
          [-115.58037, 38.35027],
          [-115.57326, 38.35786],
          [-115.55666, 38.37556],
          [-115.56094, 38.3975],
          [-115.55382, 38.40509],
          [-115.53722, 38.42279],
          [-115.5301, 38.43038],
          [-115.51349, 38.44807],
          [-115.50637, 38.45566],
          [-115.48974, 38.47335],
          [-115.48262, 38.48093],
          [-115.46599, 38.49862],
          [-115.45886, 38.5062],
          [-115.44223, 38.52388],
          [-115.43509, 38.53146],
          [-115.41845, 38.54914],
          [-115.41131, 38.55672],
          [-115.39466, 38.57439],
          [-115.38752, 38.58197],
          [-115.37086, 38.59964],
          [-115.37511, 38.62156],
          [-115.36797, 38.62913],
          [-115.3513, 38.6468],
          [-115.35554, 38.66871],
          [-115.34839, 38.67628],
          [-115.33171, 38.69394],
          [-115.33595, 38.71586],
          [-115.3288, 38.72342],
          [-115.31211, 38.74108],
          [-115.30495, 38.74864],
          [-115.28825, 38.76629],
          [-115.29249, 38.7882],
          [-115.28533, 38.79576],
          [-115.26862, 38.81341],
          [-115.26146, 38.82097],
          [-115.24474, 38.83861],
          [-115.23757, 38.84617],
          [-115.22084, 38.8638],
          [-115.21367, 38.87136],
          [-115.18554, 38.87465],
          [-115.1688, 38.89228],
          [-115.16162, 38.89983],
          [-115.13349, 38.90311],
          [-115.11673, 38.92073],
          [-115.10955, 38.92828],
          [-115.0814, 38.93155],
          [-115.06463, 38.94916],
          [-115.05745, 38.95671],
          [-115.04067, 38.97432],
          [-115.03348, 38.98187],
          [-115.0167, 38.99947],
          [-115.0095, 39.00702],
          [-114.98133, 39.01027],
          [-114.96454, 39.02787],
          [-114.95733, 39.03541],
          [-114.94053, 39.053],
          [-114.93333, 39.06054],
          [-114.91651, 39.07813],
          [-114.90931, 39.08566],
          [-114.89249, 39.10325],
          [-114.89666, 39.12513],
          [-114.88944, 39.13267],
          [-114.86123, 39.1359],
          [-114.8444, 39.15347],
          [-114.84856, 39.17535],
          [-114.84134, 39.18288],
          [-114.82449, 39.20045],
          [-114.81727, 39.20798],
          [-114.80042, 39.22555],
          [-114.79319, 39.23307],
          [-114.77633, 39.25064],
          [-114.7691, 39.25816],
          [-114.75223, 39.27572],
          [-114.74499, 39.28324],
          [-114.71674, 39.28645],
          [-114.69986, 39.304],
          [-114.69262, 39.31152],
          [-114.66435, 39.31471],
          [-114.63609, 39.3179],
          [-114.61919, 39.33544],
          [-114.61194, 39.34296],
          [-114.60222, 39.33735],
          [-114.57955, 39.32427],
          [-114.55128, 39.32745],
          [-114.52301, 39.33063],
          [-114.49473, 39.33379],
          [-114.46646, 39.33696],
          [-114.43818, 39.34012],
          [-114.4099, 39.34327],
          [-114.38162, 39.34642],
          [-114.36467, 39.36394],
          [-114.35741, 39.37144],
          [-114.32911, 39.37458],
          [-114.31215, 39.39209],
          [-114.30488, 39.39959],
          [-114.28791, 39.41709],
          [-114.28063, 39.42459],
          [-114.25233, 39.42772],
          [-114.23534, 39.44521],
          [-114.22806, 39.4527],
          [-114.19974, 39.45582],
          [-114.17143, 39.45894],
          [-114.14311, 39.46205],
          [-114.11479, 39.46515],
          [-114.09777, 39.48263],
          [-114.09048, 39.49012],
          [-114.06215, 39.49322],
          [-114.03382, 39.49631],
          [-114.00548, 39.4994],
          [-113.99578, 39.49376],
          [-113.97316, 39.48061],
          [-113.94482, 39.48369],
          [-113.93513, 39.47805],
          [-113.91251, 39.4649],
          [-113.90282, 39.45926],
          [-113.89885, 39.43738],
          [-113.87624, 39.42422],
          [-113.86656, 39.41858],
          [-113.84396, 39.40541],
          [-113.81565, 39.40847],
          [-113.80597, 39.40282],
          [-113.78339, 39.38964],
          [-113.76633, 39.40709],
          [-113.75902, 39.41457],
          [-113.7307, 39.41761],
          [-113.70238, 39.42065],
          [-113.67405, 39.42369],
          [-113.64573, 39.42672],
          [-113.62864, 39.44415],
          [-113.62132, 39.45162],
          [-113.59298, 39.45464],
          [-113.57589, 39.47207],
          [-113.56856, 39.47954],
          [-113.55145, 39.49696],
          [-113.54411, 39.50443],
          [-113.527, 39.52184],
          [-113.51966, 39.52931],
          [-113.50254, 39.54672],
          [-113.4952, 39.55418],
          [-113.47806, 39.57159],
          [-113.47072, 39.57905],
          [-113.45358, 39.59645],
          [-113.45747, 39.61832],
          [-113.45012, 39.62577],
          [-113.43297, 39.64317],
          [-113.42561, 39.65063],
          [-113.40846, 39.66802],
          [-113.41234, 39.68988],
          [-113.40498, 39.69733],
          [-113.37657, 39.70032],
          [-113.3594, 39.7177],
          [-113.35203, 39.72515],
          [-113.32362, 39.72812],
          [-113.2952, 39.73109],
          [-113.27801, 39.74847],
          [-113.27064, 39.75591],
          [-113.24221, 39.75887],
          [-113.21378, 39.76183],
          [-113.18535, 39.76478],
          [-113.15692, 39.76773],
          [-113.12849, 39.77067],
          [-113.10006, 39.77361],
          [-113.07162, 39.77654],
          [-113.04318, 39.77947],
          [-113.01474, 39.78239],
          [-112.9863, 39.78531],
          [-112.95786, 39.78822],
          [-112.9406, 39.80556],
          [-112.9332, 39.81299],
          [-112.90475, 39.81589],
          [-112.8763, 39.8188],
          [-112.84784, 39.82169],
          [-112.81939, 39.82458],
          [-112.79093, 39.82747],
          [-112.76247, 39.83035],
          [-112.73401, 39.83323],
          [-112.70555, 39.8361],
          [-112.67708, 39.83897],
          [-112.64862, 39.84184],
          [-112.62015, 39.84469],
          [-112.60283, 39.86199],
          [-112.5954, 39.8694],
          [-112.56692, 39.87226],
          [-112.54958, 39.88955],
          [-112.54215, 39.89695],
          [-112.5248, 39.91424],
          [-112.51737, 39.92165],
          [-112.50001, 39.93893],
          [-112.49257, 39.94633],
          [-112.46407, 39.94917],
          [-112.4467, 39.96644],
          [-112.43926, 39.97384],
          [-112.41075, 39.97667],
          [-112.38224, 39.97949],
          [-112.36485, 39.99675],
          [-112.3574, 40.00415],
          [-112.32888, 40.00696],
          [-112.31148, 40.02421],
          [-112.30402, 40.03161],
          [-112.27549, 40.03441],
          [-112.25807, 40.05165],
          [-112.25061, 40.05905],
          [-112.22207, 40.06184],
          [-112.19353, 40.06462],
          [-112.16499, 40.06741],
          [-112.14755, 40.08464],
          [-112.14008, 40.09203],
          [-112.11153, 40.0948],
          [-112.08298, 40.09757],
          [-112.05443, 40.10033],
          [-112.02587, 40.10309],
          [-112, 40.10559]
        ]
      }
    },
    {
      "type": "Feature",
      "id": "2026090112_f216_13000_001",
      "properties": {
        "product_id": "winter_storm_levels",
        "source_id": "nbm_snow_level",
        "parameter": "snow_level",
        "definition": "height of the wet-bulb 0.5 degree C surface",
        "level_ft_msl": 13000,
        "label": "13,000 ft MSL",
        "unit": "ft_msl",
        "cycle_time_utc": "2026-09-01T12:00:00Z",
        "valid_time_utc": "2026-09-10T12:00:00Z",
        "lead_hours": 216,
        "segment": 1,
        "length_m": 2813
      },
      "geometry": {
        "type": "LineString",
        "coordinates": [
          [-112.51187, 36.57939],
          [-112.50707, 36.5844],
          [-112.50083, 36.58054],
          [-112.50563, 36.57553],
          [-112.51187, 36.57939]
        ]
      }
    },
    {
      "type": "Feature",
      "id": "2026090112_f216_13000_002",
      "properties": {
        "product_id": "winter_storm_levels",
        "source_id": "nbm_snow_level",
        "parameter": "snow_level",
        "definition": "height of the wet-bulb 0.5 degree C surface",
        "level_ft_msl": 13000,
        "label": "13,000 ft MSL",
        "unit": "ft_msl",
        "cycle_time_utc": "2026-09-01T12:00:00Z",
        "valid_time_utc": "2026-09-10T12:00:00Z",
        "lead_hours": 216,
        "segment": 2,
        "length_m": 978030.9
      },
      "geometry": {
        "type": "LineString",
        "coordinates": [
          [-116.8907, 30.20475],
          [-116.8946, 30.2254],
          [-116.89883, 30.24784],
          [-116.89448, 30.25307],
          [-116.87708, 30.27395],
          [-116.87272, 30.27917],
          [-116.85531, 30.30004],
          [-116.85096, 30.30526],
          [-116.83354, 30.32614],
          [-116.83776, 30.34858],
          [-116.83341, 30.3538],
          [-116.82736, 30.35004],
          [-116.80318, 30.335],
          [-116.78574, 30.35587],
          [-116.78138, 30.36108],
          [-116.76394, 30.38195],
          [-116.76816, 30.40439],
          [-116.7638, 30.40961],
          [-116.74634, 30.43047],
          [-116.75056, 30.45291],
          [-116.74619, 30.45813],
          [-116.72873, 30.47898],
          [-116.72436, 30.4842],
          [-116.7069, 30.50505],
          [-116.70253, 30.51027],
          [-116.68505, 30.53112],
          [-116.68068, 30.53633],
          [-116.65462, 30.53995],
          [-116.64857, 30.53618],
          [-116.62437, 30.52112],
          [-116.61833, 30.51735],
          [-116.59414, 30.50228],
          [-116.57664, 30.52312],
          [-116.58082, 30.54556],
          [-116.57645, 30.55077],
          [-116.55894, 30.57161],
          [-116.56312, 30.59405],
          [-116.55875, 30.59926],
          [-116.54123, 30.62009],
          [-116.53685, 30.6253],
          [-116.51933, 30.64613],
          [-116.51494, 30.65133],
          [-116.49741, 30.67216],
          [-116.50158, 30.6946],
          [-116.4972, 30.6998],
          [-116.47966, 30.72062],
          [-116.48383, 30.74306],
          [-116.47944, 30.74827],
          [-116.46189, 30.76908],
          [-116.4575, 30.77429],
          [-116.43994, 30.7951],
          [-116.44411, 30.81754],
          [-116.43971, 30.82274],
          [-116.42214, 30.84355],
          [-116.42631, 30.86599],
          [-116.42191, 30.87119],
          [-116.40433, 30.89199],
          [-116.39993, 30.89719],
          [-116.38235, 30.918],
          [-116.37795, 30.9232],
          [-116.36035, 30.944],
          [-116.35595, 30.9492],
          [-116.33834, 30.96999],
          [-116.3425, 30.99242],
          [-116.33809, 30.99762],
          [-116.32048, 31.01841],
          [-116.32463, 31.04084],
          [-116.32022, 31.04604],
          [-116.3026, 31.06683],
          [-116.30675, 31.08926],
          [-116.3109, 31.11169],
          [-116.30649, 31.11688],
          [-116.28885, 31.13767],
          [-116.293, 31.16009],
          [-116.29715, 31.18252],
          [-116.29274, 31.18771],
          [-116.27509, 31.20849],
          [-116.27924, 31.23092],
          [-116.28339, 31.25334],
          [-116.27897, 31.25853],
          [-116.26131, 31.27931],
          [-116.26545, 31.30173],
          [-116.2696, 31.32415],
          [-116.26519, 31.32934],
          [-116.24751, 31.35011],
          [-116.24309, 31.3553],
          [-116.2254, 31.37607],
          [-116.22954, 31.39849],
          [-116.23369, 31.4209],
          [-116.22927, 31.4261],
          [-116.21157, 31.44686],
          [-116.21571, 31.46927],
          [-116.21986, 31.49169],
          [-116.22401, 31.5141],
          [-116.22816, 31.53651],
          [-116.22373, 31.5417],
          [-116.20601, 31.56246],
          [-116.21016, 31.58486],
          [-116.20573, 31.59005],
          [-116.188, 31.61081],
          [-116.18356, 31.61599],
          [-116.16583, 31.63674],
          [-116.16139, 31.64193],
          [-116.14365, 31.66268],
          [-116.13921, 31.66786],
          [-116.12145, 31.6886],
          [-116.11702, 31.69379],
          [-116.09925, 31.71453],
          [-116.09481, 31.71971],
          [-116.06847, 31.72322],
          [-116.0507, 31.74395],
          [-116.05482, 31.76636],
          [-116.05038, 31.77154],
          [-116.03259, 31.79227],
          [-116.02814, 31.79745],
          [-116.00178, 31.80095],
          [-115.98398, 31.82167],
          [-115.9881, 31.84408],
          [-115.98365, 31.84925],
          [-115.96584, 31.86997],
          [-115.96138, 31.87515],
          [-115.94357, 31.89586],
          [-115.94768, 31.91826],
          [-115.94322, 31.92344],
          [-115.92539, 31.94415],
          [-115.92093, 31.94933],
          [-115.9031, 31.97003],
          [-115.9072, 31.99243],
          [-115.90274, 31.9976],
          [-115.87633, 32.00108],
          [-115.85848, 32.02178],
          [-115.85401, 32.02695],
          [-115.83615, 32.04765],
          [-115.83169, 32.05282],
          [-115.81382, 32.07351],
          [-115.80935, 32.07868],
          [-115.79147, 32.09937],
          [-115.787, 32.10454],
          [-115.76912, 32.12522],
          [-115.76465, 32.1304],
          [-115.74675, 32.15107],
          [-115.74228, 32.15624],
          [-115.72438, 32.17692],
          [-115.7199, 32.18209],
          [-115.70199, 32.20276],
          [-115.69752, 32.20793],
          [-115.6796, 32.22859],
          [-115.67512, 32.23376],
          [-115.65719, 32.25443],
          [-115.66126, 32.27682],
          [-115.65678, 32.28198],
          [-115.63029, 32.28542],
          [-115.61235, 32.30607],
          [-115.60787, 32.31124],
          [-115.58137, 32.31466],
          [-115.56342, 32.33531],
          [-115.55893, 32.34048],
          [-115.54097, 32.36112],
          [-115.53648, 32.36628],
          [-115.50997, 32.3697],
          [-115.48346, 32.37311],
          [-115.45695, 32.37652],
          [-115.43044, 32.37992],
          [-115.40393, 32.38332],
          [-115.38593, 32.40394],
          [-115.38143, 32.4091],
          [-115.35491, 32.41249],
          [-115.3369, 32.43311],
          [-115.3324, 32.43826],
          [-115.31438, 32.45888],
          [-115.30987, 32.46403],
          [-115.28334, 32.46741],
          [-115.2653, 32.48802],
          [-115.2608, 32.49317],
          [-115.24275, 32.51378],
          [-115.23824, 32.51893],
          [-115.22019, 32.53953],
          [-115.22419, 32.56191],
          [-115.21967, 32.56706],
          [-115.20161, 32.58766],
          [-115.1971, 32.59281],
          [-115.17903, 32.6134],
          [-115.17451, 32.61855],
          [-115.15644, 32.63914],
          [-115.15192, 32.64429],
          [-115.13383, 32.66487],
          [-115.12931, 32.67002],
          [-115.11122, 32.6906],
          [-115.10669, 32.69575],
          [-115.08859, 32.71633],
          [-115.08407, 32.72147],
          [-115.06596, 32.74204],
          [-115.06143, 32.74719],
          [-115.04331, 32.76776],
          [-115.03878, 32.7729],
          [-115.01217, 32.77623],
          [-114.99404, 32.79679],
          [-114.9895, 32.80193],
          [-114.97137, 32.82249],
          [-114.96683, 32.82763],
          [-114.94868, 32.84819],
          [-114.94415, 32.85333],
          [-114.92599, 32.87388],
          [-114.92145, 32.87901],
          [-114.90329, 32.89956],
          [-114.89875, 32.9047],
          [-114.88058, 32.92524],
          [-114.87603, 32.93038],
          [-114.84938, 32.93368],
          [-114.83119, 32.95422],
          [-114.82664, 32.95935],
          [-114.80845, 32.97988],
          [-114.8039, 32.98502],
          [-114.7857, 33.00555],
          [-114.78115, 33.01068],
          [-114.76294, 33.0312],
          [-114.76686, 33.05357],
          [-114.7623, 33.0587],
          [-114.74408, 33.07922],
          [-114.73953, 33.08435],
          [-114.7213, 33.10487],
          [-114.71674, 33.11],
          [-114.6985, 33.13051],
          [-114.69394, 33.13564],
          [-114.6757, 33.15615],
          [-114.67114, 33.16128],
          [-114.65288, 33.18178],
          [-114.64832, 33.18691],
          [-114.63006, 33.20741],
          [-114.62549, 33.21253],
          [-114.60722, 33.23303],
          [-114.60265, 33.23815],
          [-114.58438, 33.25865],
          [-114.58827, 33.28101],
          [-114.58369, 33.28613],
          [-114.56541, 33.30662],
          [-114.56083, 33.31174],
          [-114.54253, 33.33222],
          [-114.53796, 33.33735],
          [-114.51965, 33.35783],
          [-114.52354, 33.38018],
          [-114.51896, 33.3853],
          [-114.50064, 33.40578],
          [-114.49606, 33.4109],
          [-114.47773, 33.43137],
          [-114.48161, 33.45372],
          [-114.47703, 33.45884],
          [-114.45869, 33.47931],
          [-114.46256, 33.50166],
          [-114.45798, 33.50677],
          [-114.43963, 33.52723],
          [-114.43504, 33.53235],
          [-114.41669, 33.55281],
          [-114.42055, 33.57515],
          [-114.41596, 33.58027],
          [-114.3976, 33.60072],
          [-114.393, 33.60583],
          [-114.37463, 33.62628],
          [-114.37849, 33.64863],
          [-114.38235, 33.67097],
          [-114.37776, 33.67608],
          [-114.35937, 33.69653],
          [-114.36323, 33.71886],
          [-114.35863, 33.72398],
          [-114.34023, 33.74441],
          [-114.34409, 33.76675],
          [-114.33949, 33.77186],
          [-114.32107, 33.79229],
          [-114.32493, 33.81463],
          [-114.32033, 33.81974],
          [-114.3019, 33.84017],
          [-114.2973, 33.84527],
          [-114.27886, 33.8657],
          [-114.28272, 33.88803],
          [-114.27811, 33.89313],
          [-114.25966, 33.91355],
          [-114.26351, 33.93588],
          [-114.28812, 33.95119],
          [-114.31504, 33.94799],
          [-114.3185, 33.95213],
          [-114.31658, 33.95692],
          [-114.29814, 33.97734],
          [-114.30199, 33.99966],
          [-114.29699, 34.00253],
          [-114.27045, 34.00796],
          [-114.2643, 34.00414],
          [-114.23968, 33.98883],
          [-114.22121, 34.00924],
          [-114.21659, 34.01434],
          [-114.19812, 34.03475],
          [-114.1935, 34.03985],
          [-114.17502, 34.06025],
          [-114.17039, 34.06535],
          [-114.1519, 34.08575],
          [-114.14728, 34.09085],
          [-114.12878, 34.11124],
          [-114.13261, 34.13356],
          [-114.12798, 34.13866],
          [-114.10947, 34.15905],
          [-114.10484, 34.16414],
          [-114.08632, 34.18453],
          [-114.08169, 34.18962],
          [-114.06316, 34.21],
          [-114.06698, 34.23232],
          [-114.06235, 34.23741],
          [-114.04381, 34.25779],
          [-114.03918, 34.26288],
          [-114.02063, 34.28325],
          [-114.02444, 34.30556],
          [-114.0198, 34.31065],
          [-114.00124, 34.33102],
          [-113.9966, 34.33611],
          [-113.97804, 34.35647],
          [-113.97339, 34.36156],
          [-113.95482, 34.38192],
          [-113.95017, 34.38701],
          [-113.93159, 34.40736],
          [-113.92694, 34.41245],
          [-113.90835, 34.4328],
          [-113.91214, 34.4551],
          [-113.91594, 34.4774],
          [-113.91974, 34.4997],
          [-113.91509, 34.50479],
          [-113.88803, 34.50792],
          [-113.86097, 34.51104],
          [-113.84235, 34.53138],
          [-113.84614, 34.55367],
          [-113.84148, 34.55876],
          [-113.82285, 34.57909],
          [-113.82663, 34.60138],
          [-113.83042, 34.62368],
          [-113.82576, 34.62876],
          [-113.80711, 34.64908],
          [-113.81089, 34.67137],
          [-113.80623, 34.67645],
          [-113.78757, 34.69677],
          [-113.79135, 34.71906],
          [-113.79514, 34.74134],
          [-113.81986, 34.75668],
          [-113.82604, 34.76052],
          [-113.82984, 34.7828],
          [-113.83363, 34.80508],
          [-113.83742, 34.82736],
          [-113.84122, 34.84963],
          [-113.84502, 34.87191],
          [-113.84882, 34.89418],
          [-113.84415, 34.89926],
          [-113.82546, 34.91957],
          [-113.82925, 34.94184],
          [-113.83305, 34.96411],
          [-113.83685, 34.98638],
          [-113.84065, 35.00864],
          [-113.83598, 35.01372],
          [-113.81727, 35.03402],
          [-113.82107, 35.05628],
          [-113.82487, 35.07854],
          [-113.82867, 35.1008],
          [-113.83247, 35.12306],
          [-113.83628, 35.14532],
          [-113.84008, 35.16757],
          [-113.84389, 35.18982],
          [-113.83921, 35.1949],
          [-113.82047, 35.21519],
          [-113.82427, 35.23744],
          [-113.82808, 35.25968],
          [-113.83189, 35.28193],
          [-113.8357, 35.30417],
          [-113.83951, 35.32642],
          [-113.83482, 35.33149],
          [-113.81606, 35.35177],
          [-113.81137, 35.35684],
          [-113.79259, 35.37711],
          [-113.7879, 35.38218],
          [-113.76062, 35.38528],
          [-113.74184, 35.40555],
          [-113.73714, 35.41061],
          [-113.70985, 35.4137],
          [-113.69105, 35.43396],
          [-113.68635, 35.43903],
          [-113.65906, 35.44211],
          [-113.64024, 35.46236],
          [-113.63554, 35.46743],
          [-113.60823, 35.4705],
          [-113.5894, 35.49074],
          [-113.5847, 35.4958],
          [-113.56586, 35.51604],
          [-113.56115, 35.5211],
          [-113.53383, 35.52416],
          [-113.51498, 35.5444],
          [-113.51026, 35.54945],
          [-113.48294, 35.55251],
          [-113.45561, 35.55555],
          [-113.43674, 35.57578],
          [-113.43202, 35.58083],
          [-113.40468, 35.58387],
          [-113.3858, 35.60408],
          [-113.38107, 35.60914],
          [-113.35373, 35.61217],
          [-113.33483, 35.63237],
          [-113.3301, 35.63742],
          [-113.30275, 35.64044],
          [-113.28383, 35.66064],
          [-113.2791, 35.66569],
          [-113.26018, 35.68589],
          [-113.25545, 35.69093],
          [-113.23652, 35.71112],
          [-113.23178, 35.71617],
          [-113.20441, 35.71917],
          [-113.18546, 35.73936],
          [-113.18073, 35.7444],
          [-113.15334, 35.7474],
          [-113.13438, 35.76757],
          [-113.12964, 35.77261],
          [-113.11067, 35.79278],
          [-113.11435, 35.815],
          [-113.10961, 35.82005],
          [-113.09063, 35.84021],
          [-113.08588, 35.84525],
          [-113.06689, 35.86541],
          [-113.06214, 35.87045],
          [-113.03473, 35.87342],
          [-113.01572, 35.89357],
          [-113.01097, 35.89861],
          [-112.99196, 35.91876],
          [-112.9872, 35.9238],
          [-112.96818, 35.94394],
          [-112.96343, 35.94897],
          [-112.9444, 35.96911],
          [-112.93964, 35.97414],
          [-112.9206, 35.99428],
          [-112.91584, 35.99931],
          [-112.88838, 36.00226],
          [-112.86933, 36.02239],
          [-112.86457, 36.02742],
          [-112.84551, 36.04754],
          [-112.84914, 36.06975],
          [-112.84438, 36.07477],
          [-112.8253, 36.09489],
          [-112.82053, 36.09992],
          [-112.80145, 36.12003],
          [-112.79668, 36.12506],
          [-112.77759, 36.14516],
          [-112.77281, 36.15019],
          [-112.75371, 36.17029],
          [-112.74894, 36.17531],
          [-112.72983, 36.19541],
          [-112.72505, 36.20044],
          [-112.70593, 36.22053],
          [-112.70955, 36.24273],
          [-112.70477, 36.24775],
          [-112.68564, 36.26783],
          [-112.68085, 36.27286],
          [-112.66172, 36.29294],
          [-112.65693, 36.29796],
          [-112.63778, 36.31804],
          [-112.633, 36.32305],
          [-112.61384, 36.34313],
          [-112.60905, 36.34814],
          [-112.58989, 36.36821],
          [-112.59348, 36.3904],
          [-112.58869, 36.39542],
          [-112.56951, 36.41548],
          [-112.56472, 36.42049],
          [-112.54553, 36.44055],
          [-112.54073, 36.44557],
          [-112.52154, 36.46562],
          [-112.51674, 36.47063],
          [-112.49754, 36.49068],
          [-112.50112, 36.51286],
          [-112.49632, 36.51787],
          [-112.4771, 36.53792],
          [-112.4723, 36.54293],
          [-112.45307, 36.56296],
          [-112.44826, 36.56797],
          [-112.42903, 36.58801],
          [-112.42422, 36.59301],
          [-112.39661, 36.59588],
          [-112.37736, 36.6159],
          [-112.37255, 36.62091],
          [-112.34492, 36.62376],
          [-112.32566, 36.64378],
          [-112.32084, 36.64879],
          [-112.29321, 36.65163],
          [-112.27393, 36.67164],
          [-112.26911, 36.67664],
          [-112.24147, 36.67948],
          [-112.21382, 36.68231],
          [-112.19453, 36.70231],
          [-112.1897, 36.70731],
          [-112.16205, 36.71013],
          [-112.14274, 36.73012],
          [-112.13791, 36.73512],
          [-112.11025, 36.73794],
          [-112.09092, 36.75792],
          [-112.08609, 36.76291],
          [-112.05842, 36.76572],
          [-112.03075, 36.76852],
          [-112.01141, 36.78849],
          [-112.00657, 36.79348],
          [-112, 36.79415]
        ]
      }
    },
    {
      "type": "Feature",
      "id": "2026090112_f216_14000_001",
      "properties": {
        "product_id": "winter_storm_levels",
        "source_id": "nbm_snow_level",
        "parameter": "snow_level",
        "definition": "height of the wet-bulb 0.5 degree C surface",
        "level_ft_msl": 14000,
        "label": "14,000 ft MSL",
        "unit": "ft_msl",
        "cycle_time_utc": "2026-09-01T12:00:00Z",
        "valid_time_utc": "2026-09-10T12:00:00Z",
        "lead_hours": 216,
        "segment": 1,
        "length_m": 73589.9
      },
      "geometry": {
        "type": "LineString",
        "coordinates": [
          [-112, 31.2899],
          [-112.0183, 31.28793],
          [-112.03902, 31.2651],
          [-112.04132, 31.26257],
          [-112.06767, 31.25972],
          [-112.09401, 31.25687],
          [-112.11471, 31.23403],
          [-112.11701, 31.23149],
          [-112.11998, 31.23346],
          [-112.1467, 31.25115],
          [-112.17304, 31.24828],
          [-112.19938, 31.24541],
          [-112.22006, 31.22256],
          [-112.22235, 31.22002],
          [-112.22532, 31.22198],
          [-112.25206, 31.23966],
          [-112.25503, 31.24162],
          [-112.28177, 31.25929],
          [-112.28474, 31.26126],
          [-112.28812, 31.28377],
          [-112.29149, 31.30629],
          [-112.2892, 31.30883],
          [-112.26852, 31.33169],
          [-112.27189, 31.3542],
          [-112.2696, 31.35674],
          [-112.24323, 31.35962],
          [-112.22253, 31.38247],
          [-112.22023, 31.38501],
          [-112.19386, 31.38788],
          [-112.16749, 31.39075],
          [-112.14112, 31.39361],
          [-112.11474, 31.39647],
          [-112.09401, 31.41931],
          [-112.09171, 31.42184],
          [-112.06532, 31.42469],
          [-112.03894, 31.42754],
          [-112.01255, 31.43038],
          [-112, 31.43173]
        ]
      }
    }
  ]
}

