{
  "type": "FeatureCollection",
  "contract_version": "1.0.0",
  "bbox": [-130, 30.06044, -112, 44.5],
  "features": [
    {
      "type": "Feature",
      "id": "2026092712_f216_09000_001",
      "properties": {
        "product_id": "winter_storm_levels",
        "source_id": "nbm_snow_level",
        "parameter": "snow_level",
        "definition": "height of the wet-bulb 0.5 degree C surface",
        "level_ft_msl": 9000,
        "label": "9,000 ft MSL",
        "unit": "ft_msl",
        "cycle_time_utc": "2026-09-27T12:00:00Z",
        "valid_time_utc": "2026-10-06T12:00:00Z",
        "lead_hours": 216,
        "segment": 1,
        "length_m": 72968.7
      },
      "geometry": {
        "type": "LineString",
        "coordinates": [
          [-130, 44.23138],
          [-129.99525, 44.23228],
          [-129.96868, 44.22119],
          [-129.9586, 44.21698],
          [-129.93204, 44.20589],
          [-129.92197, 44.20168],
          [-129.89298, 44.20715],
          [-129.86643, 44.19605],
          [-129.85636, 44.19183],
          [-129.82736, 44.1973],
          [-129.82149, 44.20452],
          [-129.80598, 44.22354],
          [-129.77698, 44.229],
          [-129.74797, 44.23445],
          [-129.74208, 44.24166],
          [-129.72655, 44.26068],
          [-129.72066, 44.26789],
          [-129.70513, 44.2869],
          [-129.6761, 44.29233],
          [-129.64706, 44.29777],
          [-129.61803, 44.30319],
          [-129.58899, 44.30862],
          [-129.58308, 44.31582],
          [-129.56752, 44.33481],
          [-129.53846, 44.34023],
          [-129.53255, 44.34743],
          [-129.51697, 44.36642],
          [-129.48791, 44.37182],
          [-129.45884, 44.37722],
          [-129.45292, 44.38442],
          [-129.43731, 44.40339],
          [-129.43139, 44.41059],
          [-129.41578, 44.42956],
          [-129.38669, 44.43494],
          [-129.38076, 44.44214],
          [-129.36514, 44.4611],
          [-129.33603, 44.46647],
          [-129.3301, 44.47366],
          [-129.31446, 44.49262],
          [-129.30852, 44.4998],
          [-129.30836, 44.5]
        ]
      }
    },
    {
      "type": "Feature",
      "id": "2026092712_f216_10000_001",
      "properties": {
        "product_id": "winter_storm_levels",
        "source_id": "nbm_snow_level",
        "parameter": "snow_level",
        "definition": "height of the wet-bulb 0.5 degree C surface",
        "level_ft_msl": 10000,
        "label": "10,000 ft MSL",
        "unit": "ft_msl",
        "cycle_time_utc": "2026-09-27T12:00:00Z",
        "valid_time_utc": "2026-10-06T12:00:00Z",
        "lead_hours": 216,
        "segment": 1,
        "length_m": 8710.6
      },
      "geometry": {
        "type": "LineString",
        "coordinates": [
          [-126.23215, 38.84095],
          [-126.2189, 38.85759],
          [-126.19754, 38.84727],
          [-126.21079, 38.83064],
          [-126.23215, 38.84095]
        ]
      }
    },
    {
      "type": "Feature",
      "id": "2026092712_f216_10000_002",
      "properties": {
        "product_id": "winter_storm_levels",
        "source_id": "nbm_snow_level",
        "parameter": "snow_level",
        "definition": "height of the wet-bulb 0.5 degree C surface",
        "level_ft_msl": 10000,
        "label": "10,000 ft MSL",
        "unit": "ft_msl",
        "cycle_time_utc": "2026-09-27T12:00:00Z",
        "valid_time_utc": "2026-10-06T12:00:00Z",
        "lead_hours": 216,
        "segment": 2,
        "length_m": 1829312.8
      },
      "geometry": {
        "type": "LineString",
        "coordinates": [
          [-130, 33.06123],
          [-129.99872, 33.06307],
          [-129.99152, 33.07344],
          [-129.97952, 33.0907],
          [-129.97231, 33.10106],
          [-129.9792, 33.12292],
          [-129.96719, 33.14018],
          [-129.95998, 33.15054],
          [-129.96687, 33.1724],
          [-129.97376, 33.19425],
          [-129.96174, 33.21151],
          [-129.95453, 33.22187],
          [-129.96142, 33.24372],
          [-129.96831, 33.26557],
          [-129.95629, 33.28283],
          [-129.94907, 33.29318],
          [-129.95596, 33.31503],
          [-129.96286, 33.33687],
          [-129.96976, 33.35872],
          [-129.95772, 33.37597],
          [-129.9505, 33.38632],
          [-129.93846, 33.40357],
          [-129.93123, 33.41392],
          [-129.91918, 33.43117],
          [-129.91195, 33.44152],
          [-129.91885, 33.46336],
          [-129.9068, 33.4806],
          [-129.89956, 33.49095],
          [-129.8875, 33.50819],
          [-129.88026, 33.51853],
          [-129.88716, 33.54037],
          [-129.87509, 33.55761],
          [-129.84889, 33.56335],
          [-129.84164, 33.57369],
          [-129.82956, 33.59093],
          [-129.82232, 33.60127],
          [-129.81023, 33.6185],
          [-129.80298, 33.62883],
          [-129.79089, 33.64606],
          [-129.78364, 33.6564],
          [-129.77154, 33.67362],
          [-129.7453, 33.67935],
          [-129.73804, 33.68968],
          [-129.72594, 33.7069],
          [-129.69969, 33.71262],
          [-129.69242, 33.72295],
          [-129.68031, 33.74016],
          [-129.65405, 33.74587],
          [-129.62779, 33.75157],
          [-129.62051, 33.7619],
          [-129.60838, 33.77911],
          [-129.58211, 33.7848],
          [-129.57483, 33.79513],
          [-129.56269, 33.81233],
          [-129.53641, 33.81802],
          [-129.51013, 33.8237],
          [-129.50283, 33.83402],
          [-129.49068, 33.85122],
          [-129.46438, 33.85689],
          [-129.45708, 33.86721],
          [-129.44492, 33.8844],
          [-129.43761, 33.89471],
          [-129.44445, 33.91654],
          [-129.43227, 33.93373],
          [-129.40596, 33.9394],
          [-129.39865, 33.94971],
          [-129.38646, 33.96689],
          [-129.36014, 33.97255],
          [-129.33381, 33.9782],
          [-129.30748, 33.98385],
          [-129.28677, 33.97373],
          [-129.27434, 33.96766],
          [-129.24801, 33.9733],
          [-129.22168, 33.97893],
          [-129.20098, 33.9688],
          [-129.18856, 33.96272],
          [-129.16222, 33.96835],
          [-129.13589, 33.97397],
          [-129.10955, 33.97958],
          [-129.08321, 33.9852],
          [-129.05686, 33.9908],
          [-129.03052, 33.99641],
          [-129.00983, 33.98625],
          [-128.99742, 33.98016],
          [-128.97107, 33.98575],
          [-128.94472, 33.99134],
          [-128.92404, 33.98118],
          [-128.91164, 33.97508],
          [-128.88529, 33.98066],
          [-128.85893, 33.98624],
          [-128.83258, 33.99181],
          [-128.82521, 34.00209],
          [-128.81293, 34.01923],
          [-128.78657, 34.02479],
          [-128.7792, 34.03507],
          [-128.76691, 34.0522],
          [-128.74053, 34.05776],
          [-128.71415, 34.06331],
          [-128.68777, 34.06886],
          [-128.68039, 34.07913],
          [-128.66808, 34.09625],
          [-128.64169, 34.10179],
          [-128.6343, 34.11206],
          [-128.62198, 34.12918],
          [-128.59558, 34.13471],
          [-128.58818, 34.14498],
          [-128.57585, 34.16209],
          [-128.54944, 34.16762],
          [-128.52303, 34.17314],
          [-128.49661, 34.17865],
          [-128.47019, 34.18416],
          [-128.44377, 34.18967],
          [-128.41735, 34.19517],
          [-128.39092, 34.20066],
          [-128.36449, 34.20616],
          [-128.35707, 34.21641],
          [-128.3447, 34.2335],
          [-128.31826, 34.23899],
          [-128.31083, 34.24924],
          [-128.31746, 34.2711],
          [-128.30507, 34.28818],
          [-128.29764, 34.29843],
          [-128.28525, 34.31552],
          [-128.27781, 34.32577],
          [-128.26542, 34.34284],
          [-128.25797, 34.35309],
          [-128.24557, 34.37017],
          [-128.21909, 34.37563],
          [-128.21165, 34.38588],
          [-128.19923, 34.40295],
          [-128.19178, 34.41319],
          [-128.17936, 34.43026],
          [-128.17191, 34.4405],
          [-128.15948, 34.45757],
          [-128.15202, 34.46781],
          [-128.15864, 34.48965],
          [-128.16525, 34.5115],
          [-128.17187, 34.53335],
          [-128.1785, 34.55519],
          [-128.16606, 34.57225],
          [-128.15859, 34.58249],
          [-128.16521, 34.60433],
          [-128.17184, 34.62617],
          [-128.17847, 34.648],
          [-128.19091, 34.65415],
          [-128.21165, 34.66438],
          [-128.21828, 34.68622],
          [-128.22492, 34.70805],
          [-128.23157, 34.72988],
          [-128.23821, 34.75171],
          [-128.22576, 34.76876],
          [-128.19919, 34.77422],
          [-128.17261, 34.77967],
          [-128.16514, 34.7899],
          [-128.17177, 34.81173],
          [-128.17841, 34.83355],
          [-128.18505, 34.85537],
          [-128.1917, 34.87719],
          [-128.17922, 34.89424],
          [-128.17174, 34.90446],
          [-128.15926, 34.92151],
          [-128.15177, 34.93173],
          [-128.15841, 34.95355],
          [-128.14593, 34.97058],
          [-128.1193, 34.97602],
          [-128.11181, 34.98624],
          [-128.09931, 35.00328],
          [-128.09181, 35.0135],
          [-128.07931, 35.03052],
          [-128.0718, 35.04074],
          [-128.05929, 35.05777],
          [-128.05179, 35.06798],
          [-128.05842, 35.08979],
          [-128.0459, 35.10682],
          [-128.03839, 35.11703],
          [-128.02586, 35.13405],
          [-128.01835, 35.14426],
          [-128.00582, 35.16127],
          [-127.9983, 35.17148],
          [-128.00493, 35.19329],
          [-127.99239, 35.2103],
          [-127.98487, 35.22051],
          [-127.97232, 35.23752],
          [-127.9648, 35.24772],
          [-127.95225, 35.26473],
          [-127.94472, 35.27493],
          [-127.93216, 35.29194],
          [-127.90545, 35.29734],
          [-127.89791, 35.30754],
          [-127.88534, 35.32453],
          [-127.8778, 35.33473],
          [-127.88441, 35.35653],
          [-127.87184, 35.37353],
          [-127.86429, 35.38372],
          [-127.85171, 35.40071],
          [-127.84417, 35.41091],
          [-127.85078, 35.4327],
          [-127.83819, 35.44969],
          [-127.83063, 35.45988],
          [-127.81804, 35.47687],
          [-127.81048, 35.48706],
          [-127.79788, 35.50404],
          [-127.77111, 35.50941],
          [-127.76355, 35.5196],
          [-127.75094, 35.53657],
          [-127.72416, 35.54194],
          [-127.71659, 35.55212],
          [-127.70396, 35.56909],
          [-127.67717, 35.57445],
          [-127.6696, 35.58463],
          [-127.65696, 35.6016],
          [-127.64938, 35.61178],
          [-127.63674, 35.62874],
          [-127.62916, 35.63891],
          [-127.63574, 35.6607],
          [-127.62309, 35.67766],
          [-127.6155, 35.68783],
          [-127.60285, 35.70479],
          [-127.59525, 35.71496],
          [-127.5826, 35.73191],
          [-127.575, 35.74208],
          [-127.58157, 35.76386],
          [-127.56891, 35.78081],
          [-127.56131, 35.79098],
          [-127.54863, 35.80792],
          [-127.54103, 35.81809],
          [-127.52835, 35.83503],
          [-127.52074, 35.84519],
          [-127.50805, 35.86213],
          [-127.50044, 35.87229],
          [-127.48775, 35.88923],
          [-127.48013, 35.89939],
          [-127.46743, 35.91632],
          [-127.45981, 35.92648],
          [-127.44711, 35.94341],
          [-127.43948, 35.95356],
          [-127.42677, 35.97049],
          [-127.41914, 35.98064],
          [-127.4257, 36.00241],
          [-127.41298, 36.01933],
          [-127.40535, 36.02949],
          [-127.39263, 36.04641],
          [-127.38499, 36.05656],
          [-127.39155, 36.07832],
          [-127.37881, 36.09523],
          [-127.37117, 36.10538],
          [-127.35843, 36.12229],
          [-127.35079, 36.13244],
          [-127.33804, 36.14935],
          [-127.33039, 36.15949],
          [-127.31764, 36.1764],
          [-127.30999, 36.18654],
          [-127.29723, 36.20344],
          [-127.28957, 36.21358],
          [-127.27681, 36.23048],
          [-127.24984, 36.23576],
          [-127.24217, 36.24589],
          [-127.2294, 36.26279],
          [-127.22173, 36.27292],
          [-127.20895, 36.28981],
          [-127.20128, 36.29994],
          [-127.18849, 36.31683],
          [-127.18082, 36.32696],
          [-127.16802, 36.34384],
          [-127.16034, 36.35397],
          [-127.14754, 36.37085],
          [-127.12053, 36.37611],
          [-127.11285, 36.38623],
          [-127.10003, 36.40311],
          [-127.09235, 36.41323],
          [-127.07953, 36.4301],
          [-127.07183, 36.44022],
          [-127.05901, 36.45709],
          [-127.05131, 36.46721],
          [-127.03848, 36.48407],
          [-127.03078, 36.49419],
          [-127.01795, 36.51105],
          [-126.99089, 36.51628],
          [-126.98318, 36.5264],
          [-126.97034, 36.54325],
          [-126.94327, 36.54848],
          [-126.93556, 36.55859],
          [-126.9227, 36.57544],
          [-126.91498, 36.58555],
          [-126.90211, 36.60239],
          [-126.89439, 36.6125],
          [-126.88152, 36.62934],
          [-126.8738, 36.63945],
          [-126.86092, 36.65629],
          [-126.85319, 36.66639],
          [-126.8403, 36.68323],
          [-126.83257, 36.69333],
          [-126.81968, 36.71016],
          [-126.81194, 36.72026],
          [-126.79904, 36.73709],
          [-126.7913, 36.74719],
          [-126.7784, 36.76402],
          [-126.77066, 36.77411],
          [-126.75775, 36.79094],
          [-126.75, 36.80103],
          [-126.73708, 36.81785],
          [-126.72933, 36.82794],
          [-126.7164, 36.84476],
          [-126.70865, 36.85485],
          [-126.69572, 36.87166],
          [-126.68796, 36.88175],
          [-126.67502, 36.89856],
          [-126.66726, 36.90864],
          [-126.67373, 36.93037],
          [-126.66078, 36.94717],
          [-126.65301, 36.95725],
          [-126.64006, 36.97406],
          [-126.63229, 36.98414],
          [-126.61933, 37.00094],
          [-126.61156, 37.01102],
          [-126.59859, 37.02781],
          [-126.59081, 37.03789],
          [-126.57784, 37.05468],
          [-126.55063, 37.05983],
          [-126.54285, 37.0699],
          [-126.5493, 37.09162],
          [-126.53631, 37.1084],
          [-126.52852, 37.11847],
          [-126.51553, 37.13526],
          [-126.50774, 37.14533],
          [-126.51418, 37.16703],
          [-126.50119, 37.18381],
          [-126.49339, 37.19388],
          [-126.48038, 37.21065],
          [-126.47258, 37.22072],
          [-126.45957, 37.23749],
          [-126.45176, 37.24755],
          [-126.4582, 37.26925],
          [-126.44518, 37.28602],
          [-126.43737, 37.29608],
          [-126.42435, 37.31284],
          [-126.41653, 37.3229],
          [-126.4035, 37.33966],
          [-126.39568, 37.34972],
          [-126.38264, 37.36647],
          [-126.37482, 37.37653],
          [-126.36177, 37.39328],
          [-126.35394, 37.40333],
          [-126.34089, 37.42008],
          [-126.33306, 37.43013],
          [-126.32, 37.44688],
          [-126.31217, 37.45692],
          [-126.31859, 37.47861],
          [-126.30553, 37.49535],
          [-126.29769, 37.5054],
          [-126.28461, 37.52214],
          [-126.27677, 37.53218],
          [-126.26369, 37.54892],
          [-126.25584, 37.55896],
          [-126.24276, 37.57569],
          [-126.2349, 37.58573],
          [-126.22181, 37.60245],
          [-126.21396, 37.61249],
          [-126.22037, 37.63417],
          [-126.20727, 37.65089],
          [-126.19941, 37.66093],
          [-126.20583, 37.6826],
          [-126.19272, 37.69932],
          [-126.18485, 37.70935],
          [-126.19127, 37.73102],
          [-126.17815, 37.74774],
          [-126.17028, 37.75777],
          [-126.1767, 37.77943],
          [-126.18312, 37.8011],
          [-126.16999, 37.81781],
          [-126.16211, 37.82783],
          [-126.16853, 37.84949],
          [-126.1554, 37.8662],
          [-126.14752, 37.87622],
          [-126.15393, 37.89788],
          [-126.14079, 37.91458],
          [-126.1329, 37.9246],
          [-126.13932, 37.94625],
          [-126.12617, 37.96295],
          [-126.11828, 37.97296],
          [-126.1247, 37.99461],
          [-126.13112, 38.01626],
          [-126.11796, 38.03295],
          [-126.11006, 38.04296],
          [-126.11648, 38.06461],
          [-126.10331, 38.08129],
          [-126.09541, 38.0913],
          [-126.10183, 38.11294],
          [-126.08865, 38.12963],
          [-126.08075, 38.13963],
          [-126.08717, 38.16127],
          [-126.07398, 38.17794],
          [-126.06607, 38.18795],
          [-126.07249, 38.20958],
          [-126.0593, 38.22625],
          [-126.05138, 38.23626],
          [-126.03818, 38.25292],
          [-126.03026, 38.26292],
          [-126.03667, 38.28455],
          [-126.02347, 38.30121],
          [-126.01554, 38.31121],
          [-126.00232, 38.32787],
          [-125.99439, 38.33786],
          [-125.98117, 38.35452],
          [-125.97324, 38.36451],
          [-125.96001, 38.38117],
          [-125.95207, 38.39116],
          [-125.93883, 38.40781],
          [-125.93089, 38.4178],
          [-125.91765, 38.43444],
          [-125.9097, 38.44443],
          [-125.89646, 38.46107],
          [-125.8885, 38.47105],
          [-125.87525, 38.48769],
          [-125.86729, 38.49767],
          [-125.87369, 38.51928],
          [-125.86043, 38.53592],
          [-125.85247, 38.5459],
          [-125.85887, 38.5675],
          [-125.8456, 38.58413],
          [-125.83763, 38.59411],
          [-125.84403, 38.61571],
          [-125.83075, 38.63233],
          [-125.82278, 38.64231],
          [-125.8095, 38.65893],
          [-125.80152, 38.6689],
          [-125.80792, 38.6905],
          [-125.79462, 38.70711],
          [-125.78664, 38.71708],
          [-125.77334, 38.73369],
          [-125.76536, 38.74366],
          [-125.77175, 38.76525],
          [-125.75844, 38.78186],
          [-125.75046, 38.79182],
          [-125.73714, 38.80842],
          [-125.72915, 38.81838],
          [-125.71582, 38.83498],
          [-125.70783, 38.84494],
          [-125.71421, 38.86653],
          [-125.70088, 38.88312],
          [-125.69288, 38.89308],
          [-125.67954, 38.90967],
          [-125.67154, 38.91962],
          [-125.65819, 38.93621],
          [-125.65018, 38.94616],
          [-125.63683, 38.96275],
          [-125.62882, 38.9727],
          [-125.6352, 38.99427],
          [-125.62184, 39.01085],
          [-125.61382, 39.02079],
          [-125.60045, 39.03737],
          [-125.59243, 39.04732],
          [-125.57906, 39.06389],
          [-125.57103, 39.07383],
          [-125.55765, 39.0904],
          [-125.54962, 39.10034],
          [-125.53623, 39.1169],
          [-125.5282, 39.12684],
          [-125.5148, 39.1434],
          [-125.50676, 39.15334],
          [-125.49336, 39.1699],
          [-125.46555, 39.17483],
          [-125.45751, 39.18476],
          [-125.4441, 39.20131],
          [-125.41628, 39.20623],
          [-125.38846, 39.21115],
          [-125.3804, 39.22107],
          [-125.36697, 39.23762],
          [-125.33914, 39.24253],
          [-125.33108, 39.25245],
          [-125.31764, 39.26898],
          [-125.28979, 39.27388],
          [-125.26195, 39.27878],
          [-125.2341, 39.28367],
          [-125.22602, 39.29359],
          [-125.21256, 39.31011],
          [-125.1847, 39.31499],
          [-125.15684, 39.31987],
          [-125.12898, 39.32474],
          [-125.10111, 39.32961],
          [-125.07324, 39.33448],
          [-125.06515, 39.34438],
          [-125.05165, 39.36089],
          [-125.02378, 39.36575],
          [-124.99589, 39.3706],
          [-124.98779, 39.3805],
          [-124.97428, 39.397],
          [-124.94638, 39.40184],
          [-124.93827, 39.41174],
          [-124.92475, 39.42823],
          [-124.89685, 39.43306],
          [-124.88873, 39.44296],
          [-124.87519, 39.45945],
          [-124.86707, 39.46934],
          [-124.85353, 39.48582],
          [-124.8454, 39.49571],
          [-124.83185, 39.51219],
          [-124.80392, 39.51701],
          [-124.79578, 39.52689],
          [-124.78222, 39.54336],
          [-124.75428, 39.54817],
          [-124.74614, 39.55805],
          [-124.73257, 39.57452],
          [-124.70462, 39.57932],
          [-124.67666, 39.58412],
          [-124.64871, 39.58891],
          [-124.62075, 39.59369],
          [-124.61259, 39.60357],
          [-124.59899, 39.62002],
          [-124.59083, 39.62989],
          [-124.57722, 39.64634],
          [-124.54925, 39.65111],
          [-124.54108, 39.66098],
          [-124.52746, 39.67742],
          [-124.51929, 39.68729],
          [-124.50566, 39.70373],
          [-124.49748, 39.71359],
          [-124.48385, 39.73002],
          [-124.47567, 39.73988],
          [-124.46203, 39.75632],
          [-124.45385, 39.76617],
          [-124.46003, 39.78771],
          [-124.44638, 39.80413],
          [-124.43819, 39.81399],
          [-124.42454, 39.83041],
          [-124.41634, 39.84026],
          [-124.40268, 39.85668],
          [-124.39448, 39.86653],
          [-124.38081, 39.88295],
          [-124.37261, 39.89279],
          [-124.35893, 39.9092],
          [-124.35073, 39.91905],
          [-124.33704, 39.93546],
          [-124.32883, 39.9453],
          [-124.335, 39.96682],
          [-124.34118, 39.98833],
          [-124.32748, 40.00473],
          [-124.31926, 40.01457],
          [-124.32544, 40.03608],
          [-124.31173, 40.05248],
          [-124.30351, 40.06231],
          [-124.30968, 40.08382],
          [-124.29597, 40.10021],
          [-124.28774, 40.11004],
          [-124.29391, 40.13154],
          [-124.30009, 40.15304],
          [-124.28637, 40.16943],
          [-124.27813, 40.17926],
          [-124.28431, 40.20075],
          [-124.29048, 40.22224],
          [-124.29666, 40.24373],
          [-124.30284, 40.26522],
          [-124.31572, 40.2715],
          [-124.33718, 40.28198],
          [-124.34338, 40.30346],
          [-124.32964, 40.31983],
          [-124.3214, 40.32966],
          [-124.32759, 40.35113],
          [-124.33378, 40.37261],
          [-124.32004, 40.38897],
          [-124.31179, 40.39879],
          [-124.29804, 40.41516],
          [-124.28978, 40.42498],
          [-124.27603, 40.44134],
          [-124.26777, 40.45115],
          [-124.27395, 40.47261],
          [-124.26019, 40.48897],
          [-124.25192, 40.49878],
          [-124.25811, 40.52024],
          [-124.24433, 40.53659],
          [-124.23607, 40.5464],
          [-124.22228, 40.56275],
          [-124.19404, 40.56744],
          [-124.18577, 40.57725],
          [-124.17197, 40.59359],
          [-124.14372, 40.59827],
          [-124.11546, 40.60295],
          [-124.09395, 40.59247],
          [-124.08105, 40.58618],
          [-124.05279, 40.59085],
          [-124.02453, 40.59551],
          [-124.01624, 40.60531],
          [-124.02239, 40.62677],
          [-124.00856, 40.64309],
          [-124.00026, 40.65288],
          [-124.0064, 40.67433],
          [-123.99256, 40.69065],
          [-123.98426, 40.70044],
          [-123.97041, 40.71675],
          [-123.94212, 40.7214],
          [-123.93381, 40.73119],
          [-123.93994, 40.75263],
          [-123.92608, 40.76894],
          [-123.91777, 40.77872],
          [-123.9239, 40.80016],
          [-123.91003, 40.81646],
          [-123.90171, 40.82624],
          [-123.90784, 40.84767],
          [-123.89397, 40.86397],
          [-123.88564, 40.87374],
          [-123.89177, 40.89517],
          [-123.89791, 40.9166],
          [-123.88402, 40.93288],
          [-123.87569, 40.94266],
          [-123.88182, 40.96408],
          [-123.88796, 40.9855],
          [-123.87406, 41.00178],
          [-123.86572, 41.01155],
          [-123.87186, 41.03296],
          [-123.878, 41.05437],
          [-123.86409, 41.07064],
          [-123.85574, 41.08041],
          [-123.86188, 41.10181],
          [-123.86802, 41.12322],
          [-123.8541, 41.13949],
          [-123.84574, 41.14924],
          [-123.85189, 41.17064],
          [-123.85803, 41.19204],
          [-123.86418, 41.21343],
          [-123.87032, 41.23482],
          [-123.85639, 41.25108],
          [-123.84803, 41.26083],
          [-123.85417, 41.28222],
          [-123.84023, 41.29847],
          [-123.83186, 41.30822],
          [-123.83801, 41.3296],
          [-123.82406, 41.34585],
          [-123.81568, 41.3556],
          [-123.82183, 41.37697],
          [-123.80787, 41.39321],
          [-123.79949, 41.40296],
          [-123.80563, 41.42433],
          [-123.79166, 41.44056],
          [-123.78328, 41.4503],
          [-123.78942, 41.47167],
          [-123.77544, 41.4879],
          [-123.76705, 41.49763],
          [-123.7732, 41.51899],
          [-123.75921, 41.53522],
          [-123.75081, 41.54495],
          [-123.73682, 41.56117],
          [-123.72842, 41.5709],
          [-123.73456, 41.59226],
          [-123.72055, 41.60847],
          [-123.71215, 41.6182],
          [-123.71829, 41.63955],
          [-123.70427, 41.65576],
          [-123.69586, 41.66548],
          [-123.68184, 41.68169],
          [-123.67343, 41.69141],
          [-123.6594, 41.70761],
          [-123.65098, 41.71733],
          [-123.65711, 41.73867],
          [-123.64307, 41.75486],
          [-123.63465, 41.76458],
          [-123.6206, 41.78077],
          [-123.61217, 41.79048],
          [-123.59812, 41.80667],
          [-123.58968, 41.81638],
          [-123.57562, 41.83256],
          [-123.56719, 41.84227],
          [-123.57331, 41.8636],
          [-123.55924, 41.87977],
          [-123.5508, 41.88948],
          [-123.53672, 41.90565],
          [-123.52827, 41.91535],
          [-123.51419, 41.93152],
          [-123.50574, 41.94122],
          [-123.51185, 41.96254],
          [-123.49776, 41.9787],
          [-123.4893, 41.9884],
          [-123.4752, 42.00456],
          [-123.46674, 42.01425],
          [-123.47285, 42.03556],
          [-123.45874, 42.05171],
          [-123.45028, 42.06141],
          [-123.43616, 42.07755],
          [-123.42769, 42.08724],
          [-123.41356, 42.10339],
          [-123.40509, 42.11307],
          [-123.39096, 42.12921],
          [-123.38248, 42.1389],
          [-123.36834, 42.15504],
          [-123.35985, 42.16472],
          [-123.36595, 42.18601],
          [-123.37205, 42.2073],
          [-123.3579, 42.22343],
          [-123.34941, 42.2331],
          [-123.33526, 42.24923],
          [-123.3065, 42.25374],
          [-123.298, 42.26341],
          [-123.28383, 42.27953],
          [-123.27533, 42.2892],
          [-123.26115, 42.30532],
          [-123.23238, 42.30982],
          [-123.22387, 42.31948],
          [-123.20968, 42.33559],
          [-123.20116, 42.34525],
          [-123.18696, 42.36136],
          [-123.15817, 42.36584],
          [-123.14965, 42.3755],
          [-123.13544, 42.3916],
          [-123.12691, 42.40125],
          [-123.11269, 42.41735],
          [-123.08388, 42.42182],
          [-123.07534, 42.43147],
          [-123.06112, 42.44756],
          [-123.03229, 42.45202],
          [-123.02375, 42.46167],
          [-123.00951, 42.47775],
          [-123.00096, 42.48739],
          [-122.98671, 42.50347],
          [-122.97816, 42.51311],
          [-122.9639, 42.52918],
          [-122.93505, 42.53362],
          [-122.92649, 42.54326],
          [-122.93252, 42.56452],
          [-122.91825, 42.58058],
          [-122.90969, 42.59022],
          [-122.89541, 42.60628],
          [-122.88684, 42.61591],
          [-122.87255, 42.63196],
          [-122.86398, 42.64159],
          [-122.87, 42.66284],
          [-122.85571, 42.67889],
          [-122.84713, 42.68852],
          [-122.83283, 42.70456],
          [-122.82424, 42.71418],
          [-122.80993, 42.73022],
          [-122.80134, 42.73984],
          [-122.80736, 42.76108],
          [-122.79304, 42.77711],
          [-122.78445, 42.78673],
          [-122.77012, 42.80276],
          [-122.76152, 42.81238],
          [-122.74719, 42.8284],
          [-122.73858, 42.83801],
          [-122.72424, 42.85403],
          [-122.69529, 42.85843],
          [-122.68667, 42.86804],
          [-122.67232, 42.88405],
          [-122.66371, 42.89366],
          [-122.64934, 42.90967],
          [-122.62037, 42.91406],
          [-122.61175, 42.92366],
          [-122.59737, 42.93966],
          [-122.58874, 42.94926],
          [-122.57436, 42.96526],
          [-122.54537, 42.96963],
          [-122.53673, 42.97922],
          [-122.52234, 42.99521],
          [-122.49333, 42.99958],
          [-122.48469, 43.00917],
          [-122.47028, 43.02515],
          [-122.44126, 43.02951],
          [-122.43261, 43.0391],
          [-122.41819, 43.05507],
          [-122.40954, 43.06466],
          [-122.39511, 43.08063],
          [-122.38645, 43.09021],
          [-122.37202, 43.10618],
          [-122.34297, 43.11052],
          [-122.3343, 43.12009],
          [-122.31986, 43.13605],
          [-122.2908, 43.14038],
          [-122.28213, 43.14996],
          [-122.26767, 43.16591],
          [-122.2386, 43.17023],
          [-122.22992, 43.1798],
          [-122.21544, 43.19574],
          [-122.18636, 43.20006],
          [-122.15728, 43.20436],
          [-122.14859, 43.21393],
          [-122.1341, 43.22986],
          [-122.105, 43.23416],
          [-122.07591, 43.23845],
          [-122.04681, 43.24274],
          [-122.01771, 43.24702],
          [-121.99585, 43.23645],
          [-121.98274, 43.2301],
          [-121.95364, 43.23438],
          [-121.93179, 43.22379],
          [-121.91868, 43.21744],
          [-121.89684, 43.20686],
          [-121.89099, 43.18565],
          [-121.87789, 43.17929],
          [-121.85606, 43.1687],
          [-121.84296, 43.16234],
          [-121.82114, 43.15174],
          [-121.81531, 43.13052],
          [-121.80223, 43.12416],
          [-121.78042, 43.11355],
          [-121.76733, 43.10718],
          [-121.74553, 43.09657],
          [-121.73245, 43.0902],
          [-121.70338, 43.09444],
          [-121.67431, 43.09867],
          [-121.64524, 43.1029],
          [-121.61616, 43.10712],
          [-121.60743, 43.11667],
          [-121.59286, 43.13257],
          [-121.58412, 43.14211],
          [-121.5899, 43.16334],
          [-121.57533, 43.17923],
          [-121.56658, 43.18877],
          [-121.552, 43.20467],
          [-121.54325, 43.2142],
          [-121.52866, 43.23009],
          [-121.5199, 43.23962],
          [-121.50531, 43.25551],
          [-121.47618, 43.25971],
          [-121.46741, 43.26923],
          [-121.45281, 43.28511],
          [-121.42367, 43.2893],
          [-121.4149, 43.29882],
          [-121.40027, 43.31469],
          [-121.37112, 43.31888],
          [-121.34197, 43.32305],
          [-121.31282, 43.32722],
          [-121.28366, 43.33139],
          [-121.2545, 43.33555],
          [-121.22534, 43.33971],
          [-121.20355, 43.32905],
          [-121.19047, 43.32265],
          [-121.16131, 43.3268],
          [-121.13953, 43.31613],
          [-121.12646, 43.30972],
          [-121.10468, 43.29905],
          [-121.09161, 43.29264],
          [-121.06246, 43.29677],
          [-121.0333, 43.3009],
          [-121.00414, 43.30503],
          [-120.97498, 43.30915],
          [-120.94581, 43.31326],
          [-120.91664, 43.31737],
          [-120.90782, 43.32687],
          [-120.89311, 43.34269],
          [-120.86393, 43.3468],
          [-120.83475, 43.35089],
          [-120.82592, 43.36038],
          [-120.81119, 43.3762],
          [-120.782, 43.38029],
          [-120.77316, 43.38978],
          [-120.75842, 43.40559],
          [-120.72922, 43.40966],
          [-120.70001, 43.41374],
          [-120.69116, 43.42322],
          [-120.6764, 43.43902],
          [-120.64719, 43.44309],
          [-120.61797, 43.44714],
          [-120.60911, 43.45662],
          [-120.59433, 43.47241],
          [-120.5651, 43.47646],
          [-120.53587, 43.48051],
          [-120.527, 43.48998],
          [-120.5122, 43.50576],
          [-120.48296, 43.5098],
          [-120.45371, 43.51383],
          [-120.44483, 43.52329],
          [-120.43002, 43.53906],
          [-120.42113, 43.54853],
          [-120.40631, 43.56429],
          [-120.39742, 43.57375],
          [-120.38259, 43.58951],
          [-120.35332, 43.59353],
          [-120.34441, 43.60298],
          [-120.32957, 43.61874],
          [-120.30029, 43.62274],
          [-120.29138, 43.63219],
          [-120.29691, 43.65339],
          [-120.30997, 43.65984],
          [-120.33174, 43.67058],
          [-120.34481, 43.67703],
          [-120.36658, 43.68776],
          [-120.37213, 43.70895],
          [-120.38521, 43.71539],
          [-120.407, 43.72612],
          [-120.39215, 43.74187],
          [-120.38324, 43.75132],
          [-120.38879, 43.77249],
          [-120.37394, 43.78823],
          [-120.36502, 43.79768],
          [-120.35015, 43.81342],
          [-120.34123, 43.82286],
          [-120.32636, 43.83859],
          [-120.31743, 43.84803],
          [-120.32298, 43.86919],
          [-120.30809, 43.88492],
          [-120.29916, 43.89436],
          [-120.28427, 43.91008],
          [-120.27533, 43.91951],
          [-120.26043, 43.93523],
          [-120.25149, 43.94466],
          [-120.23659, 43.96037],
          [-120.22764, 43.9698],
          [-120.21273, 43.98551],
          [-120.20377, 43.99493],
          [-120.18885, 44.01063],
          [-120.15945, 44.01461],
          [-120.15049, 44.02403],
          [-120.13555, 44.03972],
          [-120.12659, 44.04914],
          [-120.13211, 44.07028],
          [-120.11716, 44.08598],
          [-120.10819, 44.09539],
          [-120.09324, 44.11107],
          [-120.08426, 44.12049],
          [-120.0693, 44.13617],
          [-120.06033, 44.14557],
          [-120.04536, 44.16125],
          [-120.03637, 44.17066],
          [-120.04188, 44.19179],
          [-120.0269, 44.20746],
          [-120.01791, 44.21686],
          [-120.00293, 44.23252],
          [-119.97344, 44.23646],
          [-119.96445, 44.24586],
          [-119.94945, 44.26152],
          [-119.94045, 44.27091],
          [-119.92544, 44.28657],
          [-119.91643, 44.29596],
          [-119.90142, 44.31161],
          [-119.89241, 44.321],
          [-119.87738, 44.33664],
          [-119.84787, 44.34056],
          [-119.83885, 44.34994],
          [-119.82381, 44.36558],
          [-119.81479, 44.37496],
          [-119.79974, 44.3906],
          [-119.77021, 44.3945],
          [-119.76117, 44.40388],
          [-119.74612, 44.4195],
          [-119.71657, 44.4234],
          [-119.68702, 44.42728],
          [-119.65746, 44.43117],
          [-119.62791, 44.43505],
          [-119.61886, 44.44441],
          [-119.60377, 44.46003],
          [-119.5742, 44.4639],
          [-119.56515, 44.47326],
          [-119.55005, 44.48886],
          [-119.52047, 44.49272],
          [-119.51342, 44.5]
        ]
      }
    },
    {
      "type": "Feature",
      "id": "2026092712_f216_11000_001",
      "properties": {
        "product_id": "winter_storm_levels",
        "source_id": "nbm_snow_level",
        "parameter": "snow_level",
        "definition": "height of the wet-bulb 0.5 degree C surface",
        "level_ft_msl": 11000,
        "label": "11,000 ft MSL",
        "unit": "ft_msl",
        "cycle_time_utc": "2026-09-27T12:00:00Z",
        "valid_time_utc": "2026-10-06T12:00:00Z",
        "lead_hours": 216,
        "segment": 1,
        "length_m": 2003818.7
      },
      "geometry": {
        "type": "LineString",
        "coordinates": [
          [-121.29674, 30.25828],
          [-121.29681, 30.25859],
          [-121.30188, 30.28091],
          [-121.30696, 30.30322],
          [-121.29606, 30.31724],
          [-121.28619, 30.32992],
          [-121.27528, 30.34393],
          [-121.26541, 30.35661],
          [-121.27049, 30.37892],
          [-121.25957, 30.39293],
          [-121.24969, 30.40561],
          [-121.25477, 30.42792],
          [-121.24385, 30.44193],
          [-121.23396, 30.45461],
          [-121.22304, 30.46861],
          [-121.21315, 30.48129],
          [-121.21822, 30.50359],
          [-121.22329, 30.5259],
          [-121.21236, 30.53991],
          [-121.20246, 30.55258],
          [-121.20753, 30.57488],
          [-121.19659, 30.58889],
          [-121.18669, 30.60156],
          [-121.19176, 30.62386],
          [-121.19683, 30.64617],
          [-121.18588, 30.66017],
          [-121.17597, 30.67283],
          [-121.18105, 30.69513],
          [-121.18612, 30.71744],
          [-121.17516, 30.73143],
          [-121.16525, 30.7441],
          [-121.15428, 30.75809],
          [-121.14436, 30.77075],
          [-121.14943, 30.79305],
          [-121.13847, 30.80705],
          [-121.12854, 30.81971],
          [-121.11757, 30.8337],
          [-121.10764, 30.84636],
          [-121.1127, 30.86865],
          [-121.11777, 30.89095],
          [-121.10679, 30.90494],
          [-121.09685, 30.9176],
          [-121.10192, 30.93989],
          [-121.10698, 30.96219],
          [-121.11205, 30.98448],
          [-121.11713, 31.00677],
          [-121.1222, 31.02906],
          [-121.12728, 31.05135],
          [-121.11628, 31.06534],
          [-121.10633, 31.07799],
          [-121.11141, 31.10028],
          [-121.11648, 31.12256],
          [-121.12156, 31.14485],
          [-121.12664, 31.16714],
          [-121.13173, 31.18942],
          [-121.13681, 31.2117],
          [-121.1419, 31.23399],
          [-121.14699, 31.25627],
          [-121.15208, 31.27855],
          [-121.15717, 31.30082],
          [-121.16227, 31.3231],
          [-121.16736, 31.34538],
          [-121.17246, 31.36765],
          [-121.17756, 31.38993],
          [-121.18266, 31.4122],
          [-121.18777, 31.43447],
          [-121.19288, 31.45674],
          [-121.19798, 31.47901],
          [-121.20309, 31.50128],
          [-121.19207, 31.51525],
          [-121.18209, 31.5279],
          [-121.18719, 31.55017],
          [-121.17616, 31.56414],
          [-121.16617, 31.57678],
          [-121.17128, 31.59905],
          [-121.16024, 31.61302],
          [-121.15025, 31.62566],
          [-121.1392, 31.63963],
          [-121.1292, 31.65227],
          [-121.13431, 31.67453],
          [-121.13941, 31.6968],
          [-121.14452, 31.71906],
          [-121.14963, 31.74131],
          [-121.15475, 31.76357],
          [-121.14369, 31.77754],
          [-121.13368, 31.79017],
          [-121.13879, 31.81243],
          [-121.12772, 31.82639],
          [-121.11771, 31.83903],
          [-121.12282, 31.86128],
          [-121.11175, 31.87524],
          [-121.10173, 31.88787],
          [-121.10684, 31.91012],
          [-121.09576, 31.92408],
          [-121.08573, 31.93671],
          [-121.09084, 31.95896],
          [-121.07975, 31.97292],
          [-121.06972, 31.98554],
          [-121.05863, 31.9995],
          [-121.04859, 32.01212],
          [-121.03749, 32.02608],
          [-121.02745, 32.0387],
          [-121.03255, 32.06094],
          [-121.02145, 32.07489],
          [-121.0114, 32.08751],
          [-121.00029, 32.10146],
          [-120.99024, 32.11408],
          [-120.97913, 32.12802],
          [-120.96907, 32.14064],
          [-120.95795, 32.15458],
          [-120.94789, 32.16719],
          [-120.93677, 32.18113],
          [-120.9267, 32.19374],
          [-120.91557, 32.20768],
          [-120.9055, 32.22029],
          [-120.89437, 32.23423],
          [-120.88429, 32.24683],
          [-120.87315, 32.26077],
          [-120.86307, 32.27337],
          [-120.85193, 32.2873],
          [-120.84184, 32.29991],
          [-120.84692, 32.32215],
          [-120.83577, 32.33607],
          [-120.82568, 32.34867],
          [-120.83075, 32.37091],
          [-120.81959, 32.38484],
          [-120.8095, 32.39744],
          [-120.81457, 32.41967],
          [-120.81965, 32.44191],
          [-120.82473, 32.46414],
          [-120.82981, 32.48637],
          [-120.8349, 32.5086],
          [-120.83998, 32.53083],
          [-120.84507, 32.55306],
          [-120.85016, 32.57528],
          [-120.85525, 32.59751],
          [-120.86035, 32.61973],
          [-120.86544, 32.64195],
          [-120.87054, 32.66417],
          [-120.87564, 32.68639],
          [-120.88074, 32.70861],
          [-120.88584, 32.73083],
          [-120.89095, 32.75304],
          [-120.87976, 32.76696],
          [-120.86964, 32.77955],
          [-120.87474, 32.80176],
          [-120.87985, 32.82398],
          [-120.88496, 32.84619],
          [-120.87376, 32.8601],
          [-120.86363, 32.87269],
          [-120.86873, 32.89489],
          [-120.87384, 32.9171],
          [-120.87895, 32.93931],
          [-120.86775, 32.95322],
          [-120.8576, 32.9658],
          [-120.86272, 32.988],
          [-120.86783, 33.0102],
          [-120.87294, 33.0324],
          [-120.87806, 33.0546],
          [-120.88318, 33.0768],
          [-120.8883, 33.099],
          [-120.87708, 33.1129],
          [-120.86692, 33.12548],
          [-120.88194, 33.13399],
          [-120.89855, 33.14339],
          [-120.90367, 33.16558],
          [-120.9088, 33.18777],
          [-120.91393, 33.20996],
          [-120.91906, 33.23214],
          [-120.9341, 33.24064],
          [-120.95073, 33.25003],
          [-120.95587, 33.27222],
          [-120.97092, 33.28071],
          [-120.98755, 33.2901],
          [-120.9927, 33.31228],
          [-121.00776, 33.32077],
          [-121.0244, 33.33015],
          [-121.03946, 33.33863],
          [-121.05611, 33.34801],
          [-121.07117, 33.3565],
          [-121.08782, 33.36587],
          [-121.093, 33.38804],
          [-121.09817, 33.41021],
          [-121.10335, 33.43238],
          [-121.11843, 33.44086],
          [-121.1351, 33.45023],
          [-121.15018, 33.4587],
          [-121.16686, 33.46806],
          [-121.17205, 33.49023],
          [-121.18714, 33.4987],
          [-121.20383, 33.50806],
          [-121.20903, 33.53022],
          [-121.22413, 33.53868],
          [-121.24082, 33.54803],
          [-121.24604, 33.57019],
          [-121.26114, 33.57865],
          [-121.27785, 33.588],
          [-121.28307, 33.61015],
          [-121.28829, 33.63231],
          [-121.30341, 33.64076],
          [-121.32012, 33.6501],
          [-121.32536, 33.67225],
          [-121.34048, 33.6807],
          [-121.35721, 33.69004],
          [-121.36245, 33.71218],
          [-121.36769, 33.73433],
          [-121.38283, 33.74277],
          [-121.39957, 33.75211],
          [-121.40482, 33.77424],
          [-121.41997, 33.78269],
          [-121.43671, 33.79201],
          [-121.44198, 33.81415],
          [-121.45713, 33.82258],
          [-121.47388, 33.83191],
          [-121.48905, 33.84034],
          [-121.5058, 33.84966],
          [-121.51108, 33.87179],
          [-121.52625, 33.88022],
          [-121.54302, 33.88953],
          [-121.55819, 33.89796],
          [-121.57497, 33.90727],
          [-121.58026, 33.92939],
          [-121.59544, 33.93781],
          [-121.61223, 33.94712],
          [-121.61753, 33.96924],
          [-121.62283, 33.99136],
          [-121.63803, 33.99977],
          [-121.65482, 34.00907],
          [-121.66014, 34.03118],
          [-121.66546, 34.0533],
          [-121.67077, 34.07541],
          [-121.6761, 34.09752],
          [-121.68142, 34.11963],
          [-121.68675, 34.14174],
          [-121.70196, 34.15014],
          [-121.71879, 34.15943],
          [-121.72412, 34.18153],
          [-121.72946, 34.20364],
          [-121.7348, 34.22574],
          [-121.74014, 34.24783],
          [-121.74548, 34.26993],
          [-121.75083, 34.29203],
          [-121.73959, 34.30594],
          [-121.72943, 34.31854],
          [-121.73477, 34.34063],
          [-121.74012, 34.36272],
          [-121.74547, 34.38481],
          [-121.73422, 34.39872],
          [-121.72404, 34.41131],
          [-121.72939, 34.4334],
          [-121.73474, 34.45548],
          [-121.74009, 34.47756],
          [-121.72884, 34.49147],
          [-121.71865, 34.50406],
          [-121.72401, 34.52614],
          [-121.71274, 34.54004],
          [-121.70255, 34.55262],
          [-121.7079, 34.5747],
          [-121.71326, 34.59678],
          [-121.70199, 34.61068],
          [-121.69179, 34.62326],
          [-121.69714, 34.64533],
          [-121.68586, 34.65923],
          [-121.67566, 34.67181],
          [-121.68101, 34.69388],
          [-121.68636, 34.71594],
          [-121.69171, 34.73801],
          [-121.69707, 34.76008],
          [-121.70243, 34.78214],
          [-121.69114, 34.79603],
          [-121.68092, 34.8086],
          [-121.68628, 34.83066],
          [-121.69164, 34.85272],
          [-121.69701, 34.87478],
          [-121.70237, 34.89684],
          [-121.70774, 34.91889],
          [-121.69643, 34.93278],
          [-121.6862, 34.94534],
          [-121.69157, 34.9674],
          [-121.68026, 34.98128],
          [-121.67002, 34.99384],
          [-121.67539, 35.01589],
          [-121.66407, 35.02977],
          [-121.65383, 35.04233],
          [-121.6592, 35.06437],
          [-121.64787, 35.07825],
          [-121.63762, 35.09081],
          [-121.64299, 35.11285],
          [-121.63166, 35.12673],
          [-121.6214, 35.13928],
          [-121.62676, 35.16132],
          [-121.63213, 35.18335],
          [-121.62079, 35.19723],
          [-121.61053, 35.20977],
          [-121.61589, 35.23181],
          [-121.60454, 35.24568],
          [-121.57756, 35.25005],
          [-121.55058, 35.25443],
          [-121.5236, 35.2588],
          [-121.51332, 35.27134],
          [-121.50195, 35.2852],
          [-121.49167, 35.29773],
          [-121.4803, 35.31159],
          [-121.4533, 35.31595],
          [-121.4263, 35.3203],
          [-121.39929, 35.32465],
          [-121.37229, 35.32899],
          [-121.36198, 35.34152],
          [-121.35059, 35.35536],
          [-121.34029, 35.36789],
          [-121.32889, 35.38173],
          [-121.31858, 35.39425],
          [-121.30718, 35.40809],
          [-121.29686, 35.42061],
          [-121.28545, 35.43445],
          [-121.27513, 35.44697],
          [-121.28044, 35.469],
          [-121.28575, 35.49102],
          [-121.27434, 35.50486],
          [-121.26401, 35.51737],
          [-121.26932, 35.53939],
          [-121.27463, 35.56142],
          [-121.27994, 35.58344],
          [-121.28526, 35.60545],
          [-121.29057, 35.62747],
          [-121.29589, 35.64948],
          [-121.30122, 35.6715],
          [-121.30654, 35.69351],
          [-121.29511, 35.70733],
          [-121.28476, 35.71984],
          [-121.29009, 35.74185],
          [-121.29541, 35.76385],
          [-121.28397, 35.77767],
          [-121.27361, 35.79017],
          [-121.27894, 35.81218],
          [-121.28427, 35.83418],
          [-121.28959, 35.85618],
          [-121.27814, 35.86999],
          [-121.26778, 35.88249],
          [-121.27311, 35.90449],
          [-121.26165, 35.9183],
          [-121.25128, 35.93079],
          [-121.23981, 35.9446],
          [-121.22944, 35.9571],
          [-121.23476, 35.97909],
          [-121.22329, 35.99289],
          [-121.21291, 36.00538],
          [-121.20143, 36.01919],
          [-121.19104, 36.03167],
          [-121.17956, 36.04547],
          [-121.15237, 36.04977],
          [-121.14197, 36.06225],
          [-121.13048, 36.07605],
          [-121.10328, 36.08034],
          [-121.09287, 36.09282],
          [-121.08137, 36.10661],
          [-121.07096, 36.11908],
          [-121.07626, 36.14107],
          [-121.06475, 36.15485],
          [-121.05434, 36.16733],
          [-121.04282, 36.18111],
          [-121.0324, 36.19358],
          [-121.0377, 36.21556],
          [-121.043, 36.23754],
          [-121.03147, 36.25132],
          [-121.02104, 36.26378],
          [-121.02634, 36.28576],
          [-121.03164, 36.30773],
          [-121.03694, 36.3297],
          [-121.02541, 36.34347],
          [-121.01497, 36.35593],
          [-121.02027, 36.3779],
          [-121.00873, 36.39167],
          [-120.99829, 36.40413],
          [-121.00358, 36.42609],
          [-121.00889, 36.44805],
          [-121.01419, 36.47001],
          [-121.00264, 36.48378],
          [-120.99218, 36.49623],
          [-120.99749, 36.51819],
          [-121.00279, 36.54014],
          [-121.0081, 36.56209],
          [-120.99654, 36.57585],
          [-120.98607, 36.5883],
          [-120.99138, 36.61025],
          [-120.97981, 36.62401],
          [-120.96934, 36.63645],
          [-120.97464, 36.6584],
          [-120.97995, 36.68034],
          [-120.96837, 36.69409],
          [-120.95789, 36.70653],
          [-120.94631, 36.72028],
          [-120.93583, 36.73272],
          [-120.94113, 36.75466],
          [-120.92954, 36.76841],
          [-120.91905, 36.78084],
          [-120.90745, 36.79459],
          [-120.89696, 36.80702],
          [-120.90226, 36.82895],
          [-120.89065, 36.84269],
          [-120.88015, 36.85512],
          [-120.88545, 36.87705],
          [-120.87384, 36.89079],
          [-120.86333, 36.90321],
          [-120.86863, 36.92514],
          [-120.85701, 36.93887],
          [-120.84649, 36.95129],
          [-120.85179, 36.97321],
          [-120.84016, 36.98694],
          [-120.82964, 36.99936],
          [-120.81801, 37.01309],
          [-120.80749, 37.02551],
          [-120.81278, 37.04742],
          [-120.81807, 37.06934],
          [-120.82336, 37.09125],
          [-120.81172, 37.10497],
          [-120.80119, 37.11738],
          [-120.78954, 37.1311],
          [-120.779, 37.14351],
          [-120.78429, 37.16542],
          [-120.77263, 37.17913],
          [-120.76209, 37.19154],
          [-120.76738, 37.21344],
          [-120.77267, 37.23534],
          [-120.76101, 37.24905],
          [-120.75045, 37.26145],
          [-120.75574, 37.28335],
          [-120.74407, 37.29706],
          [-120.73351, 37.30945],
          [-120.7388, 37.33135],
          [-120.72712, 37.34505],
          [-120.71655, 37.35744],
          [-120.72184, 37.37933],
          [-120.72713, 37.40122],
          [-120.71544, 37.41492],
          [-120.70486, 37.42731],
          [-120.71015, 37.44919],
          [-120.69846, 37.46289],
          [-120.68788, 37.47528],
          [-120.69316, 37.49716],
          [-120.68146, 37.51084],
          [-120.67087, 37.52323],
          [-120.67616, 37.54511],
          [-120.68145, 37.56698],
          [-120.66974, 37.58066],
          [-120.65914, 37.59304],
          [-120.66443, 37.61492],
          [-120.66972, 37.63678],
          [-120.67501, 37.65865],
          [-120.68031, 37.68051],
          [-120.6856, 37.70238],
          [-120.6909, 37.72424],
          [-120.6962, 37.74609],
          [-120.70151, 37.76795],
          [-120.68978, 37.78162],
          [-120.67916, 37.794],
          [-120.68446, 37.81585],
          [-120.68977, 37.8377],
          [-120.69507, 37.85954],
          [-120.68333, 37.87321],
          [-120.67271, 37.88558],
          [-120.67801, 37.90742],
          [-120.66626, 37.92109],
          [-120.65563, 37.93345],
          [-120.66094, 37.95529],
          [-120.66624, 37.97713],
          [-120.65448, 37.99079],
          [-120.64384, 38.00314],
          [-120.64915, 38.02498],
          [-120.63738, 38.03863],
          [-120.62674, 38.05099],
          [-120.63204, 38.07282],
          [-120.63735, 38.09464],
          [-120.62557, 38.10829],
          [-120.61492, 38.12064],
          [-120.62022, 38.14247],
          [-120.62553, 38.16429],
          [-120.61374, 38.17793],
          [-120.60308, 38.19028],
          [-120.60839, 38.2121],
          [-120.6137, 38.23391],
          [-120.61901, 38.25572],
          [-120.60721, 38.26936],
          [-120.59654, 38.2817],
          [-120.60185, 38.30351],
          [-120.60716, 38.32532],
          [-120.61247, 38.34712],
          [-120.61779, 38.36893],
          [-120.62311, 38.39072],
          [-120.62843, 38.41252],
          [-120.61662, 38.42615],
          [-120.60593, 38.43849],
          [-120.61125, 38.46028],
          [-120.61657, 38.48207],
          [-120.6219, 38.50386],
          [-120.61007, 38.51748],
          [-120.59937, 38.52981],
          [-120.6047, 38.5516],
          [-120.59287, 38.56522],
          [-120.58216, 38.57754],
          [-120.58748, 38.59932],
          [-120.57565, 38.61294],
          [-120.56493, 38.62526],
          [-120.57025, 38.64703],
          [-120.57558, 38.66881],
          [-120.56373, 38.68242],
          [-120.55301, 38.69473],
          [-120.54116, 38.70834],
          [-120.53043, 38.72065],
          [-120.51857, 38.73426],
          [-120.50784, 38.74657],
          [-120.51316, 38.76833],
          [-120.50129, 38.78194],
          [-120.49055, 38.79424],
          [-120.47868, 38.80784],
          [-120.46794, 38.82014],
          [-120.47325, 38.8419],
          [-120.46137, 38.8555],
          [-120.45062, 38.8678],
          [-120.43873, 38.88139],
          [-120.42797, 38.89368],
          [-120.43328, 38.91544],
          [-120.42139, 38.92902],
          [-120.41062, 38.94132],
          [-120.39873, 38.9549],
          [-120.38796, 38.96719],
          [-120.39326, 38.98894],
          [-120.38135, 39.00252],
          [-120.37058, 39.0148],
          [-120.37588, 39.03654],
          [-120.36396, 39.05012],
          [-120.35318, 39.0624],
          [-120.34126, 39.07597],
          [-120.33048, 39.08825],
          [-120.31855, 39.10182],
          [-120.30776, 39.1141],
          [-120.31305, 39.13583],
          [-120.30112, 39.1494],
          [-120.29032, 39.16167],
          [-120.27838, 39.17523],
          [-120.26757, 39.1875],
          [-120.27286, 39.20923],
          [-120.26091, 39.22279],
          [-120.2501, 39.23505],
          [-120.23815, 39.24861],
          [-120.2101, 39.2527],
          [-120.19928, 39.26496],
          [-120.20455, 39.28668],
          [-120.19259, 39.30023],
          [-120.18176, 39.31248],
          [-120.16979, 39.32603],
          [-120.15896, 39.33828],
          [-120.14698, 39.35182],
          [-120.1189, 39.3559],
          [-120.10805, 39.36814],
          [-120.09607, 39.38168],
          [-120.08522, 39.39393],
          [-120.07323, 39.40746],
          [-120.04513, 39.41152],
          [-120.03427, 39.42376],
          [-120.02227, 39.43729],
          [-119.99415, 39.44134],
          [-119.98329, 39.45357],
          [-119.97128, 39.4671],
          [-119.94315, 39.47114],
          [-119.93228, 39.48337],
          [-119.92026, 39.49689],
          [-119.89212, 39.50092],
          [-119.86399, 39.50495],
          [-119.8531, 39.51717],
          [-119.84106, 39.53068],
          [-119.83017, 39.5429],
          [-119.81813, 39.55641],
          [-119.78998, 39.56042],
          [-119.77907, 39.57264],
          [-119.76702, 39.58614],
          [-119.73886, 39.59015],
          [-119.72795, 39.60236],
          [-119.73314, 39.62406],
          [-119.72108, 39.63755],
          [-119.71016, 39.64976],
          [-119.69809, 39.66325],
          [-119.68717, 39.67546],
          [-119.69236, 39.69715],
          [-119.68028, 39.71064],
          [-119.66935, 39.72284],
          [-119.65727, 39.73632],
          [-119.64633, 39.74852],
          [-119.65152, 39.77021],
          [-119.63943, 39.78369],
          [-119.61121, 39.78767],
          [-119.60026, 39.79986],
          [-119.58816, 39.81333],
          [-119.57721, 39.82552],
          [-119.5651, 39.83899],
          [-119.53686, 39.84296],
          [-119.5259, 39.85514],
          [-119.51378, 39.86861],
          [-119.48553, 39.87257],
          [-119.47456, 39.88475],
          [-119.46244, 39.89821],
          [-119.43418, 39.90216],
          [-119.40592, 39.90611],
          [-119.39493, 39.91828],
          [-119.38279, 39.93173],
          [-119.35452, 39.93567],
          [-119.32625, 39.9396],
          [-119.31525, 39.95177],
          [-119.30309, 39.96521],
          [-119.27481, 39.96914],
          [-119.24652, 39.97306],
          [-119.23552, 39.98522],
          [-119.22335, 39.99865],
          [-119.21233, 40.01081],
          [-119.20015, 40.02424],
          [-119.17185, 40.02815],
          [-119.16083, 40.0403],
          [-119.14864, 40.05372],
          [-119.13761, 40.06587],
          [-119.12542, 40.07929],
          [-119.0971, 40.08319],
          [-119.06878, 40.08708],
          [-119.05773, 40.09922],
          [-119.04553, 40.11263],
          [-119.01719, 40.11652],
          [-119.00614, 40.12865],
          [-118.99393, 40.14206],
          [-118.96558, 40.14593],
          [-118.93724, 40.1498],
          [-118.90889, 40.15366],
          [-118.89782, 40.16579],
          [-118.88559, 40.17919],
          [-118.85723, 40.18304],
          [-118.84615, 40.19516],
          [-118.83391, 40.20856],
          [-118.80554, 40.21241],
          [-118.79445, 40.22452],
          [-118.7822, 40.23791],
          [-118.75382, 40.24175],
          [-118.74273, 40.25386],
          [-118.73046, 40.26724],
          [-118.71936, 40.27935],
          [-118.70709, 40.29273],
          [-118.67869, 40.29655],
          [-118.66758, 40.30865],
          [-118.6553, 40.32203],
          [-118.6269, 40.32584],
          [-118.59849, 40.32965],
          [-118.58737, 40.34175],
          [-118.57507, 40.35512],
          [-118.54665, 40.35892],
          [-118.51823, 40.36271],
          [-118.48981, 40.36651],
          [-118.47867, 40.37859],
          [-118.46636, 40.39195],
          [-118.43792, 40.39573],
          [-118.40949, 40.39951],
          [-118.39834, 40.41159],
          [-118.38601, 40.42494],
          [-118.35757, 40.42871],
          [-118.32912, 40.43248],
          [-118.31796, 40.44455],
          [-118.30561, 40.45789],
          [-118.27716, 40.46164],
          [-118.26598, 40.47371],
          [-118.25363, 40.48705],
          [-118.22516, 40.49079],
          [-118.1967, 40.49454],
          [-118.18551, 40.5066],
          [-118.17314, 40.51992],
          [-118.14466, 40.52366],
          [-118.11618, 40.52739],
          [-118.10498, 40.53944],
          [-118.0926, 40.55276],
          [-118.06411, 40.55648],
          [-118.0529, 40.56853],
          [-118.04051, 40.58184],
          [-118.01201, 40.58555],
          [-117.98351, 40.58926],
          [-117.97228, 40.6013],
          [-117.95988, 40.61461],
          [-117.93137, 40.61831],
          [-117.90285, 40.622],
          [-117.87434, 40.62569],
          [-117.84582, 40.62937],
          [-117.8173, 40.63305],
          [-117.78878, 40.63673],
          [-117.77753, 40.64875],
          [-117.76509, 40.66204],
          [-117.73656, 40.66571],
          [-117.70802, 40.66937],
          [-117.67949, 40.67303],
          [-117.65095, 40.67668],
          [-117.62241, 40.68033],
          [-117.60491, 40.67088],
          [-117.58907, 40.66233],
          [-117.57779, 40.67434],
          [-117.56533, 40.68761],
          [-117.53678, 40.69124],
          [-117.50823, 40.69487],
          [-117.47968, 40.6985],
          [-117.46839, 40.7105],
          [-117.4559, 40.72376],
          [-117.42734, 40.72738],
          [-117.39878, 40.73099],
          [-117.37022, 40.7346],
          [-117.35273, 40.72512],
          [-117.3369, 40.71655],
          [-117.30834, 40.72015],
          [-117.29086, 40.71067],
          [-117.27504, 40.70209],
          [-117.24648, 40.70568],
          [-117.22901, 40.69619],
          [-117.2132, 40.68761],
          [-117.18464, 40.69119],
          [-117.16717, 40.68169],
          [-117.15137, 40.6731],
          [-117.13391, 40.66361],
          [-117.11811, 40.65501],
          [-117.10066, 40.64551],
          [-117.08487, 40.63691],
          [-117.05632, 40.64047],
          [-117.02777, 40.64403],
          [-116.99922, 40.64758],
          [-116.97066, 40.65112],
          [-116.95932, 40.66309],
          [-116.94677, 40.67632],
          [-116.91821, 40.67986],
          [-116.88964, 40.68339],
          [-116.86107, 40.68692],
          [-116.8325, 40.69044],
          [-116.80393, 40.69395],
          [-116.77536, 40.69747],
          [-116.74678, 40.70097],
          [-116.7182, 40.70448],
          [-116.70682, 40.71643],
          [-116.69424, 40.72964],
          [-116.66565, 40.73313],
          [-116.63706, 40.73662],
          [-116.60847, 40.74011],
          [-116.57987, 40.74359],
          [-116.56847, 40.75553],
          [-116.55586, 40.76873],
          [-116.52726, 40.7722],
          [-116.51585, 40.78413],
          [-116.50323, 40.79732],
          [-116.47462, 40.80079],
          [-116.446, 40.80424],
          [-116.43458, 40.81617],
          [-116.42195, 40.82936],
          [-116.39332, 40.83281],
          [-116.3647, 40.83625],
          [-116.35326, 40.84817],
          [-116.34061, 40.86135],
          [-116.31197, 40.86478],
          [-116.30053, 40.8767],
          [-116.28787, 40.88987],
          [-116.25922, 40.8933],
          [-116.23058, 40.89672],
          [-116.21912, 40.90863],
          [-116.20645, 40.92179],
          [-116.17779, 40.9252],
          [-116.14913, 40.92861],
          [-116.12047, 40.93201],
          [-116.10899, 40.94391],
          [-116.0963, 40.95706],
          [-116.06763, 40.96046],
          [-116.03896, 40.96385],
          [-116.02747, 40.97574],
          [-116.01476, 40.98888],
          [-115.98608, 40.99227],
          [-115.95739, 40.99564],
          [-115.92871, 40.99901],
          [-115.9172, 41.0109],
          [-115.90448, 41.02403],
          [-115.87578, 41.02739],
          [-115.86427, 41.03927],
          [-115.85153, 41.0524],
          [-115.82283, 41.05575],
          [-115.8113, 41.06762],
          [-115.79856, 41.08075],
          [-115.76984, 41.08409],
          [-115.75244, 41.07448],
          [-115.7367, 41.06578],
          [-115.70798, 41.06912],
          [-115.67927, 41.07245],
          [-115.65055, 41.07577],
          [-115.62183, 41.0791],
          [-115.59311, 41.08241],
          [-115.56439, 41.08572],
          [-115.54701, 41.07609],
          [-115.53128, 41.06738],
          [-115.5139, 41.05775],
          [-115.50953, 41.03609],
          [-115.49381, 41.02737],
          [-115.47644, 41.01773],
          [-115.47208, 40.99607],
          [-115.45637, 40.98734],
          [-115.42767, 40.99064],
          [-115.41031, 40.98099],
          [-115.39461, 40.97226],
          [-115.36592, 40.97554],
          [-115.33722, 40.97882],
          [-115.30851, 40.98209],
          [-115.29694, 40.99393],
          [-115.28414, 41.00702],
          [-115.25543, 41.01029],
          [-115.22671, 41.01355],
          [-115.198, 41.0168],
          [-115.16928, 41.02005],
          [-115.14056, 41.0233],
          [-115.11184, 41.02654],
          [-115.08312, 41.02977],
          [-115.05439, 41.033],
          [-115.04278, 41.04483],
          [-115.02994, 41.0579],
          [-115.00121, 41.06112],
          [-114.97247, 41.06434],
          [-114.94374, 41.06755],
          [-114.915, 41.07076],
          [-114.90336, 41.08257],
          [-114.8905, 41.09563],
          [-114.86175, 41.09883],
          [-114.85011, 41.11064],
          [-114.83724, 41.12369],
          [-114.80848, 41.12688],
          [-114.79683, 41.13868],
          [-114.78395, 41.15172],
          [-114.77229, 41.16352],
          [-114.7594, 41.17656],
          [-114.73063, 41.17974],
          [-114.71896, 41.19154],
          [-114.70606, 41.20457],
          [-114.69439, 41.21636],
          [-114.68149, 41.22939],
          [-114.66981, 41.24118],
          [-114.6569, 41.25421],
          [-114.6281, 41.25737],
          [-114.59929, 41.26052],
          [-114.57049, 41.26367],
          [-114.55879, 41.27545],
          [-114.54587, 41.28847],
          [-114.51705, 41.29161],
          [-114.48824, 41.29475],
          [-114.45942, 41.29788],
          [-114.4306, 41.30101],
          [-114.40178, 41.30413],
          [-114.39006, 41.31589],
          [-114.3771, 41.3289],
          [-114.36538, 41.34066],
          [-114.35242, 41.35366],
          [-114.32358, 41.35677],
          [-114.31184, 41.36852],
          [-114.29887, 41.38152],
          [-114.28713, 41.39327],
          [-114.27415, 41.40626],
          [-114.2453, 41.40935],
          [-114.23355, 41.4211],
          [-114.22056, 41.43409],
          [-114.19169, 41.43717],
          [-114.16283, 41.44026],
          [-114.13396, 41.44333],
          [-114.10509, 41.4464],
          [-114.08778, 41.43665],
          [-114.07213, 41.42783],
          [-114.04326, 41.43089],
          [-114.02596, 41.42113],
          [-114.01031, 41.4123],
          [-113.98145, 41.41536],
          [-113.95258, 41.41841],
          [-113.92371, 41.42145],
          [-113.89484, 41.42449],
          [-113.88305, 41.43621],
          [-113.87001, 41.44917],
          [-113.85822, 41.46089],
          [-113.84517, 41.47385],
          [-113.83337, 41.48556],
          [-113.82032, 41.49851],
          [-113.79143, 41.50154],
          [-113.77961, 41.51325],
          [-113.76656, 41.52619],
          [-113.73765, 41.52921],
          [-113.70874, 41.53221],
          [-113.69692, 41.54392],
          [-113.68384, 41.55686],
          [-113.65493, 41.55985],
          [-113.64309, 41.57155],
          [-113.63001, 41.58448],
          [-113.61817, 41.59618],
          [-113.60508, 41.60911],
          [-113.57615, 41.61209],
          [-113.54721, 41.61507],
          [-113.51827, 41.61805],
          [-113.48933, 41.62102],
          [-113.46039, 41.62399],
          [-113.44853, 41.63567],
          [-113.43541, 41.64858],
          [-113.40646, 41.65154],
          [-113.39459, 41.66322],
          [-113.38146, 41.67612],
          [-113.3525, 41.67907],
          [-113.34062, 41.69074],
          [-113.32748, 41.70364],
          [-113.31559, 41.71531],
          [-113.30245, 41.72821],
          [-113.29055, 41.73987],
          [-113.2774, 41.75277],
          [-113.2655, 41.76443],
          [-113.25234, 41.77732],
          [-113.22335, 41.78024],
          [-113.19436, 41.78317],
          [-113.18244, 41.79482],
          [-113.16927, 41.8077],
          [-113.14027, 41.81061],
          [-113.11126, 41.81352],
          [-113.08226, 41.81642],
          [-113.05325, 41.81932],
          [-113.02424, 41.82222],
          [-112.99523, 41.82511],
          [-112.96622, 41.82799],
          [-112.9372, 41.83087],
          [-112.90818, 41.83374],
          [-112.87917, 41.83661],
          [-112.86191, 41.82677],
          [-112.8463, 41.81786],
          [-112.81729, 41.82072],
          [-112.78827, 41.82357],
          [-112.77103, 41.81372],
          [-112.75543, 41.8048],
          [-112.72642, 41.80765],
          [-112.6974, 41.81049],
          [-112.66838, 41.81333],
          [-112.65116, 41.80346],
          [-112.63557, 41.79453],
          [-112.60656, 41.79736],
          [-112.57754, 41.80018],
          [-112.56032, 41.7903],
          [-112.54475, 41.78136],
          [-112.51573, 41.78418],
          [-112.48672, 41.78699],
          [-112.47472, 41.79859],
          [-112.46146, 41.81142],
          [-112.44425, 41.80154],
          [-112.42868, 41.79259],
          [-112.41148, 41.7827],
          [-112.39592, 41.77375],
          [-112.37872, 41.76385],
          [-112.37498, 41.74221],
          [-112.35943, 41.73325],
          [-112.34225, 41.72335],
          [-112.3267, 41.71439],
          [-112.30952, 41.70449],
          [-112.29398, 41.69552],
          [-112.26499, 41.6983],
          [-112.24782, 41.68838],
          [-112.23228, 41.67941],
          [-112.20329, 41.68218],
          [-112.1743, 41.68494],
          [-112.1453, 41.6877],
          [-112.12814, 41.67777],
          [-112.11262, 41.66879],
          [-112.08363, 41.67154],
          [-112.0716, 41.68313],
          [-112.0583, 41.69593],
          [-112.0293, 41.69867],
          [-112.0003, 41.7014],
          [-112, 41.70143]
        ]
      }
    },
    {
      "type": "Feature",
      "id": "2026092712_f216_12000_001",
      "properties": {
        "product_id": "winter_storm_levels",
        "source_id": "nbm_snow_level",
        "parameter": "snow_level",
        "definition": "height of the wet-bulb 0.5 degree C surface",
        "level_ft_msl": 12000,
        "label": "12,000 ft MSL",
        "unit": "ft_msl",
        "cycle_time_utc": "2026-09-27T12:00:00Z",
        "valid_time_utc": "2026-10-06T12:00:00Z",
        "lead_hours": 216,
        "segment": 1,
        "length_m": 175374.9
      },
      "geometry": {
        "type": "LineString",
        "coordinates": [
          [-116.59319, 32.70335],
          [-116.58037, 32.71826],
          [-116.5709, 32.72928],
          [-116.57516, 32.75162],
          [-116.56234, 32.76653],
          [-116.55286, 32.77754],
          [-116.54003, 32.79245],
          [-116.53054, 32.80346],
          [-116.5348, 32.8258],
          [-116.52196, 32.8407],
          [-116.51247, 32.85171],
          [-116.49963, 32.86661],
          [-116.47303, 32.87018],
          [-116.44644, 32.87375],
          [-116.43694, 32.88475],
          [-116.42408, 32.89964],
          [-116.41458, 32.91065],
          [-116.40171, 32.92554],
          [-116.3751, 32.92909],
          [-116.34849, 32.93264],
          [-116.33898, 32.94364],
          [-116.3261, 32.95852],
          [-116.29948, 32.96206],
          [-116.27286, 32.9656],
          [-116.24623, 32.96913],
          [-116.21961, 32.97266],
          [-116.20189, 32.96184],
          [-116.18879, 32.95384],
          [-116.17107, 32.94302],
          [-116.15797, 32.93502],
          [-116.13136, 32.93853],
          [-116.11364, 32.9277],
          [-116.10056, 32.9197],
          [-116.07394, 32.9232],
          [-116.05624, 32.91236],
          [-116.04315, 32.90435],
          [-116.01654, 32.90785],
          [-115.99884, 32.89701],
          [-115.98577, 32.88899],
          [-115.96808, 32.87814],
          [-115.95501, 32.87013],
          [-115.93732, 32.85928],
          [-115.93318, 32.83693],
          [-115.92904, 32.81457],
          [-115.9249, 32.79222],
          [-115.92077, 32.76986],
          [-115.93367, 32.75501],
          [-115.94321, 32.74403],
          [-115.93908, 32.72167],
          [-115.95198, 32.70681],
          [-115.96151, 32.69583],
          [-115.9744, 32.68097],
          [-115.98393, 32.66998],
          [-115.99682, 32.65512],
          [-116.02338, 32.65162],
          [-116.0329, 32.64063],
          [-116.04578, 32.62577],
          [-116.07233, 32.62226],
          [-116.09887, 32.61876],
          [-116.10839, 32.60776],
          [-116.12125, 32.59289],
          [-116.14779, 32.58937],
          [-116.17433, 32.58586],
          [-116.20087, 32.58233],
          [-116.2274, 32.5788],
          [-116.25393, 32.57527],
          [-116.28046, 32.57174],
          [-116.30699, 32.5682],
          [-116.32467, 32.57901],
          [-116.33773, 32.58701],
          [-116.36426, 32.58346],
          [-116.39079, 32.5799],
          [-116.41732, 32.57634],
          [-116.435, 32.58715],
          [-116.44808, 32.59513],
          [-116.47461, 32.59156],
          [-116.4923, 32.60236],
          [-116.50538, 32.61034],
          [-116.52308, 32.62114],
          [-116.52733, 32.64348],
          [-116.54041, 32.65146],
          [-116.55812, 32.66225],
          [-116.56238, 32.68459],
          [-116.57547, 32.69257],
          [-116.59319, 32.70335]
        ]
      }
    },
    {
      "type": "Feature",
      "id": "2026092712_f216_12000_002",
      "properties": {
        "product_id": "winter_storm_levels",
        "source_id": "nbm_snow_level",
        "parameter": "snow_level",
        "definition": "height of the wet-bulb 0.5 degree C surface",
        "level_ft_msl": 12000,
        "label": "12,000 ft MSL",
        "unit": "ft_msl",
        "cycle_time_utc": "2026-09-27T12:00:00Z",
        "valid_time_utc": "2026-10-06T12:00:00Z",
        "lead_hours": 216,
        "segment": 2,
        "length_m": 16154
      },
      "geometry": {
        "type": "LineString",
        "coordinates": [
          [-117.96619, 32.23584],
          [-117.96168, 32.21351],
          [-117.95717, 32.19118],
          [-117.94404, 32.18331],
          [-117.93474, 32.19443],
          [-117.93924, 32.21676],
          [-117.94375, 32.23909],
          [-117.95689, 32.24696],
          [-117.96619, 32.23584]
        ]
      }
    },
    {
      "type": "Feature",
      "id": "2026092712_f216_12000_003",
      "properties": {
        "product_id": "winter_storm_levels",
        "source_id": "nbm_snow_level",
        "parameter": "snow_level",
        "definition": "height of the wet-bulb 0.5 degree C surface",
        "level_ft_msl": 12000,
        "label": "12,000 ft MSL",
        "unit": "ft_msl",
        "cycle_time_utc": "2026-09-27T12:00:00Z",
        "valid_time_utc": "2026-10-06T12:00:00Z",
        "lead_hours": 216,
        "segment": 3,
        "length_m": 1371837.3
      },
      "geometry": {
        "type": "LineString",
        "coordinates": [
          [-118.47819, 30.2383],
          [-118.48009, 30.24772],
          [-118.471, 30.25891],
          [-118.45869, 30.27404],
          [-118.46323, 30.29644],
          [-118.45413, 30.30763],
          [-118.44181, 30.32276],
          [-118.44635, 30.34516],
          [-118.43724, 30.35634],
          [-118.42492, 30.37147],
          [-118.41581, 30.38265],
          [-118.40349, 30.39777],
          [-118.39437, 30.40895],
          [-118.38204, 30.42408],
          [-118.37292, 30.43525],
          [-118.34694, 30.43915],
          [-118.3346, 30.45427],
          [-118.33912, 30.47667],
          [-118.33, 30.48784],
          [-118.31765, 30.50296],
          [-118.30852, 30.51413],
          [-118.29616, 30.52924],
          [-118.30068, 30.55164],
          [-118.30519, 30.57403],
          [-118.30971, 30.59643],
          [-118.32727, 30.60707],
          [-118.34025, 30.61493],
          [-118.34477, 30.63732],
          [-118.3493, 30.65971],
          [-118.36687, 30.67035],
          [-118.37986, 30.6782],
          [-118.38439, 30.70059],
          [-118.38893, 30.72298],
          [-118.39347, 30.74537],
          [-118.39801, 30.76775],
          [-118.4156, 30.77838],
          [-118.42861, 30.78623],
          [-118.43316, 30.80861],
          [-118.43771, 30.83099],
          [-118.44226, 30.85337],
          [-118.44681, 30.87575],
          [-118.45137, 30.89813],
          [-118.45592, 30.92051],
          [-118.44678, 30.93168],
          [-118.43439, 30.94679],
          [-118.43895, 30.96917],
          [-118.44351, 30.99154],
          [-118.44807, 31.01391],
          [-118.45263, 31.03629],
          [-118.45719, 31.05866],
          [-118.46176, 31.08103],
          [-118.46632, 31.1034],
          [-118.47089, 31.12576],
          [-118.47546, 31.14813],
          [-118.48003, 31.1705],
          [-118.47087, 31.18166],
          [-118.45846, 31.19677],
          [-118.44929, 31.20794],
          [-118.43688, 31.22304],
          [-118.44145, 31.24541],
          [-118.43227, 31.25657],
          [-118.41986, 31.27167],
          [-118.41068, 31.28284],
          [-118.38451, 31.28673],
          [-118.35834, 31.29063],
          [-118.33217, 31.29452],
          [-118.306, 31.2984],
          [-118.29294, 31.29055],
          [-118.27528, 31.27992],
          [-118.24911, 31.28379],
          [-118.22294, 31.28766],
          [-118.19677, 31.29153],
          [-118.17059, 31.29539],
          [-118.14441, 31.29925],
          [-118.11823, 31.30311],
          [-118.09205, 31.30696],
          [-118.07901, 31.29908],
          [-118.06137, 31.28843],
          [-118.03519, 31.29227],
          [-118.00901, 31.29611],
          [-117.99653, 31.31118],
          [-117.98731, 31.32231],
          [-117.97482, 31.33738],
          [-117.97931, 31.35975],
          [-117.98379, 31.38212],
          [-117.97456, 31.39325],
          [-117.96207, 31.40832],
          [-117.96655, 31.43069],
          [-117.97104, 31.45305],
          [-117.97552, 31.47542],
          [-117.98001, 31.49779],
          [-117.9845, 31.52015],
          [-117.97526, 31.53128],
          [-117.96275, 31.54634],
          [-117.96724, 31.5687],
          [-117.97173, 31.59106],
          [-117.96248, 31.60219],
          [-117.94997, 31.61725],
          [-117.95445, 31.63961],
          [-117.9452, 31.65073],
          [-117.93268, 31.66579],
          [-117.92342, 31.67691],
          [-117.91089, 31.69196],
          [-117.90163, 31.70308],
          [-117.88909, 31.71813],
          [-117.87982, 31.72925],
          [-117.85354, 31.73306],
          [-117.84099, 31.7481],
          [-117.84547, 31.77046],
          [-117.83619, 31.78157],
          [-117.82364, 31.79661],
          [-117.81436, 31.80773],
          [-117.8018, 31.82277],
          [-117.79252, 31.83388],
          [-117.7662, 31.83767],
          [-117.75364, 31.8527],
          [-117.74435, 31.86381],
          [-117.73177, 31.87884],
          [-117.73623, 31.9012],
          [-117.74069, 31.92355],
          [-117.73139, 31.93466],
          [-117.71881, 31.94968],
          [-117.72327, 31.97203],
          [-117.72772, 31.99438],
          [-117.74544, 32.00506],
          [-117.75854, 32.01294],
          [-117.76301, 32.03529],
          [-117.7537, 32.0464],
          [-117.74111, 32.06142],
          [-117.7318, 32.07253],
          [-117.7192, 32.08755],
          [-117.70989, 32.09865],
          [-117.69729, 32.11367],
          [-117.70175, 32.13601],
          [-117.69243, 32.14711],
          [-117.66604, 32.15088],
          [-117.65342, 32.1659],
          [-117.6441, 32.17699],
          [-117.63148, 32.19201],
          [-117.63593, 32.21435],
          [-117.64038, 32.23669],
          [-117.64483, 32.25902],
          [-117.64929, 32.28136],
          [-117.65374, 32.3037],
          [-117.6582, 32.32603],
          [-117.66266, 32.34836],
          [-117.66712, 32.37069],
          [-117.68489, 32.38137],
          [-117.69803, 32.38925],
          [-117.7025, 32.41158],
          [-117.70697, 32.43391],
          [-117.71144, 32.45623],
          [-117.7021, 32.46733],
          [-117.68945, 32.48233],
          [-117.69392, 32.50466],
          [-117.68458, 32.51575],
          [-117.67192, 32.53075],
          [-117.66257, 32.54184],
          [-117.64991, 32.55684],
          [-117.65438, 32.57916],
          [-117.65885, 32.60148],
          [-117.64949, 32.61256],
          [-117.63682, 32.62756],
          [-117.64129, 32.64988],
          [-117.64575, 32.67219],
          [-117.63639, 32.68328],
          [-117.62371, 32.69827],
          [-117.62818, 32.72058],
          [-117.6188, 32.73166],
          [-117.60612, 32.74665],
          [-117.61058, 32.76896],
          [-117.6012, 32.78004],
          [-117.58851, 32.79503],
          [-117.59298, 32.81734],
          [-117.59744, 32.83965],
          [-117.58806, 32.85072],
          [-117.57535, 32.86571],
          [-117.56596, 32.87678],
          [-117.5394, 32.88052],
          [-117.52669, 32.8955],
          [-117.51729, 32.90657],
          [-117.49072, 32.91031],
          [-117.46415, 32.91404],
          [-117.43758, 32.91777],
          [-117.411, 32.92149],
          [-117.38442, 32.92521],
          [-117.37169, 32.94018],
          [-117.36227, 32.95124],
          [-117.34909, 32.94333],
          [-117.33127, 32.93264],
          [-117.30468, 32.93635],
          [-117.2781, 32.94005],
          [-117.25151, 32.94374],
          [-117.22493, 32.94744],
          [-117.19834, 32.95113],
          [-117.18517, 32.94321],
          [-117.16736, 32.9325],
          [-117.1542, 32.92458],
          [-117.13639, 32.91386],
          [-117.10981, 32.91753],
          [-117.09665, 32.90961],
          [-117.07886, 32.89889],
          [-117.0657, 32.89096],
          [-117.04791, 32.88023],
          [-117.03476, 32.8723],
          [-117.01698, 32.86157],
          [-117.0042, 32.87651],
          [-116.99475, 32.88755],
          [-116.98197, 32.90248],
          [-116.97252, 32.91352],
          [-116.94593, 32.91717],
          [-116.91934, 32.92081],
          [-116.89274, 32.92445],
          [-116.86615, 32.92808],
          [-116.83955, 32.93171],
          [-116.82641, 32.92377],
          [-116.80864, 32.91301],
          [-116.78205, 32.91663],
          [-116.75545, 32.92025],
          [-116.74263, 32.93516],
          [-116.74694, 32.95749],
          [-116.75124, 32.97981],
          [-116.75555, 33.00213],
          [-116.75986, 33.02446],
          [-116.76417, 33.04677],
          [-116.78196, 33.05753],
          [-116.79511, 33.06548],
          [-116.79943, 33.08779],
          [-116.80375, 33.11011],
          [-116.80807, 33.13242],
          [-116.8124, 33.15473],
          [-116.81672, 33.17704],
          [-116.82105, 33.19935],
          [-116.83887, 33.21009],
          [-116.85204, 33.21803],
          [-116.85638, 33.24034],
          [-116.87421, 33.25108],
          [-116.88739, 33.25901],
          [-116.89174, 33.28132],
          [-116.89608, 33.30362],
          [-116.91393, 33.31435],
          [-116.92712, 33.32228],
          [-116.94497, 33.33301],
          [-116.95816, 33.34094],
          [-116.96252, 33.36323],
          [-116.98038, 33.37396],
          [-117.00708, 33.37031],
          [-117.02028, 33.37823],
          [-117.03815, 33.38895],
          [-117.05136, 33.39687],
          [-117.06923, 33.40758],
          [-117.09593, 33.40392],
          [-117.10914, 33.41183],
          [-117.12702, 33.42254],
          [-117.15373, 33.41886],
          [-117.16695, 33.42677],
          [-117.18484, 33.43747],
          [-117.19806, 33.44538],
          [-117.21595, 33.45607],
          [-117.22918, 33.46398],
          [-117.24708, 33.47467],
          [-117.27379, 33.47098],
          [-117.28703, 33.47888],
          [-117.30494, 33.48956],
          [-117.33165, 33.48586],
          [-117.35836, 33.48215],
          [-117.38507, 33.47844],
          [-117.41177, 33.47473],
          [-117.43848, 33.47101],
          [-117.46518, 33.46729],
          [-117.49188, 33.46356],
          [-117.50513, 33.47144],
          [-117.52306, 33.4821],
          [-117.54976, 33.47836],
          [-117.56302, 33.48624],
          [-117.58095, 33.49689],
          [-117.59421, 33.50477],
          [-117.5987, 33.52704],
          [-117.6032, 33.5493],
          [-117.59375, 33.56036],
          [-117.58097, 33.57531],
          [-117.57152, 33.58637],
          [-117.55874, 33.60132],
          [-117.54928, 33.61237],
          [-117.53649, 33.62732],
          [-117.52703, 33.63837],
          [-117.50029, 33.6421],
          [-117.48749, 33.65705],
          [-117.47802, 33.66809],
          [-117.45127, 33.67181],
          [-117.42452, 33.67553],
          [-117.39777, 33.67925],
          [-117.38495, 33.69418],
          [-117.37547, 33.70522],
          [-117.36264, 33.72015],
          [-117.35316, 33.73119],
          [-117.34033, 33.74612],
          [-117.33084, 33.75715],
          [-117.30406, 33.76085],
          [-117.29122, 33.77578],
          [-117.28173, 33.78681],
          [-117.26888, 33.80173],
          [-117.25938, 33.81276],
          [-117.23259, 33.81644],
          [-117.21973, 33.83136],
          [-117.21022, 33.84238],
          [-117.19736, 33.8573],
          [-117.20179, 33.87955],
          [-117.19228, 33.89058],
          [-117.1794, 33.90549],
          [-117.18383, 33.92774],
          [-117.17431, 33.93876],
          [-117.16143, 33.95367],
          [-117.15191, 33.96468],
          [-117.13903, 33.97959],
          [-117.1295, 33.9906],
          [-117.11661, 34.0055],
          [-117.12103, 34.02775],
          [-117.11149, 34.03877],
          [-117.09859, 34.05366],
          [-117.10301, 34.07591],
          [-117.10743, 34.09816],
          [-117.11185, 34.1204],
          [-117.10231, 34.13141],
          [-117.0894, 34.14631],
          [-117.09382, 34.16855],
          [-117.09824, 34.19079],
          [-117.10266, 34.21303],
          [-117.09311, 34.22403],
          [-117.08019, 34.23892],
          [-117.08461, 34.26116],
          [-117.07505, 34.27216],
          [-117.06212, 34.28704],
          [-117.05256, 34.29804],
          [-117.02565, 34.30169],
          [-117.0127, 34.31657],
          [-117.00314, 34.32757],
          [-116.97621, 34.33121],
          [-116.94929, 34.33484],
          [-116.92236, 34.33847],
          [-116.89543, 34.34209],
          [-116.8685, 34.34571],
          [-116.84157, 34.34933],
          [-116.81464, 34.35294],
          [-116.7877, 34.35655],
          [-116.7744, 34.34863],
          [-116.7564, 34.33791],
          [-116.74311, 34.32999],
          [-116.72512, 34.31927],
          [-116.71182, 34.31134],
          [-116.70748, 34.2891],
          [-116.6895, 34.27838],
          [-116.67621, 34.27045],
          [-116.67187, 34.2482],
          [-116.6539, 34.23747],
          [-116.64062, 34.22954],
          [-116.63629, 34.20729],
          [-116.61833, 34.19655],
          [-116.60506, 34.18861],
          [-116.58711, 34.17787],
          [-116.57384, 34.16993],
          [-116.55589, 34.15919],
          [-116.54263, 34.15125],
          [-116.52469, 34.1405],
          [-116.49779, 34.14406],
          [-116.4848, 34.1589],
          [-116.4752, 34.16988],
          [-116.44829, 34.17343],
          [-116.42139, 34.17698],
          [-116.40838, 34.19181],
          [-116.39877, 34.20278],
          [-116.37185, 34.20632],
          [-116.35884, 34.22115],
          [-116.34921, 34.23211],
          [-116.33619, 34.24694],
          [-116.32656, 34.2579],
          [-116.31353, 34.27273],
          [-116.3039, 34.28369],
          [-116.29087, 34.29851],
          [-116.28123, 34.30946],
          [-116.26819, 34.32428],
          [-116.27245, 34.34654],
          [-116.26281, 34.35749],
          [-116.24976, 34.3723],
          [-116.24011, 34.38325],
          [-116.22706, 34.39807],
          [-116.2174, 34.40902],
          [-116.20434, 34.42383],
          [-116.19469, 34.43477],
          [-116.16771, 34.43828],
          [-116.15464, 34.45308],
          [-116.14498, 34.46402],
          [-116.118, 34.46752],
          [-116.10491, 34.48232],
          [-116.09524, 34.49326],
          [-116.06825, 34.49675],
          [-116.04126, 34.50023],
          [-116.02816, 34.51502],
          [-116.01848, 34.52595],
          [-115.99148, 34.52943],
          [-115.96447, 34.5329],
          [-115.93747, 34.53636],
          [-115.92436, 34.55115],
          [-115.91466, 34.56207],
          [-115.90154, 34.57685],
          [-115.89184, 34.58778],
          [-115.86482, 34.59123],
          [-115.85169, 34.606],
          [-115.84199, 34.61692],
          [-115.82885, 34.63169],
          [-115.81914, 34.64261],
          [-115.806, 34.65738],
          [-115.79628, 34.66829],
          [-115.78314, 34.68306],
          [-115.77342, 34.69397],
          [-115.76026, 34.70873],
          [-115.76444, 34.73097],
          [-115.75471, 34.74188],
          [-115.74155, 34.75664],
          [-115.73182, 34.76755],
          [-115.71866, 34.7823],
          [-115.70892, 34.79321],
          [-115.69575, 34.80796],
          [-115.68601, 34.81886],
          [-115.67283, 34.83361],
          [-115.66308, 34.84451],
          [-115.6499, 34.85926],
          [-115.64015, 34.87016],
          [-115.62696, 34.8849],
          [-115.61721, 34.8958],
          [-115.60401, 34.91054],
          [-115.59425, 34.92143],
          [-115.58105, 34.93617],
          [-115.57128, 34.94706],
          [-115.55807, 34.9618],
          [-115.56222, 34.98402],
          [-115.55245, 34.99491],
          [-115.53923, 35.00964],
          [-115.54338, 35.03187],
          [-115.5336, 35.04275],
          [-115.52038, 35.05748],
          [-115.5106, 35.06836],
          [-115.49737, 35.08309],
          [-115.5015, 35.10531],
          [-115.49172, 35.11619],
          [-115.47848, 35.13091],
          [-115.46869, 35.14179],
          [-115.45544, 35.1565],
          [-115.45957, 35.17872],
          [-115.44978, 35.1896],
          [-115.43652, 35.20431],
          [-115.42673, 35.21518],
          [-115.41346, 35.22989],
          [-115.40366, 35.24076],
          [-115.39039, 35.25547],
          [-115.39452, 35.27768],
          [-115.3847, 35.28855],
          [-115.37143, 35.30325],
          [-115.36161, 35.31412],
          [-115.34833, 35.32882],
          [-115.33851, 35.33968],
          [-115.32523, 35.35438],
          [-115.32934, 35.37658],
          [-115.31951, 35.38744],
          [-115.30622, 35.40214],
          [-115.31033, 35.42434],
          [-115.3005, 35.4352],
          [-115.28719, 35.44989],
          [-115.2913, 35.47208],
          [-115.29541, 35.49428],
          [-115.28557, 35.50513],
          [-115.27226, 35.51982],
          [-115.27637, 35.54201],
          [-115.28048, 35.5642],
          [-115.27063, 35.57505],
          [-115.25731, 35.58973],
          [-115.26141, 35.61192],
          [-115.25156, 35.62277],
          [-115.23823, 35.63744],
          [-115.24233, 35.65963],
          [-115.23247, 35.67047],
          [-115.21913, 35.68515],
          [-115.22324, 35.70733],
          [-115.21337, 35.71817],
          [-115.20002, 35.73284],
          [-115.20412, 35.75502],
          [-115.20823, 35.77719],
          [-115.21233, 35.79937],
          [-115.20246, 35.8102],
          [-115.1891, 35.82487],
          [-115.1932, 35.84704],
          [-115.18332, 35.85787],
          [-115.16995, 35.87253],
          [-115.16006, 35.88337],
          [-115.14668, 35.89802],
          [-115.13679, 35.90885],
          [-115.12341, 35.9235],
          [-115.11352, 35.93433],
          [-115.10013, 35.94898],
          [-115.10422, 35.97115],
          [-115.09431, 35.98197],
          [-115.06693, 35.98528],
          [-115.05352, 35.99992],
          [-115.04362, 36.01074],
          [-115.03021, 36.02538],
          [-115.03429, 36.04754],
          [-115.02437, 36.05836],
          [-115.01095, 36.07299],
          [-115.00104, 36.08381],
          [-114.97362, 36.0871],
          [-114.96019, 36.10173],
          [-114.95026, 36.11254],
          [-114.92284, 36.11583],
          [-114.89541, 36.1191],
          [-114.86798, 36.12237],
          [-114.84055, 36.12564],
          [-114.81312, 36.12891],
          [-114.78569, 36.13217],
          [-114.75825, 36.13542],
          [-114.73082, 36.13867],
          [-114.70338, 36.14192],
          [-114.67594, 36.14516],
          [-114.6485, 36.14839],
          [-114.63502, 36.16299],
          [-114.62505, 36.17378],
          [-114.5976, 36.17701],
          [-114.57015, 36.18024],
          [-114.55679, 36.17219],
          [-114.53871, 36.16129],
          [-114.52536, 36.15324],
          [-114.50729, 36.14235],
          [-114.49393, 36.13429],
          [-114.48996, 36.11213],
          [-114.48599, 36.08996],
          [-114.48202, 36.06779],
          [-114.47805, 36.04562],
          [-114.46001, 36.03471],
          [-114.44667, 36.02665],
          [-114.44271, 36.00448],
          [-114.43875, 35.9823],
          [-114.42072, 35.97139],
          [-114.40739, 35.96332],
          [-114.38937, 35.9524],
          [-114.37605, 35.94433],
          [-114.35803, 35.93341],
          [-114.34471, 35.92534],
          [-114.3267, 35.91441],
          [-114.31338, 35.90634],
          [-114.29538, 35.89541],
          [-114.28207, 35.88733],
          [-114.26407, 35.8764],
          [-114.23668, 35.87957],
          [-114.20929, 35.88274],
          [-114.1819, 35.8859],
          [-114.15451, 35.88906],
          [-114.12712, 35.89221],
          [-114.09973, 35.89536],
          [-114.08621, 35.90993],
          [-114.07621, 35.9207],
          [-114.04881, 35.92384],
          [-114.0214, 35.92698],
          [-114.00787, 35.94154],
          [-113.99786, 35.9523],
          [-113.97045, 35.95543],
          [-113.94303, 35.95855],
          [-113.92949, 35.9731],
          [-113.91947, 35.98386],
          [-113.89205, 35.98698],
          [-113.86462, 35.99009],
          [-113.85106, 36.00463],
          [-113.84103, 36.01538],
          [-113.8136, 36.01848],
          [-113.78616, 36.02158],
          [-113.75873, 36.02467],
          [-113.74515, 36.03921],
          [-113.73511, 36.04995],
          [-113.70766, 36.05303],
          [-113.69407, 36.06756],
          [-113.68402, 36.0783],
          [-113.65657, 36.08138],
          [-113.64297, 36.0959],
          [-113.63291, 36.10663],
          [-113.60545, 36.1097],
          [-113.57798, 36.11276],
          [-113.55052, 36.11582],
          [-113.52305, 36.11887],
          [-113.49558, 36.12192],
          [-113.48196, 36.13643],
          [-113.47188, 36.14715],
          [-113.4444, 36.15019],
          [-113.41693, 36.15323],
          [-113.38945, 36.15626],
          [-113.3758, 36.17075],
          [-113.36571, 36.18147],
          [-113.35206, 36.19596],
          [-113.34197, 36.20668],
          [-113.32831, 36.22117],
          [-113.31821, 36.23188],
          [-113.29071, 36.23489],
          [-113.27704, 36.24938],
          [-113.26693, 36.26009],
          [-113.25325, 36.27457],
          [-113.24314, 36.28527],
          [-113.21563, 36.28827],
          [-113.20194, 36.30275],
          [-113.19182, 36.31345],
          [-113.1643, 36.31644],
          [-113.13677, 36.31943],
          [-113.12307, 36.3339],
          [-113.11294, 36.34459],
          [-113.0854, 36.34757],
          [-113.05787, 36.35054],
          [-113.03033, 36.35351],
          [-113.00279, 36.35648],
          [-112.97524, 36.35944],
          [-112.9477, 36.36239],
          [-112.93444, 36.35422],
          [-112.91649, 36.34316],
          [-112.88895, 36.34611],
          [-112.86141, 36.34905],
          [-112.83387, 36.35199],
          [-112.80632, 36.35492],
          [-112.77877, 36.35785],
          [-112.75122, 36.36077],
          [-112.73747, 36.37521],
          [-112.7273, 36.38588],
          [-112.69974, 36.38879],
          [-112.67218, 36.3917],
          [-112.64462, 36.39461],
          [-112.61706, 36.39751],
          [-112.5895, 36.40041],
          [-112.57626, 36.39221],
          [-112.55834, 36.38111],
          [-112.53078, 36.384],
          [-112.50322, 36.38688],
          [-112.48999, 36.37868],
          [-112.47209, 36.36757],
          [-112.44453, 36.37045],
          [-112.4313, 36.36224],
          [-112.41341, 36.35112],
          [-112.40018, 36.34291],
          [-112.3823, 36.33179],
          [-112.36908, 36.32357],
          [-112.3512, 36.31245],
          [-112.33799, 36.30423],
          [-112.33444, 36.28203],
          [-112.31658, 36.27091],
          [-112.30337, 36.26268],
          [-112.28551, 36.25155],
          [-112.2723, 36.24333],
          [-112.26878, 36.22112],
          [-112.25093, 36.20999],
          [-112.23773, 36.20175],
          [-112.21989, 36.19062],
          [-112.2067, 36.18238],
          [-112.18886, 36.17124],
          [-112.16134, 36.17407],
          [-112.13382, 36.17689],
          [-112.1063, 36.17971],
          [-112.07878, 36.18253],
          [-112.05126, 36.18534],
          [-112.03808, 36.17709],
          [-112.02026, 36.16593],
          [-112, 36.16799]
        ]
      }
    },
    {
      "type": "Feature",
      "id": "2026092712_f216_13000_001",
      "properties": {
        "product_id": "winter_storm_levels",
        "source_id": "nbm_snow_level",
        "parameter": "snow_level",
        "definition": "height of the wet-bulb 0.5 degree C surface",
        "level_ft_msl": 13000,
        "label": "13,000 ft MSL",
        "unit": "ft_msl",
        "cycle_time_utc": "2026-09-27T12:00:00Z",
        "valid_time_utc": "2026-10-06T12:00:00Z",
        "lead_hours": 216,
        "segment": 1,
        "length_m": 166283.8
      },
      "geometry": {
        "type": "LineString",
        "coordinates": [
          [-113.11998, 30.06044],
          [-113.12094, 30.0666],
          [-113.12444, 30.08914],
          [-113.11711, 30.09745],
          [-113.10188, 30.11472],
          [-113.10539, 30.13726],
          [-113.09805, 30.14557],
          [-113.08282, 30.16283],
          [-113.08631, 30.18537],
          [-113.08982, 30.20792],
          [-113.08248, 30.21623],
          [-113.06723, 30.23348],
          [-113.07073, 30.25602],
          [-113.06338, 30.26433],
          [-113.04813, 30.28158],
          [-113.05162, 30.30412],
          [-113.04427, 30.31243],
          [-113.02901, 30.32968],
          [-113.02166, 30.33798],
          [-113.00638, 30.35523],
          [-112.99903, 30.36353],
          [-112.98375, 30.38078],
          [-112.97639, 30.38908],
          [-112.96111, 30.40632],
          [-112.95374, 30.41462],
          [-112.92761, 30.41762],
          [-112.90148, 30.42061],
          [-112.88617, 30.43785],
          [-112.87881, 30.44614],
          [-112.85266, 30.44913],
          [-112.82652, 30.45211],
          [-112.8112, 30.46934],
          [-112.80383, 30.47763],
          [-112.77767, 30.4806],
          [-112.76805, 30.47425],
          [-112.74808, 30.46104],
          [-112.72193, 30.464],
          [-112.69578, 30.46696],
          [-112.68616, 30.4606],
          [-112.6662, 30.44738],
          [-112.64005, 30.45033],
          [-112.63044, 30.44396],
          [-112.61048, 30.43073],
          [-112.60088, 30.42436],
          [-112.58093, 30.41113],
          [-112.56558, 30.42833],
          [-112.55819, 30.43661],
          [-112.54284, 30.45381],
          [-112.54624, 30.47636],
          [-112.53885, 30.48464],
          [-112.51269, 30.48757],
          [-112.48652, 30.49049],
          [-112.47692, 30.48412],
          [-112.47353, 30.46157],
          [-112.47014, 30.43903],
          [-112.46675, 30.41648],
          [-112.46336, 30.39393],
          [-112.45998, 30.37138],
          [-112.44005, 30.35813],
          [-112.43046, 30.35175],
          [-112.41055, 30.3385],
          [-112.38442, 30.34141],
          [-112.37483, 30.33502],
          [-112.35492, 30.32176],
          [-112.32879, 30.32466],
          [-112.30266, 30.32755],
          [-112.27653, 30.33045],
          [-112.2504, 30.33333],
          [-112.23501, 30.35051],
          [-112.2276, 30.35877],
          [-112.20147, 30.36165],
          [-112.18607, 30.37882],
          [-112.17865, 30.38708],
          [-112.15251, 30.38995],
          [-112.1371, 30.40711],
          [-112.12968, 30.41538],
          [-112.10353, 30.41824],
          [-112.07737, 30.4211],
          [-112.05121, 30.42395],
          [-112.02505, 30.4268],
          [-112, 30.42953]
        ]
      }
    }
  ]
}

