{
  "type": "FeatureCollection",
  "contract_version": "1.0.0",
  "bbox": [-130, 30.00959, -112, 44.5],
  "features": [
    {
      "type": "Feature",
      "id": "2026092712_f192_09000_001",
      "properties": {
        "product_id": "winter_storm_levels",
        "source_id": "nbm_snow_level",
        "parameter": "snow_level",
        "definition": "height of the wet-bulb 0.5 degree C surface",
        "level_ft_msl": 9000,
        "label": "9,000 ft MSL",
        "unit": "ft_msl",
        "cycle_time_utc": "2026-09-27T12:00:00Z",
        "valid_time_utc": "2026-10-05T12:00:00Z",
        "lead_hours": 192,
        "segment": 1,
        "length_m": 770397
      },
      "geometry": {
        "type": "LineString",
        "coordinates": [
          [-130, 42.01766],
          [-129.99624, 42.02246],
          [-129.99415, 42.02512],
          [-129.97536, 42.04908],
          [-129.97328, 42.05175],
          [-129.95448, 42.0757],
          [-129.95239, 42.07836],
          [-129.93358, 42.10231],
          [-129.93149, 42.10497],
          [-129.91267, 42.12891],
          [-129.91058, 42.13157],
          [-129.88219, 42.13712],
          [-129.86336, 42.16105],
          [-129.86126, 42.16371],
          [-129.83286, 42.16924],
          [-129.81401, 42.19317],
          [-129.81191, 42.19582],
          [-129.79305, 42.21974],
          [-129.79095, 42.2224],
          [-129.77208, 42.24631],
          [-129.76998, 42.24897],
          [-129.7511, 42.27287],
          [-129.749, 42.27553],
          [-129.72056, 42.28104],
          [-129.70166, 42.30494],
          [-129.69956, 42.30759],
          [-129.68065, 42.33148],
          [-129.67854, 42.33414],
          [-129.65008, 42.33964],
          [-129.63115, 42.36352],
          [-129.62905, 42.36617],
          [-129.60058, 42.37166],
          [-129.58163, 42.39553],
          [-129.57952, 42.39819],
          [-129.55104, 42.40367],
          [-129.53207, 42.42753],
          [-129.52997, 42.43018],
          [-129.51099, 42.45404],
          [-129.50888, 42.45669],
          [-129.48038, 42.46216],
          [-129.46138, 42.486],
          [-129.45927, 42.48865],
          [-129.43076, 42.49411],
          [-129.41175, 42.51795],
          [-129.40963, 42.5206],
          [-129.3811, 42.52605],
          [-129.36207, 42.54988],
          [-129.35996, 42.55252],
          [-129.33142, 42.55797],
          [-129.30287, 42.5634],
          [-129.28382, 42.58722],
          [-129.2817, 42.58986],
          [-129.26264, 42.61367],
          [-129.26052, 42.61632],
          [-129.23195, 42.62174],
          [-129.21287, 42.64554],
          [-129.21075, 42.64818],
          [-129.18217, 42.6536],
          [-129.16307, 42.67739],
          [-129.16095, 42.68003],
          [-129.13236, 42.68544],
          [-129.11324, 42.70922],
          [-129.11112, 42.71186],
          [-129.08252, 42.71726],
          [-129.05391, 42.72265],
          [-129.02531, 42.72804],
          [-129.00615, 42.7518],
          [-129.00403, 42.75444],
          [-128.98486, 42.7782],
          [-128.98273, 42.78084],
          [-128.96356, 42.80458],
          [-128.96143, 42.80722],
          [-128.94225, 42.83096],
          [-128.94958, 42.85197],
          [-128.94744, 42.85461],
          [-128.92825, 42.87834],
          [-128.92612, 42.88098],
          [-128.89746, 42.88634],
          [-128.87824, 42.91007],
          [-128.87611, 42.9127],
          [-128.85689, 42.93642],
          [-128.85475, 42.93906],
          [-128.82607, 42.94441],
          [-128.79739, 42.94976],
          [-128.77814, 42.97346],
          [-128.776, 42.97609],
          [-128.75674, 42.99979],
          [-128.7546, 43.00243],
          [-128.73533, 43.02612],
          [-128.73319, 43.02875],
          [-128.71391, 43.05244],
          [-128.71177, 43.05507],
          [-128.68304, 43.06039],
          [-128.66375, 43.08407],
          [-128.6616, 43.0867],
          [-128.64229, 43.11037],
          [-128.64015, 43.113],
          [-128.62083, 43.13667],
          [-128.62811, 43.15764],
          [-128.62596, 43.16027],
          [-128.60663, 43.18393],
          [-128.60448, 43.18656],
          [-128.57572, 43.19186],
          [-128.55637, 43.21551],
          [-128.55422, 43.21813],
          [-128.53486, 43.24177],
          [-128.53271, 43.2444],
          [-128.51334, 43.26803],
          [-128.51119, 43.27066],
          [-128.50758, 43.26909],
          [-128.47513, 43.25498],
          [-128.47153, 43.25341],
          [-128.46427, 43.23244],
          [-128.46643, 43.22982],
          [-128.4858, 43.20618],
          [-128.47855, 43.1852],
          [-128.47129, 43.16423],
          [-128.47345, 43.1616],
          [-128.4928, 43.13795],
          [-128.48555, 43.11697],
          [-128.47831, 43.09598],
          [-128.48046, 43.09335],
          [-128.4998, 43.0697],
          [-128.49255, 43.0487],
          [-128.48531, 43.0277],
          [-128.48746, 43.02508],
          [-128.50678, 43.00141],
          [-128.49954, 42.98041],
          [-128.4923, 42.9594],
          [-128.49445, 42.95677],
          [-128.51376, 42.93309],
          [-128.50652, 42.91208],
          [-128.49928, 42.89107],
          [-128.49205, 42.87005],
          [-128.49419, 42.86742],
          [-128.51349, 42.84373],
          [-128.50625, 42.82271],
          [-128.49902, 42.80168],
          [-128.50117, 42.79905],
          [-128.52045, 42.77535],
          [-128.51322, 42.75432],
          [-128.50599, 42.73328],
          [-128.49877, 42.71224],
          [-128.49155, 42.6912],
          [-128.49369, 42.68857],
          [-128.51295, 42.66485],
          [-128.50573, 42.64381],
          [-128.49851, 42.62276],
          [-128.4913, 42.60171],
          [-128.48408, 42.58065],
          [-128.47688, 42.5596],
          [-128.46967, 42.53854],
          [-128.46247, 42.51747],
          [-128.46461, 42.51484],
          [-128.48384, 42.4911],
          [-128.47664, 42.47003],
          [-128.46944, 42.44896],
          [-128.46224, 42.42788],
          [-128.45505, 42.40681],
          [-128.44786, 42.38573],
          [-128.44068, 42.36464],
          [-128.43349, 42.34356],
          [-128.42631, 42.32247],
          [-128.42845, 42.31983],
          [-128.44765, 42.29607],
          [-128.44047, 42.27497],
          [-128.43329, 42.25387],
          [-128.42612, 42.23277],
          [-128.41895, 42.21167],
          [-128.41178, 42.19056],
          [-128.40462, 42.16946],
          [-128.39745, 42.14834],
          [-128.3903, 42.12723],
          [-128.38314, 42.10611],
          [-128.37599, 42.08499],
          [-128.34394, 42.07075],
          [-128.34038, 42.06917],
          [-128.33324, 42.04805],
          [-128.30121, 42.0338],
          [-128.29765, 42.03221],
          [-128.29052, 42.01108],
          [-128.28339, 41.98995],
          [-128.25139, 41.97569],
          [-128.24784, 41.9741],
          [-128.24072, 41.95296],
          [-128.20874, 41.93869],
          [-128.20518, 41.9371],
          [-128.17321, 41.92282],
          [-128.14478, 41.9281],
          [-128.11635, 41.93338],
          [-128.08792, 41.93865],
          [-128.05948, 41.94391],
          [-128.05593, 41.94232],
          [-128.02398, 41.92802],
          [-127.99554, 41.93327],
          [-127.99199, 41.93168],
          [-127.96005, 41.91737],
          [-127.93161, 41.92261],
          [-127.92806, 41.92102],
          [-127.89613, 41.90669],
          [-127.8677, 41.91193],
          [-127.83926, 41.91716],
          [-127.81081, 41.92238],
          [-127.78237, 41.92761],
          [-127.75392, 41.93282],
          [-127.72547, 41.93804],
          [-127.69701, 41.94325],
          [-127.66856, 41.94845],
          [-127.6401, 41.95365],
          [-127.62077, 41.97737],
          [-127.61862, 41.98001],
          [-127.59928, 42.00373],
          [-127.59713, 42.00636],
          [-127.56865, 42.01155],
          [-127.54929, 42.03526],
          [-127.54714, 42.03789],
          [-127.51864, 42.04307],
          [-127.49927, 42.06677],
          [-127.49711, 42.0694],
          [-127.47773, 42.09309],
          [-127.47557, 42.09573],
          [-127.44706, 42.10089],
          [-127.42766, 42.12457],
          [-127.4255, 42.1272],
          [-127.40608, 42.15088],
          [-127.40393, 42.15351],
          [-127.3845, 42.17718],
          [-127.38234, 42.17981],
          [-127.36291, 42.20348],
          [-127.36075, 42.20611],
          [-127.3413, 42.22977],
          [-127.33914, 42.2324],
          [-127.31968, 42.25605],
          [-127.31752, 42.25868],
          [-127.29806, 42.28233],
          [-127.29589, 42.28495],
          [-127.27642, 42.3086],
          [-127.28335, 42.32973],
          [-127.28119, 42.33236],
          [-127.2617, 42.35599],
          [-127.25954, 42.35862],
          [-127.23094, 42.36374],
          [-127.21143, 42.38736],
          [-127.20926, 42.38999],
          [-127.18975, 42.41361],
          [-127.18758, 42.41623],
          [-127.16805, 42.43984],
          [-127.16588, 42.44247],
          [-127.14634, 42.46607],
          [-127.15326, 42.48719],
          [-127.15109, 42.48981],
          [-127.13154, 42.51341],
          [-127.12937, 42.51603],
          [-127.10981, 42.53963],
          [-127.10763, 42.54225],
          [-127.08806, 42.56583],
          [-127.08589, 42.56845],
          [-127.06631, 42.59203],
          [-127.07322, 42.61314],
          [-127.07104, 42.61576],
          [-127.05145, 42.63933],
          [-127.05836, 42.66043],
          [-127.05619, 42.66305],
          [-127.03658, 42.68661],
          [-127.04349, 42.70771],
          [-127.04131, 42.71033],
          [-127.02169, 42.73388],
          [-127.02861, 42.75497],
          [-127.02643, 42.75759],
          [-127.00679, 42.78114],
          [-127.01371, 42.80222],
          [-127.02062, 42.8233],
          [-127.02754, 42.84438],
          [-127.02536, 42.847],
          [-127.00571, 42.87053],
          [-127.01263, 42.8916],
          [-127.01955, 42.91268],
          [-127.02647, 42.93374],
          [-127.0334, 42.95481],
          [-127.03122, 42.95742],
          [-127.01155, 42.98094],
          [-127.01848, 43.002],
          [-127.02541, 43.02306],
          [-127.02322, 43.02567],
          [-127.00353, 43.04917],
          [-127.01046, 43.07023],
          [-127.00828, 43.07284],
          [-126.98858, 43.09634],
          [-126.99551, 43.11738],
          [-126.99332, 43.11999],
          [-126.97361, 43.14348],
          [-126.98054, 43.16452],
          [-126.97835, 43.16713],
          [-126.95862, 43.19061],
          [-126.96555, 43.21164],
          [-126.96336, 43.21425],
          [-126.94362, 43.23773],
          [-126.94143, 43.24033],
          [-126.92168, 43.2638],
          [-126.91949, 43.26641],
          [-126.89973, 43.28987],
          [-126.89753, 43.29248],
          [-126.87776, 43.31593],
          [-126.87557, 43.31854],
          [-126.85579, 43.34198],
          [-126.85359, 43.34459],
          [-126.8338, 43.36803],
          [-126.8316, 43.37064],
          [-126.8118, 43.39407],
          [-126.8096, 43.39668],
          [-126.78979, 43.42011],
          [-126.78759, 43.42271],
          [-126.76776, 43.44613],
          [-126.77467, 43.46714],
          [-126.77247, 43.46974],
          [-126.75264, 43.49316],
          [-126.75954, 43.51416],
          [-126.75734, 43.51676],
          [-126.73749, 43.54017],
          [-126.7444, 43.56116],
          [-126.74219, 43.56376],
          [-126.72233, 43.58716],
          [-126.72924, 43.60815],
          [-126.73615, 43.62913],
          [-126.74307, 43.65012],
          [-126.74999, 43.6711],
          [-126.78232, 43.68547],
          [-126.78592, 43.68707],
          [-126.79285, 43.70804],
          [-126.79978, 43.72901],
          [-126.79757, 43.73161],
          [-126.77769, 43.75499],
          [-126.78462, 43.77595],
          [-126.79156, 43.79691],
          [-126.7985, 43.81787],
          [-126.79628, 43.82047],
          [-126.77638, 43.84383],
          [-126.78332, 43.86479],
          [-126.78111, 43.86738],
          [-126.7612, 43.89074],
          [-126.75899, 43.89333],
          [-126.73906, 43.91668],
          [-126.73685, 43.91928],
          [-126.71691, 43.94262],
          [-126.72385, 43.96356],
          [-126.73078, 43.9845],
          [-126.73772, 44.00543],
          [-126.7355, 44.00803],
          [-126.71555, 44.03135],
          [-126.71333, 44.03395],
          [-126.69337, 44.05727],
          [-126.69115, 44.05986],
          [-126.67118, 44.08318],
          [-126.66896, 44.08577],
          [-126.63983, 44.09074],
          [-126.61983, 44.11405],
          [-126.61761, 44.11664],
          [-126.59761, 44.13994],
          [-126.59539, 44.14253],
          [-126.56623, 44.14749],
          [-126.54621, 44.17078],
          [-126.54399, 44.17337],
          [-126.52395, 44.19665],
          [-126.52173, 44.19924],
          [-126.50168, 44.22252],
          [-126.49946, 44.2251],
          [-126.4794, 44.24837],
          [-126.47717, 44.25096],
          [-126.44798, 44.2559],
          [-126.42791, 44.27916],
          [-126.42568, 44.28174],
          [-126.39647, 44.28668],
          [-126.37638, 44.30993],
          [-126.37415, 44.31251],
          [-126.34493, 44.31743],
          [-126.31572, 44.32235],
          [-126.31211, 44.32075],
          [-126.27963, 44.30636],
          [-126.27602, 44.30476],
          [-126.24356, 44.29036],
          [-126.21434, 44.29526],
          [-126.1942, 44.31849],
          [-126.19197, 44.32107],
          [-126.16274, 44.32597],
          [-126.14258, 44.34919],
          [-126.14034, 44.35177],
          [-126.12018, 44.37498],
          [-126.11794, 44.37756],
          [-126.09776, 44.40076],
          [-126.09552, 44.40334],
          [-126.07533, 44.42654],
          [-126.07309, 44.42912],
          [-126.05289, 44.45231],
          [-126.05064, 44.45489],
          [-126.03043, 44.47808],
          [-126.02819, 44.48065],
          [-125.9989, 44.48552],
          [-125.98626, 44.5]
        ]
      }
    },
    {
      "type": "Feature",
      "id": "2026092712_f192_10000_001",
      "properties": {
        "product_id": "winter_storm_levels",
        "source_id": "nbm_snow_level",
        "parameter": "snow_level",
        "definition": "height of the wet-bulb 0.5 degree C surface",
        "level_ft_msl": 10000,
        "label": "10,000 ft MSL",
        "unit": "ft_msl",
        "cycle_time_utc": "2026-09-27T12:00:00Z",
        "valid_time_utc": "2026-10-05T12:00:00Z",
        "lead_hours": 192,
        "segment": 1,
        "length_m": 71088
      },
      "geometry": {
        "type": "LineString",
        "coordinates": [
          [-112.47997, 43.94],
          [-112.47613, 43.91865],
          [-112.47229, 43.89729],
          [-112.49808, 43.87316],
          [-112.52386, 43.84903],
          [-112.54962, 43.82489],
          [-112.54577, 43.80352],
          [-112.51231, 43.78493],
          [-112.48271, 43.7877],
          [-112.44927, 43.7691],
          [-112.41585, 43.75048],
          [-112.38243, 43.73186],
          [-112.37862, 43.71048],
          [-112.34904, 43.71323],
          [-112.31565, 43.69459],
          [-112.28607, 43.69734],
          [-112.2527, 43.67869],
          [-112.21934, 43.66003],
          [-112.186, 43.64136],
          [-112.15643, 43.64409],
          [-112.12685, 43.64681],
          [-112.09728, 43.64952],
          [-112.06771, 43.65223],
          [-112.03813, 43.65494],
          [-112.01228, 43.67904],
          [-112, 43.69048]
        ]
      }
    },
    {
      "type": "Feature",
      "id": "2026092712_f192_10000_002",
      "properties": {
        "product_id": "winter_storm_levels",
        "source_id": "nbm_snow_level",
        "parameter": "snow_level",
        "definition": "height of the wet-bulb 0.5 degree C surface",
        "level_ft_msl": 10000,
        "label": "10,000 ft MSL",
        "unit": "ft_msl",
        "cycle_time_utc": "2026-09-27T12:00:00Z",
        "valid_time_utc": "2026-10-05T12:00:00Z",
        "lead_hours": 192,
        "segment": 2,
        "length_m": 63259.4
      },
      "geometry": {
        "type": "LineString",
        "coordinates": [
          [-112.47997, 43.94],
          [-112.48382, 43.96135],
          [-112.48767, 43.9827],
          [-112.49151, 44.00404],
          [-112.46569, 44.02815],
          [-112.46953, 44.04948],
          [-112.44369, 44.07358],
          [-112.41399, 44.07634],
          [-112.3843, 44.07909],
          [-112.3546, 44.08184],
          [-112.32109, 44.06325],
          [-112.31727, 44.04191],
          [-112.31346, 44.02057],
          [-112.30965, 43.99922],
          [-112.30584, 43.97788],
          [-112.27237, 43.95926],
          [-112.24271, 43.962],
          [-112.20926, 43.94337],
          [-112.1796, 43.94609],
          [-112.14616, 43.92745],
          [-112.1165, 43.93017],
          [-112.08685, 43.93288],
          [-112.05718, 43.93558],
          [-112.02752, 43.93828],
          [-112, 43.94078]
        ]
      }
    },
    {
      "type": "Feature",
      "id": "2026092712_f192_10000_003",
      "properties": {
        "product_id": "winter_storm_levels",
        "source_id": "nbm_snow_level",
        "parameter": "snow_level",
        "definition": "height of the wet-bulb 0.5 degree C surface",
        "level_ft_msl": 10000,
        "label": "10,000 ft MSL",
        "unit": "ft_msl",
        "cycle_time_utc": "2026-09-27T12:00:00Z",
        "valid_time_utc": "2026-10-05T12:00:00Z",
        "lead_hours": 192,
        "segment": 3,
        "length_m": 1037603.9
      },
      "geometry": {
        "type": "LineString",
        "coordinates": [
          [-125.22698, 36.44273],
          [-125.26025, 36.4596],
          [-125.26641, 36.48141],
          [-125.2997, 36.49827],
          [-125.30587, 36.52008],
          [-125.2849, 36.54684],
          [-125.29107, 36.56864],
          [-125.27008, 36.5954],
          [-125.24909, 36.62215],
          [-125.25525, 36.64395],
          [-125.26142, 36.66575],
          [-125.24041, 36.69249],
          [-125.24657, 36.71428],
          [-125.25274, 36.73608],
          [-125.23172, 36.76281],
          [-125.23789, 36.7846],
          [-125.21685, 36.81132],
          [-125.22301, 36.83311],
          [-125.22919, 36.85489],
          [-125.20813, 36.88161],
          [-125.18707, 36.90833],
          [-125.16599, 36.93503],
          [-125.1449, 36.96174],
          [-125.15107, 36.98351],
          [-125.15723, 37.00528],
          [-125.1634, 37.02706],
          [-125.16957, 37.04882],
          [-125.17574, 37.07059],
          [-125.18192, 37.09236],
          [-125.1881, 37.11412],
          [-125.22157, 37.13095],
          [-125.22776, 37.15271],
          [-125.20664, 37.17939],
          [-125.21283, 37.20115],
          [-125.1917, 37.22783],
          [-125.17057, 37.2545],
          [-125.17675, 37.27625],
          [-125.1556, 37.30292],
          [-125.16179, 37.32467],
          [-125.14062, 37.35133],
          [-125.11945, 37.37798],
          [-125.09826, 37.40463],
          [-125.07707, 37.43128],
          [-125.08325, 37.45301],
          [-125.06204, 37.47965],
          [-125.04082, 37.50628],
          [-125.01959, 37.53291],
          [-124.99835, 37.55953],
          [-124.9771, 37.58614],
          [-124.95584, 37.61275],
          [-124.962, 37.63448],
          [-124.94073, 37.66108],
          [-124.91944, 37.68768],
          [-124.9256, 37.7094],
          [-124.9043, 37.73599],
          [-124.88299, 37.76257],
          [-124.86167, 37.78915],
          [-124.84034, 37.81572],
          [-124.84649, 37.83743],
          [-124.82515, 37.864],
          [-124.8038, 37.89055],
          [-124.78243, 37.91711],
          [-124.76106, 37.94366],
          [-124.73967, 37.9702],
          [-124.74581, 37.9919],
          [-124.72441, 38.01844],
          [-124.73055, 38.04013],
          [-124.70914, 38.06666],
          [-124.71528, 38.08835],
          [-124.72142, 38.11004],
          [-124.69999, 38.13656],
          [-124.70613, 38.15825],
          [-124.71227, 38.17993],
          [-124.69083, 38.20644],
          [-124.69697, 38.22812],
          [-124.67551, 38.25462],
          [-124.68165, 38.2763],
          [-124.6878, 38.29797],
          [-124.66632, 38.32446],
          [-124.67247, 38.34613],
          [-124.67861, 38.3678],
          [-124.68476, 38.38947],
          [-124.69091, 38.41113],
          [-124.66942, 38.43761],
          [-124.67557, 38.45927],
          [-124.68172, 38.48092],
          [-124.68788, 38.50258],
          [-124.69404, 38.52423],
          [-124.67252, 38.5507],
          [-124.67868, 38.57235],
          [-124.68484, 38.59399],
          [-124.691, 38.61563],
          [-124.69717, 38.63727],
          [-124.67562, 38.66373],
          [-124.68179, 38.68536],
          [-124.68796, 38.707],
          [-124.69413, 38.72863],
          [-124.7003, 38.75026],
          [-124.70648, 38.77189],
          [-124.68491, 38.79833],
          [-124.69109, 38.81995],
          [-124.69727, 38.84157],
          [-124.67568, 38.868],
          [-124.68186, 38.88962],
          [-124.66026, 38.91604],
          [-124.66644, 38.93765],
          [-124.64483, 38.96406],
          [-124.62321, 38.99047],
          [-124.60158, 39.01687],
          [-124.57993, 39.04327],
          [-124.55828, 39.06966],
          [-124.53662, 39.09604],
          [-124.51494, 39.12242],
          [-124.49325, 39.1488],
          [-124.46541, 39.15357],
          [-124.47156, 39.17516],
          [-124.44985, 39.20152],
          [-124.42813, 39.22788],
          [-124.43428, 39.24947],
          [-124.41254, 39.27581],
          [-124.41869, 39.2974],
          [-124.39694, 39.32374],
          [-124.37519, 39.35007],
          [-124.35342, 39.37639],
          [-124.35956, 39.39797],
          [-124.33778, 39.42429],
          [-124.34392, 39.44586],
          [-124.35006, 39.46743],
          [-124.35621, 39.489],
          [-124.33441, 39.5153],
          [-124.34055, 39.53687],
          [-124.3467, 39.55843],
          [-124.32488, 39.58472],
          [-124.33103, 39.60628],
          [-124.33718, 39.62783],
          [-124.34333, 39.64938],
          [-124.32149, 39.67567],
          [-124.32764, 39.69721],
          [-124.3338, 39.71876],
          [-124.33996, 39.7403],
          [-124.34612, 39.76184],
          [-124.35228, 39.78337],
          [-124.35844, 39.80491],
          [-124.36461, 39.82644],
          [-124.34274, 39.8527],
          [-124.34891, 39.87423],
          [-124.35508, 39.89575],
          [-124.36125, 39.91727],
          [-124.36742, 39.93879],
          [-124.3736, 39.96031],
          [-124.37978, 39.98182],
          [-124.38596, 40.00334],
          [-124.39215, 40.02484],
          [-124.39834, 40.04635],
          [-124.40453, 40.06785],
          [-124.41072, 40.08936],
          [-124.41691, 40.11085],
          [-124.42311, 40.13235],
          [-124.42931, 40.15384],
          [-124.43552, 40.17534],
          [-124.44172, 40.19682],
          [-124.44793, 40.21831],
          [-124.45414, 40.23979],
          [-124.46035, 40.26127],
          [-124.46657, 40.28275],
          [-124.47279, 40.30423],
          [-124.47901, 40.3257],
          [-124.48523, 40.34717],
          [-124.49146, 40.36864],
          [-124.49769, 40.3901],
          [-124.50392, 40.41157],
          [-124.51015, 40.43303],
          [-124.51639, 40.45448],
          [-124.52263, 40.47594],
          [-124.52887, 40.49739],
          [-124.53512, 40.51884],
          [-124.54136, 40.54029],
          [-124.54761, 40.56173],
          [-124.52563, 40.58792],
          [-124.53188, 40.60936],
          [-124.53813, 40.6308],
          [-124.54439, 40.65223],
          [-124.52239, 40.67841],
          [-124.52864, 40.69984],
          [-124.50663, 40.726],
          [-124.51288, 40.74743],
          [-124.49085, 40.77359],
          [-124.4971, 40.79501],
          [-124.50336, 40.81643],
          [-124.48131, 40.84257],
          [-124.45926, 40.86871],
          [-124.43719, 40.89485],
          [-124.41511, 40.92098],
          [-124.38678, 40.9257],
          [-124.35844, 40.93041],
          [-124.33634, 40.95652],
          [-124.30799, 40.96123],
          [-124.31422, 40.98263],
          [-124.29209, 41.00873],
          [-124.26995, 41.03483],
          [-124.24779, 41.06092],
          [-124.22563, 41.087],
          [-124.20345, 41.11307],
          [-124.18127, 41.13914],
          [-124.18748, 41.16053],
          [-124.19369, 41.18192],
          [-124.17149, 41.20798],
          [-124.1777, 41.22936],
          [-124.18392, 41.25073],
          [-124.19013, 41.27211],
          [-124.16791, 41.29815],
          [-124.14567, 41.32419],
          [-124.12343, 41.35022],
          [-124.12964, 41.37159],
          [-124.10738, 41.39761],
          [-124.11359, 41.41897],
          [-124.09131, 41.44499],
          [-124.06902, 41.471],
          [-124.07523, 41.49235],
          [-124.05293, 41.51835],
          [-124.05913, 41.5397],
          [-124.06534, 41.56104],
          [-124.07156, 41.58238],
          [-124.04923, 41.60837],
          [-124.05545, 41.62971],
          [-124.03311, 41.65568],
          [-124.03932, 41.67702],
          [-124.01697, 41.70298],
          [-124.02318, 41.72431],
          [-124.00081, 41.75027],
          [-124.00702, 41.77159],
          [-123.98464, 41.79754],
          [-123.99085, 41.81886],
          [-123.99706, 41.84017],
          [-123.97466, 41.86611],
          [-123.98087, 41.88742],
          [-123.95846, 41.91335],
          [-123.96467, 41.93465],
          [-123.97089, 41.95595],
          [-123.94845, 41.98187],
          [-123.95467, 42.00316],
          [-123.93222, 42.02907],
          [-123.93843, 42.05036],
          [-123.91597, 42.07626],
          [-123.92219, 42.09755],
          [-123.89971, 42.12344],
          [-123.90592, 42.14472],
          [-123.91214, 42.16599],
          [-123.88964, 42.19187],
          [-123.89586, 42.21314],
          [-123.90207, 42.23441],
          [-123.90829, 42.25568],
          [-123.88578, 42.28154],
          [-123.892, 42.3028],
          [-123.89822, 42.32406],
          [-123.87569, 42.34991],
          [-123.88191, 42.37117],
          [-123.88813, 42.39241],
          [-123.89436, 42.41366],
          [-123.90058, 42.4349],
          [-123.90682, 42.45614],
          [-123.88426, 42.48198],
          [-123.89049, 42.50321],
          [-123.89672, 42.52444],
          [-123.90296, 42.54567],
          [-123.90919, 42.5669],
          [-123.88661, 42.59272],
          [-123.89285, 42.61394],
          [-123.87025, 42.63974],
          [-123.87649, 42.66096],
          [-123.85387, 42.68676],
          [-123.83125, 42.71255],
          [-123.83748, 42.73376],
          [-123.81484, 42.75954],
          [-123.79219, 42.78531],
          [-123.76952, 42.81108],
          [-123.77575, 42.83228],
          [-123.75307, 42.85804],
          [-123.73038, 42.88379],
          [-123.7366, 42.90498],
          [-123.7139, 42.93072],
          [-123.69118, 42.95646],
          [-123.66845, 42.98219],
          [-123.67466, 43.00336],
          [-123.65192, 43.02908],
          [-123.62916, 43.0548],
          [-123.63538, 43.07597],
          [-123.6126, 43.10167],
          [-123.58982, 43.12737],
          [-123.56703, 43.15305],
          [-123.54422, 43.17874],
          [-123.5214, 43.20441],
          [-123.49857, 43.23008],
          [-123.47573, 43.25574],
          [-123.44668, 43.26025],
          [-123.45287, 43.2814],
          [-123.43, 43.30704],
          [-123.40713, 43.33269],
          [-123.38424, 43.35832],
          [-123.36133, 43.38395],
          [-123.33842, 43.40957],
          [-123.31549, 43.43518],
          [-123.29256, 43.46078],
          [-123.26345, 43.46526],
          [-123.24049, 43.49085],
          [-123.21752, 43.51644],
          [-123.19454, 43.54202],
          [-123.17154, 43.56759],
          [-123.14853, 43.59316],
          [-123.15468, 43.61427],
          [-123.13166, 43.63983],
          [-123.10862, 43.66538],
          [-123.08558, 43.69092],
          [-123.06252, 43.71646],
          [-123.03332, 43.72089],
          [-123.03945, 43.74199],
          [-123.01637, 43.76751],
          [-122.99327, 43.79302],
          [-122.97017, 43.81853],
          [-122.94094, 43.82294],
          [-122.91781, 43.84844],
          [-122.89467, 43.87392],
          [-122.86542, 43.87832],
          [-122.84226, 43.9038],
          [-122.81909, 43.92927],
          [-122.78982, 43.93365],
          [-122.76663, 43.95911],
          [-122.74343, 43.98456],
          [-122.72021, 44.01001],
          [-122.69698, 44.03545],
          [-122.67374, 44.06088],
          [-122.65049, 44.0863],
          [-122.62116, 44.09065],
          [-122.59789, 44.11607],
          [-122.5746, 44.14147],
          [-122.54526, 44.14581],
          [-122.52195, 44.1712],
          [-122.49863, 44.19659],
          [-122.4753, 44.22197],
          [-122.45196, 44.24734],
          [-122.42258, 44.25166],
          [-122.39921, 44.27702],
          [-122.37584, 44.30237],
          [-122.35245, 44.32772],
          [-122.32905, 44.35305],
          [-122.29963, 44.35735],
          [-122.2762, 44.38268],
          [-122.25277, 44.408],
          [-122.22932, 44.43331],
          [-122.19988, 44.43759],
          [-122.17641, 44.46289],
          [-122.15293, 44.48818],
          [-122.12346, 44.49245],
          [-122.11644, 44.5]
        ]
      }
    },
    {
      "type": "Feature",
      "id": "2026092712_f192_10000_004",
      "properties": {
        "product_id": "winter_storm_levels",
        "source_id": "nbm_snow_level",
        "parameter": "snow_level",
        "definition": "height of the wet-bulb 0.5 degree C surface",
        "level_ft_msl": 10000,
        "label": "10,000 ft MSL",
        "unit": "ft_msl",
        "cycle_time_utc": "2026-09-27T12:00:00Z",
        "valid_time_utc": "2026-10-05T12:00:00Z",
        "lead_hours": 192,
        "segment": 4,
        "length_m": 946049.1
      },
      "geometry": {
        "type": "LineString",
        "coordinates": [
          [-129.83014, 32.07933],
          [-129.81106, 32.10701],
          [-129.78519, 32.11276],
          [-129.7661, 32.14043],
          [-129.74021, 32.14617],
          [-129.71432, 32.15191],
          [-129.68843, 32.15765],
          [-129.66254, 32.16338],
          [-129.64341, 32.19103],
          [-129.62427, 32.21867],
          [-129.60512, 32.24632],
          [-129.58596, 32.27395],
          [-129.56679, 32.30159],
          [-129.54761, 32.32921],
          [-129.52843, 32.35684],
          [-129.50923, 32.38446],
          [-129.49003, 32.41208],
          [-129.46407, 32.41777],
          [-129.44484, 32.44538],
          [-129.42561, 32.47299],
          [-129.40637, 32.50059],
          [-129.41312, 32.5225],
          [-129.39386, 32.5501],
          [-129.3746, 32.57769],
          [-129.35533, 32.60528],
          [-129.33606, 32.63286],
          [-129.31677, 32.66044],
          [-129.29074, 32.66611],
          [-129.27144, 32.69368],
          [-129.25212, 32.72125],
          [-129.22608, 32.7269],
          [-129.20675, 32.75446],
          [-129.18741, 32.78202],
          [-129.16806, 32.80957],
          [-129.1487, 32.83711],
          [-129.12262, 32.84275],
          [-129.10325, 32.87029],
          [-129.08386, 32.89783],
          [-129.06447, 32.92536],
          [-129.03837, 32.93098],
          [-129.01896, 32.9585],
          [-128.99285, 32.96411],
          [-128.96674, 32.96972],
          [-128.9473, 32.99723],
          [-128.92118, 33.00284],
          [-128.90173, 33.03034],
          [-128.88227, 33.05784],
          [-128.8628, 33.08534],
          [-128.83665, 33.09092],
          [-128.81717, 33.11841],
          [-128.79101, 33.12399],
          [-128.77151, 33.15147],
          [-128.75199, 33.17894],
          [-128.75865, 33.20085],
          [-128.73912, 33.22832],
          [-128.71959, 33.25579],
          [-128.6934, 33.26135],
          [-128.6672, 33.2669],
          [-128.64764, 33.29436],
          [-128.62144, 33.29991],
          [-128.60186, 33.32735],
          [-128.58228, 33.3548],
          [-128.56268, 33.38223],
          [-128.53645, 33.38777],
          [-128.51022, 33.3933],
          [-128.4906, 33.42072],
          [-128.47098, 33.44814],
          [-128.45134, 33.47556],
          [-128.42508, 33.48108],
          [-128.39882, 33.48659],
          [-128.37916, 33.51399],
          [-128.35289, 33.51949],
          [-128.33321, 33.54689],
          [-128.33981, 33.56879],
          [-128.32012, 33.59619],
          [-128.32672, 33.61808],
          [-128.30701, 33.64547],
          [-128.31361, 33.66737],
          [-128.32021, 33.68926],
          [-128.30049, 33.71664],
          [-128.28077, 33.74402],
          [-128.26103, 33.77139],
          [-128.26763, 33.79328],
          [-128.24788, 33.82065],
          [-128.25447, 33.84253],
          [-128.28743, 33.85894],
          [-128.29403, 33.88082],
          [-128.30064, 33.9027],
          [-128.30725, 33.92458],
          [-128.31386, 33.94646],
          [-128.32048, 33.96833],
          [-128.30071, 33.99569],
          [-128.27433, 34.00118],
          [-128.24794, 34.00665],
          [-128.22155, 34.01213],
          [-128.19515, 34.01759],
          [-128.20175, 34.03947],
          [-128.23475, 34.05588],
          [-128.26115, 34.0504],
          [-128.28094, 34.02305],
          [-128.30733, 34.01757],
          [-128.32709, 33.99021],
          [-128.3601, 34.00659],
          [-128.38648, 34.00109],
          [-128.4195, 34.01746],
          [-128.45252, 34.03383],
          [-128.48556, 34.05018],
          [-128.51861, 34.06653],
          [-128.52527, 34.08839],
          [-128.50553, 34.11576],
          [-128.51219, 34.13762],
          [-128.51886, 34.15948],
          [-128.52553, 34.18133],
          [-128.50577, 34.2087],
          [-128.48601, 34.23606],
          [-128.49268, 34.25791],
          [-128.4729, 34.28527],
          [-128.47957, 34.30712],
          [-128.45979, 34.33447],
          [-128.46645, 34.35632],
          [-128.44665, 34.38366],
          [-128.42685, 34.41101],
          [-128.40703, 34.43834],
          [-128.3872, 34.46568],
          [-128.36737, 34.493],
          [-128.34752, 34.52033],
          [-128.32101, 34.52581],
          [-128.30115, 34.55312],
          [-128.27463, 34.5586],
          [-128.24811, 34.56406],
          [-128.22159, 34.56953],
          [-128.19507, 34.57499],
          [-128.17517, 34.60228],
          [-128.14863, 34.60773],
          [-128.12871, 34.63502],
          [-128.10217, 34.64046],
          [-128.07562, 34.6459],
          [-128.04907, 34.65134],
          [-128.01592, 34.63493],
          [-127.98937, 34.64035],
          [-127.96282, 34.64577],
          [-127.93626, 34.65119],
          [-127.91628, 34.67845],
          [-127.89629, 34.7057],
          [-127.87629, 34.73295],
          [-127.88287, 34.75479],
          [-127.86286, 34.78203],
          [-127.83626, 34.78743],
          [-127.81624, 34.81466],
          [-127.7962, 34.84189],
          [-127.77615, 34.86912],
          [-127.75609, 34.89634],
          [-127.73602, 34.92355],
          [-127.70939, 34.92893],
          [-127.71595, 34.95076],
          [-127.69586, 34.97797],
          [-127.70241, 34.9998],
          [-127.68231, 35.027],
          [-127.68887, 35.04883],
          [-127.66876, 35.07603],
          [-127.64863, 35.10321],
          [-127.6285, 35.1304],
          [-127.63505, 35.15222],
          [-127.61491, 35.1794],
          [-127.59476, 35.20657],
          [-127.57459, 35.23374],
          [-127.55442, 35.26091],
          [-127.53423, 35.28806],
          [-127.51404, 35.31522],
          [-127.49384, 35.34237],
          [-127.46056, 35.32588],
          [-127.4273, 35.30938],
          [-127.42078, 35.28756],
          [-127.38753, 35.27106],
          [-127.3608, 35.27637],
          [-127.32757, 35.25985],
          [-127.32107, 35.23802],
          [-127.28785, 35.22149],
          [-127.30808, 35.19436],
          [-127.30159, 35.17253],
          [-127.29511, 35.15069],
          [-127.28862, 35.12885],
          [-127.25544, 35.11231],
          [-127.22227, 35.09576],
          [-127.18912, 35.07921],
          [-127.16242, 35.08449],
          [-127.12927, 35.06792],
          [-127.10257, 35.0732],
          [-127.06944, 35.05662],
          [-127.03631, 35.04003],
          [-127.0032, 35.02343],
          [-126.97009, 35.00683],
          [-126.937, 34.99022],
          [-126.93059, 34.96836],
          [-126.92419, 34.94649],
          [-126.91779, 34.92463],
          [-126.9114, 34.90276],
          [-126.905, 34.88089],
          [-126.89861, 34.85902],
          [-126.86557, 34.84238],
          [-126.83254, 34.82574],
          [-126.79952, 34.80909],
          [-126.76651, 34.79244],
          [-126.73986, 34.79766],
          [-126.70686, 34.78099],
          [-126.68021, 34.7862],
          [-126.65356, 34.79141],
          [-126.62691, 34.79661],
          [-126.60026, 34.80181],
          [-126.5736, 34.80701],
          [-126.54694, 34.8122],
          [-126.52028, 34.81738],
          [-126.49992, 34.84445],
          [-126.47325, 34.84963],
          [-126.44657, 34.8548],
          [-126.42619, 34.88186],
          [-126.39951, 34.88703],
          [-126.37911, 34.91408],
          [-126.35242, 34.91923],
          [-126.332, 34.94627],
          [-126.3053, 34.95142],
          [-126.27859, 34.95657],
          [-126.25815, 34.98359],
          [-126.23144, 34.98873],
          [-126.20472, 34.99386],
          [-126.18425, 35.02088],
          [-126.16378, 35.04789],
          [-126.14329, 35.0749],
          [-126.1228, 35.1019],
          [-126.09605, 35.10701],
          [-126.06929, 35.11212],
          [-126.04254, 35.11722],
          [-126.01578, 35.12232],
          [-125.98902, 35.12742],
          [-125.96225, 35.13251],
          [-125.93549, 35.13759],
          [-125.90251, 35.12078],
          [-125.87574, 35.12586],
          [-125.84277, 35.10903],
          [-125.81601, 35.1141],
          [-125.78924, 35.11916],
          [-125.76247, 35.12422],
          [-125.7357, 35.12927],
          [-125.70892, 35.13432],
          [-125.68214, 35.13937],
          [-125.65536, 35.14441],
          [-125.62858, 35.14944],
          [-125.59564, 35.13257],
          [-125.56886, 35.1376],
          [-125.53593, 35.12072],
          [-125.50915, 35.12573],
          [-125.48237, 35.13075],
          [-125.45558, 35.13576],
          [-125.42879, 35.14076],
          [-125.40811, 35.16767],
          [-125.38742, 35.19457],
          [-125.36672, 35.22147],
          [-125.3399, 35.22645],
          [-125.31309, 35.23144],
          [-125.29236, 35.25832],
          [-125.26553, 35.2633],
          [-125.27163, 35.2852],
          [-125.25088, 35.31208],
          [-125.23012, 35.33895],
          [-125.20936, 35.36581],
          [-125.21545, 35.38771],
          [-125.22153, 35.40961],
          [-125.22763, 35.43151],
          [-125.23372, 35.4534],
          [-125.23982, 35.47529],
          [-125.24591, 35.49718],
          [-125.22512, 35.52403],
          [-125.20432, 35.55088],
          [-125.18351, 35.57772],
          [-125.1896, 35.59961],
          [-125.16878, 35.62645],
          [-125.17487, 35.64833],
          [-125.18097, 35.67021],
          [-125.16013, 35.69703],
          [-125.16622, 35.71891],
          [-125.17232, 35.74079],
          [-125.15146, 35.76761],
          [-125.1306, 35.79442],
          [-125.10972, 35.82123],
          [-125.11581, 35.8431],
          [-125.09492, 35.86991],
          [-125.10102, 35.89177],
          [-125.08011, 35.91857],
          [-125.08621, 35.94043],
          [-125.06529, 35.96722],
          [-125.04437, 35.99401],
          [-125.05046, 36.01587],
          [-125.02952, 36.04265],
          [-125.00857, 36.06942],
          [-125.01466, 36.09128],
          [-125.02074, 36.11313],
          [-125.02683, 36.13498],
          [-125.03293, 36.15682],
          [-125.06608, 36.17375],
          [-125.07219, 36.19559],
          [-125.07829, 36.21743],
          [-125.0844, 36.23927],
          [-125.11759, 36.25618],
          [-125.12371, 36.27801],
          [-125.15691, 36.29491],
          [-125.16304, 36.31674],
          [-125.19627, 36.33362],
          [-125.2295, 36.3505],
          [-125.23565, 36.37233],
          [-125.2689, 36.3892],
          [-125.24794, 36.41597],
          [-125.22698, 36.44273]
        ]
      }
    },
    {
      "type": "Feature",
      "id": "2026092712_f192_11000_001",
      "properties": {
        "product_id": "winter_storm_levels",
        "source_id": "nbm_snow_level",
        "parameter": "snow_level",
        "definition": "height of the wet-bulb 0.5 degree C surface",
        "level_ft_msl": 11000,
        "label": "11,000 ft MSL",
        "unit": "ft_msl",
        "cycle_time_utc": "2026-09-27T12:00:00Z",
        "valid_time_utc": "2026-10-05T12:00:00Z",
        "lead_hours": 192,
        "segment": 1,
        "length_m": 2049414.7
      },
      "geometry": {
        "type": "LineString",
        "coordinates": [
          [-120.99104, 30.25856],
          [-120.98839, 30.26195],
          [-120.98631, 30.26461],
          [-120.96756, 30.2886],
          [-120.96547, 30.29127],
          [-120.94671, 30.31526],
          [-120.94463, 30.31792],
          [-120.92586, 30.3419],
          [-120.92377, 30.34457],
          [-120.92878, 30.36689],
          [-120.93379, 30.38921],
          [-120.91501, 30.41319],
          [-120.91292, 30.41586],
          [-120.91793, 30.43818],
          [-120.92294, 30.4605],
          [-120.90414, 30.48447],
          [-120.90205, 30.48714],
          [-120.90706, 30.50946],
          [-120.88826, 30.53343],
          [-120.88616, 30.53609],
          [-120.89117, 30.55841],
          [-120.89619, 30.58073],
          [-120.9012, 30.60304],
          [-120.90621, 30.62536],
          [-120.88739, 30.64932],
          [-120.88529, 30.65198],
          [-120.89031, 30.6743],
          [-120.87147, 30.69826],
          [-120.86938, 30.70092],
          [-120.85053, 30.72488],
          [-120.84844, 30.72754],
          [-120.82958, 30.7515],
          [-120.82749, 30.75416],
          [-120.80862, 30.77811],
          [-120.80652, 30.78077],
          [-120.81153, 30.80308],
          [-120.81654, 30.82539],
          [-120.79766, 30.84934],
          [-120.79556, 30.852],
          [-120.77667, 30.87594],
          [-120.77457, 30.8786],
          [-120.77958, 30.90091],
          [-120.76068, 30.92484],
          [-120.75858, 30.9275],
          [-120.76358, 30.94981],
          [-120.74467, 30.97375],
          [-120.74257, 30.9764],
          [-120.74757, 30.99871],
          [-120.72865, 31.02264],
          [-120.72655, 31.0253],
          [-120.70762, 31.04922],
          [-120.70552, 31.05188],
          [-120.68658, 31.07581],
          [-120.68447, 31.07846],
          [-120.68947, 31.10077],
          [-120.67052, 31.12469],
          [-120.66841, 31.12734],
          [-120.64946, 31.15126],
          [-120.64735, 31.15391],
          [-120.65234, 31.17621],
          [-120.63337, 31.20013],
          [-120.63126, 31.20278],
          [-120.61229, 31.22669],
          [-120.61018, 31.22935],
          [-120.59119, 31.25325],
          [-120.58908, 31.2559],
          [-120.57008, 31.2798],
          [-120.56797, 31.28246],
          [-120.57295, 31.30476],
          [-120.55395, 31.32865],
          [-120.52785, 31.3329],
          [-120.52573, 31.33556],
          [-120.53071, 31.35785],
          [-120.51168, 31.38174],
          [-120.50957, 31.3844],
          [-120.51454, 31.40669],
          [-120.49551, 31.43057],
          [-120.49339, 31.43323],
          [-120.49837, 31.45552],
          [-120.50334, 31.47781],
          [-120.48429, 31.50169],
          [-120.48217, 31.50434],
          [-120.48715, 31.52663],
          [-120.49212, 31.54892],
          [-120.4971, 31.57121],
          [-120.50208, 31.59349],
          [-120.50706, 31.61578],
          [-120.51204, 31.63806],
          [-120.51703, 31.66034],
          [-120.49795, 31.68421],
          [-120.49583, 31.68687],
          [-120.50082, 31.70915],
          [-120.5058, 31.73143],
          [-120.51079, 31.7537],
          [-120.4917, 31.77757],
          [-120.48958, 31.78022],
          [-120.49456, 31.8025],
          [-120.49955, 31.82477],
          [-120.48044, 31.84863],
          [-120.47832, 31.85129],
          [-120.4592, 31.87514],
          [-120.45708, 31.87779],
          [-120.43796, 31.90165],
          [-120.43583, 31.9043],
          [-120.44081, 31.92657],
          [-120.42168, 31.95042],
          [-120.41955, 31.95307],
          [-120.4004, 31.97691],
          [-120.39828, 31.97956],
          [-120.37912, 32.0034],
          [-120.37699, 32.00605],
          [-120.35783, 32.02989],
          [-120.3557, 32.03254],
          [-120.33653, 32.05637],
          [-120.3344, 32.05902],
          [-120.31522, 32.08285],
          [-120.31309, 32.08549],
          [-120.2939, 32.10932],
          [-120.29176, 32.11197],
          [-120.27257, 32.13579],
          [-120.27043, 32.13843],
          [-120.25123, 32.16225],
          [-120.24909, 32.1649],
          [-120.22988, 32.18871],
          [-120.22774, 32.19135],
          [-120.20851, 32.21516],
          [-120.20638, 32.21781],
          [-120.21133, 32.24007],
          [-120.21628, 32.26233],
          [-120.19704, 32.28614],
          [-120.19491, 32.28878],
          [-120.17566, 32.31258],
          [-120.17352, 32.31523],
          [-120.17847, 32.33749],
          [-120.15921, 32.36128],
          [-120.15707, 32.36393],
          [-120.16201, 32.38618],
          [-120.16696, 32.40844],
          [-120.17192, 32.43069],
          [-120.15264, 32.45448],
          [-120.1505, 32.45713],
          [-120.15545, 32.47938],
          [-120.1604, 32.50163],
          [-120.16535, 32.52388],
          [-120.17031, 32.54613],
          [-120.17527, 32.56838],
          [-120.18023, 32.59062],
          [-120.18519, 32.61287],
          [-120.19015, 32.63511],
          [-120.19512, 32.65736],
          [-120.20009, 32.6796],
          [-120.20506, 32.70184],
          [-120.2082, 32.70364],
          [-120.23646, 32.71989],
          [-120.24144, 32.74212],
          [-120.24642, 32.76436],
          [-120.2514, 32.78659],
          [-120.25639, 32.80883],
          [-120.26137, 32.83106],
          [-120.26636, 32.85329],
          [-120.27135, 32.87551],
          [-120.2745, 32.87732],
          [-120.30281, 32.89355],
          [-120.30781, 32.91577],
          [-120.31281, 32.93799],
          [-120.31782, 32.96021],
          [-120.32282, 32.98244],
          [-120.32597, 32.98424],
          [-120.35432, 33.00045],
          [-120.35934, 33.02267],
          [-120.36249, 33.02447],
          [-120.39085, 33.04068],
          [-120.39588, 33.06289],
          [-120.4009, 33.0851],
          [-120.40593, 33.10731],
          [-120.40908, 33.10911],
          [-120.43747, 33.12531],
          [-120.44251, 33.14752],
          [-120.44755, 33.16972],
          [-120.4507, 33.17152],
          [-120.47912, 33.18771],
          [-120.48417, 33.20991],
          [-120.48921, 33.23211],
          [-120.49237, 33.23391],
          [-120.52081, 33.25008],
          [-120.52587, 33.27228],
          [-120.53093, 33.29448],
          [-120.53409, 33.29627],
          [-120.56255, 33.31244],
          [-120.56762, 33.33463],
          [-120.57269, 33.35682],
          [-120.57776, 33.37901],
          [-120.58283, 33.4012],
          [-120.586, 33.40299],
          [-120.61449, 33.41915],
          [-120.61957, 33.44133],
          [-120.62466, 33.46351],
          [-120.62975, 33.4857],
          [-120.63484, 33.50788],
          [-120.63993, 33.53005],
          [-120.64502, 33.55223],
          [-120.65012, 33.57441],
          [-120.65329, 33.5762],
          [-120.68183, 33.59233],
          [-120.68694, 33.6145],
          [-120.69204, 33.63668],
          [-120.69715, 33.65884],
          [-120.70226, 33.68101],
          [-120.70738, 33.70318],
          [-120.71249, 33.72534],
          [-120.71761, 33.74751],
          [-120.72273, 33.76967],
          [-120.72785, 33.79183],
          [-120.73102, 33.79362],
          [-120.75964, 33.80973],
          [-120.76477, 33.83188],
          [-120.7699, 33.85404],
          [-120.77503, 33.87619],
          [-120.78017, 33.89834],
          [-120.78531, 33.92049],
          [-120.79044, 33.94264],
          [-120.79363, 33.94443],
          [-120.82229, 33.96052],
          [-120.82744, 33.98266],
          [-120.83259, 34.00481],
          [-120.83577, 34.00659],
          [-120.86445, 34.02268],
          [-120.86961, 34.04482],
          [-120.87478, 34.06695],
          [-120.87797, 34.06874],
          [-120.90667, 34.08481],
          [-120.91184, 34.10694],
          [-120.91701, 34.12908],
          [-120.92219, 34.15121],
          [-120.92538, 34.15299],
          [-120.95411, 34.16905],
          [-120.9593, 34.19118],
          [-120.96448, 34.2133],
          [-120.96768, 34.21509],
          [-120.99643, 34.23113],
          [-121.00163, 34.25326],
          [-121.00682, 34.27538],
          [-121.01002, 34.27716],
          [-121.03879, 34.2932],
          [-121.044, 34.31531],
          [-121.04921, 34.33743],
          [-121.05442, 34.35954],
          [-121.05762, 34.36132],
          [-121.08643, 34.37735],
          [-121.09165, 34.39946],
          [-121.09687, 34.42156],
          [-121.10209, 34.44367],
          [-121.1053, 34.44545],
          [-121.13413, 34.46146],
          [-121.13936, 34.48357],
          [-121.1446, 34.50567],
          [-121.14983, 34.52776],
          [-121.15507, 34.54986],
          [-121.15828, 34.55164],
          [-121.18715, 34.56764],
          [-121.1924, 34.58973],
          [-121.19765, 34.61182],
          [-121.2029, 34.63391],
          [-121.20816, 34.656],
          [-121.21341, 34.67809],
          [-121.21867, 34.70017],
          [-121.22394, 34.72226],
          [-121.22715, 34.72403],
          [-121.25607, 34.74001],
          [-121.26134, 34.76209],
          [-121.26661, 34.78417],
          [-121.27189, 34.80624],
          [-121.27717, 34.82832],
          [-121.28245, 34.85039],
          [-121.28773, 34.87246],
          [-121.29301, 34.89453],
          [-121.2983, 34.9166],
          [-121.30358, 34.93866],
          [-121.30887, 34.96073],
          [-121.3121, 34.9625],
          [-121.34109, 34.97845],
          [-121.34639, 35.00051],
          [-121.35169, 35.02257],
          [-121.35699, 35.04463],
          [-121.3623, 35.06668],
          [-121.36761, 35.08873],
          [-121.37292, 35.11078],
          [-121.37823, 35.13283],
          [-121.38354, 35.15488],
          [-121.38886, 35.17693],
          [-121.36937, 35.20068],
          [-121.3672, 35.20332],
          [-121.37252, 35.22536],
          [-121.37783, 35.2474],
          [-121.38315, 35.26944],
          [-121.38847, 35.29148],
          [-121.3938, 35.31351],
          [-121.39912, 35.33555],
          [-121.40445, 35.35758],
          [-121.38493, 35.38132],
          [-121.38276, 35.38395],
          [-121.38809, 35.40598],
          [-121.39342, 35.42801],
          [-121.39875, 35.45004],
          [-121.40408, 35.47206],
          [-121.40942, 35.49408],
          [-121.41475, 35.5161],
          [-121.42009, 35.53812],
          [-121.42543, 35.56014],
          [-121.43078, 35.58215],
          [-121.41122, 35.60588],
          [-121.40905, 35.60851],
          [-121.41439, 35.63052],
          [-121.41974, 35.65253],
          [-121.42508, 35.67454],
          [-121.43043, 35.69655],
          [-121.43579, 35.71855],
          [-121.44114, 35.74055],
          [-121.44649, 35.76255],
          [-121.45185, 35.78455],
          [-121.45721, 35.80655],
          [-121.46258, 35.82855],
          [-121.46794, 35.85054],
          [-121.47331, 35.87253],
          [-121.47867, 35.89452],
          [-121.48405, 35.91651],
          [-121.48942, 35.93849],
          [-121.49479, 35.96048],
          [-121.50017, 35.98246],
          [-121.50555, 36.00444],
          [-121.51093, 36.02642],
          [-121.51632, 36.04839],
          [-121.5217, 36.07037],
          [-121.52709, 36.09234],
          [-121.53248, 36.11431],
          [-121.53787, 36.13628],
          [-121.54327, 36.15824],
          [-121.54866, 36.18021],
          [-121.55406, 36.20217],
          [-121.55946, 36.22413],
          [-121.56487, 36.24609],
          [-121.57027, 36.26805],
          [-121.57568, 36.29],
          [-121.55603, 36.31368],
          [-121.55385, 36.31632],
          [-121.55925, 36.33827],
          [-121.56466, 36.36022],
          [-121.57007, 36.38216],
          [-121.5504, 36.40584],
          [-121.54822, 36.40847],
          [-121.55363, 36.43041],
          [-121.55904, 36.45235],
          [-121.53936, 36.47602],
          [-121.53717, 36.47865],
          [-121.54258, 36.50058],
          [-121.54799, 36.52252],
          [-121.5283, 36.54618],
          [-121.52611, 36.54881],
          [-121.53152, 36.57074],
          [-121.51181, 36.59439],
          [-121.50962, 36.59702],
          [-121.51503, 36.61895],
          [-121.49531, 36.64259],
          [-121.49312, 36.64522],
          [-121.49853, 36.66715],
          [-121.47879, 36.69078],
          [-121.4766, 36.69341],
          [-121.48201, 36.71533],
          [-121.48742, 36.73725],
          [-121.49283, 36.75917],
          [-121.47308, 36.7828],
          [-121.47089, 36.78543],
          [-121.4763, 36.80734],
          [-121.48172, 36.82926],
          [-121.46195, 36.85288],
          [-121.45975, 36.8555],
          [-121.43997, 36.87912],
          [-121.43777, 36.88174],
          [-121.44319, 36.90365],
          [-121.4234, 36.92726],
          [-121.4212, 36.92988],
          [-121.42661, 36.95179],
          [-121.4068, 36.97539],
          [-121.4046, 36.97801],
          [-121.38479, 37.00161],
          [-121.38259, 37.00423],
          [-121.388, 37.02613],
          [-121.36817, 37.04973],
          [-121.36597, 37.05235],
          [-121.34613, 37.07593],
          [-121.34393, 37.07856],
          [-121.32409, 37.10214],
          [-121.32188, 37.10476],
          [-121.32728, 37.12665],
          [-121.30742, 37.15023],
          [-121.30522, 37.15285],
          [-121.28535, 37.17642],
          [-121.28314, 37.17903],
          [-121.28854, 37.20092],
          [-121.26866, 37.22449],
          [-121.26645, 37.2271],
          [-121.24656, 37.25066],
          [-121.24435, 37.25328],
          [-121.24974, 37.27516],
          [-121.22984, 37.29872],
          [-121.22763, 37.30133],
          [-121.20772, 37.32488],
          [-121.20551, 37.3275],
          [-121.21089, 37.34937],
          [-121.19097, 37.37292],
          [-121.18876, 37.37553],
          [-121.16883, 37.39907],
          [-121.16661, 37.40168],
          [-121.17199, 37.42355],
          [-121.15205, 37.44708],
          [-121.14983, 37.4497],
          [-121.15521, 37.47157],
          [-121.13525, 37.49509],
          [-121.13304, 37.4977],
          [-121.13842, 37.51957],
          [-121.11845, 37.54308],
          [-121.11623, 37.54569],
          [-121.12161, 37.56756],
          [-121.10162, 37.59107],
          [-121.0994, 37.59368],
          [-121.10478, 37.61553],
          [-121.11016, 37.63739],
          [-121.09016, 37.66089],
          [-121.08794, 37.6635],
          [-121.09332, 37.68535],
          [-121.07331, 37.70885],
          [-121.07109, 37.71146],
          [-121.07646, 37.7333],
          [-121.08185, 37.75515],
          [-121.08723, 37.77699],
          [-121.0672, 37.80048],
          [-121.06497, 37.80309],
          [-121.07035, 37.82493],
          [-121.07574, 37.84676],
          [-121.08113, 37.8686],
          [-121.08651, 37.89043],
          [-121.0919, 37.91226],
          [-121.0973, 37.93409],
          [-121.10269, 37.95591],
          [-121.10809, 37.97774],
          [-121.08803, 38.0012],
          [-121.0858, 38.00381],
          [-121.09119, 38.02563],
          [-121.09659, 38.04745],
          [-121.10199, 38.06926],
          [-121.1074, 38.09108],
          [-121.1128, 38.11289],
          [-121.11821, 38.1347],
          [-121.12362, 38.1565],
          [-121.12903, 38.17831],
          [-121.13444, 38.20011],
          [-121.13986, 38.22191],
          [-121.11976, 38.24536],
          [-121.11752, 38.24796],
          [-121.12294, 38.26976],
          [-121.12836, 38.29155],
          [-121.10824, 38.31499],
          [-121.106, 38.31759],
          [-121.11142, 38.33938],
          [-121.11684, 38.36117],
          [-121.12226, 38.38295],
          [-121.12768, 38.40474],
          [-121.13311, 38.42652],
          [-121.13853, 38.44829],
          [-121.11839, 38.47172],
          [-121.11615, 38.47432],
          [-121.12158, 38.49609],
          [-121.12701, 38.51786],
          [-121.13244, 38.53963],
          [-121.13787, 38.5614],
          [-121.1177, 38.58481],
          [-121.11546, 38.58741],
          [-121.12089, 38.60918],
          [-121.12633, 38.63094],
          [-121.13176, 38.6527],
          [-121.11158, 38.6761],
          [-121.10934, 38.6787],
          [-121.11477, 38.70045],
          [-121.12021, 38.7222],
          [-121.12565, 38.74395],
          [-121.10545, 38.76734],
          [-121.1032, 38.76994],
          [-121.10864, 38.79169],
          [-121.11408, 38.81343],
          [-121.09386, 38.83681],
          [-121.09161, 38.83941],
          [-121.09705, 38.86115],
          [-121.07682, 38.88452],
          [-121.07457, 38.88712],
          [-121.08001, 38.90885],
          [-121.05977, 38.93222],
          [-121.05752, 38.93482],
          [-121.03726, 38.95818],
          [-121.03501, 38.96077],
          [-121.04044, 38.9825],
          [-121.02018, 39.00586],
          [-121.01792, 39.00845],
          [-121.02336, 39.03018],
          [-121.00308, 39.05352],
          [-121.00082, 39.05612],
          [-121.00625, 39.07784],
          [-120.98596, 39.10118],
          [-120.98371, 39.10377],
          [-120.98914, 39.12549],
          [-120.96883, 39.14882],
          [-120.96657, 39.15141],
          [-120.94626, 39.17474],
          [-120.944, 39.17733],
          [-120.92367, 39.20066],
          [-120.92141, 39.20325],
          [-120.90107, 39.22656],
          [-120.89881, 39.22915],
          [-120.87847, 39.25247],
          [-120.87621, 39.25505],
          [-120.85585, 39.27836],
          [-120.85359, 39.28095],
          [-120.859, 39.30265],
          [-120.83863, 39.32595],
          [-120.83637, 39.32854],
          [-120.81599, 39.35183],
          [-120.78793, 39.35601],
          [-120.78566, 39.3586],
          [-120.79106, 39.38029],
          [-120.77066, 39.40358],
          [-120.7684, 39.40616],
          [-120.74799, 39.42944],
          [-120.74572, 39.43203],
          [-120.7253, 39.4553],
          [-120.72303, 39.45788],
          [-120.72842, 39.47957],
          [-120.70799, 39.50283],
          [-120.70572, 39.50542],
          [-120.71111, 39.5271],
          [-120.69067, 39.55036],
          [-120.68839, 39.55294],
          [-120.66794, 39.57619],
          [-120.66566, 39.57878],
          [-120.67105, 39.60045],
          [-120.65058, 39.6237],
          [-120.64831, 39.62628],
          [-120.62783, 39.64952],
          [-120.62555, 39.6521],
          [-120.60506, 39.67533],
          [-120.60278, 39.67791],
          [-120.58228, 39.70114],
          [-120.58, 39.70372],
          [-120.55949, 39.72694],
          [-120.53132, 39.73107],
          [-120.52904, 39.73365],
          [-120.50852, 39.75686],
          [-120.50623, 39.75944],
          [-120.4857, 39.78265],
          [-120.48341, 39.78522],
          [-120.48878, 39.80688],
          [-120.46822, 39.83008],
          [-120.46594, 39.83266],
          [-120.4713, 39.85432],
          [-120.45074, 39.87751],
          [-120.44845, 39.88008],
          [-120.42788, 39.90327],
          [-120.42559, 39.90585],
          [-120.43095, 39.92749],
          [-120.41036, 39.95067],
          [-120.40807, 39.95325],
          [-120.38747, 39.97642],
          [-120.38518, 39.97899],
          [-120.36458, 40.00216],
          [-120.36228, 40.00473],
          [-120.34167, 40.0279],
          [-120.33937, 40.03047],
          [-120.31875, 40.05362],
          [-120.31645, 40.0562],
          [-120.29581, 40.07935],
          [-120.26754, 40.08343],
          [-120.26524, 40.086],
          [-120.24459, 40.10914],
          [-120.2163, 40.11321],
          [-120.214, 40.11578],
          [-120.19333, 40.13891],
          [-120.19103, 40.14148],
          [-120.17035, 40.16461],
          [-120.14204, 40.16867],
          [-120.13974, 40.17124],
          [-120.11904, 40.19435],
          [-120.09073, 40.19841],
          [-120.08843, 40.20097],
          [-120.06771, 40.22408],
          [-120.0654, 40.22665],
          [-120.04467, 40.24975],
          [-120.04237, 40.25231],
          [-120.02163, 40.27541],
          [-120.01933, 40.27797],
          [-120.02462, 40.29959],
          [-120.00386, 40.32268],
          [-120.00156, 40.32525],
          [-119.98079, 40.34833],
          [-119.97849, 40.35089],
          [-119.98377, 40.37251],
          [-119.963, 40.39558],
          [-119.96069, 40.39814],
          [-119.9399, 40.42121],
          [-119.93759, 40.42377],
          [-119.91679, 40.44684],
          [-119.91448, 40.4494],
          [-119.91976, 40.471],
          [-119.89895, 40.49406],
          [-119.89664, 40.49662],
          [-119.90191, 40.51822],
          [-119.88109, 40.54126],
          [-119.87877, 40.54382],
          [-119.85794, 40.56687],
          [-119.85562, 40.56943],
          [-119.83478, 40.59246],
          [-119.83246, 40.59502],
          [-119.83773, 40.61661],
          [-119.81687, 40.63964],
          [-119.81455, 40.6422],
          [-119.79368, 40.66522],
          [-119.79137, 40.66777],
          [-119.77049, 40.69079],
          [-119.76817, 40.69335],
          [-119.74728, 40.71636],
          [-119.74495, 40.71891],
          [-119.72405, 40.74192],
          [-119.72173, 40.74447],
          [-119.70082, 40.76747],
          [-119.6985, 40.77003],
          [-119.70375, 40.7916],
          [-119.68282, 40.81459],
          [-119.6805, 40.81715],
          [-119.65956, 40.84013],
          [-119.65723, 40.84268],
          [-119.63629, 40.86566],
          [-119.63396, 40.86822],
          [-119.61301, 40.89119],
          [-119.58448, 40.89514],
          [-119.55595, 40.8991],
          [-119.52558, 40.88324],
          [-119.5222, 40.88148],
          [-119.49184, 40.86561],
          [-119.48846, 40.86385],
          [-119.45994, 40.86779],
          [-119.42959, 40.85191],
          [-119.42622, 40.85015],
          [-119.3977, 40.85407],
          [-119.36736, 40.83818],
          [-119.36399, 40.83642],
          [-119.33547, 40.84034],
          [-119.30694, 40.84425],
          [-119.27842, 40.84816],
          [-119.24989, 40.85206],
          [-119.22136, 40.85596],
          [-119.19283, 40.85986],
          [-119.19049, 40.8624],
          [-119.16944, 40.88532],
          [-119.1409, 40.88921],
          [-119.11235, 40.89309],
          [-119.11001, 40.89564],
          [-119.08893, 40.91855],
          [-119.08659, 40.92109],
          [-119.0655, 40.94399],
          [-119.06316, 40.94654],
          [-119.04206, 40.96943],
          [-119.01349, 40.9733],
          [-119.01114, 40.97584],
          [-118.99002, 40.99873],
          [-118.96144, 41.00258],
          [-118.9591, 41.00512],
          [-118.93796, 41.028],
          [-118.90937, 41.03185],
          [-118.90702, 41.03439],
          [-118.88587, 41.05725],
          [-118.85727, 41.06109],
          [-118.85492, 41.06363],
          [-118.83375, 41.08649],
          [-118.80513, 41.09032],
          [-118.80278, 41.09286],
          [-118.78159, 41.1157],
          [-118.75297, 41.11952],
          [-118.72435, 41.12334],
          [-118.72199, 41.12588],
          [-118.70078, 41.14871],
          [-118.69842, 41.15125],
          [-118.6772, 41.17407],
          [-118.64856, 41.17788],
          [-118.61991, 41.18167],
          [-118.61755, 41.18421],
          [-118.59631, 41.20702],
          [-118.56765, 41.21081],
          [-118.539, 41.21459],
          [-118.53663, 41.21713],
          [-118.51536, 41.23993],
          [-118.48669, 41.2437],
          [-118.48433, 41.24623],
          [-118.46304, 41.26903],
          [-118.43436, 41.27279],
          [-118.432, 41.27532],
          [-118.41069, 41.2981],
          [-118.382, 41.30186],
          [-118.35331, 41.30561],
          [-118.32462, 41.30936],
          [-118.29593, 41.3131],
          [-118.26724, 41.31684],
          [-118.23854, 41.32057],
          [-118.20984, 41.3243],
          [-118.18114, 41.32803],
          [-118.15244, 41.33174],
          [-118.12373, 41.33546],
          [-118.09503, 41.33917],
          [-118.06632, 41.34287],
          [-118.03761, 41.34658],
          [-118.00889, 41.35027],
          [-117.98018, 41.35396],
          [-117.95146, 41.35765],
          [-117.92274, 41.36133],
          [-117.89402, 41.36501],
          [-117.86529, 41.36868],
          [-117.83657, 41.37235],
          [-117.80784, 41.37601],
          [-117.77911, 41.37967],
          [-117.75038, 41.38333],
          [-117.72164, 41.38698],
          [-117.69291, 41.39062],
          [-117.66417, 41.39426],
          [-117.63543, 41.3979],
          [-117.60669, 41.40153],
          [-117.57794, 41.40516],
          [-117.5492, 41.40878],
          [-117.52045, 41.4124],
          [-117.4917, 41.41601],
          [-117.48931, 41.41853],
          [-117.46776, 41.44118],
          [-117.439, 41.44478],
          [-117.41023, 41.44838],
          [-117.38147, 41.45197],
          [-117.3527, 41.45556],
          [-117.32251, 41.43938],
          [-117.31915, 41.43759],
          [-117.29039, 41.44117],
          [-117.26162, 41.44474],
          [-117.23285, 41.44831],
          [-117.20408, 41.45188],
          [-117.17531, 41.45544],
          [-117.14654, 41.459],
          [-117.11776, 41.46255],
          [-117.08898, 41.4661],
          [-117.0602, 41.46964],
          [-117.03142, 41.47318],
          [-117.00127, 41.45695],
          [-116.99792, 41.45514],
          [-116.96914, 41.45867],
          [-116.94036, 41.46219],
          [-116.91157, 41.46571],
          [-116.88278, 41.46923],
          [-116.85266, 41.45297],
          [-116.84931, 41.45117],
          [-116.82053, 41.45467],
          [-116.79174, 41.45817],
          [-116.76295, 41.46167],
          [-116.73285, 41.44539],
          [-116.72951, 41.44358],
          [-116.70072, 41.44707],
          [-116.67193, 41.45055],
          [-116.64314, 41.45403],
          [-116.61306, 41.43773],
          [-116.60972, 41.43592],
          [-116.58093, 41.43938],
          [-116.55214, 41.44285],
          [-116.52335, 41.44631],
          [-116.49455, 41.44976],
          [-116.46576, 41.45321],
          [-116.43571, 41.43688],
          [-116.43237, 41.43507],
          [-116.40357, 41.4385],
          [-116.37478, 41.44194],
          [-116.34598, 41.44537],
          [-116.31718, 41.44879],
          [-116.28715, 41.43244],
          [-116.28382, 41.43062],
          [-116.25502, 41.43404],
          [-116.22501, 41.41768],
          [-116.22167, 41.41586],
          [-116.19167, 41.39949],
          [-116.18834, 41.39767],
          [-116.15954, 41.40107],
          [-116.13075, 41.40446],
          [-116.10195, 41.40786],
          [-116.07316, 41.41124],
          [-116.04436, 41.41462],
          [-116.01556, 41.418],
          [-115.98675, 41.42137],
          [-115.98432, 41.42387],
          [-115.96244, 41.44634],
          [-115.93362, 41.44971],
          [-115.90481, 41.45306],
          [-115.90237, 41.45556],
          [-115.88046, 41.47802],
          [-115.85164, 41.48137],
          [-115.8492, 41.48386],
          [-115.82728, 41.50631],
          [-115.79844, 41.50965],
          [-115.796, 41.51214],
          [-115.77406, 41.53458],
          [-115.74521, 41.53791],
          [-115.71637, 41.54124],
          [-115.68752, 41.54456],
          [-115.68508, 41.54705],
          [-115.6631, 41.56947],
          [-115.63424, 41.57278],
          [-115.60538, 41.57609],
          [-115.57652, 41.5794],
          [-115.54765, 41.5827],
          [-115.51771, 41.56623],
          [-115.51439, 41.5644],
          [-115.48553, 41.56769],
          [-115.48308, 41.57018],
          [-115.46105, 41.59257],
          [-115.43218, 41.59585],
          [-115.40331, 41.59913],
          [-115.37443, 41.6024],
          [-115.34555, 41.60567],
          [-115.31668, 41.60893],
          [-115.28779, 41.61219],
          [-115.25891, 41.61544],
          [-115.23003, 41.61869],
          [-115.20114, 41.62193],
          [-115.17124, 41.60541],
          [-115.16792, 41.60358],
          [-115.13904, 41.60681],
          [-115.10916, 41.59028],
          [-115.10584, 41.58844],
          [-115.07696, 41.59167],
          [-115.04807, 41.59489],
          [-115.01821, 41.57834],
          [-115.01489, 41.5765],
          [-114.98601, 41.57971],
          [-114.95616, 41.56315],
          [-114.95285, 41.56131],
          [-114.92397, 41.56451],
          [-114.89413, 41.54794],
          [-114.89082, 41.5461],
          [-114.86194, 41.54929],
          [-114.83212, 41.5327],
          [-114.82881, 41.53086],
          [-114.799, 41.51427],
          [-114.79569, 41.51243],
          [-114.76589, 41.49583],
          [-114.76258, 41.49398],
          [-114.73372, 41.49716],
          [-114.70485, 41.50032],
          [-114.67507, 41.48371],
          [-114.67176, 41.48186],
          [-114.6429, 41.48502],
          [-114.61403, 41.48817],
          [-114.58516, 41.49132],
          [-114.5554, 41.47469],
          [-114.5521, 41.47284],
          [-114.52323, 41.47598],
          [-114.49436, 41.47911],
          [-114.46462, 41.46246],
          [-114.46132, 41.46061],
          [-114.43245, 41.46374],
          [-114.40359, 41.46685],
          [-114.37472, 41.46997],
          [-114.34585, 41.47308],
          [-114.31698, 41.47619],
          [-114.2881, 41.47929],
          [-114.25923, 41.48238],
          [-114.22952, 41.46569],
          [-114.22622, 41.46384],
          [-114.19735, 41.46693],
          [-114.16848, 41.47001],
          [-114.1396, 41.47309],
          [-114.10992, 41.45638],
          [-114.10662, 41.45452],
          [-114.07775, 41.45759],
          [-114.04808, 41.44087],
          [-114.04479, 41.43901],
          [-114.01592, 41.44207],
          [-113.98627, 41.42533],
          [-113.98297, 41.42348],
          [-113.95333, 41.40674],
          [-113.95004, 41.40488],
          [-113.92118, 41.40792],
          [-113.89231, 41.41096],
          [-113.86344, 41.41399],
          [-113.83457, 41.41702],
          [-113.80496, 41.40026],
          [-113.80167, 41.39839],
          [-113.7728, 41.40141],
          [-113.74393, 41.40443],
          [-113.71506, 41.40744],
          [-113.68547, 41.39066],
          [-113.68218, 41.38879],
          [-113.65332, 41.39179],
          [-113.62445, 41.39479],
          [-113.62196, 41.39725],
          [-113.59956, 41.41944],
          [-113.57068, 41.42242],
          [-113.5418, 41.42541],
          [-113.51292, 41.42839],
          [-113.48335, 41.41157],
          [-113.48007, 41.4097],
          [-113.45119, 41.41267],
          [-113.42231, 41.41563],
          [-113.39276, 41.3988],
          [-113.38948, 41.39693],
          [-113.3606, 41.39988],
          [-113.33107, 41.38304],
          [-113.32779, 41.38117],
          [-113.29891, 41.38411],
          [-113.2694, 41.36726],
          [-113.26612, 41.36539],
          [-113.23725, 41.36832],
          [-113.20837, 41.37125],
          [-113.1795, 41.37418],
          [-113.15, 41.3573],
          [-113.14673, 41.35543],
          [-113.11725, 41.33854],
          [-113.11397, 41.33667],
          [-113.0851, 41.33958],
          [-113.05564, 41.32268],
          [-113.05236, 41.32081],
          [-113.02349, 41.32371],
          [-112.99463, 41.32661],
          [-112.96518, 41.3097],
          [-112.96191, 41.30782],
          [-112.93304, 41.3107],
          [-112.90417, 41.31359],
          [-112.8753, 41.31646],
          [-112.84643, 41.31934],
          [-112.81756, 41.32221],
          [-112.78868, 41.32507],
          [-112.75981, 41.32793],
          [-112.73093, 41.33078],
          [-112.70205, 41.33363],
          [-112.67317, 41.33648],
          [-112.64429, 41.33932],
          [-112.6154, 41.34216],
          [-112.58652, 41.34499],
          [-112.55763, 41.34781],
          [-112.52874, 41.35064],
          [-112.49985, 41.35345],
          [-112.47048, 41.33647],
          [-112.46722, 41.33458],
          [-112.43833, 41.33739],
          [-112.40944, 41.34019],
          [-112.38008, 41.32318],
          [-112.37682, 41.32129],
          [-112.34748, 41.30428],
          [-112.34422, 41.30239],
          [-112.31534, 41.30518],
          [-112.28601, 41.28816],
          [-112.28275, 41.28627],
          [-112.25344, 41.26924],
          [-112.25018, 41.26734],
          [-112.22087, 41.25031],
          [-112.21762, 41.24841],
          [-112.18832, 41.23137],
          [-112.18464, 41.20966],
          [-112.18139, 41.20777],
          [-112.15211, 41.19071],
          [-112.14886, 41.18882],
          [-112.11959, 41.17176],
          [-112.11634, 41.16986],
          [-112.08709, 41.15279],
          [-112.08384, 41.1509],
          [-112.05459, 41.13382],
          [-112.05134, 41.13192],
          [-112.0225, 41.13467],
          [-112, 41.12152]
        ]
      }
    },
    {
      "type": "Feature",
      "id": "2026092712_f192_12000_001",
      "properties": {
        "product_id": "winter_storm_levels",
        "source_id": "nbm_snow_level",
        "parameter": "snow_level",
        "definition": "height of the wet-bulb 0.5 degree C surface",
        "level_ft_msl": 12000,
        "label": "12,000 ft MSL",
        "unit": "ft_msl",
        "cycle_time_utc": "2026-09-27T12:00:00Z",
        "valid_time_utc": "2026-10-05T12:00:00Z",
        "lead_hours": 192,
        "segment": 1,
        "length_m": 166268.6
      },
      "geometry": {
        "type": "LineString",
        "coordinates": [
          [-112.89675, 36.08724],
          [-112.8931, 36.06503],
          [-112.86821, 36.04963],
          [-112.86199, 36.04577],
          [-112.85835, 36.02356],
          [-112.83347, 36.00815],
          [-112.82725, 36.00429],
          [-112.82362, 35.98208],
          [-112.79876, 35.96665],
          [-112.77131, 35.96959],
          [-112.7651, 35.96573],
          [-112.74025, 35.9503],
          [-112.7128, 35.95322],
          [-112.70659, 35.94936],
          [-112.68175, 35.93391],
          [-112.67554, 35.93005],
          [-112.65071, 35.9146],
          [-112.62327, 35.91751],
          [-112.61707, 35.91365],
          [-112.59225, 35.89819],
          [-112.56481, 35.90109],
          [-112.53737, 35.90398],
          [-112.53117, 35.90011],
          [-112.50637, 35.88464],
          [-112.47893, 35.88753],
          [-112.45149, 35.89041],
          [-112.42405, 35.89328],
          [-112.39661, 35.89615],
          [-112.37748, 35.91623],
          [-112.3727, 35.92125],
          [-112.35357, 35.94132],
          [-112.34878, 35.94634],
          [-112.32964, 35.96641],
          [-112.32486, 35.97142],
          [-112.30571, 35.99149],
          [-112.30092, 35.9965],
          [-112.28176, 36.01656],
          [-112.28528, 36.03878],
          [-112.2888, 36.061],
          [-112.29233, 36.08322],
          [-112.29585, 36.10544],
          [-112.29938, 36.12765],
          [-112.32421, 36.14314],
          [-112.33042, 36.14701],
          [-112.35526, 36.1625],
          [-112.36147, 36.16637],
          [-112.36501, 36.18857],
          [-112.38986, 36.20405],
          [-112.39607, 36.20792],
          [-112.42093, 36.22339],
          [-112.42715, 36.22726],
          [-112.45202, 36.24272],
          [-112.47955, 36.23984],
          [-112.48577, 36.24371],
          [-112.51065, 36.25916],
          [-112.51687, 36.26303],
          [-112.54176, 36.27848],
          [-112.56929, 36.27558],
          [-112.59682, 36.27269],
          [-112.62435, 36.26979],
          [-112.65188, 36.26689],
          [-112.65811, 36.27074],
          [-112.68302, 36.28617],
          [-112.71055, 36.28326],
          [-112.73808, 36.28034],
          [-112.76561, 36.27742],
          [-112.79314, 36.27449],
          [-112.82066, 36.27156],
          [-112.84819, 36.26862],
          [-112.86729, 36.24852],
          [-112.86364, 36.22632],
          [-112.86, 36.20413],
          [-112.85635, 36.18193],
          [-112.86112, 36.17691],
          [-112.8802, 36.15679],
          [-112.87656, 36.13459],
          [-112.87291, 36.11239],
          [-112.87768, 36.10736],
          [-112.89675, 36.08724]
        ]
      }
    },
    {
      "type": "Feature",
      "id": "2026092712_f192_12000_002",
      "properties": {
        "product_id": "winter_storm_levels",
        "source_id": "nbm_snow_level",
        "parameter": "snow_level",
        "definition": "height of the wet-bulb 0.5 degree C surface",
        "level_ft_msl": 12000,
        "label": "12,000 ft MSL",
        "unit": "ft_msl",
        "cycle_time_utc": "2026-09-27T12:00:00Z",
        "valid_time_utc": "2026-10-05T12:00:00Z",
        "lead_hours": 192,
        "segment": 2,
        "length_m": 30068.3
      },
      "geometry": {
        "type": "LineString",
        "coordinates": [
          [-116.23707, 32.65943],
          [-116.23288, 32.63708],
          [-116.22869, 32.61472],
          [-116.20411, 32.59966],
          [-116.19796, 32.59589],
          [-116.17339, 32.58082],
          [-116.1555, 32.60153],
          [-116.15968, 32.62389],
          [-116.16385, 32.64624],
          [-116.16803, 32.6686],
          [-116.19263, 32.68367],
          [-116.21918, 32.68014],
          [-116.23707, 32.65943]
        ]
      }
    },
    {
      "type": "Feature",
      "id": "2026092712_f192_12000_003",
      "properties": {
        "product_id": "winter_storm_levels",
        "source_id": "nbm_snow_level",
        "parameter": "snow_level",
        "definition": "height of the wet-bulb 0.5 degree C surface",
        "level_ft_msl": 12000,
        "label": "12,000 ft MSL",
        "unit": "ft_msl",
        "cycle_time_utc": "2026-09-27T12:00:00Z",
        "valid_time_utc": "2026-10-05T12:00:00Z",
        "lead_hours": 192,
        "segment": 3,
        "length_m": 1123609.9
      },
      "geometry": {
        "type": "LineString",
        "coordinates": [
          [-117.77747, 30.22547],
          [-117.77044, 30.22871],
          [-117.75663, 30.23996],
          [-117.74742, 30.24746],
          [-117.72424, 30.26545],
          [-117.71949, 30.26846],
          [-117.70047, 30.28046],
          [-117.68752, 30.29618],
          [-117.67831, 30.30368],
          [-117.66247, 30.3229],
          [-117.65672, 30.32989],
          [-117.63351, 30.34787],
          [-117.63135, 30.35049],
          [-117.61059, 30.36734],
          [-117.60194, 30.37782],
          [-117.58897, 30.39353],
          [-117.57512, 30.40476],
          [-117.56647, 30.41524],
          [-117.55349, 30.43095],
          [-117.54425, 30.43844],
          [-117.52115, 30.45715],
          [-117.51971, 30.45889],
          [-117.50673, 30.48382],
          [-117.50095, 30.4908],
          [-117.48506, 30.50999],
          [-117.47928, 30.51697],
          [-117.46339, 30.53616],
          [-117.45819, 30.54613],
          [-117.44518, 30.56183],
          [-117.4365, 30.5723],
          [-117.42349, 30.588],
          [-117.41423, 30.59547],
          [-117.39108, 30.61415],
          [-117.38963, 30.6159],
          [-117.36937, 30.64031],
          [-117.36705, 30.64218],
          [-117.3462, 30.65898],
          [-117.33229, 30.67019],
          [-117.3236, 30.68065],
          [-117.31056, 30.69633],
          [-117.30186, 30.70679],
          [-117.28881, 30.72247],
          [-117.27953, 30.72993],
          [-117.25633, 30.7486],
          [-117.25401, 30.75046],
          [-117.23313, 30.76725],
          [-117.22442, 30.7777],
          [-117.21135, 30.79338],
          [-117.19742, 30.80457],
          [-117.1887, 30.81501],
          [-117.1649, 30.83067],
          [-117.16257, 30.83253],
          [-117.14295, 30.85603],
          [-117.14077, 30.85864],
          [-117.12114, 30.88214],
          [-117.11895, 30.88475],
          [-117.09931, 30.90824],
          [-117.09713, 30.91085],
          [-117.07748, 30.93434],
          [-117.07268, 30.93732],
          [-117.05521, 30.9582],
          [-117.05084, 30.96342],
          [-117.03336, 30.98429],
          [-117.02898, 30.98951],
          [-117.01149, 31.01037],
          [-117.00973, 31.01522],
          [-116.99005, 31.0387],
          [-116.98786, 31.04131],
          [-116.96817, 31.06478],
          [-116.96598, 31.06738],
          [-116.94627, 31.09085],
          [-116.94409, 31.09346],
          [-116.94574, 31.11623],
          [-116.92822, 31.13709],
          [-116.92383, 31.1423],
          [-116.92811, 31.16471],
          [-116.91057, 31.18556],
          [-116.90619, 31.19077],
          [-116.91046, 31.21318],
          [-116.89291, 31.23403],
          [-116.88852, 31.23924],
          [-116.89279, 31.26164],
          [-116.89706, 31.28405],
          [-116.87951, 31.30489],
          [-116.87512, 31.3101],
          [-116.87938, 31.3325],
          [-116.86181, 31.35334],
          [-116.85742, 31.35855],
          [-116.83984, 31.37939],
          [-116.83545, 31.3846],
          [-116.81786, 31.40543],
          [-116.81347, 31.41063],
          [-116.79587, 31.43146],
          [-116.79147, 31.43667],
          [-116.77387, 31.45749],
          [-116.76947, 31.4627],
          [-116.75186, 31.48352],
          [-116.74746, 31.48872],
          [-116.72984, 31.50954],
          [-116.72544, 31.51474],
          [-116.70781, 31.53556],
          [-116.68153, 31.53917],
          [-116.67712, 31.54438],
          [-116.65949, 31.56518],
          [-116.6332, 31.56879],
          [-116.62879, 31.57399],
          [-116.61114, 31.59479],
          [-116.60672, 31.59999],
          [-116.58906, 31.62079],
          [-116.56276, 31.62438],
          [-116.55834, 31.62958],
          [-116.54067, 31.65037],
          [-116.51436, 31.65396],
          [-116.50994, 31.65915],
          [-116.49225, 31.67994],
          [-116.46635, 31.68575],
          [-116.44003, 31.68933],
          [-116.43519, 31.69228],
          [-116.41581, 31.7041],
          [-116.38948, 31.70766],
          [-116.36259, 31.70824],
          [-116.33626, 31.71179],
          [-116.30993, 31.71535],
          [-116.2836, 31.7189],
          [-116.25726, 31.72244],
          [-116.23508, 31.7193],
          [-116.22954, 31.71851],
          [-116.2032, 31.72205],
          [-116.17687, 31.72558],
          [-116.15053, 31.7291],
          [-116.12419, 31.73262],
          [-116.09784, 31.73614],
          [-116.09285, 31.73834],
          [-116.07287, 31.74712],
          [-116.0479, 31.7581],
          [-116.03374, 31.76916],
          [-116.02485, 31.77953],
          [-116.0115, 31.79507],
          [-116.00206, 31.80245],
          [-115.97844, 31.82088],
          [-115.97695, 31.8226],
          [-115.95618, 31.84677],
          [-115.95469, 31.8485],
          [-115.93391, 31.87267],
          [-115.93242, 31.87439],
          [-115.91894, 31.89912],
          [-115.91354, 31.90901],
          [-115.90545, 31.92384],
          [-115.8933, 31.94609],
          [-115.89195, 31.94856],
          [-115.88725, 31.97212],
          [-115.88255, 31.99568],
          [-115.87879, 32.01452],
          [-115.87785, 32.01923],
          [-115.87314, 32.04279],
          [-115.87724, 32.06518],
          [-115.87606, 32.08827],
          [-115.88016, 32.11066],
          [-115.88427, 32.13305],
          [-115.88838, 32.15545],
          [-115.89248, 32.17783],
          [-115.89659, 32.20022],
          [-115.9007, 32.22261],
          [-115.9154, 32.2436],
          [-115.91952, 32.26598],
          [-115.92364, 32.28837],
          [-115.92776, 32.31075],
          [-115.93453, 32.33278],
          [-115.938, 32.33691],
          [-115.96249, 32.35202],
          [-115.96662, 32.3744],
          [-115.97075, 32.39677],
          [-115.97489, 32.41915],
          [-115.97902, 32.44152],
          [-115.98581, 32.46354],
          [-115.98929, 32.46767],
          [-116.01381, 32.48277],
          [-116.01796, 32.50514],
          [-116.0221, 32.52751],
          [-116.02625, 32.54987],
          [-116.0304, 32.57224],
          [-116.01249, 32.59292],
          [-116.01066, 32.59775],
          [-116.01215, 32.62046],
          [-116.0163, 32.64282],
          [-116.02045, 32.66518],
          [-116.00252, 32.68586],
          [-116.0007, 32.69068],
          [-116.00219, 32.71339],
          [-116.00634, 32.73575],
          [-115.98839, 32.75642],
          [-115.98391, 32.76159],
          [-115.96596, 32.78226],
          [-115.96413, 32.78708],
          [-115.96561, 32.80979],
          [-115.96976, 32.83214],
          [-115.95179, 32.85281],
          [-115.94996, 32.85762],
          [-115.95145, 32.88032],
          [-115.95559, 32.90267],
          [-115.95974, 32.92502],
          [-115.96389, 32.94736],
          [-115.96804, 32.96971],
          [-115.9742, 32.97348],
          [-115.99883, 32.98856],
          [-116.00299, 33.01091],
          [-116.00915, 33.01468],
          [-116.0338, 33.02975],
          [-116.03996, 33.03352],
          [-116.06462, 33.0486],
          [-116.06879, 33.07093],
          [-116.07297, 33.09327],
          [-116.07913, 33.09703],
          [-116.10381, 33.1121],
          [-116.10799, 33.13443],
          [-116.11218, 33.15676],
          [-116.11637, 33.17909],
          [-116.12056, 33.20142],
          [-116.12475, 33.22374],
          [-116.12894, 33.24607],
          [-116.13512, 33.24983],
          [-116.15983, 33.26488],
          [-116.16404, 33.2872],
          [-116.16824, 33.30952],
          [-116.17442, 33.31328],
          [-116.19916, 33.32832],
          [-116.20337, 33.35064],
          [-116.20758, 33.37295],
          [-116.21377, 33.37671],
          [-116.23852, 33.39174],
          [-116.24274, 33.41406],
          [-116.24697, 33.43637],
          [-116.22895, 33.45703],
          [-116.22445, 33.4622],
          [-116.22867, 33.48451],
          [-116.2329, 33.50681],
          [-116.21487, 33.52747],
          [-116.21036, 33.53264],
          [-116.21459, 33.55494],
          [-116.21881, 33.57724],
          [-116.20077, 33.5979],
          [-116.19626, 33.60306],
          [-116.20048, 33.62536],
          [-116.2047, 33.64766],
          [-116.20893, 33.66996],
          [-116.21316, 33.69225],
          [-116.21738, 33.71455],
          [-116.22161, 33.73684],
          [-116.22584, 33.75913],
          [-116.23008, 33.78142],
          [-116.23431, 33.80371],
          [-116.23855, 33.826],
          [-116.24476, 33.82975],
          [-116.26962, 33.84476],
          [-116.27386, 33.86704],
          [-116.27811, 33.88932],
          [-116.28236, 33.9116],
          [-116.28858, 33.91535],
          [-116.31346, 33.93035],
          [-116.31772, 33.95263],
          [-116.32197, 33.9749],
          [-116.32623, 33.99718],
          [-116.3305, 34.01945],
          [-116.33476, 34.04172],
          [-116.33903, 34.06399],
          [-116.32093, 34.08463],
          [-116.31641, 34.08979],
          [-116.32067, 34.11205],
          [-116.30256, 34.13269],
          [-116.29804, 34.13785],
          [-116.3023, 34.16011],
          [-116.28418, 34.18074],
          [-116.27965, 34.1859],
          [-116.28391, 34.20816],
          [-116.26578, 34.22878],
          [-116.26125, 34.23394],
          [-116.26551, 34.2562],
          [-116.24737, 34.27682],
          [-116.24283, 34.28197],
          [-116.22468, 34.30259],
          [-116.22015, 34.30774],
          [-116.2244, 34.33],
          [-116.20624, 34.35061],
          [-116.2017, 34.35576],
          [-116.20595, 34.37801],
          [-116.2102, 34.40026],
          [-116.19203, 34.42087],
          [-116.18749, 34.42602],
          [-116.19373, 34.42977],
          [-116.21871, 34.44476],
          [-116.22297, 34.467],
          [-116.22723, 34.48925],
          [-116.23149, 34.51149],
          [-116.23575, 34.53373],
          [-116.24002, 34.55597],
          [-116.22183, 34.57657],
          [-116.21728, 34.58172],
          [-116.22154, 34.60395],
          [-116.2258, 34.62619],
          [-116.23007, 34.64842],
          [-116.23434, 34.67065],
          [-116.23861, 34.69288],
          [-116.24288, 34.71511],
          [-116.24715, 34.73733],
          [-116.25143, 34.75956],
          [-116.2557, 34.78178],
          [-116.25998, 34.804],
          [-116.26625, 34.80774],
          [-116.29133, 34.82271],
          [-116.2976, 34.82645],
          [-116.32268, 34.8414],
          [-116.32697, 34.86362],
          [-116.33325, 34.86736],
          [-116.35835, 34.8823],
          [-116.36462, 34.88604],
          [-116.38973, 34.90098],
          [-116.39404, 34.92319],
          [-116.39835, 34.9454],
          [-116.40266, 34.96761],
          [-116.40698, 34.98981],
          [-116.4113, 35.01201],
          [-116.41561, 35.03421],
          [-116.41993, 35.05641],
          [-116.40169, 35.077],
          [-116.39713, 35.08215],
          [-116.40145, 35.10434],
          [-116.40577, 35.12654],
          [-116.38751, 35.14712],
          [-116.38295, 35.15226],
          [-116.38727, 35.17445],
          [-116.369, 35.19503],
          [-116.36443, 35.20017],
          [-116.34616, 35.22074],
          [-116.31899, 35.22426],
          [-116.31442, 35.2294],
          [-116.29613, 35.24997],
          [-116.29156, 35.25511],
          [-116.27326, 35.27567],
          [-116.24609, 35.27917],
          [-116.24151, 35.28431],
          [-116.2232, 35.30486],
          [-116.19601, 35.30836],
          [-116.19143, 35.3135],
          [-116.19572, 35.33568],
          [-116.17739, 35.35623],
          [-116.1728, 35.36136],
          [-116.15447, 35.3819],
          [-116.12726, 35.38539],
          [-116.12267, 35.39052],
          [-116.10432, 35.41105],
          [-116.07711, 35.41453],
          [-116.07251, 35.41966],
          [-116.05415, 35.44018],
          [-116.02692, 35.44365],
          [-115.9997, 35.44712],
          [-115.97247, 35.45058],
          [-115.94524, 35.45404],
          [-115.91801, 35.45749],
          [-115.89078, 35.46094],
          [-115.86354, 35.46438],
          [-115.83631, 35.46782],
          [-115.80907, 35.47125],
          [-115.78183, 35.47468],
          [-115.75291, 35.46923],
          [-115.72943, 35.4631],
          [-115.72357, 35.46156],
          [-115.69633, 35.46498],
          [-115.66867, 35.46617],
          [-115.64142, 35.46958],
          [-115.61418, 35.47298],
          [-115.58693, 35.47638],
          [-115.55969, 35.47977],
          [-115.53244, 35.48316],
          [-115.50518, 35.48654],
          [-115.47793, 35.48992],
          [-115.45068, 35.4933],
          [-115.42383, 35.49889],
          [-115.39658, 35.50225],
          [-115.39154, 35.50515],
          [-115.37138, 35.51671],
          [-115.34576, 35.52895],
          [-115.31891, 35.53452],
          [-115.31387, 35.53741],
          [-115.29369, 35.54896],
          [-115.26806, 35.56118],
          [-115.24078, 35.56452],
          [-115.21391, 35.57008],
          [-115.20887, 35.57296],
          [-115.18868, 35.5845],
          [-115.16139, 35.58783],
          [-115.13574, 35.60003],
          [-115.10844, 35.60335],
          [-115.08115, 35.60666],
          [-115.05386, 35.60997],
          [-115.02493, 35.6044],
          [-115.00147, 35.59816],
          [-114.99561, 35.5966],
          [-114.96831, 35.5999],
          [-114.93899, 35.59209],
          [-114.91554, 35.58584],
          [-114.90968, 35.58428],
          [-114.88238, 35.58756],
          [-114.85469, 35.58861],
          [-114.82578, 35.58301],
          [-114.79848, 35.58627],
          [-114.77118, 35.58954],
          [-114.74388, 35.5928],
          [-114.71658, 35.59605],
          [-114.68928, 35.5993],
          [-114.66584, 35.59301],
          [-114.65998, 35.59144],
          [-114.63228, 35.59246],
          [-114.60725, 35.57729],
          [-114.60139, 35.57571],
          [-114.57369, 35.57672],
          [-114.54639, 35.57995],
          [-114.52138, 35.56476],
          [-114.51552, 35.56319],
          [-114.48783, 35.56418],
          [-114.46053, 35.56739],
          [-114.43322, 35.5706],
          [-114.40592, 35.57381],
          [-114.37861, 35.577],
          [-114.3513, 35.5802],
          [-114.32399, 35.58339],
          [-114.29668, 35.58657],
          [-114.26936, 35.58975],
          [-114.24205, 35.59293],
          [-114.21473, 35.5961],
          [-114.18741, 35.59927],
          [-114.16245, 35.58403],
          [-114.15621, 35.58022],
          [-114.12889, 35.58338],
          [-114.10157, 35.58653],
          [-114.07426, 35.58968],
          [-114.04693, 35.59282],
          [-114.01961, 35.59596],
          [-113.99229, 35.5991],
          [-113.96496, 35.60223],
          [-113.94003, 35.58695],
          [-113.93379, 35.58313],
          [-113.90647, 35.58626],
          [-113.87915, 35.58937],
          [-113.85182, 35.59248],
          [-113.82449, 35.59559],
          [-113.79716, 35.5987],
          [-113.76983, 35.60179],
          [-113.76513, 35.60686],
          [-113.74631, 35.62711],
          [-113.7416, 35.63217],
          [-113.72277, 35.65242],
          [-113.69542, 35.65551],
          [-113.66807, 35.65859],
          [-113.66336, 35.66365],
          [-113.64451, 35.68389],
          [-113.63979, 35.68895],
          [-113.62093, 35.70918],
          [-113.59357, 35.71225],
          [-113.58885, 35.7173],
          [-113.56998, 35.73753],
          [-113.54261, 35.74059],
          [-113.51523, 35.74364],
          [-113.51051, 35.7487],
          [-113.49162, 35.76891],
          [-113.46423, 35.77196],
          [-113.43685, 35.775],
          [-113.40947, 35.77804],
          [-113.38208, 35.78107],
          [-113.35469, 35.7841],
          [-113.3273, 35.78713],
          [-113.30241, 35.77177],
          [-113.29619, 35.76793],
          [-113.26881, 35.77094],
          [-113.26407, 35.77599],
          [-113.24513, 35.79617],
          [-113.21773, 35.79918],
          [-113.19286, 35.7838],
          [-113.18664, 35.77996],
          [-113.15925, 35.78295],
          [-113.13438, 35.76757],
          [-113.12817, 35.76372],
          [-113.10078, 35.76671],
          [-113.07592, 35.75132],
          [-113.06971, 35.74747],
          [-113.04232, 35.75045],
          [-113.01748, 35.73504],
          [-113.01127, 35.73119],
          [-112.98389, 35.73416],
          [-112.95906, 35.71874],
          [-112.95285, 35.71489],
          [-112.92547, 35.71785],
          [-112.89809, 35.7208],
          [-112.8707, 35.72375],
          [-112.84589, 35.70832],
          [-112.83969, 35.70447],
          [-112.81231, 35.70741],
          [-112.78492, 35.71034],
          [-112.76013, 35.6949],
          [-112.75393, 35.69104],
          [-112.72655, 35.69396],
          [-112.69916, 35.69688],
          [-112.67438, 35.68143],
          [-112.66819, 35.67756],
          [-112.64081, 35.68047],
          [-112.61604, 35.66501],
          [-112.60985, 35.66114],
          [-112.58247, 35.66404],
          [-112.55771, 35.64857],
          [-112.55152, 35.6447],
          [-112.52415, 35.64759],
          [-112.4994, 35.6321],
          [-112.49322, 35.62823],
          [-112.46848, 35.61274],
          [-112.4623, 35.60887],
          [-112.43757, 35.59337],
          [-112.43139, 35.58949],
          [-112.40667, 35.57399],
          [-112.40049, 35.57011],
          [-112.37313, 35.57298],
          [-112.34843, 35.55747],
          [-112.34225, 35.55359],
          [-112.31489, 35.55645],
          [-112.2902, 35.54093],
          [-112.28402, 35.53705],
          [-112.25667, 35.5399],
          [-112.23199, 35.52437],
          [-112.22582, 35.52049],
          [-112.19846, 35.52333],
          [-112.17379, 35.50779],
          [-112.16762, 35.5039],
          [-112.14027, 35.50673],
          [-112.11292, 35.50956],
          [-112.08826, 35.49401],
          [-112.0821, 35.49012],
          [-112.05475, 35.49294],
          [-112.0274, 35.49575],
          [-112.00005, 35.49856],
          [-112, 35.49856]
        ]
      }
    },
    {
      "type": "Feature",
      "id": "2026092712_f192_13000_001",
      "properties": {
        "product_id": "winter_storm_levels",
        "source_id": "nbm_snow_level",
        "parameter": "snow_level",
        "definition": "height of the wet-bulb 0.5 degree C surface",
        "level_ft_msl": 13000,
        "label": "13,000 ft MSL",
        "unit": "ft_msl",
        "cycle_time_utc": "2026-09-27T12:00:00Z",
        "valid_time_utc": "2026-10-05T12:00:00Z",
        "lead_hours": 192,
        "segment": 1,
        "length_m": 29994.6
      },
      "geometry": {
        "type": "LineString",
        "coordinates": [
          [-112.16813, 30.00959],
          [-112.16876, 30.01388],
          [-112.15283, 30.03169],
          [-112.14601, 30.03932],
          [-112.13008, 30.05712],
          [-112.12325, 30.06475],
          [-112.12656, 30.08732],
          [-112.11062, 30.10512],
          [-112.10379, 30.11275],
          [-112.08784, 30.13055],
          [-112.081, 30.13818],
          [-112.06505, 30.15597],
          [-112.05821, 30.1636],
          [-112.04225, 30.18139],
          [-112.03541, 30.18902],
          [-112.01944, 30.20681],
          [-112.01259, 30.21443],
          [-112, 30.22845]
        ]
      }
    }
  ]
}

