{
  "type": "FeatureCollection",
  "contract_version": "1.0.0",
  "bbox": [-130, 30.18797, -112, 44.5],
  "features": [
    {
      "type": "Feature",
      "id": "2026092706_f222_09000_001",
      "properties": {
        "product_id": "winter_storm_levels",
        "source_id": "nbm_snow_level",
        "parameter": "snow_level",
        "definition": "height of the wet-bulb 0.5 degree C surface",
        "level_ft_msl": 9000,
        "label": "9,000 ft MSL",
        "unit": "ft_msl",
        "cycle_time_utc": "2026-09-27T06:00:00Z",
        "valid_time_utc": "2026-10-06T12:00:00Z",
        "lead_hours": 222,
        "segment": 1,
        "length_m": 32979.1
      },
      "geometry": {
        "type": "LineString",
        "coordinates": [
          [-129.66292, 43.81172],
          [-129.65812, 43.81763],
          [-129.64158, 43.83801],
          [-129.63677, 43.84392],
          [-129.62022, 43.8643],
          [-129.61542, 43.87021],
          [-129.5865, 43.87565],
          [-129.55759, 43.88108],
          [-129.54939, 43.87761],
          [-129.52115, 43.86566],
          [-129.51295, 43.8622],
          [-129.51776, 43.85628],
          [-129.53433, 43.83592],
          [-129.53914, 43.83001],
          [-129.56804, 43.82458],
          [-129.59694, 43.81914],
          [-129.61349, 43.79876],
          [-129.61829, 43.79285],
          [-129.62649, 43.79631],
          [-129.65472, 43.80825],
          [-129.66292, 43.81172]
        ]
      }
    },
    {
      "type": "Feature",
      "id": "2026092706_f222_09000_002",
      "properties": {
        "product_id": "winter_storm_levels",
        "source_id": "nbm_snow_level",
        "parameter": "snow_level",
        "definition": "height of the wet-bulb 0.5 degree C surface",
        "level_ft_msl": 9000,
        "label": "9,000 ft MSL",
        "unit": "ft_msl",
        "cycle_time_utc": "2026-09-27T06:00:00Z",
        "valid_time_utc": "2026-10-06T12:00:00Z",
        "lead_hours": 222,
        "segment": 2,
        "length_m": 304660.5
      },
      "geometry": {
        "type": "LineString",
        "coordinates": [
          [-130, 43.15056],
          [-129.98449, 43.17],
          [-129.97974, 43.17595],
          [-129.95105, 43.18146],
          [-129.92236, 43.18698],
          [-129.90598, 43.20746],
          [-129.91353, 43.22838],
          [-129.9211, 43.24929],
          [-129.91634, 43.25524],
          [-129.89994, 43.27571],
          [-129.89518, 43.28165],
          [-129.86646, 43.28715],
          [-129.85005, 43.30762],
          [-129.84528, 43.31356],
          [-129.81655, 43.31905],
          [-129.78781, 43.32454],
          [-129.75907, 43.33002],
          [-129.75091, 43.32655],
          [-129.7228, 43.31459],
          [-129.69405, 43.32007],
          [-129.6776, 43.34051],
          [-129.67283, 43.34645],
          [-129.65637, 43.36689],
          [-129.65159, 43.37282],
          [-129.62282, 43.37828],
          [-129.60635, 43.39871],
          [-129.60156, 43.40464],
          [-129.58508, 43.42507],
          [-129.58029, 43.431],
          [-129.5638, 43.45142],
          [-129.55901, 43.45735],
          [-129.54251, 43.47776],
          [-129.53771, 43.48369],
          [-129.50891, 43.48913],
          [-129.49239, 43.50953],
          [-129.4876, 43.51546],
          [-129.47107, 43.53586],
          [-129.46627, 43.54178],
          [-129.44973, 43.56218],
          [-129.44493, 43.5681],
          [-129.42839, 43.58849],
          [-129.42358, 43.59441],
          [-129.39474, 43.59982],
          [-129.37818, 43.62021],
          [-129.37337, 43.62612],
          [-129.3652, 43.62264],
          [-129.33705, 43.61065],
          [-129.3082, 43.61605],
          [-129.27935, 43.62145],
          [-129.26276, 43.64182],
          [-129.25794, 43.64773],
          [-129.22908, 43.65312],
          [-129.20021, 43.65851],
          [-129.1836, 43.67887],
          [-129.17878, 43.68478],
          [-129.1499, 43.69015],
          [-129.12101, 43.69552],
          [-129.11284, 43.69203],
          [-129.08471, 43.68001],
          [-129.05582, 43.68537],
          [-129.02693, 43.69073],
          [-128.99804, 43.69608],
          [-128.96915, 43.70143],
          [-128.94025, 43.70677],
          [-128.91135, 43.71211],
          [-128.88245, 43.71745],
          [-128.85354, 43.72278],
          [-128.82463, 43.7281],
          [-128.81647, 43.7246],
          [-128.78836, 43.71253],
          [-128.75945, 43.71785],
          [-128.75129, 43.71434],
          [-128.72319, 43.70226],
          [-128.69428, 43.70757],
          [-128.66537, 43.71287],
          [-128.65721, 43.70936],
          [-128.62913, 43.69726],
          [-128.62098, 43.69375],
          [-128.5929, 43.68165],
          [-128.58475, 43.67813],
          [-128.57744, 43.65722],
          [-128.54938, 43.64511],
          [-128.54123, 43.6416],
          [-128.51318, 43.62948],
          [-128.48428, 43.63476],
          [-128.47614, 43.63124],
          [-128.4481, 43.61911],
          [-128.4192, 43.62437],
          [-128.39029, 43.62964],
          [-128.37352, 43.64993],
          [-128.36865, 43.65581],
          [-128.33973, 43.66107],
          [-128.32294, 43.68135],
          [-128.31807, 43.68724],
          [-128.30127, 43.70751],
          [-128.29639, 43.7134],
          [-128.27958, 43.73367],
          [-128.2747, 43.73955],
          [-128.25789, 43.75981],
          [-128.253, 43.7657],
          [-128.23618, 43.78595],
          [-128.23129, 43.79184],
          [-128.21446, 43.81209],
          [-128.20957, 43.81797],
          [-128.1806, 43.82319],
          [-128.16375, 43.84344],
          [-128.15885, 43.84931],
          [-128.14199, 43.86955],
          [-128.1371, 43.87543],
          [-128.1081, 43.88064],
          [-128.09123, 43.90087],
          [-128.08633, 43.90674],
          [-128.05732, 43.91194],
          [-128.04043, 43.93216],
          [-128.03553, 43.93803],
          [-128.00651, 43.94322],
          [-127.9896, 43.96344],
          [-127.98469, 43.96931],
          [-127.96778, 43.98951],
          [-127.96286, 43.99538],
          [-127.94594, 44.01558],
          [-127.94102, 44.02145],
          [-127.92409, 44.04164],
          [-127.91917, 44.04751],
          [-127.90223, 44.0677],
          [-127.89731, 44.07356],
          [-127.86824, 44.07872],
          [-127.83918, 44.08389],
          [-127.81011, 44.08904],
          [-127.79313, 44.10922],
          [-127.7882, 44.11508],
          [-127.75912, 44.12022],
          [-127.74213, 44.14039],
          [-127.7372, 44.14624],
          [-127.7202, 44.16641],
          [-127.71526, 44.17226],
          [-127.68616, 44.17739],
          [-127.66915, 44.19755],
          [-127.6763, 44.21842],
          [-127.67136, 44.22427],
          [-127.65433, 44.24441],
          [-127.64939, 44.25026],
          [-127.63236, 44.2704],
          [-127.62741, 44.27625],
          [-127.61037, 44.29638],
          [-127.61752, 44.31724],
          [-127.61257, 44.32308],
          [-127.59551, 44.34321],
          [-127.59056, 44.34905],
          [-127.57349, 44.36917],
          [-127.56854, 44.37501],
          [-127.53937, 44.38012],
          [-127.52229, 44.40023],
          [-127.51733, 44.40607],
          [-127.50024, 44.42618],
          [-127.49527, 44.43201],
          [-127.47818, 44.45211],
          [-127.47321, 44.45795],
          [-127.4561, 44.47805],
          [-127.45113, 44.48388],
          [-127.4374, 44.5]
        ]
      }
    },
    {
      "type": "Feature",
      "id": "2026092706_f222_10000_001",
      "properties": {
        "product_id": "winter_storm_levels",
        "source_id": "nbm_snow_level",
        "parameter": "snow_level",
        "definition": "height of the wet-bulb 0.5 degree C surface",
        "level_ft_msl": 10000,
        "label": "10,000 ft MSL",
        "unit": "ft_msl",
        "cycle_time_utc": "2026-09-27T06:00:00Z",
        "valid_time_utc": "2026-10-06T12:00:00Z",
        "lead_hours": 222,
        "segment": 1,
        "length_m": 5376.7
      },
      "geometry": {
        "type": "LineString",
        "coordinates": [
          [-120.94913, 44.5],
          [-120.92708, 44.48938],
          [-120.89756, 44.49346],
          [-120.89136, 44.5]
        ]
      }
    },
    {
      "type": "Feature",
      "id": "2026092706_f222_10000_002",
      "properties": {
        "product_id": "winter_storm_levels",
        "source_id": "nbm_snow_level",
        "parameter": "snow_level",
        "definition": "height of the wet-bulb 0.5 degree C surface",
        "level_ft_msl": 10000,
        "label": "10,000 ft MSL",
        "unit": "ft_msl",
        "cycle_time_utc": "2026-09-27T06:00:00Z",
        "valid_time_utc": "2026-10-06T12:00:00Z",
        "lead_hours": 222,
        "segment": 2,
        "length_m": 134220.1
      },
      "geometry": {
        "type": "LineString",
        "coordinates": [
          [-128.70271, 37.65856],
          [-128.70016, 37.66194],
          [-128.68236, 37.68561],
          [-128.67982, 37.68899],
          [-128.66201, 37.71266],
          [-128.65946, 37.71604],
          [-128.63219, 37.72151],
          [-128.62792, 37.71949],
          [-128.59801, 37.70539],
          [-128.58018, 37.72905],
          [-128.57763, 37.73243],
          [-128.55034, 37.73788],
          [-128.54607, 37.73587],
          [-128.51617, 37.72175],
          [-128.48888, 37.7272],
          [-128.4616, 37.73264],
          [-128.43431, 37.73807],
          [-128.41643, 37.76171],
          [-128.41388, 37.76509],
          [-128.38658, 37.77051],
          [-128.38231, 37.76849],
          [-128.37545, 37.74691],
          [-128.36859, 37.72533],
          [-128.37115, 37.72195],
          [-128.39843, 37.71652],
          [-128.4163, 37.69288],
          [-128.40944, 37.6713],
          [-128.40258, 37.6497],
          [-128.37272, 37.63556],
          [-128.34545, 37.64098],
          [-128.34119, 37.63896],
          [-128.31134, 37.62481],
          [-128.30708, 37.62278],
          [-128.30024, 37.60118],
          [-128.29341, 37.57958],
          [-128.29596, 37.57621],
          [-128.31383, 37.55256],
          [-128.307, 37.53096],
          [-128.30017, 37.50935],
          [-128.30272, 37.50597],
          [-128.32057, 37.48232],
          [-128.32312, 37.47894],
          [-128.34097, 37.45529],
          [-128.34352, 37.45191],
          [-128.34777, 37.45393],
          [-128.37758, 37.46809],
          [-128.4048, 37.46266],
          [-128.43203, 37.45722],
          [-128.45925, 37.45178],
          [-128.47706, 37.42811],
          [-128.4796, 37.42473],
          [-128.50681, 37.41928],
          [-128.51107, 37.4213],
          [-128.54089, 37.43543],
          [-128.54515, 37.43745],
          [-128.55202, 37.45905],
          [-128.5589, 37.48065],
          [-128.58874, 37.49478],
          [-128.593, 37.49679],
          [-128.62285, 37.51091],
          [-128.62712, 37.51292],
          [-128.63401, 37.53452],
          [-128.64091, 37.55611],
          [-128.64781, 37.5777],
          [-128.67769, 37.5918],
          [-128.68196, 37.59381],
          [-128.68887, 37.6154],
          [-128.69579, 37.63698],
          [-128.70271, 37.65856]
        ]
      }
    },
    {
      "type": "Feature",
      "id": "2026092706_f222_10000_003",
      "properties": {
        "product_id": "winter_storm_levels",
        "source_id": "nbm_snow_level",
        "parameter": "snow_level",
        "definition": "height of the wet-bulb 0.5 degree C surface",
        "level_ft_msl": 10000,
        "label": "10,000 ft MSL",
        "unit": "ft_msl",
        "cycle_time_utc": "2026-09-27T06:00:00Z",
        "valid_time_utc": "2026-10-06T12:00:00Z",
        "lead_hours": 222,
        "segment": 3,
        "length_m": 1727866.1
      },
      "geometry": {
        "type": "LineString",
        "coordinates": [
          [-130, 34.18747],
          [-129.99603, 34.19311],
          [-129.99361, 34.19655],
          [-129.97664, 34.22065],
          [-129.97421, 34.22409],
          [-129.95724, 34.24819],
          [-129.96419, 34.26998],
          [-129.96176, 34.27342],
          [-129.94477, 34.29751],
          [-129.95173, 34.3193],
          [-129.9493, 34.32274],
          [-129.9323, 34.34682],
          [-129.93925, 34.36861],
          [-129.93682, 34.37205],
          [-129.91982, 34.39613],
          [-129.92677, 34.41791],
          [-129.92434, 34.42135],
          [-129.90732, 34.44543],
          [-129.90489, 34.44887],
          [-129.87848, 34.4546],
          [-129.86144, 34.47867],
          [-129.85901, 34.48211],
          [-129.84197, 34.50617],
          [-129.83953, 34.50961],
          [-129.82248, 34.53367],
          [-129.82004, 34.53711],
          [-129.80298, 34.56116],
          [-129.80992, 34.58294],
          [-129.81687, 34.60471],
          [-129.82382, 34.62648],
          [-129.85305, 34.64052],
          [-129.85723, 34.64253],
          [-129.86419, 34.6643],
          [-129.87115, 34.68606],
          [-129.87811, 34.70783],
          [-129.88508, 34.72959],
          [-129.89205, 34.75135],
          [-129.88961, 34.75478],
          [-129.87253, 34.77883],
          [-129.87009, 34.78227],
          [-129.853, 34.80631],
          [-129.85997, 34.82807],
          [-129.85753, 34.8315],
          [-129.84043, 34.85554],
          [-129.83799, 34.85897],
          [-129.82088, 34.88301],
          [-129.82785, 34.90476],
          [-129.83482, 34.92651],
          [-129.83237, 34.92994],
          [-129.81526, 34.95397],
          [-129.81281, 34.9574],
          [-129.79568, 34.98143],
          [-129.80265, 35.00318],
          [-129.8002, 35.00661],
          [-129.78307, 35.03063],
          [-129.8124, 35.04466],
          [-129.81659, 35.04666],
          [-129.81415, 35.05009],
          [-129.79701, 35.07411],
          [-129.80398, 35.09585],
          [-129.80153, 35.09928],
          [-129.78438, 35.12329],
          [-129.78193, 35.12672],
          [-129.76477, 35.15073],
          [-129.76232, 35.15416],
          [-129.74515, 35.17817],
          [-129.7427, 35.18159],
          [-129.72552, 35.20559],
          [-129.72307, 35.20902],
          [-129.70588, 35.23302],
          [-129.70343, 35.23645],
          [-129.68624, 35.26044],
          [-129.68378, 35.26386],
          [-129.66658, 35.28785],
          [-129.66412, 35.29128],
          [-129.64691, 35.31526],
          [-129.64445, 35.31869],
          [-129.62723, 35.34267],
          [-129.62477, 35.34609],
          [-129.60755, 35.37007],
          [-129.6145, 35.39179],
          [-129.61204, 35.39522],
          [-129.5948, 35.41919],
          [-129.59234, 35.42261],
          [-129.57509, 35.44658],
          [-129.57263, 35.45],
          [-129.54596, 35.45566],
          [-129.5287, 35.47962],
          [-129.52623, 35.48304],
          [-129.50897, 35.50699],
          [-129.5065, 35.51041],
          [-129.47981, 35.51606],
          [-129.45312, 35.52171],
          [-129.43583, 35.54565],
          [-129.43336, 35.54907],
          [-129.41606, 35.57301],
          [-129.41359, 35.57643],
          [-129.39628, 35.60036],
          [-129.39381, 35.60378],
          [-129.37649, 35.62771],
          [-129.37402, 35.63113],
          [-129.35669, 35.65505],
          [-129.35421, 35.65847],
          [-129.33688, 35.68239],
          [-129.3344, 35.68581],
          [-129.31706, 35.70973],
          [-129.32398, 35.73144],
          [-129.3215, 35.73486],
          [-129.30415, 35.75877],
          [-129.30167, 35.76218],
          [-129.28431, 35.78609],
          [-129.28182, 35.78951],
          [-129.26445, 35.81341],
          [-129.27137, 35.83512],
          [-129.26889, 35.83853],
          [-129.2515, 35.86243],
          [-129.24902, 35.86584],
          [-129.23163, 35.88973],
          [-129.22915, 35.89315],
          [-129.20235, 35.89874],
          [-129.17556, 35.90434],
          [-129.15815, 35.92822],
          [-129.15566, 35.93163],
          [-129.13824, 35.95551],
          [-129.13575, 35.95892],
          [-129.10893, 35.9645],
          [-129.0915, 35.98837],
          [-129.08901, 35.99178],
          [-129.06218, 35.99735],
          [-129.03536, 36.00292],
          [-129.0179, 36.02678],
          [-129.0154, 36.03019],
          [-128.98857, 36.03575],
          [-128.97109, 36.0596],
          [-128.96859, 36.06301],
          [-128.95111, 36.08685],
          [-128.94861, 36.09026],
          [-128.92176, 36.09581],
          [-128.8949, 36.10135],
          [-128.86804, 36.10689],
          [-128.85053, 36.13072],
          [-128.84803, 36.13413],
          [-128.82116, 36.13966],
          [-128.80363, 36.16348],
          [-128.80112, 36.16689],
          [-128.78359, 36.19071],
          [-128.78108, 36.19411],
          [-128.76354, 36.21793],
          [-128.76103, 36.22133],
          [-128.74348, 36.24514],
          [-128.74097, 36.24854],
          [-128.72341, 36.27235],
          [-128.7209, 36.27575],
          [-128.70333, 36.29955],
          [-128.70082, 36.30295],
          [-128.68324, 36.32675],
          [-128.68073, 36.33015],
          [-128.66314, 36.35394],
          [-128.66063, 36.35734],
          [-128.64303, 36.38113],
          [-128.64986, 36.40282],
          [-128.64734, 36.40622],
          [-128.62974, 36.43],
          [-128.62722, 36.4334],
          [-128.6096, 36.45718],
          [-128.60709, 36.46058],
          [-128.58012, 36.46606],
          [-128.56249, 36.48983],
          [-128.55997, 36.49323],
          [-128.54233, 36.517],
          [-128.53981, 36.52039],
          [-128.52216, 36.54415],
          [-128.52898, 36.56583],
          [-128.52645, 36.56923],
          [-128.50879, 36.59298],
          [-128.50627, 36.59638],
          [-128.4886, 36.62013],
          [-128.48608, 36.62352],
          [-128.45907, 36.62899],
          [-128.44138, 36.65273],
          [-128.43885, 36.65612],
          [-128.42116, 36.67986],
          [-128.41863, 36.68325],
          [-128.40093, 36.70699],
          [-128.3984, 36.71038],
          [-128.38069, 36.73411],
          [-128.37816, 36.7375],
          [-128.36044, 36.76122],
          [-128.35791, 36.76461],
          [-128.34018, 36.78833],
          [-128.34697, 36.81],
          [-128.34444, 36.81339],
          [-128.3267, 36.83711],
          [-128.32416, 36.84049],
          [-128.30642, 36.8642],
          [-128.31321, 36.88587],
          [-128.31067, 36.88925],
          [-128.29291, 36.91296],
          [-128.2997, 36.93462],
          [-128.30649, 36.95627],
          [-128.30396, 36.95966],
          [-128.28618, 36.98336],
          [-128.29298, 37.00501],
          [-128.29978, 37.02666],
          [-128.30657, 37.04831],
          [-128.30403, 37.0517],
          [-128.28625, 37.07539],
          [-128.29305, 37.09703],
          [-128.2905, 37.10042],
          [-128.27271, 37.1241],
          [-128.27951, 37.14574],
          [-128.28631, 37.16738],
          [-128.29312, 37.18902],
          [-128.29992, 37.21065],
          [-128.30673, 37.23229],
          [-128.31355, 37.25392],
          [-128.32037, 37.27555],
          [-128.35012, 37.28972],
          [-128.35437, 37.29175],
          [-128.3612, 37.31337],
          [-128.36803, 37.33499],
          [-128.37486, 37.35661],
          [-128.37231, 37.35999],
          [-128.35449, 37.38366],
          [-128.35194, 37.38704],
          [-128.33411, 37.41071],
          [-128.33156, 37.41409],
          [-128.31372, 37.43774],
          [-128.31117, 37.44112],
          [-128.30692, 37.4391],
          [-128.27713, 37.42492],
          [-128.24991, 37.43034],
          [-128.23204, 37.45398],
          [-128.22949, 37.45736],
          [-128.20226, 37.46277],
          [-128.198, 37.46074],
          [-128.16823, 37.44655],
          [-128.14099, 37.45194],
          [-128.11376, 37.45733],
          [-128.09586, 37.48097],
          [-128.0933, 37.48434],
          [-128.0754, 37.50797],
          [-128.07284, 37.51134],
          [-128.04559, 37.51672],
          [-128.02767, 37.54034],
          [-128.0251, 37.54371],
          [-127.99784, 37.54908],
          [-127.97057, 37.55445],
          [-127.95263, 37.57805],
          [-127.95007, 37.58143],
          [-127.93211, 37.60503],
          [-127.92955, 37.6084],
          [-127.91159, 37.632],
          [-127.90902, 37.63537],
          [-127.89105, 37.65896],
          [-127.88848, 37.66233],
          [-127.8705, 37.68591],
          [-127.86793, 37.68928],
          [-127.84994, 37.71287],
          [-127.84737, 37.71624],
          [-127.82937, 37.73981],
          [-127.8268, 37.74318],
          [-127.80879, 37.76675],
          [-127.80622, 37.77012],
          [-127.77889, 37.77545],
          [-127.76086, 37.79902],
          [-127.75829, 37.80238],
          [-127.74026, 37.82594],
          [-127.73768, 37.82931],
          [-127.71964, 37.85286],
          [-127.71706, 37.85623],
          [-127.6897, 37.86154],
          [-127.66234, 37.86685],
          [-127.63498, 37.87215],
          [-127.63072, 37.87012],
          [-127.6009, 37.85585],
          [-127.57353, 37.86115],
          [-127.54617, 37.86644],
          [-127.54191, 37.8644],
          [-127.53521, 37.84279],
          [-127.50541, 37.82851],
          [-127.50116, 37.82647],
          [-127.47137, 37.81217],
          [-127.44401, 37.81745],
          [-127.43975, 37.81541],
          [-127.40998, 37.80111],
          [-127.39187, 37.82463],
          [-127.38928, 37.82799],
          [-127.37116, 37.85151],
          [-127.36857, 37.85487],
          [-127.3412, 37.86012],
          [-127.32306, 37.88363],
          [-127.32047, 37.88699],
          [-127.29309, 37.89224],
          [-127.2657, 37.89749],
          [-127.2383, 37.90273],
          [-127.22014, 37.92622],
          [-127.21755, 37.92958],
          [-127.19937, 37.95307],
          [-127.19678, 37.95643],
          [-127.17859, 37.97991],
          [-127.176, 37.98327],
          [-127.15781, 38.00675],
          [-127.15521, 38.0101],
          [-127.13701, 38.03358],
          [-127.14363, 38.05518],
          [-127.14103, 38.05853],
          [-127.12282, 38.082],
          [-127.12945, 38.1036],
          [-127.12685, 38.10696],
          [-127.10863, 38.13042],
          [-127.11525, 38.15202],
          [-127.11265, 38.15537],
          [-127.09442, 38.17882],
          [-127.09181, 38.18217],
          [-127.07357, 38.20563],
          [-127.07096, 38.20898],
          [-127.05271, 38.23242],
          [-127.0501, 38.23577],
          [-127.03184, 38.25921],
          [-127.02923, 38.26256],
          [-127.01096, 38.286],
          [-127.00835, 38.28934],
          [-126.98084, 38.29454],
          [-126.95333, 38.29972],
          [-126.92582, 38.30491],
          [-126.90752, 38.32833],
          [-126.90491, 38.33167],
          [-126.8866, 38.35509],
          [-126.88398, 38.35843],
          [-126.85645, 38.3636],
          [-126.82892, 38.36877],
          [-126.81059, 38.39217],
          [-126.80797, 38.39552],
          [-126.78962, 38.41891],
          [-126.787, 38.42226],
          [-126.76865, 38.44565],
          [-126.76603, 38.44899],
          [-126.73847, 38.45414],
          [-126.71091, 38.45929],
          [-126.68334, 38.46443],
          [-126.65578, 38.46956],
          [-126.62821, 38.47469],
          [-126.60064, 38.47982],
          [-126.57306, 38.48494],
          [-126.55465, 38.50831],
          [-126.55202, 38.51165],
          [-126.5336, 38.53501],
          [-126.53097, 38.53834],
          [-126.50338, 38.54345],
          [-126.47578, 38.54856],
          [-126.44818, 38.55366],
          [-126.44392, 38.5516],
          [-126.41407, 38.53717],
          [-126.38647, 38.54226],
          [-126.35887, 38.54735],
          [-126.33127, 38.55243],
          [-126.31279, 38.57576],
          [-126.31015, 38.57909],
          [-126.28254, 38.58417],
          [-126.25492, 38.58924],
          [-126.25066, 38.58717],
          [-126.22083, 38.57271],
          [-126.21657, 38.57064],
          [-126.18674, 38.55618],
          [-126.15913, 38.56123],
          [-126.15487, 38.55917],
          [-126.12506, 38.54469],
          [-126.09744, 38.54973],
          [-126.09319, 38.54766],
          [-126.06338, 38.53317],
          [-126.03577, 38.53821],
          [-126.03151, 38.53614],
          [-126.00173, 38.52164],
          [-125.97411, 38.52666],
          [-125.95556, 38.54996],
          [-125.95291, 38.55329],
          [-125.93436, 38.57658],
          [-125.9317, 38.57991],
          [-125.91314, 38.60319],
          [-125.91048, 38.60652],
          [-125.89191, 38.6298],
          [-125.88925, 38.63313],
          [-125.87067, 38.6564],
          [-125.86801, 38.65973],
          [-125.84941, 38.683],
          [-125.84676, 38.68632],
          [-125.82815, 38.70959],
          [-125.83456, 38.73118],
          [-125.8319, 38.7345],
          [-125.81328, 38.75776],
          [-125.81968, 38.77935],
          [-125.81702, 38.78267],
          [-125.7984, 38.80593],
          [-125.8048, 38.82751],
          [-125.80214, 38.83083],
          [-125.7835, 38.85407],
          [-125.78083, 38.8574],
          [-125.76218, 38.88064],
          [-125.75952, 38.88396],
          [-125.74086, 38.90719],
          [-125.73819, 38.91051],
          [-125.71953, 38.93374],
          [-125.71686, 38.93706],
          [-125.69818, 38.96029],
          [-125.69551, 38.9636],
          [-125.67683, 38.98683],
          [-125.67415, 38.99014],
          [-125.65546, 39.01336],
          [-125.65279, 39.01667],
          [-125.63408, 39.03988],
          [-125.64047, 39.06145],
          [-125.63779, 39.06476],
          [-125.61907, 39.08797],
          [-125.6164, 39.09128],
          [-125.59767, 39.11448],
          [-125.595, 39.11779],
          [-125.56721, 39.12274],
          [-125.54846, 39.14593],
          [-125.54578, 39.14924],
          [-125.52703, 39.17243],
          [-125.52435, 39.17574],
          [-125.50559, 39.19892],
          [-125.50291, 39.20223],
          [-125.48414, 39.2254],
          [-125.48145, 39.22871],
          [-125.45363, 39.23364],
          [-125.43484, 39.25681],
          [-125.43216, 39.26012],
          [-125.41336, 39.28328],
          [-125.41971, 39.30482],
          [-125.41703, 39.30813],
          [-125.38918, 39.31305],
          [-125.37036, 39.3362],
          [-125.36767, 39.3395],
          [-125.33981, 39.34441],
          [-125.31195, 39.34931],
          [-125.28409, 39.35421],
          [-125.25622, 39.3591],
          [-125.23737, 39.38223],
          [-125.23467, 39.38553],
          [-125.2068, 39.39042],
          [-125.20252, 39.38834],
          [-125.17261, 39.37375],
          [-125.14473, 39.37862],
          [-125.11685, 39.38349],
          [-125.08897, 39.38836],
          [-125.06108, 39.39322],
          [-125.05681, 39.39113],
          [-125.02691, 39.37652],
          [-124.99903, 39.38137],
          [-124.97114, 39.38622],
          [-124.94325, 39.39106],
          [-124.91536, 39.3959],
          [-124.88747, 39.40073],
          [-124.85957, 39.40556],
          [-124.83167, 39.41039],
          [-124.80377, 39.4152],
          [-124.7995, 39.41311],
          [-124.76963, 39.39846],
          [-124.74173, 39.40327],
          [-124.73746, 39.40118],
          [-124.70761, 39.38651],
          [-124.67971, 39.39131],
          [-124.6518, 39.39611],
          [-124.6239, 39.4009],
          [-124.59599, 39.40569],
          [-124.56807, 39.41047],
          [-124.54906, 39.43352],
          [-124.54634, 39.43681],
          [-124.51842, 39.44158],
          [-124.49939, 39.46462],
          [-124.50556, 39.48619],
          [-124.50284, 39.48948],
          [-124.4838, 39.51251],
          [-124.48998, 39.53407],
          [-124.49615, 39.55563],
          [-124.50234, 39.57718],
          [-124.50852, 39.59873],
          [-124.51471, 39.62028],
          [-124.52089, 39.64182],
          [-124.52709, 39.66336],
          [-124.53328, 39.6849],
          [-124.53056, 39.68819],
          [-124.51148, 39.71121],
          [-124.50876, 39.71449],
          [-124.48967, 39.7375],
          [-124.49586, 39.75904],
          [-124.49314, 39.76232],
          [-124.47404, 39.78533],
          [-124.48023, 39.80686],
          [-124.48642, 39.82838],
          [-124.49262, 39.84991],
          [-124.49882, 39.87143],
          [-124.49609, 39.87471],
          [-124.47697, 39.8977],
          [-124.47424, 39.90099],
          [-124.45511, 39.92397],
          [-124.45238, 39.92726],
          [-124.43324, 39.95024],
          [-124.43944, 39.97175],
          [-124.4367, 39.97503],
          [-124.41755, 39.998],
          [-124.42374, 40.01951],
          [-124.42994, 40.04102],
          [-124.43613, 40.06252],
          [-124.4334, 40.0658],
          [-124.41423, 40.08876],
          [-124.42043, 40.11026],
          [-124.42663, 40.13176],
          [-124.43283, 40.15325],
          [-124.43903, 40.17474],
          [-124.43629, 40.17802],
          [-124.41711, 40.20097],
          [-124.42331, 40.22246],
          [-124.42952, 40.24394],
          [-124.43572, 40.26542],
          [-124.46579, 40.28007],
          [-124.47009, 40.28216],
          [-124.47631, 40.30363],
          [-124.48253, 40.32511],
          [-124.48875, 40.34658],
          [-124.49498, 40.36805],
          [-124.52509, 40.38267],
          [-124.52939, 40.38476],
          [-124.53563, 40.40623],
          [-124.54187, 40.42768],
          [-124.53912, 40.43096],
          [-124.51991, 40.45389],
          [-124.52615, 40.47535],
          [-124.5324, 40.4968],
          [-124.53864, 40.51825],
          [-124.54489, 40.53969],
          [-124.54214, 40.54297],
          [-124.52291, 40.56589],
          [-124.52916, 40.58733],
          [-124.53541, 40.60877],
          [-124.53266, 40.61204],
          [-124.51342, 40.63495],
          [-124.51067, 40.63822],
          [-124.49141, 40.66112],
          [-124.49766, 40.68256],
          [-124.49491, 40.68583],
          [-124.47564, 40.70872],
          [-124.47289, 40.71199],
          [-124.44462, 40.71672],
          [-124.42533, 40.73961],
          [-124.42258, 40.74288],
          [-124.40328, 40.76576],
          [-124.40053, 40.76903],
          [-124.38122, 40.7919],
          [-124.37846, 40.79517],
          [-124.35017, 40.79988],
          [-124.32186, 40.80459],
          [-124.30254, 40.82745],
          [-124.29977, 40.83072],
          [-124.27146, 40.83542],
          [-124.24315, 40.84012],
          [-124.21483, 40.84481],
          [-124.21052, 40.84271],
          [-124.18032, 40.82807],
          [-124.17601, 40.82598],
          [-124.14582, 40.81132],
          [-124.14151, 40.80923],
          [-124.11133, 40.79457],
          [-124.09196, 40.81741],
          [-124.08919, 40.82067],
          [-124.06981, 40.84351],
          [-124.07597, 40.86493],
          [-124.0732, 40.86819],
          [-124.05381, 40.89102],
          [-124.05998, 40.91244],
          [-124.06615, 40.93386],
          [-124.06338, 40.93712],
          [-124.04397, 40.95994],
          [-124.05014, 40.98135],
          [-124.04736, 40.98461],
          [-124.02794, 41.00742],
          [-124.03411, 41.02883],
          [-124.03134, 41.03209],
          [-124.0119, 41.05489],
          [-124.00912, 41.05815],
          [-123.98968, 41.08095],
          [-123.9869, 41.0842],
          [-123.9585, 41.08885],
          [-123.93904, 41.11164],
          [-123.93626, 41.11489],
          [-123.90785, 41.11953],
          [-123.88837, 41.1423],
          [-123.88559, 41.14556],
          [-123.8661, 41.16833],
          [-123.86331, 41.17158],
          [-123.83489, 41.17621],
          [-123.81538, 41.19897],
          [-123.81259, 41.20222],
          [-123.79308, 41.22498],
          [-123.79921, 41.24637],
          [-123.79642, 41.24962],
          [-123.77689, 41.27237],
          [-123.7741, 41.27562],
          [-123.75456, 41.29837],
          [-123.76069, 41.31975],
          [-123.76683, 41.34113],
          [-123.76403, 41.34438],
          [-123.74448, 41.36711],
          [-123.74168, 41.37036],
          [-123.72212, 41.39309],
          [-123.72825, 41.41447],
          [-123.72545, 41.41771],
          [-123.70587, 41.44043],
          [-123.712, 41.4618],
          [-123.71814, 41.48317],
          [-123.71534, 41.48641],
          [-123.69574, 41.50912],
          [-123.70187, 41.53049],
          [-123.69907, 41.53373],
          [-123.67947, 41.55643],
          [-123.6856, 41.57779],
          [-123.69173, 41.59914],
          [-123.68893, 41.60239],
          [-123.66931, 41.62508],
          [-123.6665, 41.62832],
          [-123.64687, 41.65101],
          [-123.64407, 41.65425],
          [-123.62443, 41.67693],
          [-123.63055, 41.69828],
          [-123.62775, 41.70151],
          [-123.60809, 41.72419],
          [-123.60528, 41.72743],
          [-123.58562, 41.7501],
          [-123.59174, 41.77143],
          [-123.58893, 41.77467],
          [-123.56925, 41.79733],
          [-123.57537, 41.81866],
          [-123.57256, 41.8219],
          [-123.55287, 41.84455],
          [-123.55899, 41.86588],
          [-123.55618, 41.86911],
          [-123.53648, 41.89176],
          [-123.53366, 41.89499],
          [-123.51395, 41.91763],
          [-123.52007, 41.93895],
          [-123.51725, 41.94218],
          [-123.49752, 41.96481],
          [-123.4947, 41.96805],
          [-123.47497, 41.99067],
          [-123.47215, 41.9939],
          [-123.4524, 42.01652],
          [-123.45851, 42.03783],
          [-123.45569, 42.04106],
          [-123.43593, 42.06367],
          [-123.43311, 42.0669],
          [-123.41334, 42.08951],
          [-123.41051, 42.09274],
          [-123.3818, 42.09727],
          [-123.36202, 42.11986],
          [-123.35919, 42.12309],
          [-123.33939, 42.14568],
          [-123.33656, 42.14891],
          [-123.31676, 42.17149],
          [-123.31393, 42.17472],
          [-123.29411, 42.1973],
          [-123.29128, 42.20052],
          [-123.27145, 42.22309],
          [-123.26862, 42.22632],
          [-123.23986, 42.23082],
          [-123.21111, 42.23532],
          [-123.19126, 42.25788],
          [-123.18842, 42.2611],
          [-123.16856, 42.28365],
          [-123.16572, 42.28688],
          [-123.14585, 42.30942],
          [-123.14301, 42.31264],
          [-123.11423, 42.31712],
          [-123.08544, 42.3216],
          [-123.06554, 42.34413],
          [-123.0627, 42.34735],
          [-123.03391, 42.35182],
          [-123.01399, 42.37434],
          [-123.02003, 42.39562],
          [-123.01718, 42.39884],
          [-122.99725, 42.42136],
          [-122.99441, 42.42457],
          [-122.96559, 42.42903],
          [-122.94564, 42.45153],
          [-122.94279, 42.45475],
          [-122.91396, 42.45919],
          [-122.9096, 42.45709],
          [-122.87911, 42.44236],
          [-122.85028, 42.44679],
          [-122.8303, 42.46929],
          [-122.82745, 42.4725],
          [-122.80746, 42.49499],
          [-122.80461, 42.4982],
          [-122.78461, 42.52068],
          [-122.78175, 42.52389],
          [-122.76175, 42.54636],
          [-122.75889, 42.54957],
          [-122.73887, 42.57204],
          [-122.73601, 42.57525],
          [-122.70713, 42.57966],
          [-122.67826, 42.58406],
          [-122.64938, 42.58846],
          [-122.62933, 42.61092],
          [-122.62646, 42.61412],
          [-122.6064, 42.63657],
          [-122.61237, 42.65783],
          [-122.6095, 42.66103],
          [-122.58943, 42.68347],
          [-122.58656, 42.68667],
          [-122.56648, 42.7091],
          [-122.57244, 42.73035],
          [-122.57841, 42.7516],
          [-122.57554, 42.7548],
          [-122.55544, 42.77722],
          [-122.55257, 42.78043],
          [-122.53246, 42.80284],
          [-122.53842, 42.82408],
          [-122.53555, 42.82728],
          [-122.50659, 42.83165],
          [-122.48646, 42.85405],
          [-122.48358, 42.85725],
          [-122.46344, 42.87965],
          [-122.46056, 42.88285],
          [-122.44041, 42.90524],
          [-122.43753, 42.90844],
          [-122.41737, 42.93082],
          [-122.41449, 42.93402],
          [-122.39432, 42.9564],
          [-122.40026, 42.97762],
          [-122.39738, 42.98082],
          [-122.37719, 43.00319],
          [-122.38313, 43.0244],
          [-122.38025, 43.0276],
          [-122.36005, 43.04996],
          [-122.36599, 43.07117],
          [-122.3631, 43.07437],
          [-122.34289, 43.09672],
          [-122.34883, 43.11793],
          [-122.34594, 43.12112],
          [-122.32572, 43.14346],
          [-122.32283, 43.14665],
          [-122.30259, 43.16899],
          [-122.2997, 43.17218],
          [-122.27945, 43.19452],
          [-122.28538, 43.21571],
          [-122.28249, 43.2189],
          [-122.26223, 43.24123],
          [-122.25933, 43.24441],
          [-122.23906, 43.26673],
          [-122.23617, 43.26992],
          [-122.21589, 43.29223],
          [-122.21299, 43.29542],
          [-122.1927, 43.31773],
          [-122.1898, 43.32091],
          [-122.16949, 43.34321],
          [-122.16659, 43.3464],
          [-122.14628, 43.36869],
          [-122.14338, 43.37188],
          [-122.12306, 43.39416],
          [-122.12897, 43.41534],
          [-122.12606, 43.41852],
          [-122.10572, 43.4408],
          [-122.10282, 43.44398],
          [-122.08247, 43.46625],
          [-122.08838, 43.48742],
          [-122.08547, 43.4906],
          [-122.06511, 43.51286],
          [-122.07101, 43.53402],
          [-122.0681, 43.5372],
          [-122.04773, 43.55946],
          [-122.05363, 43.58061],
          [-122.05072, 43.58379],
          [-122.03033, 43.60604],
          [-122.03624, 43.62719],
          [-122.03332, 43.63036],
          [-122.01292, 43.6526],
          [-122.01001, 43.65578],
          [-121.98078, 43.66005],
          [-121.95156, 43.66431],
          [-121.94717, 43.6622],
          [-121.91645, 43.64742],
          [-121.91206, 43.64531],
          [-121.90618, 43.62416],
          [-121.9003, 43.60301],
          [-121.90322, 43.59983],
          [-121.92364, 43.5776],
          [-121.91776, 43.55644],
          [-121.91189, 43.53528],
          [-121.90602, 43.51411],
          [-121.90015, 43.49295],
          [-121.89428, 43.47178],
          [-121.88842, 43.4506],
          [-121.88256, 43.42943],
          [-121.85192, 43.41462],
          [-121.84755, 43.4125],
          [-121.8417, 43.39132],
          [-121.81108, 43.3765],
          [-121.78193, 43.38074],
          [-121.75277, 43.38498],
          [-121.7484, 43.38286],
          [-121.7178, 43.36802],
          [-121.68864, 43.37225],
          [-121.65949, 43.37648],
          [-121.63906, 43.39871],
          [-121.63614, 43.40189],
          [-121.60697, 43.4061],
          [-121.5778, 43.41031],
          [-121.55735, 43.43253],
          [-121.55442, 43.43571],
          [-121.52524, 43.43991],
          [-121.49606, 43.4441],
          [-121.47558, 43.46631],
          [-121.47265, 43.46948],
          [-121.45216, 43.49168],
          [-121.44923, 43.49485],
          [-121.42872, 43.51705],
          [-121.42579, 43.52022],
          [-121.40528, 43.54241],
          [-121.40235, 43.54558],
          [-121.38182, 43.56776],
          [-121.37889, 43.57093],
          [-121.35835, 43.5931],
          [-121.36411, 43.61427],
          [-121.36117, 43.61744],
          [-121.34062, 43.63961],
          [-121.34638, 43.66077],
          [-121.34344, 43.66394],
          [-121.32287, 43.6861],
          [-121.32863, 43.70725],
          [-121.32569, 43.71042],
          [-121.30511, 43.73257],
          [-121.31087, 43.75372],
          [-121.30793, 43.75688],
          [-121.28733, 43.77903],
          [-121.29309, 43.80017],
          [-121.29884, 43.82132],
          [-121.2959, 43.82448],
          [-121.27529, 43.84661],
          [-121.28104, 43.86775],
          [-121.2868, 43.88888],
          [-121.28385, 43.89204],
          [-121.26323, 43.91416],
          [-121.26898, 43.93529],
          [-121.26604, 43.93845],
          [-121.2454, 43.96056],
          [-121.24245, 43.96372],
          [-121.2218, 43.98582],
          [-121.22755, 44.00694],
          [-121.2246, 44.0101],
          [-121.20393, 44.03219],
          [-121.20968, 44.05331],
          [-121.21543, 44.07442],
          [-121.22119, 44.09553],
          [-121.22695, 44.11663],
          [-121.22399, 44.11979],
          [-121.2033, 44.14187],
          [-121.20906, 44.16297],
          [-121.23984, 44.17781],
          [-121.24423, 44.17993],
          [-121.25, 44.20102],
          [-121.24704, 44.20418],
          [-121.22634, 44.22624],
          [-121.23211, 44.24733],
          [-121.22915, 44.25048],
          [-121.20844, 44.27254],
          [-121.20548, 44.27569],
          [-121.18475, 44.29775],
          [-121.18179, 44.3009],
          [-121.15233, 44.30502],
          [-121.13159, 44.32706],
          [-121.13734, 44.34814],
          [-121.13438, 44.35129],
          [-121.11362, 44.37332],
          [-121.11937, 44.39439],
          [-121.12512, 44.41546],
          [-121.12216, 44.4186],
          [-121.09266, 44.42271],
          [-121.07188, 44.44473],
          [-121.06891, 44.44788],
          [-121.04812, 44.46989],
          [-121.04515, 44.47303],
          [-121.01564, 44.47713],
          [-120.99482, 44.49913],
          [-120.994, 44.5]
        ]
      }
    },
    {
      "type": "Feature",
      "id": "2026092706_f222_11000_001",
      "properties": {
        "product_id": "winter_storm_levels",
        "source_id": "nbm_snow_level",
        "parameter": "snow_level",
        "definition": "height of the wet-bulb 0.5 degree C surface",
        "level_ft_msl": 11000,
        "label": "11,000 ft MSL",
        "unit": "ft_msl",
        "cycle_time_utc": "2026-09-27T06:00:00Z",
        "valid_time_utc": "2026-10-06T12:00:00Z",
        "lead_hours": 222,
        "segment": 1,
        "length_m": 74023
      },
      "geometry": {
        "type": "LineString",
        "coordinates": [
          [-116.79461, 40.10444],
          [-116.79, 40.08271],
          [-116.7854, 40.06097],
          [-116.75323, 40.04321],
          [-116.7524, 40.04276],
          [-116.72024, 40.02499],
          [-116.71942, 40.02453],
          [-116.68727, 40.00676],
          [-116.68644, 40.0063],
          [-116.65431, 39.98852],
          [-116.65348, 39.98806],
          [-116.64891, 39.96631],
          [-116.61679, 39.94852],
          [-116.59357, 39.97313],
          [-116.59298, 39.97377],
          [-116.56459, 39.97726],
          [-116.53621, 39.98074],
          [-116.51296, 40.00534],
          [-116.51751, 40.02709],
          [-116.51691, 40.02772],
          [-116.49365, 40.05232],
          [-116.52578, 40.07012],
          [-116.5266, 40.07058],
          [-116.53115, 40.09232],
          [-116.5633, 40.11012],
          [-116.56412, 40.11057],
          [-116.59628, 40.12836],
          [-116.59711, 40.12882],
          [-116.62928, 40.1466],
          [-116.65771, 40.1431],
          [-116.68613, 40.1396],
          [-116.71455, 40.13609],
          [-116.74298, 40.13258],
          [-116.77139, 40.12906],
          [-116.79461, 40.10444]
        ]
      }
    },
    {
      "type": "Feature",
      "id": "2026092706_f222_11000_002",
      "properties": {
        "product_id": "winter_storm_levels",
        "source_id": "nbm_snow_level",
        "parameter": "snow_level",
        "definition": "height of the wet-bulb 0.5 degree C surface",
        "level_ft_msl": 11000,
        "label": "11,000 ft MSL",
        "unit": "ft_msl",
        "cycle_time_utc": "2026-09-27T06:00:00Z",
        "valid_time_utc": "2026-10-06T12:00:00Z",
        "lead_hours": 222,
        "segment": 2,
        "length_m": 349.3
      },
      "geometry": {
        "type": "LineString",
        "coordinates": [
          [-119.88417, 38.25147],
          [-119.88361, 38.25212],
          [-119.88278, 38.25168],
          [-119.88335, 38.25103],
          [-119.88417, 38.25147]
        ]
      }
    },
    {
      "type": "Feature",
      "id": "2026092706_f222_11000_003",
      "properties": {
        "product_id": "winter_storm_levels",
        "source_id": "nbm_snow_level",
        "parameter": "snow_level",
        "definition": "height of the wet-bulb 0.5 degree C surface",
        "level_ft_msl": 11000,
        "label": "11,000 ft MSL",
        "unit": "ft_msl",
        "cycle_time_utc": "2026-09-27T06:00:00Z",
        "valid_time_utc": "2026-10-06T12:00:00Z",
        "lead_hours": 222,
        "segment": 3,
        "length_m": 348.2
      },
      "geometry": {
        "type": "LineString",
        "coordinates": [
          [-120.10309, 38.08379],
          [-120.10253, 38.08444],
          [-120.10171, 38.08399],
          [-120.10227, 38.08335],
          [-120.10309, 38.08379]
        ]
      }
    },
    {
      "type": "Feature",
      "id": "2026092706_f222_11000_004",
      "properties": {
        "product_id": "winter_storm_levels",
        "source_id": "nbm_snow_level",
        "parameter": "snow_level",
        "definition": "height of the wet-bulb 0.5 degree C surface",
        "level_ft_msl": 11000,
        "label": "11,000 ft MSL",
        "unit": "ft_msl",
        "cycle_time_utc": "2026-09-27T06:00:00Z",
        "valid_time_utc": "2026-10-06T12:00:00Z",
        "lead_hours": 222,
        "segment": 4,
        "length_m": 26002.1
      },
      "geometry": {
        "type": "LineString",
        "coordinates": [
          [-120.43469, 34.54949],
          [-120.43415, 34.55015],
          [-120.41293, 34.57581],
          [-120.41239, 34.57647],
          [-120.38552, 34.58066],
          [-120.38472, 34.58021],
          [-120.35357, 34.56273],
          [-120.35278, 34.56228],
          [-120.34769, 34.54016],
          [-120.34824, 34.5395],
          [-120.36946, 34.51385],
          [-120.37001, 34.51319],
          [-120.39686, 34.509],
          [-120.4237, 34.50481],
          [-120.4245, 34.50525],
          [-120.4296, 34.52737],
          [-120.43469, 34.54949]
        ]
      }
    },
    {
      "type": "Feature",
      "id": "2026092706_f222_11000_005",
      "properties": {
        "product_id": "winter_storm_levels",
        "source_id": "nbm_snow_level",
        "parameter": "snow_level",
        "definition": "height of the wet-bulb 0.5 degree C surface",
        "level_ft_msl": 11000,
        "label": "11,000 ft MSL",
        "unit": "ft_msl",
        "cycle_time_utc": "2026-09-27T06:00:00Z",
        "valid_time_utc": "2026-10-06T12:00:00Z",
        "lead_hours": 222,
        "segment": 5,
        "length_m": 5336.2
      },
      "geometry": {
        "type": "LineString",
        "coordinates": [
          [-120.51653, 34.42206],
          [-120.51599, 34.42272],
          [-120.48917, 34.42693],
          [-120.48837, 34.42648],
          [-120.48891, 34.42582],
          [-120.51573, 34.42161],
          [-120.51653, 34.42206]
        ]
      }
    },
    {
      "type": "Feature",
      "id": "2026092706_f222_11000_006",
      "properties": {
        "product_id": "winter_storm_levels",
        "source_id": "nbm_snow_level",
        "parameter": "snow_level",
        "definition": "height of the wet-bulb 0.5 degree C surface",
        "level_ft_msl": 11000,
        "label": "11,000 ft MSL",
        "unit": "ft_msl",
        "cycle_time_utc": "2026-09-27T06:00:00Z",
        "valid_time_utc": "2026-10-06T12:00:00Z",
        "lead_hours": 222,
        "segment": 6,
        "length_m": 2269701
      },
      "geometry": {
        "type": "LineString",
        "coordinates": [
          [-122.92525, 30.24675],
          [-122.92069, 30.25277],
          [-122.92608, 30.27503],
          [-122.93146, 30.29729],
          [-122.93095, 30.29796],
          [-122.91107, 30.3242],
          [-122.91056, 30.32487],
          [-122.89066, 30.35111],
          [-122.89015, 30.35178],
          [-122.87024, 30.37801],
          [-122.86973, 30.37868],
          [-122.84982, 30.40491],
          [-122.84931, 30.40558],
          [-122.8235, 30.41021],
          [-122.80357, 30.43643],
          [-122.80306, 30.4371],
          [-122.78312, 30.46332],
          [-122.78261, 30.46399],
          [-122.76266, 30.4902],
          [-122.76214, 30.49087],
          [-122.73631, 30.49549],
          [-122.71048, 30.50011],
          [-122.68465, 30.50472],
          [-122.65881, 30.50933],
          [-122.63882, 30.53552],
          [-122.63831, 30.5362],
          [-122.61247, 30.5408],
          [-122.58662, 30.54539],
          [-122.56661, 30.57157],
          [-122.5661, 30.57224],
          [-122.54024, 30.57683],
          [-122.53946, 30.57639],
          [-122.50906, 30.55915],
          [-122.4832, 30.56373],
          [-122.45735, 30.5683],
          [-122.43149, 30.57287],
          [-122.40562, 30.57744],
          [-122.40485, 30.577],
          [-122.37447, 30.55973],
          [-122.3486, 30.56429],
          [-122.32274, 30.56884],
          [-122.29687, 30.57339],
          [-122.27101, 30.57793],
          [-122.24514, 30.58247],
          [-122.22505, 30.60861],
          [-122.22453, 30.60928],
          [-122.19865, 30.61381],
          [-122.17277, 30.61834],
          [-122.14689, 30.62286],
          [-122.12677, 30.64898],
          [-122.12626, 30.64965],
          [-122.10037, 30.65417],
          [-122.08023, 30.68028],
          [-122.07971, 30.68095],
          [-122.05381, 30.68546],
          [-122.03366, 30.71157],
          [-122.03315, 30.71224],
          [-122.00724, 30.71673],
          [-121.98707, 30.74284],
          [-121.98655, 30.7435],
          [-121.96638, 30.7696],
          [-121.97161, 30.79187],
          [-121.97109, 30.79254],
          [-121.9509, 30.81864],
          [-121.95613, 30.84091],
          [-121.96135, 30.86318],
          [-121.96084, 30.86385],
          [-121.94063, 30.88993],
          [-121.94586, 30.9122],
          [-121.95109, 30.93447],
          [-121.95057, 30.93514],
          [-121.93035, 30.96122],
          [-121.92984, 30.96189],
          [-121.90961, 30.98797],
          [-121.91483, 31.01024],
          [-121.91432, 31.01091],
          [-121.89408, 31.03698],
          [-121.89356, 31.03765],
          [-121.87331, 31.06372],
          [-121.87853, 31.08598],
          [-121.87801, 31.08665],
          [-121.85201, 31.09112],
          [-121.83175, 31.11718],
          [-121.83123, 31.11785],
          [-121.80522, 31.12231],
          [-121.78494, 31.14837],
          [-121.78442, 31.14904],
          [-121.7584, 31.15349],
          [-121.73239, 31.15794],
          [-121.71208, 31.18399],
          [-121.71156, 31.18465],
          [-121.68553, 31.1891],
          [-121.65951, 31.19353],
          [-121.63347, 31.19797],
          [-121.60744, 31.2024],
          [-121.58141, 31.20682],
          [-121.55537, 31.21124],
          [-121.52933, 31.21566],
          [-121.50329, 31.22007],
          [-121.47725, 31.22448],
          [-121.45121, 31.22888],
          [-121.42516, 31.23328],
          [-121.39911, 31.23768],
          [-121.39833, 31.23723],
          [-121.36793, 31.21979],
          [-121.34188, 31.22418],
          [-121.31583, 31.22856],
          [-121.28978, 31.23294],
          [-121.289, 31.23249],
          [-121.25862, 31.21503],
          [-121.23257, 31.2194],
          [-121.23179, 31.21895],
          [-121.20142, 31.20148],
          [-121.20064, 31.20103],
          [-121.17027, 31.18356],
          [-121.14423, 31.18791],
          [-121.14345, 31.18746],
          [-121.1131, 31.16998],
          [-121.11232, 31.16953],
          [-121.08198, 31.15203],
          [-121.0812, 31.15159],
          [-121.05087, 31.13409],
          [-121.02483, 31.13842],
          [-121.02405, 31.13797],
          [-120.99373, 31.12046],
          [-120.99295, 31.12001],
          [-120.96264, 31.10249],
          [-120.96187, 31.10204],
          [-120.93156, 31.08452],
          [-120.90553, 31.08883],
          [-120.90475, 31.08838],
          [-120.87447, 31.07085],
          [-120.84843, 31.07515],
          [-120.84766, 31.0747],
          [-120.81738, 31.05716],
          [-120.79135, 31.06145],
          [-120.76532, 31.06574],
          [-120.73928, 31.07003],
          [-120.71877, 31.09595],
          [-120.71824, 31.09662],
          [-120.6922, 31.1009],
          [-120.66615, 31.10517],
          [-120.64562, 31.13108],
          [-120.64509, 31.13174],
          [-120.61904, 31.13601],
          [-120.59849, 31.16191],
          [-120.59796, 31.16258],
          [-120.5719, 31.16684],
          [-120.55133, 31.19273],
          [-120.5508, 31.19339],
          [-120.53023, 31.21928],
          [-120.5297, 31.21995],
          [-120.50911, 31.24583],
          [-120.50859, 31.2465],
          [-120.4825, 31.25074],
          [-120.4619, 31.27662],
          [-120.46137, 31.27728],
          [-120.43528, 31.28152],
          [-120.41466, 31.30739],
          [-120.41413, 31.30805],
          [-120.38803, 31.31228],
          [-120.36192, 31.3165],
          [-120.34128, 31.34236],
          [-120.34075, 31.34302],
          [-120.32011, 31.36888],
          [-120.32504, 31.39118],
          [-120.32451, 31.39184],
          [-120.30385, 31.41769],
          [-120.30332, 31.41835],
          [-120.27719, 31.42256],
          [-120.25651, 31.44841],
          [-120.25598, 31.44907],
          [-120.23529, 31.47491],
          [-120.24022, 31.4972],
          [-120.23969, 31.49787],
          [-120.21899, 31.5237],
          [-120.22391, 31.546],
          [-120.22884, 31.56829],
          [-120.23377, 31.59059],
          [-120.2387, 31.61288],
          [-120.26903, 31.63052],
          [-120.26981, 31.63097],
          [-120.30015, 31.6486],
          [-120.30093, 31.64905],
          [-120.33128, 31.66668],
          [-120.33206, 31.66713],
          [-120.36242, 31.68475],
          [-120.3632, 31.6852],
          [-120.39357, 31.70281],
          [-120.39435, 31.70327],
          [-120.42474, 31.72087],
          [-120.45093, 31.71664],
          [-120.47712, 31.71241],
          [-120.4779, 31.71286],
          [-120.5083, 31.73045],
          [-120.53449, 31.7262],
          [-120.56068, 31.72195],
          [-120.58687, 31.7177],
          [-120.61306, 31.71344],
          [-120.61384, 31.71389],
          [-120.64426, 31.73146],
          [-120.67044, 31.72719],
          [-120.69663, 31.72292],
          [-120.72281, 31.71864],
          [-120.749, 31.71436],
          [-120.77518, 31.71008],
          [-120.80136, 31.70579],
          [-120.82753, 31.7015],
          [-120.85371, 31.6972],
          [-120.87988, 31.6929],
          [-120.90605, 31.6886],
          [-120.93222, 31.68429],
          [-120.95839, 31.67997],
          [-120.95917, 31.68042],
          [-120.98963, 31.69792],
          [-121.0158, 31.6936],
          [-121.04196, 31.68927],
          [-121.06812, 31.68494],
          [-121.06891, 31.68538],
          [-121.09939, 31.70286],
          [-121.12555, 31.69852],
          [-121.12633, 31.69897],
          [-121.15682, 31.71643],
          [-121.18299, 31.71208],
          [-121.20915, 31.70773],
          [-121.20994, 31.70818],
          [-121.24044, 31.72562],
          [-121.26661, 31.72126],
          [-121.29277, 31.71689],
          [-121.29355, 31.71734],
          [-121.32407, 31.73477],
          [-121.35024, 31.73039],
          [-121.35102, 31.73084],
          [-121.38155, 31.74826],
          [-121.38234, 31.74871],
          [-121.41288, 31.76612],
          [-121.41367, 31.76657],
          [-121.44422, 31.78398],
          [-121.445, 31.78442],
          [-121.45017, 31.80667],
          [-121.45535, 31.82891],
          [-121.46052, 31.85116],
          [-121.4657, 31.8734],
          [-121.46518, 31.87407],
          [-121.44468, 31.90004],
          [-121.44986, 31.92228],
          [-121.45504, 31.94452],
          [-121.46022, 31.96675],
          [-121.45969, 31.96742],
          [-121.43919, 31.99338],
          [-121.43866, 31.99405],
          [-121.41814, 32.02001],
          [-121.41761, 32.02068],
          [-121.39709, 32.04663],
          [-121.39656, 32.0473],
          [-121.37602, 32.07325],
          [-121.3755, 32.07392],
          [-121.35495, 32.09987],
          [-121.35442, 32.10053],
          [-121.33386, 32.12647],
          [-121.33334, 32.12714],
          [-121.30708, 32.13151],
          [-121.28651, 32.15745],
          [-121.28598, 32.15811],
          [-121.25972, 32.16248],
          [-121.23913, 32.1884],
          [-121.2386, 32.18907],
          [-121.21233, 32.19342],
          [-121.19172, 32.21934],
          [-121.1912, 32.22001],
          [-121.17058, 32.24592],
          [-121.17572, 32.26816],
          [-121.17519, 32.26882],
          [-121.15456, 32.29473],
          [-121.15403, 32.2954],
          [-121.1334, 32.3213],
          [-121.13287, 32.32197],
          [-121.11222, 32.34787],
          [-121.11169, 32.34853],
          [-121.09104, 32.37443],
          [-121.09051, 32.3751],
          [-121.06984, 32.40099],
          [-121.06931, 32.40165],
          [-121.04863, 32.42754],
          [-121.0481, 32.42821],
          [-121.02742, 32.45409],
          [-121.03254, 32.47632],
          [-121.03201, 32.47698],
          [-121.01131, 32.50286],
          [-121.01078, 32.50352],
          [-120.99007, 32.5294],
          [-120.98954, 32.53006],
          [-120.96883, 32.55593],
          [-120.97394, 32.57816],
          [-120.97906, 32.60038],
          [-120.97852, 32.60104],
          [-120.95779, 32.6269],
          [-120.96291, 32.64912],
          [-120.96238, 32.64979],
          [-120.94163, 32.67565],
          [-120.94674, 32.69786],
          [-120.95186, 32.72008],
          [-120.95698, 32.74229],
          [-120.95645, 32.74296],
          [-120.93568, 32.76881],
          [-120.93515, 32.76947],
          [-120.91438, 32.79532],
          [-120.91949, 32.81753],
          [-120.92461, 32.83974],
          [-120.92408, 32.8404],
          [-120.90329, 32.86625],
          [-120.9084, 32.88845],
          [-120.91352, 32.91066],
          [-120.91864, 32.93287],
          [-120.92376, 32.95507],
          [-120.92323, 32.95573],
          [-120.90242, 32.98157],
          [-120.90754, 33.00377],
          [-120.91266, 33.02597],
          [-120.91778, 33.04816],
          [-120.92291, 33.07036],
          [-120.92804, 33.09256],
          [-120.9275, 33.09322],
          [-120.90667, 33.11905],
          [-120.9118, 33.14124],
          [-120.91693, 33.16343],
          [-120.92206, 33.18562],
          [-120.92719, 33.20781],
          [-120.93233, 33.23],
          [-120.93179, 33.23066],
          [-120.91093, 33.25648],
          [-120.91607, 33.27866],
          [-120.9212, 33.30085],
          [-120.92067, 33.30151],
          [-120.8998, 33.32732],
          [-120.90493, 33.3495],
          [-120.9044, 33.35016],
          [-120.88351, 33.37597],
          [-120.88864, 33.39815],
          [-120.89378, 33.42032],
          [-120.89325, 33.42099],
          [-120.87234, 33.44679],
          [-120.87748, 33.46896],
          [-120.88262, 33.49113],
          [-120.88208, 33.4918],
          [-120.86116, 33.51759],
          [-120.8663, 33.53976],
          [-120.87144, 33.56193],
          [-120.8709, 33.56259],
          [-120.84997, 33.58838],
          [-120.85511, 33.61055],
          [-120.85457, 33.61121],
          [-120.83362, 33.63699],
          [-120.83876, 33.65915],
          [-120.83822, 33.65982],
          [-120.81726, 33.68559],
          [-120.81673, 33.68625],
          [-120.79576, 33.71202],
          [-120.79522, 33.71269],
          [-120.76858, 33.71695],
          [-120.74759, 33.74272],
          [-120.75272, 33.76488],
          [-120.75218, 33.76554],
          [-120.73118, 33.79129],
          [-120.73064, 33.79195],
          [-120.70963, 33.81771],
          [-120.70909, 33.81837],
          [-120.68808, 33.84412],
          [-120.68754, 33.84478],
          [-120.66651, 33.87052],
          [-120.66597, 33.87118],
          [-120.64493, 33.89692],
          [-120.64439, 33.89758],
          [-120.62335, 33.92331],
          [-120.62281, 33.92397],
          [-120.60175, 33.9497],
          [-120.60686, 33.97186],
          [-120.60632, 33.97252],
          [-120.58525, 33.99824],
          [-120.58471, 33.9989],
          [-120.56363, 34.02462],
          [-120.56308, 34.02528],
          [-120.542, 34.05099],
          [-120.54145, 34.05165],
          [-120.52035, 34.07736],
          [-120.51981, 34.07802],
          [-120.4987, 34.10373],
          [-120.5038, 34.12587],
          [-120.50325, 34.12653],
          [-120.48213, 34.15223],
          [-120.48159, 34.15289],
          [-120.46046, 34.17858],
          [-120.46555, 34.20073],
          [-120.465, 34.20138],
          [-120.44386, 34.22707],
          [-120.44894, 34.24921],
          [-120.4484, 34.24987],
          [-120.42724, 34.27555],
          [-120.4267, 34.27621],
          [-120.40553, 34.30189],
          [-120.41062, 34.32403],
          [-120.41007, 34.32468],
          [-120.38889, 34.35036],
          [-120.38835, 34.35101],
          [-120.36716, 34.37668],
          [-120.36661, 34.37734],
          [-120.34541, 34.403],
          [-120.35049, 34.42513],
          [-120.34994, 34.42579],
          [-120.32873, 34.45145],
          [-120.32819, 34.45211],
          [-120.30696, 34.47776],
          [-120.31203, 34.49988],
          [-120.31149, 34.50054],
          [-120.29025, 34.52619],
          [-120.28971, 34.52685],
          [-120.26846, 34.55249],
          [-120.27353, 34.57461],
          [-120.27298, 34.57527],
          [-120.25172, 34.6009],
          [-120.25117, 34.60156],
          [-120.2299, 34.62719],
          [-120.26105, 34.64469],
          [-120.28232, 34.61906],
          [-120.28287, 34.6184],
          [-120.28366, 34.61885],
          [-120.31482, 34.63634],
          [-120.3417, 34.63216],
          [-120.3425, 34.63261],
          [-120.34758, 34.65473],
          [-120.35267, 34.67684],
          [-120.35212, 34.6775],
          [-120.33086, 34.70314],
          [-120.33032, 34.70379],
          [-120.30905, 34.72943],
          [-120.3085, 34.73008],
          [-120.2816, 34.73426],
          [-120.2808, 34.73381],
          [-120.24962, 34.71631],
          [-120.24882, 34.71586],
          [-120.24375, 34.69375],
          [-120.21259, 34.67625],
          [-120.1913, 34.70187],
          [-120.19075, 34.70252],
          [-120.16945, 34.72814],
          [-120.1745, 34.75025],
          [-120.17956, 34.77236],
          [-120.17901, 34.77302],
          [-120.15769, 34.79863],
          [-120.16275, 34.82074],
          [-120.19394, 34.83824],
          [-120.19474, 34.83869],
          [-120.22595, 34.85619],
          [-120.25288, 34.85203],
          [-120.27982, 34.84786],
          [-120.30675, 34.84369],
          [-120.33368, 34.83951],
          [-120.36061, 34.83533],
          [-120.38753, 34.83114],
          [-120.38833, 34.83159],
          [-120.41957, 34.84905],
          [-120.42037, 34.8495],
          [-120.42548, 34.8716],
          [-120.43059, 34.89369],
          [-120.4357, 34.91579],
          [-120.44082, 34.93788],
          [-120.44594, 34.95997],
          [-120.45106, 34.98206],
          [-120.45618, 35.00415],
          [-120.45563, 35.00481],
          [-120.43433, 35.03043],
          [-120.43946, 35.05252],
          [-120.44458, 35.0746],
          [-120.44403, 35.07526],
          [-120.42272, 35.10087],
          [-120.42784, 35.12295],
          [-120.43296, 35.14503],
          [-120.43242, 35.14569],
          [-120.41108, 35.1713],
          [-120.41621, 35.19337],
          [-120.41566, 35.19403],
          [-120.39431, 35.21963],
          [-120.39943, 35.2417],
          [-120.40456, 35.26378],
          [-120.40401, 35.26443],
          [-120.38265, 35.29003],
          [-120.38777, 35.31209],
          [-120.3929, 35.33416],
          [-120.39235, 35.33482],
          [-120.37097, 35.3604],
          [-120.37609, 35.38247],
          [-120.37555, 35.38312],
          [-120.35415, 35.40871],
          [-120.35928, 35.43076],
          [-120.35873, 35.43142],
          [-120.33732, 35.457],
          [-120.34245, 35.47905],
          [-120.34757, 35.50111],
          [-120.34702, 35.50176],
          [-120.3256, 35.52733],
          [-120.33072, 35.54938],
          [-120.33585, 35.57143],
          [-120.34097, 35.59348],
          [-120.34042, 35.59414],
          [-120.31898, 35.6197],
          [-120.32411, 35.64174],
          [-120.32924, 35.66378],
          [-120.33437, 35.68583],
          [-120.33382, 35.68648],
          [-120.31235, 35.71203],
          [-120.31748, 35.73407],
          [-120.31693, 35.73472],
          [-120.29546, 35.76027],
          [-120.30059, 35.7823],
          [-120.30572, 35.80434],
          [-120.30517, 35.80499],
          [-120.28368, 35.83053],
          [-120.2888, 35.85256],
          [-120.29393, 35.87458],
          [-120.29907, 35.89661],
          [-120.3042, 35.91863],
          [-120.30365, 35.91929],
          [-120.28214, 35.94481],
          [-120.28727, 35.96684],
          [-120.29241, 35.98885],
          [-120.29185, 35.98951],
          [-120.27032, 36.01503],
          [-120.27546, 36.03704],
          [-120.27491, 36.0377],
          [-120.25336, 36.06321],
          [-120.2585, 36.08522],
          [-120.26363, 36.10723],
          [-120.26308, 36.10788],
          [-120.24152, 36.13339],
          [-120.24097, 36.13404],
          [-120.2194, 36.15954],
          [-120.22453, 36.18155],
          [-120.22397, 36.1822],
          [-120.20239, 36.20769],
          [-120.20752, 36.22969],
          [-120.21265, 36.25169],
          [-120.2121, 36.25235],
          [-120.1905, 36.27783],
          [-120.18995, 36.27848],
          [-120.16834, 36.30396],
          [-120.17346, 36.32596],
          [-120.17291, 36.32661],
          [-120.15129, 36.35208],
          [-120.15641, 36.37407],
          [-120.15586, 36.37473],
          [-120.13422, 36.40019],
          [-120.13934, 36.42218],
          [-120.14447, 36.44417],
          [-120.14392, 36.44482],
          [-120.12226, 36.47028],
          [-120.12739, 36.49226],
          [-120.13252, 36.51424],
          [-120.13196, 36.5149],
          [-120.11029, 36.54034],
          [-120.11542, 36.56232],
          [-120.12055, 36.5843],
          [-120.12568, 36.60627],
          [-120.13081, 36.62825],
          [-120.13025, 36.6289],
          [-120.10856, 36.65433],
          [-120.11369, 36.6763],
          [-120.11314, 36.67696],
          [-120.09143, 36.70239],
          [-120.09656, 36.72435],
          [-120.10169, 36.74632],
          [-120.10683, 36.76828],
          [-120.11196, 36.79024],
          [-120.1171, 36.81219],
          [-120.11655, 36.81285],
          [-120.09481, 36.83826],
          [-120.09995, 36.86022],
          [-120.09939, 36.86087],
          [-120.07764, 36.88628],
          [-120.08278, 36.90823],
          [-120.08792, 36.93018],
          [-120.08736, 36.93083],
          [-120.0656, 36.95623],
          [-120.07074, 36.97818],
          [-120.07587, 37.00012],
          [-120.08102, 37.02206],
          [-120.08046, 37.02271],
          [-120.05867, 37.0481],
          [-120.06381, 37.07004],
          [-120.06896, 37.09197],
          [-120.0684, 37.09263],
          [-120.0466, 37.11801],
          [-120.05174, 37.13994],
          [-120.05688, 37.16187],
          [-120.06203, 37.1838],
          [-120.06147, 37.18445],
          [-120.03965, 37.20982],
          [-120.04479, 37.23174],
          [-120.04423, 37.2324],
          [-120.0224, 37.25776],
          [-120.02754, 37.27968],
          [-120.03268, 37.3016],
          [-120.03212, 37.30225],
          [-120.01027, 37.32761],
          [-120.01541, 37.34952],
          [-120.02056, 37.37143],
          [-120.02, 37.37208],
          [-119.99813, 37.39743],
          [-120.00328, 37.41934],
          [-120.00842, 37.44125],
          [-120.00786, 37.4419],
          [-119.98598, 37.46724],
          [-119.99112, 37.48914],
          [-119.99627, 37.51104],
          [-120.00142, 37.53294],
          [-120.00086, 37.53359],
          [-119.97895, 37.55892],
          [-119.9841, 37.58081],
          [-119.98925, 37.6027],
          [-120.00787, 37.6226],
          [-119.99956, 37.64648],
          [-120.00471, 37.66837],
          [-120.00415, 37.66902],
          [-119.98222, 37.69433],
          [-119.98737, 37.71621],
          [-120.01938, 37.73357],
          [-120.0202, 37.73401],
          [-120.02536, 37.75589],
          [-120.03053, 37.77777],
          [-120.02997, 37.77841],
          [-120.00802, 37.80372],
          [-120.01318, 37.82559],
          [-120.01835, 37.84746],
          [-120.02352, 37.86933],
          [-120.02296, 37.86998],
          [-120.00099, 37.89527],
          [-120.00616, 37.91714],
          [-120.01133, 37.939],
          [-120.0165, 37.96086],
          [-120.01594, 37.96151],
          [-119.99395, 37.98679],
          [-119.99912, 38.00865],
          [-119.99856, 38.0093],
          [-119.97655, 38.03457],
          [-119.97599, 38.03522],
          [-119.95397, 38.06049],
          [-119.95341, 38.06114],
          [-119.93138, 38.08641],
          [-119.93082, 38.08706],
          [-119.90878, 38.11232],
          [-119.91394, 38.13416],
          [-119.91338, 38.13481],
          [-119.89133, 38.16007],
          [-119.89076, 38.16071],
          [-119.8687, 38.18596],
          [-119.86813, 38.18661],
          [-119.84606, 38.21185],
          [-119.85122, 38.23369],
          [-119.85065, 38.23434],
          [-119.82856, 38.25957],
          [-119.83371, 38.28141],
          [-119.83315, 38.28205],
          [-119.81105, 38.30728],
          [-119.8162, 38.32911],
          [-119.81563, 38.32976],
          [-119.79352, 38.35498],
          [-119.79867, 38.3768],
          [-119.80382, 38.39863],
          [-119.80325, 38.39927],
          [-119.78112, 38.42448],
          [-119.78627, 38.4463],
          [-119.79142, 38.46812],
          [-119.79657, 38.48994],
          [-119.80173, 38.51175],
          [-119.80689, 38.53356],
          [-119.83911, 38.55088],
          [-119.83993, 38.55133],
          [-119.8451, 38.57313],
          [-119.85027, 38.59494],
          [-119.85544, 38.61674],
          [-119.85488, 38.61738],
          [-119.83271, 38.64258],
          [-119.83788, 38.66437],
          [-119.84305, 38.68617],
          [-119.84249, 38.68681],
          [-119.8203, 38.712],
          [-119.81974, 38.71264],
          [-119.79754, 38.73782],
          [-119.80271, 38.75961],
          [-119.80214, 38.76025],
          [-119.7742, 38.76428],
          [-119.74626, 38.76831],
          [-119.71831, 38.77233],
          [-119.69608, 38.79748],
          [-119.69551, 38.79813],
          [-119.66755, 38.80214],
          [-119.6396, 38.80615],
          [-119.61164, 38.81015],
          [-119.58368, 38.81414],
          [-119.56141, 38.83928],
          [-119.56083, 38.83992],
          [-119.53286, 38.84391],
          [-119.50489, 38.8479],
          [-119.48259, 38.87302],
          [-119.48202, 38.87366],
          [-119.45971, 38.89878],
          [-119.45914, 38.89942],
          [-119.43115, 38.90339],
          [-119.40882, 38.9285],
          [-119.40825, 38.92914],
          [-119.38591, 38.95424],
          [-119.38534, 38.95489],
          [-119.36299, 38.97998],
          [-119.36242, 38.98062],
          [-119.3344, 38.98458],
          [-119.30639, 38.98853],
          [-119.28401, 39.01361],
          [-119.28344, 39.01425],
          [-119.26105, 39.03932],
          [-119.26048, 39.03997],
          [-119.23808, 39.06503],
          [-119.23751, 39.06568],
          [-119.2151, 39.09074],
          [-119.21453, 39.09138],
          [-119.19211, 39.11644],
          [-119.19154, 39.11708],
          [-119.16348, 39.121],
          [-119.14104, 39.14605],
          [-119.14047, 39.14669],
          [-119.11802, 39.17173],
          [-119.11745, 39.17237],
          [-119.08937, 39.17629],
          [-119.0669, 39.20132],
          [-119.07194, 39.22308],
          [-119.07137, 39.22372],
          [-119.04327, 39.22762],
          [-119.02079, 39.25264],
          [-119.02021, 39.25328],
          [-118.99771, 39.27829],
          [-119.00274, 39.30005],
          [-119.00216, 39.30069],
          [-118.97965, 39.3257],
          [-118.98468, 39.34745],
          [-118.9841, 39.34809],
          [-118.95597, 39.35198],
          [-118.93344, 39.37697],
          [-118.93286, 39.37761],
          [-118.90472, 39.38149],
          [-118.88217, 39.40647],
          [-118.88159, 39.40711],
          [-118.85903, 39.43209],
          [-118.85845, 39.43273],
          [-118.83029, 39.43659],
          [-118.80771, 39.46156],
          [-118.80713, 39.4622],
          [-118.77896, 39.46605],
          [-118.7508, 39.4699],
          [-118.72819, 39.49485],
          [-118.72761, 39.49549],
          [-118.69943, 39.49934],
          [-118.6768, 39.52428],
          [-118.67622, 39.52492],
          [-118.64803, 39.52875],
          [-118.62539, 39.55368],
          [-118.62481, 39.55432],
          [-118.59661, 39.55815],
          [-118.56841, 39.56197],
          [-118.54021, 39.56578],
          [-118.512, 39.56959],
          [-118.48932, 39.5945],
          [-118.48874, 39.59514],
          [-118.46604, 39.62004],
          [-118.46545, 39.62068],
          [-118.43723, 39.62448],
          [-118.41452, 39.64937],
          [-118.41393, 39.65001],
          [-118.3857, 39.6538],
          [-118.35747, 39.65759],
          [-118.32923, 39.66137],
          [-118.301, 39.66514],
          [-118.27824, 39.69001],
          [-118.27765, 39.69065],
          [-118.24941, 39.69442],
          [-118.22116, 39.69818],
          [-118.19291, 39.70193],
          [-118.16465, 39.70569],
          [-118.14186, 39.73053],
          [-118.14127, 39.73117],
          [-118.11301, 39.73492],
          [-118.09019, 39.75975],
          [-118.0896, 39.76039],
          [-118.06677, 39.78522],
          [-118.06619, 39.78586],
          [-118.03791, 39.78959],
          [-118.00963, 39.79332],
          [-118.0088, 39.79286],
          [-117.9765, 39.7753],
          [-117.94822, 39.77902],
          [-117.92535, 39.80383],
          [-117.92477, 39.80447],
          [-117.89648, 39.80817],
          [-117.87359, 39.83297],
          [-117.873, 39.83361],
          [-117.85011, 39.8584],
          [-117.84952, 39.85904],
          [-117.82121, 39.86274],
          [-117.79829, 39.88752],
          [-117.79771, 39.88815],
          [-117.77478, 39.91293],
          [-117.77419, 39.91357],
          [-117.75125, 39.93834],
          [-117.75066, 39.93897],
          [-117.72771, 39.96374],
          [-117.72713, 39.96437],
          [-117.70416, 39.98913],
          [-117.70896, 40.01085],
          [-117.70837, 40.01148],
          [-117.68001, 40.01515],
          [-117.65703, 40.0399],
          [-117.65644, 40.04053],
          [-117.63345, 40.06527],
          [-117.63286, 40.06591],
          [-117.60985, 40.09064],
          [-117.60926, 40.09128],
          [-117.58624, 40.116],
          [-117.58565, 40.11664],
          [-117.55727, 40.12029],
          [-117.53423, 40.145],
          [-117.53364, 40.14564],
          [-117.51059, 40.17035],
          [-117.51, 40.17098],
          [-117.4816, 40.17462],
          [-117.45853, 40.19932],
          [-117.45794, 40.19995],
          [-117.42952, 40.20358],
          [-117.40111, 40.2072],
          [-117.37269, 40.21082],
          [-117.34427, 40.21443],
          [-117.31584, 40.21804],
          [-117.28742, 40.22164],
          [-117.25899, 40.22524],
          [-117.23056, 40.22883],
          [-117.20742, 40.25349],
          [-117.20683, 40.25412],
          [-117.17839, 40.25771],
          [-117.14995, 40.26129],
          [-117.12151, 40.26486],
          [-117.09307, 40.26843],
          [-117.06462, 40.272],
          [-117.03617, 40.27556],
          [-117.00772, 40.27912],
          [-116.97927, 40.28267],
          [-116.95081, 40.28622],
          [-116.92236, 40.28976],
          [-116.8939, 40.2933],
          [-116.87067, 40.31791],
          [-116.87007, 40.31854],
          [-116.8416, 40.32207],
          [-116.81313, 40.3256],
          [-116.78466, 40.32912],
          [-116.75619, 40.33263],
          [-116.72771, 40.33614],
          [-116.69923, 40.33965],
          [-116.67076, 40.34315],
          [-116.64227, 40.34665],
          [-116.61379, 40.35014],
          [-116.61296, 40.34969],
          [-116.61356, 40.34906],
          [-116.63686, 40.32449],
          [-116.63228, 40.30277],
          [-116.6277, 40.28106],
          [-116.59549, 40.26329],
          [-116.59466, 40.26284],
          [-116.56246, 40.24506],
          [-116.56163, 40.2446],
          [-116.52944, 40.22682],
          [-116.50099, 40.23029],
          [-116.50016, 40.22984],
          [-116.46799, 40.21204],
          [-116.46716, 40.21158],
          [-116.435, 40.19378],
          [-116.40655, 40.19724],
          [-116.40573, 40.19678],
          [-116.37358, 40.17897],
          [-116.37275, 40.17851],
          [-116.34062, 40.16068],
          [-116.33979, 40.16023],
          [-116.30767, 40.1424],
          [-116.30684, 40.14194],
          [-116.27473, 40.1241],
          [-116.2463, 40.12754],
          [-116.21786, 40.13097],
          [-116.18942, 40.1344],
          [-116.16606, 40.15893],
          [-116.16546, 40.15956],
          [-116.13701, 40.16298],
          [-116.11363, 40.18751],
          [-116.11303, 40.18814],
          [-116.08457, 40.19155],
          [-116.05611, 40.19495],
          [-116.02765, 40.19836],
          [-115.99919, 40.20175],
          [-115.97576, 40.22626],
          [-115.97516, 40.22688],
          [-115.94669, 40.23027],
          [-115.91821, 40.23365],
          [-115.88974, 40.23703],
          [-115.86126, 40.24041],
          [-115.83278, 40.24378],
          [-115.8043, 40.24714],
          [-115.77581, 40.2505],
          [-115.75233, 40.27497],
          [-115.75172, 40.2756],
          [-115.72822, 40.30006],
          [-115.73262, 40.32179],
          [-115.73701, 40.34352],
          [-115.74141, 40.36525],
          [-115.74581, 40.38698],
          [-115.7452, 40.38761],
          [-115.72168, 40.41205],
          [-115.72107, 40.41268],
          [-115.69753, 40.43712],
          [-115.69693, 40.43775],
          [-115.66839, 40.44109],
          [-115.64483, 40.46552],
          [-115.64423, 40.46614],
          [-115.61568, 40.46947],
          [-115.5921, 40.49389],
          [-115.5915, 40.49452],
          [-115.56294, 40.49784],
          [-115.53934, 40.52225],
          [-115.53874, 40.52287],
          [-115.51513, 40.54728],
          [-115.51453, 40.5479],
          [-115.49091, 40.5723],
          [-115.4903, 40.57292],
          [-115.46667, 40.59731],
          [-115.46607, 40.59794],
          [-115.43748, 40.60124],
          [-115.40888, 40.60453],
          [-115.38029, 40.60782],
          [-115.35169, 40.61111],
          [-115.32309, 40.61439],
          [-115.29449, 40.61767],
          [-115.29367, 40.61721],
          [-115.26158, 40.59923],
          [-115.23298, 40.60249],
          [-115.23216, 40.60203],
          [-115.20009, 40.58404],
          [-115.17149, 40.5873],
          [-115.17067, 40.58684],
          [-115.13862, 40.56883],
          [-115.11002, 40.57208],
          [-115.1092, 40.57162],
          [-115.07716, 40.5536],
          [-115.04857, 40.55684],
          [-115.04775, 40.55638],
          [-115.01572, 40.53835],
          [-114.98713, 40.54158],
          [-114.95854, 40.5448],
          [-114.93479, 40.56912],
          [-114.93418, 40.56975],
          [-114.90558, 40.57296],
          [-114.87698, 40.57617],
          [-114.84838, 40.57938],
          [-114.82459, 40.60368],
          [-114.82398, 40.60431],
          [-114.79537, 40.6075],
          [-114.76676, 40.61069],
          [-114.73814, 40.61388],
          [-114.70952, 40.61707],
          [-114.6809, 40.62024],
          [-114.65228, 40.62342],
          [-114.65146, 40.62295],
          [-114.61948, 40.60486],
          [-114.59086, 40.60802],
          [-114.56224, 40.61118],
          [-114.53362, 40.61434],
          [-114.50499, 40.61749],
          [-114.47636, 40.62063],
          [-114.44773, 40.62378],
          [-114.4191, 40.62691],
          [-114.39047, 40.63004],
          [-114.36184, 40.63317],
          [-114.33793, 40.6574],
          [-114.33731, 40.65802],
          [-114.30867, 40.66114],
          [-114.28003, 40.66425],
          [-114.25138, 40.66736],
          [-114.22273, 40.67047],
          [-114.19878, 40.69468],
          [-114.19816, 40.6953],
          [-114.16951, 40.69839],
          [-114.14085, 40.70148],
          [-114.11687, 40.72567],
          [-114.11625, 40.72629],
          [-114.08758, 40.72938],
          [-114.05891, 40.73245],
          [-114.03024, 40.73553],
          [-114.00623, 40.7597],
          [-114.00561, 40.76032],
          [-113.97693, 40.76338],
          [-113.94825, 40.76644],
          [-113.91956, 40.76949],
          [-113.89552, 40.79365],
          [-113.8949, 40.79427],
          [-113.8662, 40.79731],
          [-113.83751, 40.80035],
          [-113.80881, 40.80339],
          [-113.78473, 40.82752],
          [-113.78411, 40.82814],
          [-113.76002, 40.85227],
          [-113.7594, 40.85289],
          [-113.73069, 40.85591],
          [-113.70658, 40.88003],
          [-113.70596, 40.88065],
          [-113.67723, 40.88366],
          [-113.6531, 40.90777],
          [-113.65249, 40.90839],
          [-113.62834, 40.93249],
          [-113.62772, 40.93311],
          [-113.60357, 40.9572],
          [-113.60295, 40.95782],
          [-113.5742, 40.96081],
          [-113.55003, 40.9849],
          [-113.54941, 40.98551],
          [-113.52065, 40.9885],
          [-113.49646, 41.01257],
          [-113.49584, 41.01319],
          [-113.46707, 41.01617],
          [-113.44286, 41.04023],
          [-113.44224, 41.04085],
          [-113.41346, 41.04381],
          [-113.38469, 41.04678],
          [-113.3559, 41.04974],
          [-113.33166, 41.07378],
          [-113.33104, 41.0744],
          [-113.30225, 41.07735],
          [-113.27346, 41.08029],
          [-113.24466, 41.08323],
          [-113.21587, 41.08617],
          [-113.19158, 41.11019],
          [-113.19096, 41.1108],
          [-113.16216, 41.11373],
          [-113.13335, 41.11665],
          [-113.10454, 41.11957],
          [-113.07573, 41.12248],
          [-113.04692, 41.12539],
          [-113.01811, 41.1283],
          [-112.9893, 41.13119],
          [-112.96048, 41.13409],
          [-112.93166, 41.13698],
          [-112.90284, 41.13986],
          [-112.87402, 41.14275],
          [-112.84964, 41.16671],
          [-112.84902, 41.16732],
          [-112.82463, 41.19128],
          [-112.824, 41.1919],
          [-112.7996, 41.21585],
          [-112.79897, 41.21646],
          [-112.77456, 41.24041],
          [-112.77836, 41.2621],
          [-112.77774, 41.26272],
          [-112.7533, 41.28665],
          [-112.75268, 41.28727],
          [-112.72823, 41.3112],
          [-112.72761, 41.31181],
          [-112.69873, 41.31466],
          [-112.67427, 41.33858],
          [-112.67364, 41.33919],
          [-112.64476, 41.34203],
          [-112.64394, 41.34156],
          [-112.6121, 41.32318],
          [-112.58322, 41.32601],
          [-112.55434, 41.32884],
          [-112.52546, 41.33166],
          [-112.49657, 41.33448],
          [-112.46768, 41.33729],
          [-112.46687, 41.33682],
          [-112.43506, 41.31841],
          [-112.40617, 41.32121],
          [-112.40536, 41.32074],
          [-112.37357, 41.30231],
          [-112.37275, 41.30184],
          [-112.34097, 41.28341],
          [-112.34016, 41.28293],
          [-112.30839, 41.2645],
          [-112.27952, 41.26728],
          [-112.2787, 41.26681],
          [-112.24695, 41.24835],
          [-112.24613, 41.24788],
          [-112.21439, 41.22942],
          [-112.18553, 41.23219],
          [-112.18471, 41.23172],
          [-112.15299, 41.21324],
          [-112.15218, 41.21277],
          [-112.12046, 41.19429],
          [-112.11965, 41.19382],
          [-112.08795, 41.17533],
          [-112.08714, 41.17486],
          [-112.05545, 41.15636],
          [-112.05464, 41.15589],
          [-112.02296, 41.13738],
          [-112, 41.13956]
        ]
      }
    },
    {
      "type": "Feature",
      "id": "2026092706_f222_12000_001",
      "properties": {
        "product_id": "winter_storm_levels",
        "source_id": "nbm_snow_level",
        "parameter": "snow_level",
        "definition": "height of the wet-bulb 0.5 degree C surface",
        "level_ft_msl": 12000,
        "label": "12,000 ft MSL",
        "unit": "ft_msl",
        "cycle_time_utc": "2026-09-27T06:00:00Z",
        "valid_time_utc": "2026-10-06T12:00:00Z",
        "lead_hours": 222,
        "segment": 1,
        "length_m": 757780.4
      },
      "geometry": {
        "type": "LineString",
        "coordinates": [
          [-116.29391, 30.18797],
          [-116.29492, 30.19347],
          [-116.29903, 30.21594],
          [-116.27879, 30.24001],
          [-116.27715, 30.24196],
          [-116.28127, 30.26442],
          [-116.26101, 30.28848],
          [-116.25937, 30.29044],
          [-116.23911, 30.3145],
          [-116.23747, 30.31645],
          [-116.24158, 30.33891],
          [-116.2213, 30.36296],
          [-116.21966, 30.36491],
          [-116.19938, 30.38897],
          [-116.19773, 30.39092],
          [-116.17744, 30.41496],
          [-116.17579, 30.41691],
          [-116.15549, 30.44096],
          [-116.15385, 30.44291],
          [-116.15795, 30.46537],
          [-116.13763, 30.48941],
          [-116.13599, 30.49135],
          [-116.11566, 30.51539],
          [-116.11402, 30.51734],
          [-116.09368, 30.54137],
          [-116.09204, 30.54332],
          [-116.0717, 30.56735],
          [-116.04561, 30.57086],
          [-116.04396, 30.57281],
          [-116.02361, 30.59683],
          [-116.02196, 30.59878],
          [-116.00159, 30.6228],
          [-115.99994, 30.62474],
          [-115.97957, 30.64876],
          [-115.97792, 30.6507],
          [-115.95754, 30.67471],
          [-115.95588, 30.67666],
          [-115.93549, 30.70067],
          [-115.93384, 30.70261],
          [-115.91344, 30.72661],
          [-115.91178, 30.72856],
          [-115.89137, 30.75256],
          [-115.88972, 30.7545],
          [-115.8693, 30.77849],
          [-115.86764, 30.78044],
          [-115.84722, 30.80443],
          [-115.84556, 30.80637],
          [-115.84961, 30.82883],
          [-115.82917, 30.85281],
          [-115.82751, 30.85475],
          [-115.83156, 30.87721],
          [-115.81111, 30.90119],
          [-115.80945, 30.90313],
          [-115.78899, 30.92711],
          [-115.78733, 30.92905],
          [-115.79138, 30.9515],
          [-115.7709, 30.97547],
          [-115.76924, 30.97741],
          [-115.74876, 31.00138],
          [-115.7471, 31.00332],
          [-115.72661, 31.02729],
          [-115.72495, 31.02923],
          [-115.70445, 31.05319],
          [-115.70278, 31.05513],
          [-115.68227, 31.07909],
          [-115.68061, 31.08103],
          [-115.66009, 31.10498],
          [-115.63388, 31.10843],
          [-115.63221, 31.11037],
          [-115.61168, 31.13431],
          [-115.58545, 31.13775],
          [-115.55923, 31.14118],
          [-115.53301, 31.14461],
          [-115.50678, 31.14803],
          [-115.48055, 31.15145],
          [-115.4526, 31.13385],
          [-115.45033, 31.13242],
          [-115.42411, 31.13583],
          [-115.39788, 31.13923],
          [-115.37165, 31.14264],
          [-115.36998, 31.14457],
          [-115.34939, 31.16848],
          [-115.32315, 31.17188],
          [-115.29691, 31.17526],
          [-115.29524, 31.1772],
          [-115.27462, 31.2011],
          [-115.27295, 31.20304],
          [-115.25232, 31.22693],
          [-115.25065, 31.22887],
          [-115.23002, 31.25275],
          [-115.22834, 31.25469],
          [-115.23229, 31.27714],
          [-115.21165, 31.30102],
          [-115.20997, 31.30296],
          [-115.21392, 31.32541],
          [-115.19326, 31.34929],
          [-115.19158, 31.35122],
          [-115.19553, 31.37367],
          [-115.17486, 31.39754],
          [-115.17318, 31.39948],
          [-115.1525, 31.42335],
          [-115.15082, 31.42528],
          [-115.15476, 31.44773],
          [-115.1587, 31.47017],
          [-115.16264, 31.49261],
          [-115.14195, 31.51647],
          [-115.11396, 31.49882],
          [-115.11169, 31.49739],
          [-115.11001, 31.49932],
          [-115.11394, 31.52176],
          [-115.09323, 31.54562],
          [-115.09155, 31.54755],
          [-115.09548, 31.56999],
          [-115.07475, 31.59385],
          [-115.07307, 31.59578],
          [-115.077, 31.61822],
          [-115.08093, 31.64065],
          [-115.08321, 31.64208],
          [-115.11122, 31.65974],
          [-115.11516, 31.68217],
          [-115.09442, 31.70602],
          [-115.09274, 31.70795],
          [-115.09667, 31.73038],
          [-115.07592, 31.75423],
          [-115.07424, 31.75616],
          [-115.07817, 31.77859],
          [-115.0574, 31.80243],
          [-115.03101, 31.80577],
          [-115.02933, 31.8077],
          [-115.00854, 31.83153],
          [-114.9805, 31.81387],
          [-114.97823, 31.81244],
          [-114.97654, 31.81437],
          [-114.95575, 31.83819],
          [-114.92934, 31.84152],
          [-114.92766, 31.84345],
          [-114.90685, 31.86726],
          [-114.88044, 31.87058],
          [-114.85402, 31.87389],
          [-114.85234, 31.87582],
          [-114.8315, 31.89962],
          [-114.80508, 31.90293],
          [-114.77866, 31.90622],
          [-114.77697, 31.90815],
          [-114.75612, 31.93195],
          [-114.72969, 31.93524],
          [-114.728, 31.93716],
          [-114.70713, 31.96095],
          [-114.68069, 31.96423],
          [-114.679, 31.96616],
          [-114.65812, 31.98994],
          [-114.63167, 31.99321],
          [-114.60522, 31.99648],
          [-114.57878, 31.99974],
          [-114.57708, 32.00167],
          [-114.55617, 32.02543],
          [-114.52971, 32.02869],
          [-114.52802, 32.03061],
          [-114.50709, 32.05437],
          [-114.48062, 32.05762],
          [-114.45416, 32.06086],
          [-114.42769, 32.0641],
          [-114.42599, 32.06602],
          [-114.40504, 32.08976],
          [-114.37856, 32.09299],
          [-114.35209, 32.09622],
          [-114.32561, 32.09944],
          [-114.29913, 32.10266],
          [-114.27265, 32.10587],
          [-114.24617, 32.10908],
          [-114.21968, 32.11228],
          [-114.1932, 32.11548],
          [-114.16521, 32.09769],
          [-114.16294, 32.09624],
          [-114.16124, 32.09816],
          [-114.14022, 32.12187],
          [-114.13852, 32.12379],
          [-114.11749, 32.14749],
          [-114.09099, 32.15067],
          [-114.0645, 32.15385],
          [-114.038, 32.15702],
          [-114.03629, 32.15894],
          [-114.01524, 32.18263],
          [-113.98873, 32.18579],
          [-113.98702, 32.18771],
          [-113.96595, 32.21139],
          [-113.96425, 32.2133],
          [-113.94317, 32.23698],
          [-113.94146, 32.23889],
          [-113.92037, 32.26256],
          [-113.91866, 32.26448],
          [-113.92239, 32.28691],
          [-113.90129, 32.31057],
          [-113.89958, 32.31249],
          [-113.87847, 32.33615],
          [-113.87676, 32.33807],
          [-113.85564, 32.36172],
          [-113.85393, 32.36364],
          [-113.8328, 32.38728],
          [-113.83108, 32.3892],
          [-113.80995, 32.41285],
          [-113.80823, 32.41476],
          [-113.78709, 32.4384],
          [-113.78537, 32.44032],
          [-113.78908, 32.46274],
          [-113.76792, 32.48638],
          [-113.7662, 32.48829],
          [-113.74503, 32.51192],
          [-113.74332, 32.51384],
          [-113.72214, 32.53746],
          [-113.72042, 32.53938],
          [-113.69923, 32.563],
          [-113.69751, 32.56492],
          [-113.67632, 32.58853],
          [-113.6746, 32.59045],
          [-113.65339, 32.61406],
          [-113.62677, 32.61716],
          [-113.62505, 32.61907],
          [-113.60383, 32.64268],
          [-113.5772, 32.64577],
          [-113.55058, 32.64886],
          [-113.54886, 32.65077],
          [-113.52761, 32.67437],
          [-113.50098, 32.67745],
          [-113.49925, 32.67936],
          [-113.47799, 32.70294],
          [-113.45135, 32.70601],
          [-113.42471, 32.70908],
          [-113.39806, 32.71215],
          [-113.39634, 32.71406],
          [-113.37505, 32.73763],
          [-113.34839, 32.74068],
          [-113.32174, 32.74373],
          [-113.29508, 32.74678],
          [-113.29335, 32.74869],
          [-113.27204, 32.77224],
          [-113.24537, 32.77528],
          [-113.24365, 32.77719],
          [-113.22231, 32.80073],
          [-113.22058, 32.80264],
          [-113.19924, 32.82618],
          [-113.19751, 32.82809],
          [-113.17616, 32.85162],
          [-113.17443, 32.85353],
          [-113.17803, 32.87595],
          [-113.15667, 32.89948],
          [-113.15494, 32.90139],
          [-113.15853, 32.9238],
          [-113.13716, 32.94732],
          [-113.13542, 32.94923],
          [-113.11404, 32.97275],
          [-113.1123, 32.97466],
          [-113.09091, 32.99817],
          [-113.08917, 33.00008],
          [-113.06777, 33.02359],
          [-113.04104, 33.02659],
          [-113.01431, 33.02959],
          [-112.98758, 33.03258],
          [-112.98584, 33.03449],
          [-112.96441, 33.05798],
          [-112.93767, 33.06097],
          [-112.91093, 33.06395],
          [-112.88419, 33.06692],
          [-112.85744, 33.0699],
          [-112.8307, 33.07286],
          [-112.80395, 33.07583],
          [-112.7772, 33.07878],
          [-112.75045, 33.08174],
          [-112.7237, 33.08469],
          [-112.69695, 33.08763],
          [-112.67019, 33.09057],
          [-112.64344, 33.09351],
          [-112.61668, 33.09644],
          [-112.58993, 33.09937],
          [-112.58818, 33.10127],
          [-112.56665, 33.12471],
          [-112.53989, 33.12762],
          [-112.53814, 33.12952],
          [-112.5166, 33.15295],
          [-112.48982, 33.15586],
          [-112.48808, 33.15776],
          [-112.46652, 33.18118],
          [-112.43974, 33.18409],
          [-112.43799, 33.18598],
          [-112.44145, 33.2084],
          [-112.44492, 33.23081],
          [-112.44839, 33.25322],
          [-112.45185, 33.27563],
          [-112.45532, 33.29804],
          [-112.4588, 33.32045],
          [-112.46107, 33.32191],
          [-112.48909, 33.33995],
          [-112.49257, 33.36235],
          [-112.49605, 33.38475],
          [-112.49953, 33.40715],
          [-112.50301, 33.42955],
          [-112.5065, 33.45195],
          [-112.50999, 33.47435],
          [-112.51226, 33.47581],
          [-112.54033, 33.49383],
          [-112.5426, 33.49529],
          [-112.57068, 33.51331],
          [-112.57418, 33.5357],
          [-112.57646, 33.53716],
          [-112.60455, 33.55517],
          [-112.60806, 33.57756],
          [-112.61157, 33.59994],
          [-112.61508, 33.62233],
          [-112.61859, 33.64471],
          [-112.62211, 33.6671],
          [-112.62562, 33.68948],
          [-112.62914, 33.71186],
          [-112.63266, 33.73423],
          [-112.61102, 33.75764],
          [-112.60927, 33.75954],
          [-112.61278, 33.78191],
          [-112.59113, 33.80531],
          [-112.58938, 33.80721],
          [-112.59289, 33.82958],
          [-112.57122, 33.85297],
          [-112.56947, 33.85487],
          [-112.57298, 33.87724],
          [-112.5513, 33.90063],
          [-112.54954, 33.90252],
          [-112.52785, 33.9259],
          [-112.52609, 33.9278],
          [-112.5296, 33.95017],
          [-112.5079, 33.97354],
          [-112.50614, 33.97544],
          [-112.50964, 33.9978],
          [-112.51314, 34.02016],
          [-112.51665, 34.04252],
          [-112.49493, 34.06589],
          [-112.49317, 34.06779],
          [-112.49667, 34.09015],
          [-112.50017, 34.1125],
          [-112.47843, 34.13586],
          [-112.47667, 34.13776],
          [-112.48017, 34.16011],
          [-112.45842, 34.18347],
          [-112.45666, 34.18536],
          [-112.43489, 34.20871],
          [-112.43313, 34.2106],
          [-112.41136, 34.23395],
          [-112.40959, 34.23584],
          [-112.38781, 34.25918],
          [-112.38604, 34.26108],
          [-112.38953, 34.28342],
          [-112.36773, 34.30676],
          [-112.36597, 34.30865],
          [-112.34416, 34.33198],
          [-112.34239, 34.33387],
          [-112.32058, 34.3572],
          [-112.31881, 34.35909],
          [-112.29698, 34.38241],
          [-112.26991, 34.38527],
          [-112.26814, 34.38716],
          [-112.2463, 34.41047],
          [-112.24453, 34.41236],
          [-112.22268, 34.43567],
          [-112.2209, 34.43756],
          [-112.19904, 34.46086],
          [-112.17195, 34.46371],
          [-112.14485, 34.46655],
          [-112.14308, 34.46844],
          [-112.1212, 34.49173],
          [-112.09409, 34.49456],
          [-112.09232, 34.49645],
          [-112.07042, 34.51973],
          [-112.04331, 34.52256],
          [-112.01619, 34.52538],
          [-112, 34.52706]
        ]
      }
    }
  ]
}

