{
  "type": "FeatureCollection",
  "contract_version": "1.0.0",
  "bbox": [-130, 30.08642, -112, 44.5],
  "features": [
    {
      "type": "Feature",
      "id": "2026092612_f192_10000_001",
      "properties": {
        "product_id": "winter_storm_levels",
        "source_id": "nbm_snow_level",
        "parameter": "snow_level",
        "definition": "height of the wet-bulb 0.5 degree C surface",
        "level_ft_msl": 10000,
        "label": "10,000 ft MSL",
        "unit": "ft_msl",
        "cycle_time_utc": "2026-09-26T12:00:00Z",
        "valid_time_utc": "2026-10-04T12:00:00Z",
        "lead_hours": 192,
        "segment": 1,
        "length_m": 1167663.2
      },
      "geometry": {
        "type": "LineString",
        "coordinates": [
          [-122.5059, 44.5],
          [-122.49205, 44.49349],
          [-122.46259, 44.49781],
          [-122.44484, 44.48946],
          [-122.42709, 44.48111],
          [-122.39764, 44.48542],
          [-122.37989, 44.47706],
          [-122.37386, 44.45604],
          [-122.35613, 44.44768],
          [-122.33839, 44.43932],
          [-122.33237, 44.4183],
          [-122.32636, 44.39727],
          [-122.30864, 44.3889],
          [-122.29092, 44.38053],
          [-122.28492, 44.3595],
          [-122.27891, 44.33846],
          [-122.26121, 44.33008],
          [-122.2435, 44.32171],
          [-122.23751, 44.30066],
          [-122.23153, 44.27961],
          [-122.22554, 44.25856],
          [-122.21956, 44.23751],
          [-122.20187, 44.22912],
          [-122.18419, 44.22073],
          [-122.17822, 44.19967],
          [-122.17226, 44.17861],
          [-122.15459, 44.17022],
          [-122.13692, 44.16182],
          [-122.13096, 44.14075],
          [-122.11331, 44.13235],
          [-122.09565, 44.12395],
          [-122.08971, 44.10287],
          [-122.07206, 44.09447],
          [-122.05441, 44.08606],
          [-122.04848, 44.06497],
          [-122.04255, 44.04389],
          [-122.02491, 44.03547],
          [-122.00728, 44.02706],
          [-121.98966, 44.01864],
          [-121.97203, 44.01022],
          [-121.96612, 43.98912],
          [-121.9485, 43.9807],
          [-121.93089, 43.97227],
          [-121.92499, 43.95117],
          [-121.91909, 43.93006],
          [-121.9132, 43.90895],
          [-121.9073, 43.88784],
          [-121.90141, 43.86672],
          [-121.89552, 43.84561],
          [-121.88964, 43.82448],
          [-121.90133, 43.8118],
          [-121.91303, 43.79911],
          [-121.90714, 43.77798],
          [-121.90125, 43.75685],
          [-121.89537, 43.73572],
          [-121.88949, 43.71458],
          [-121.88362, 43.69344],
          [-121.87774, 43.6723],
          [-121.87187, 43.65115],
          [-121.88355, 43.63845],
          [-121.89522, 43.62575],
          [-121.88935, 43.6046],
          [-121.88348, 43.58345],
          [-121.87761, 43.56229],
          [-121.87175, 43.54113],
          [-121.86589, 43.51996],
          [-121.87755, 43.50725],
          [-121.88921, 43.49454],
          [-121.88334, 43.47337],
          [-121.87748, 43.4522],
          [-121.88914, 43.43948],
          [-121.90079, 43.42677],
          [-121.89492, 43.40559],
          [-121.88906, 43.38441],
          [-121.90071, 43.37168],
          [-121.91235, 43.35896],
          [-121.90649, 43.33777],
          [-121.90063, 43.31658],
          [-121.89477, 43.29539],
          [-121.88892, 43.27419],
          [-121.90055, 43.26146],
          [-121.91218, 43.24873],
          [-121.90633, 43.22753],
          [-121.90047, 43.20632],
          [-121.89463, 43.18511],
          [-121.88878, 43.1639],
          [-121.9004, 43.15116],
          [-121.91201, 43.13842],
          [-121.90616, 43.11721],
          [-121.90032, 43.09599],
          [-121.89448, 43.07476],
          [-121.88864, 43.05354],
          [-121.8828, 43.03231],
          [-121.87697, 43.01108],
          [-121.87113, 42.98984],
          [-121.88273, 42.97709],
          [-121.89433, 42.96434],
          [-121.8885, 42.94309],
          [-121.88267, 42.92185],
          [-121.87684, 42.9006],
          [-121.87101, 42.87936],
          [-121.8826, 42.86659],
          [-121.89418, 42.85383],
          [-121.88836, 42.83258],
          [-121.88253, 42.81132],
          [-121.87671, 42.79006],
          [-121.87089, 42.7688],
          [-121.86507, 42.74753],
          [-121.84769, 42.73903],
          [-121.8303, 42.73053],
          [-121.81292, 42.72202],
          [-121.79554, 42.71352],
          [-121.77817, 42.70501],
          [-121.7608, 42.6965],
          [-121.74343, 42.68799],
          [-121.73184, 42.70075],
          [-121.72026, 42.71351],
          [-121.6913, 42.71776],
          [-121.66233, 42.722],
          [-121.63337, 42.72624],
          [-121.62177, 42.739],
          [-121.61016, 42.75175],
          [-121.58119, 42.75598],
          [-121.55221, 42.7602],
          [-121.54059, 42.77295],
          [-121.52897, 42.7857],
          [-121.51735, 42.79844],
          [-121.5231, 42.81971],
          [-121.51147, 42.83245],
          [-121.49984, 42.84519],
          [-121.48821, 42.85793],
          [-121.47657, 42.87067],
          [-121.48231, 42.89193],
          [-121.47067, 42.90466],
          [-121.45903, 42.91739],
          [-121.44738, 42.93012],
          [-121.41835, 42.93432],
          [-121.40669, 42.94705],
          [-121.39504, 42.95977],
          [-121.36599, 42.96396],
          [-121.33694, 42.96814],
          [-121.30789, 42.97232],
          [-121.29051, 42.96378],
          [-121.27314, 42.95524],
          [-121.25577, 42.9467],
          [-121.2384, 42.93815],
          [-121.22103, 42.9296],
          [-121.20367, 42.92105],
          [-121.17462, 42.92521],
          [-121.15726, 42.91665],
          [-121.13991, 42.9081],
          [-121.12256, 42.89954],
          [-121.10521, 42.89098],
          [-121.07617, 42.89512],
          [-121.06448, 42.90783],
          [-121.05278, 42.92053],
          [-121.02373, 42.92467],
          [-120.99468, 42.9288],
          [-120.97734, 42.92023],
          [-120.96, 42.91166],
          [-120.93095, 42.91578],
          [-120.90189, 42.91989],
          [-120.88456, 42.91131],
          [-120.86723, 42.90273],
          [-120.83818, 42.90684],
          [-120.82085, 42.89825],
          [-120.80353, 42.88966],
          [-120.77448, 42.89376],
          [-120.75716, 42.88516],
          [-120.73984, 42.87657],
          [-120.7108, 42.88065],
          [-120.68174, 42.88474],
          [-120.65269, 42.88882],
          [-120.63538, 42.88021],
          [-120.61808, 42.8716],
          [-120.58903, 42.87567],
          [-120.57173, 42.86706],
          [-120.55443, 42.85844],
          [-120.53714, 42.84983],
          [-120.51985, 42.84121],
          [-120.4908, 42.84526],
          [-120.46175, 42.84931],
          [-120.4327, 42.85336],
          [-120.40365, 42.8574],
          [-120.37459, 42.86143],
          [-120.34553, 42.86547],
          [-120.31647, 42.86949],
          [-120.30468, 42.88215],
          [-120.29289, 42.89481],
          [-120.26382, 42.89883],
          [-120.23475, 42.90284],
          [-120.20567, 42.90685],
          [-120.17659, 42.91086],
          [-120.15932, 42.90221],
          [-120.14205, 42.89355],
          [-120.11298, 42.89755],
          [-120.0839, 42.90154],
          [-120.05482, 42.90552],
          [-120.02573, 42.9095],
          [-119.99664, 42.91348],
          [-119.96756, 42.91745],
          [-119.9503, 42.90878],
          [-119.93305, 42.90011],
          [-119.90397, 42.90407],
          [-119.87488, 42.90803],
          [-119.84578, 42.91198],
          [-119.81669, 42.91592],
          [-119.78759, 42.91987],
          [-119.77035, 42.91118],
          [-119.75312, 42.90249],
          [-119.72402, 42.90643],
          [-119.69493, 42.91035],
          [-119.66583, 42.91428],
          [-119.6486, 42.90558],
          [-119.63138, 42.89688],
          [-119.61416, 42.88818],
          [-119.59694, 42.87948],
          [-119.56784, 42.88339],
          [-119.53875, 42.88729],
          [-119.52154, 42.87858],
          [-119.50433, 42.86987],
          [-119.47523, 42.87376],
          [-119.44614, 42.87765],
          [-119.42894, 42.86893],
          [-119.41174, 42.86021],
          [-119.38264, 42.86409],
          [-119.36545, 42.85536],
          [-119.34826, 42.84664],
          [-119.31916, 42.85051],
          [-119.30198, 42.84177],
          [-119.2848, 42.83304],
          [-119.25571, 42.8369],
          [-119.23853, 42.82816],
          [-119.22136, 42.81942],
          [-119.20418, 42.81068],
          [-119.18702, 42.80193],
          [-119.15793, 42.80578],
          [-119.12884, 42.80962],
          [-119.11168, 42.80086],
          [-119.09452, 42.79211],
          [-119.06543, 42.79594],
          [-119.03634, 42.79977],
          [-119.00725, 42.80359],
          [-118.97815, 42.80741],
          [-118.9662, 42.81999],
          [-118.95425, 42.83257],
          [-118.9371, 42.8238],
          [-118.91995, 42.81503],
          [-118.89085, 42.81883],
          [-118.86175, 42.82263],
          [-118.83264, 42.82643],
          [-118.80353, 42.83022],
          [-118.77442, 42.834],
          [-118.74531, 42.83778],
          [-118.71619, 42.84156],
          [-118.69906, 42.83277],
          [-118.68193, 42.82398],
          [-118.65282, 42.82774],
          [-118.6237, 42.8315],
          [-118.60658, 42.82271],
          [-118.60146, 42.80135],
          [-118.58435, 42.79255],
          [-118.56724, 42.78374],
          [-118.56213, 42.76238],
          [-118.54503, 42.75357],
          [-118.52793, 42.74476],
          [-118.52283, 42.7234],
          [-118.51773, 42.70202],
          [-118.50064, 42.69321],
          [-118.48356, 42.68439],
          [-118.47847, 42.66301],
          [-118.47339, 42.64163],
          [-118.4683, 42.62025],
          [-118.46322, 42.59886],
          [-118.44616, 42.59004],
          [-118.42909, 42.58121],
          [-118.42402, 42.55982],
          [-118.41896, 42.53842],
          [-118.4019, 42.52959],
          [-118.38486, 42.52075],
          [-118.36781, 42.51192],
          [-118.35077, 42.50308],
          [-118.34572, 42.48167],
          [-118.32868, 42.47283],
          [-118.31165, 42.46399],
          [-118.29462, 42.45514],
          [-118.27759, 42.44629],
          [-118.26057, 42.43744],
          [-118.23155, 42.44115],
          [-118.21454, 42.43229],
          [-118.19752, 42.42343],
          [-118.1685, 42.42713],
          [-118.13949, 42.43083],
          [-118.12248, 42.42196],
          [-118.10547, 42.4131],
          [-118.07646, 42.41678],
          [-118.05946, 42.40791],
          [-118.04246, 42.39904],
          [-118.01344, 42.40271],
          [-117.99645, 42.39383],
          [-117.97946, 42.38495],
          [-117.96248, 42.37607],
          [-117.94549, 42.36719],
          [-117.91648, 42.37085],
          [-117.89951, 42.36196],
          [-117.88253, 42.35307],
          [-117.86556, 42.34418],
          [-117.84859, 42.33528],
          [-117.81959, 42.33893],
          [-117.80262, 42.33003],
          [-117.78566, 42.32113],
          [-117.75666, 42.32476],
          [-117.7397, 42.31586],
          [-117.72275, 42.30695],
          [-117.69375, 42.31058],
          [-117.6768, 42.30167],
          [-117.65985, 42.29275],
          [-117.64291, 42.28384],
          [-117.62597, 42.27492],
          [-117.59698, 42.27853],
          [-117.58004, 42.26961],
          [-117.56311, 42.26068],
          [-117.53412, 42.26428],
          [-117.5172, 42.25535],
          [-117.50027, 42.24642],
          [-117.48335, 42.23749],
          [-117.46643, 42.22855],
          [-117.43745, 42.23214],
          [-117.42054, 42.2232],
          [-117.40363, 42.21426],
          [-117.38672, 42.20532],
          [-117.36982, 42.19637],
          [-117.34084, 42.19994],
          [-117.32394, 42.19099],
          [-117.30704, 42.18204],
          [-117.27806, 42.1856],
          [-117.24908, 42.18916],
          [-117.2322, 42.1802],
          [-117.21531, 42.17124],
          [-117.18633, 42.17479],
          [-117.16945, 42.16582],
          [-117.15257, 42.15685],
          [-117.1236, 42.16039],
          [-117.10673, 42.15142],
          [-117.08986, 42.14245],
          [-117.06088, 42.14598],
          [-117.04402, 42.137],
          [-117.02716, 42.12802],
          [-116.99818, 42.13153],
          [-116.96921, 42.13505],
          [-116.95236, 42.12606],
          [-116.9355, 42.11707],
          [-116.90653, 42.12058],
          [-116.87756, 42.12408],
          [-116.84858, 42.12757],
          [-116.83645, 42.14007],
          [-116.82431, 42.15255],
          [-116.79532, 42.15604],
          [-116.76633, 42.15952],
          [-116.75419, 42.17201],
          [-116.74203, 42.18449],
          [-116.71304, 42.18796],
          [-116.68404, 42.19143],
          [-116.65503, 42.1949],
          [-116.62603, 42.19836],
          [-116.59702, 42.20181],
          [-116.58485, 42.21428],
          [-116.57267, 42.22675],
          [-116.54365, 42.23019],
          [-116.53147, 42.24266],
          [-116.51928, 42.25512],
          [-116.49025, 42.25856],
          [-116.46123, 42.26199],
          [-116.44903, 42.27444],
          [-116.43682, 42.2869],
          [-116.40779, 42.29032],
          [-116.37875, 42.29374],
          [-116.3497, 42.29715],
          [-116.32066, 42.30056],
          [-116.29161, 42.30396],
          [-116.26256, 42.30736],
          [-116.24574, 42.29832],
          [-116.22893, 42.28927],
          [-116.19988, 42.29266],
          [-116.17083, 42.29605],
          [-116.14178, 42.29943],
          [-116.11273, 42.30281],
          [-116.08368, 42.30618],
          [-116.06687, 42.29712],
          [-116.05007, 42.28805],
          [-116.02102, 42.29142],
          [-116.00423, 42.28235],
          [-115.98743, 42.27328],
          [-115.97064, 42.26421],
          [-115.95386, 42.25514],
          [-115.92481, 42.25848],
          [-115.90803, 42.2494],
          [-115.89125, 42.24033],
          [-115.86221, 42.24366],
          [-115.83316, 42.247],
          [-115.81639, 42.23791],
          [-115.79963, 42.22882],
          [-115.77058, 42.23214],
          [-115.75382, 42.22305],
          [-115.73706, 42.21395],
          [-115.70802, 42.21727],
          [-115.67898, 42.22058],
          [-115.64993, 42.22388],
          [-115.62089, 42.22718],
          [-115.59184, 42.23048],
          [-115.56279, 42.23377],
          [-115.53373, 42.23705],
          [-115.50468, 42.24033],
          [-115.47562, 42.24361],
          [-115.44657, 42.24688],
          [-115.41751, 42.25015],
          [-115.38845, 42.25341],
          [-115.35938, 42.25666],
          [-115.33032, 42.25992],
          [-115.30125, 42.26317],
          [-115.27218, 42.26641],
          [-115.24311, 42.26965],
          [-115.21404, 42.27288],
          [-115.18496, 42.27611],
          [-115.15588, 42.27933],
          [-115.12681, 42.28255],
          [-115.09772, 42.28577],
          [-115.06864, 42.28898],
          [-115.03956, 42.29219],
          [-115.01047, 42.29539],
          [-114.98138, 42.29858],
          [-114.95229, 42.30178],
          [-114.9232, 42.30496],
          [-114.89411, 42.30815],
          [-114.86501, 42.31132],
          [-114.83592, 42.3145],
          [-114.80682, 42.31767],
          [-114.79013, 42.30849],
          [-114.77344, 42.29931],
          [-114.74435, 42.30247],
          [-114.71525, 42.30562],
          [-114.68615, 42.30877],
          [-114.65705, 42.31192],
          [-114.62794, 42.31506],
          [-114.61127, 42.30586],
          [-114.5946, 42.29667],
          [-114.5655, 42.2998],
          [-114.5364, 42.30293],
          [-114.51973, 42.29372],
          [-114.50307, 42.28452],
          [-114.47397, 42.28764],
          [-114.45732, 42.27843],
          [-114.44067, 42.26922],
          [-114.42402, 42.26001],
          [-114.40738, 42.25079],
          [-114.39073, 42.24157],
          [-114.3741, 42.23236],
          [-114.35746, 42.22314],
          [-114.34083, 42.21391],
          [-114.3242, 42.20469],
          [-114.32003, 42.18314],
          [-114.3034, 42.17392],
          [-114.28678, 42.16469],
          [-114.28262, 42.14314],
          [-114.26601, 42.1339],
          [-114.2494, 42.12467],
          [-114.23279, 42.11543],
          [-114.21619, 42.10619],
          [-114.19959, 42.09695],
          [-114.18299, 42.0877],
          [-114.17886, 42.06614],
          [-114.16227, 42.0569],
          [-114.14568, 42.04765],
          [-114.12909, 42.03839],
          [-114.11251, 42.02914],
          [-114.10839, 42.00757],
          [-114.09182, 41.99831],
          [-114.07525, 41.98906],
          [-114.07114, 41.96748],
          [-114.05457, 41.95822],
          [-114.03801, 41.94895],
          [-114.02146, 41.93969],
          [-113.99244, 41.94273],
          [-113.96342, 41.94577],
          [-113.94687, 41.9365],
          [-113.93032, 41.92722],
          [-113.90131, 41.93026],
          [-113.88477, 41.92098],
          [-113.86823, 41.91169],
          [-113.83922, 41.91472],
          [-113.8102, 41.91773],
          [-113.78119, 41.92075],
          [-113.76466, 41.91146],
          [-113.74813, 41.90216],
          [-113.71912, 41.90517],
          [-113.6901, 41.90816],
          [-113.66108, 41.91116],
          [-113.63207, 41.91415],
          [-113.60305, 41.91713],
          [-113.57402, 41.92011],
          [-113.545, 41.92308],
          [-113.51598, 41.92605],
          [-113.48695, 41.92902],
          [-113.45792, 41.93198],
          [-113.42889, 41.93494],
          [-113.39986, 41.93789],
          [-113.37082, 41.94084],
          [-113.34179, 41.94378],
          [-113.31275, 41.94672],
          [-113.3002, 41.95898],
          [-113.28765, 41.97124],
          [-113.25861, 41.97417],
          [-113.22956, 41.9771],
          [-113.20051, 41.98002],
          [-113.17146, 41.98293],
          [-113.1424, 41.98584],
          [-113.12592, 41.97649],
          [-113.10944, 41.96715],
          [-113.08039, 41.97005],
          [-113.05134, 41.97294],
          [-113.02229, 41.97583],
          [-112.99323, 41.97872],
          [-112.96417, 41.9816],
          [-112.93512, 41.98448],
          [-112.90606, 41.98735],
          [-112.89345, 41.99958],
          [-112.88085, 42.01182],
          [-112.85178, 42.01468],
          [-112.82271, 42.01754],
          [-112.79363, 42.02039],
          [-112.76456, 42.02324],
          [-112.73548, 42.02609],
          [-112.7064, 42.02892],
          [-112.67732, 42.03176],
          [-112.64824, 42.03459],
          [-112.61916, 42.03742],
          [-112.59007, 42.04024],
          [-112.56099, 42.04305],
          [-112.54455, 42.03366],
          [-112.52812, 42.02426],
          [-112.49903, 42.02707],
          [-112.46995, 42.02987],
          [-112.45352, 42.02047],
          [-112.4371, 42.01106],
          [-112.40802, 42.01385],
          [-112.3916, 42.00444],
          [-112.37519, 41.99503],
          [-112.35878, 41.98562],
          [-112.34237, 41.9762],
          [-112.31329, 41.97898],
          [-112.29689, 41.96956],
          [-112.28049, 41.96013],
          [-112.25142, 41.9629],
          [-112.23502, 41.95348],
          [-112.21863, 41.94405],
          [-112.20224, 41.93462],
          [-112.18586, 41.92518],
          [-112.15679, 41.92794],
          [-112.14041, 41.9185],
          [-112.12404, 41.90906],
          [-112.09498, 41.9118],
          [-112.06591, 41.91454],
          [-112.03685, 41.91728],
          [-112.00778, 41.92001],
          [-112, 41.92074]
        ]
      }
    },
    {
      "type": "Feature",
      "id": "2026092612_f192_10000_002",
      "properties": {
        "product_id": "winter_storm_levels",
        "source_id": "nbm_snow_level",
        "parameter": "snow_level",
        "definition": "height of the wet-bulb 0.5 degree C surface",
        "level_ft_msl": 10000,
        "label": "10,000 ft MSL",
        "unit": "ft_msl",
        "cycle_time_utc": "2026-09-26T12:00:00Z",
        "valid_time_utc": "2026-10-04T12:00:00Z",
        "lead_hours": 192,
        "segment": 2,
        "length_m": 1626719.9
      },
      "geometry": {
        "type": "LineString",
        "coordinates": [
          [-130, 33.39422],
          [-129.98992, 33.38932],
          [-129.96376, 33.39508],
          [-129.9376, 33.40084],
          [-129.92796, 33.41464],
          [-129.91832, 33.42844],
          [-129.89215, 33.43419],
          [-129.88251, 33.44799],
          [-129.87286, 33.46178],
          [-129.86321, 33.47557],
          [-129.85356, 33.48936],
          [-129.84391, 33.50316],
          [-129.83425, 33.51695],
          [-129.80806, 33.52268],
          [-129.7984, 33.53647],
          [-129.78873, 33.55025],
          [-129.76252, 33.55598],
          [-129.75285, 33.56977],
          [-129.74318, 33.58355],
          [-129.71697, 33.58927],
          [-129.69075, 33.59498],
          [-129.66452, 33.6007],
          [-129.65484, 33.61447],
          [-129.64515, 33.62825],
          [-129.63546, 33.64202],
          [-129.62577, 33.65579],
          [-129.59953, 33.66149],
          [-129.58983, 33.67526],
          [-129.58013, 33.68903],
          [-129.55388, 33.69472],
          [-129.52762, 33.70041],
          [-129.51791, 33.71417],
          [-129.5082, 33.72794],
          [-129.48194, 33.73362],
          [-129.47222, 33.74738],
          [-129.4625, 33.76114],
          [-129.43622, 33.76681],
          [-129.4265, 33.78056],
          [-129.41677, 33.79432],
          [-129.39048, 33.79998],
          [-129.38075, 33.81373],
          [-129.37101, 33.82748],
          [-129.34472, 33.83314],
          [-129.33497, 33.84689],
          [-129.32523, 33.86063],
          [-129.29892, 33.86628],
          [-129.28917, 33.88003],
          [-129.27941, 33.89377],
          [-129.26966, 33.90751],
          [-129.2599, 33.92125],
          [-129.23358, 33.92689],
          [-129.22381, 33.94063],
          [-129.21404, 33.95436],
          [-129.20427, 33.9681],
          [-129.1945, 33.98183],
          [-129.18472, 33.99556],
          [-129.17494, 34.00929],
          [-129.1486, 34.01492],
          [-129.13881, 34.02865],
          [-129.12903, 34.04237],
          [-129.10267, 34.04799],
          [-129.09288, 34.06171],
          [-129.08308, 34.07544],
          [-129.07329, 34.08916],
          [-129.06349, 34.10288],
          [-129.03711, 34.10848],
          [-129.02731, 34.1222],
          [-129.0175, 34.13592],
          [-128.99112, 34.14151],
          [-128.96473, 34.1471],
          [-128.95491, 34.16081],
          [-128.94509, 34.17453],
          [-128.9187, 34.18011],
          [-128.90887, 34.19382],
          [-128.89904, 34.20752],
          [-128.87263, 34.2131],
          [-128.8628, 34.2268],
          [-128.85296, 34.24051],
          [-128.82655, 34.24607],
          [-128.8167, 34.25977],
          [-128.80685, 34.27347],
          [-128.79701, 34.28717],
          [-128.78716, 34.30087],
          [-128.76072, 34.30642],
          [-128.75086, 34.32011],
          [-128.74101, 34.33381],
          [-128.73114, 34.3475],
          [-128.72128, 34.36119],
          [-128.69483, 34.36673],
          [-128.68496, 34.38042],
          [-128.67508, 34.39411],
          [-128.64862, 34.39964],
          [-128.63874, 34.41332],
          [-128.62886, 34.42701],
          [-128.61898, 34.44069],
          [-128.60909, 34.45437],
          [-128.5992, 34.46804],
          [-128.58931, 34.48172],
          [-128.56283, 34.48724],
          [-128.55293, 34.50092],
          [-128.54303, 34.51459],
          [-128.53313, 34.52826],
          [-128.52322, 34.54193],
          [-128.49672, 34.54744],
          [-128.48681, 34.56111],
          [-128.4769, 34.57478],
          [-128.45038, 34.58028],
          [-128.44046, 34.59394],
          [-128.43054, 34.6076],
          [-128.42062, 34.62126],
          [-128.41069, 34.63492],
          [-128.38416, 34.64041],
          [-128.37423, 34.65407],
          [-128.36429, 34.66773],
          [-128.35435, 34.68138],
          [-128.34441, 34.69503],
          [-128.33447, 34.70869],
          [-128.32452, 34.72234],
          [-128.31458, 34.73599],
          [-128.32124, 34.75781],
          [-128.31129, 34.77146],
          [-128.30133, 34.78511],
          [-128.29138, 34.79875],
          [-128.2648, 34.80422],
          [-128.25484, 34.81786],
          [-128.2615, 34.83968],
          [-128.25153, 34.85333],
          [-128.24156, 34.86697],
          [-128.23159, 34.8806],
          [-128.22162, 34.89424],
          [-128.21164, 34.90788],
          [-128.20167, 34.92151],
          [-128.20832, 34.94333],
          [-128.19833, 34.95696],
          [-128.18835, 34.9706],
          [-128.195, 34.99241],
          [-128.18501, 35.00604],
          [-128.17502, 35.01967],
          [-128.18168, 35.04148],
          [-128.17168, 35.05511],
          [-128.16169, 35.06873],
          [-128.16834, 35.09054],
          [-128.17499, 35.11235],
          [-128.16499, 35.12597],
          [-128.15499, 35.13959],
          [-128.16164, 35.1614],
          [-128.1683, 35.1832],
          [-128.15829, 35.19682],
          [-128.14828, 35.21044],
          [-128.13827, 35.22405],
          [-128.12825, 35.23767],
          [-128.11824, 35.25129],
          [-128.10822, 35.2649],
          [-128.11487, 35.2867],
          [-128.12153, 35.30849],
          [-128.12818, 35.33028],
          [-128.13485, 35.35207],
          [-128.14151, 35.37386],
          [-128.14818, 35.39565],
          [-128.15484, 35.41743],
          [-128.16152, 35.43921],
          [-128.17822, 35.44739],
          [-128.19493, 35.45555],
          [-128.20161, 35.47733],
          [-128.21832, 35.4855],
          [-128.23504, 35.49366],
          [-128.24173, 35.51544],
          [-128.24843, 35.53721],
          [-128.25512, 35.55898],
          [-128.27185, 35.56714],
          [-128.28859, 35.57529],
          [-128.2953, 35.59706],
          [-128.30201, 35.61882],
          [-128.30872, 35.64059],
          [-128.31543, 35.66235],
          [-128.32215, 35.6841],
          [-128.32887, 35.70586],
          [-128.3356, 35.72761],
          [-128.32556, 35.74122],
          [-128.31552, 35.75482],
          [-128.32224, 35.77657],
          [-128.32897, 35.79832],
          [-128.3357, 35.82007],
          [-128.34243, 35.84182],
          [-128.34917, 35.86356],
          [-128.33912, 35.87716],
          [-128.32907, 35.89076],
          [-128.3358, 35.9125],
          [-128.34254, 35.93424],
          [-128.34928, 35.95597],
          [-128.35602, 35.97771],
          [-128.34597, 35.9913],
          [-128.33591, 36.00489],
          [-128.34265, 36.02663],
          [-128.3494, 36.04835],
          [-128.36621, 36.05649],
          [-128.38302, 36.06462],
          [-128.38978, 36.08635],
          [-128.39654, 36.10807],
          [-128.4033, 36.12979],
          [-128.41006, 36.15151],
          [-128.4, 36.1651],
          [-128.38993, 36.17869],
          [-128.39669, 36.2004],
          [-128.40346, 36.22212],
          [-128.41023, 36.24383],
          [-128.417, 36.26554],
          [-128.42378, 36.28724],
          [-128.43056, 36.30895],
          [-128.43734, 36.33065],
          [-128.44412, 36.35235],
          [-128.46099, 36.36047],
          [-128.47785, 36.36858],
          [-128.48465, 36.39028],
          [-128.49145, 36.41198],
          [-128.49824, 36.43367],
          [-128.50505, 36.45536],
          [-128.49496, 36.46894],
          [-128.48488, 36.48252],
          [-128.49168, 36.5042],
          [-128.49849, 36.52589],
          [-128.50529, 36.54757],
          [-128.51211, 36.56925],
          [-128.51892, 36.59093],
          [-128.52573, 36.61261],
          [-128.53255, 36.63428],
          [-128.52246, 36.64786],
          [-128.51236, 36.66143],
          [-128.51918, 36.6831],
          [-128.50908, 36.69667],
          [-128.49897, 36.71024],
          [-128.50579, 36.73191],
          [-128.51261, 36.75357],
          [-128.51944, 36.77523],
          [-128.52627, 36.7969],
          [-128.5331, 36.81856],
          [-128.52298, 36.83212],
          [-128.51287, 36.84568],
          [-128.5197, 36.86734],
          [-128.50958, 36.8809],
          [-128.49946, 36.89446],
          [-128.50629, 36.91611],
          [-128.49616, 36.92966],
          [-128.48604, 36.94322],
          [-128.49287, 36.96487],
          [-128.4997, 36.98651],
          [-128.50654, 37.00816],
          [-128.51338, 37.0298],
          [-128.52022, 37.05144],
          [-128.52707, 37.07308],
          [-128.53391, 37.09472],
          [-128.52378, 37.10827],
          [-128.51363, 37.12181],
          [-128.52048, 37.14345],
          [-128.52733, 37.16508],
          [-128.53419, 37.1867],
          [-128.52404, 37.20025],
          [-128.51389, 37.21379],
          [-128.52075, 37.23542],
          [-128.5276, 37.25704],
          [-128.53446, 37.27866],
          [-128.52431, 37.2922],
          [-128.52094, 37.30437],
          [-128.52101, 37.32735],
          [-128.52787, 37.34897],
          [-128.51771, 37.3625],
          [-128.51434, 37.37467],
          [-128.5144, 37.39764],
          [-128.52127, 37.41925],
          [-128.5111, 37.43278],
          [-128.50773, 37.44495],
          [-128.5146, 37.46655],
          [-128.51466, 37.48952],
          [-128.50448, 37.50305],
          [-128.50111, 37.51521],
          [-128.50117, 37.53817],
          [-128.49099, 37.55169],
          [-128.4808, 37.56521],
          [-128.47061, 37.57873],
          [-128.46723, 37.59089],
          [-128.46729, 37.61384],
          [-128.45709, 37.62736],
          [-128.44689, 37.64087],
          [-128.43669, 37.65439],
          [-128.43331, 37.66654],
          [-128.418, 37.68681],
          [-128.40607, 37.69492],
          [-128.39586, 37.70843],
          [-128.38565, 37.72194],
          [-128.37543, 37.73544],
          [-128.36521, 37.74894],
          [-128.37207, 37.77053],
          [-128.36185, 37.78403],
          [-128.35162, 37.79753],
          [-128.34139, 37.81103],
          [-128.33116, 37.82453],
          [-128.32093, 37.83802],
          [-128.3107, 37.85152],
          [-128.30046, 37.86501],
          [-128.29022, 37.8785],
          [-128.29707, 37.90008],
          [-128.28682, 37.91357],
          [-128.27658, 37.92706],
          [-128.26633, 37.94054],
          [-128.25607, 37.95403],
          [-128.26292, 37.9756],
          [-128.25267, 37.98908],
          [-128.24241, 38.00256],
          [-128.23215, 38.01604],
          [-128.22188, 38.02952],
          [-128.22873, 38.05109],
          [-128.23558, 38.07265],
          [-128.24243, 38.09421],
          [-128.24929, 38.11576],
          [-128.23902, 38.12924],
          [-128.22874, 38.14271],
          [-128.2356, 38.16426],
          [-128.22532, 38.17773],
          [-128.21504, 38.1912],
          [-128.2219, 38.21275],
          [-128.21161, 38.22622],
          [-128.20133, 38.23969],
          [-128.20818, 38.26123],
          [-128.21504, 38.28277],
          [-128.22191, 38.30431],
          [-128.22877, 38.32585],
          [-128.23564, 38.34739],
          [-128.24251, 38.36892],
          [-128.23221, 38.38238],
          [-128.22191, 38.39584],
          [-128.22879, 38.41736],
          [-128.23566, 38.43889],
          [-128.24254, 38.46042],
          [-128.24942, 38.48194],
          [-128.23911, 38.49539],
          [-128.2288, 38.50884],
          [-128.23568, 38.53036],
          [-128.24256, 38.55188],
          [-128.23225, 38.56532],
          [-128.22193, 38.57877],
          [-128.22881, 38.60028],
          [-128.2357, 38.62179],
          [-128.22538, 38.63524],
          [-128.21505, 38.64868],
          [-128.22194, 38.67018],
          [-128.22883, 38.69168],
          [-128.23572, 38.71319],
          [-128.24261, 38.73468],
          [-128.23228, 38.74812],
          [-128.22884, 38.76021],
          [-128.22884, 38.78305],
          [-128.2185, 38.79648],
          [-128.20816, 38.80992],
          [-128.21506, 38.8314],
          [-128.20471, 38.84483],
          [-128.19436, 38.85826],
          [-128.19436, 38.88109],
          [-128.19091, 38.89317],
          [-128.18055, 38.9066],
          [-128.18055, 38.92942],
          [-128.17709, 38.9415],
          [-128.16673, 38.95492],
          [-128.17363, 38.9764],
          [-128.16326, 38.98982],
          [-128.15289, 39.00323],
          [-128.14252, 39.01665],
          [-128.13215, 39.03006],
          [-128.13905, 39.05153],
          [-128.12867, 39.06494],
          [-128.10102, 39.0703],
          [-128.09063, 39.0837],
          [-128.08025, 39.09711],
          [-128.06986, 39.11052],
          [-128.07675, 39.13198],
          [-128.06635, 39.14538],
          [-128.05596, 39.15878],
          [-128.06285, 39.18025],
          [-128.05245, 39.19364],
          [-128.04204, 39.20704],
          [-128.04893, 39.2285],
          [-128.03853, 39.24189],
          [-128.02812, 39.25529],
          [-128.01771, 39.26868],
          [-128.00729, 39.28207],
          [-127.99688, 39.29546],
          [-127.98646, 39.30885],
          [-127.97604, 39.32223],
          [-127.96561, 39.33562],
          [-127.97249, 39.35706],
          [-127.96207, 39.37045],
          [-127.95163, 39.38383],
          [-127.9412, 39.39721],
          [-127.93077, 39.41058],
          [-127.92033, 39.42396],
          [-127.90988, 39.43733],
          [-127.91676, 39.45877],
          [-127.90632, 39.47214],
          [-127.89587, 39.48552],
          [-127.88542, 39.49889],
          [-127.87496, 39.51225],
          [-127.86451, 39.52562],
          [-127.85405, 39.53898],
          [-127.84359, 39.55235],
          [-127.83312, 39.56571],
          [-127.82266, 39.57907],
          [-127.81219, 39.59243],
          [-127.80171, 39.60579],
          [-127.79124, 39.61914],
          [-127.78076, 39.6325],
          [-127.77028, 39.64585],
          [-127.7598, 39.6592],
          [-127.74931, 39.67255],
          [-127.75617, 39.69397],
          [-127.74568, 39.70732],
          [-127.73519, 39.72067],
          [-127.7247, 39.73401],
          [-127.7142, 39.74735],
          [-127.7037, 39.7607],
          [-127.69319, 39.77404],
          [-127.68269, 39.78737],
          [-127.67218, 39.80071],
          [-127.67903, 39.82212],
          [-127.68589, 39.84353],
          [-127.67537, 39.85686],
          [-127.66486, 39.87019],
          [-127.65434, 39.88352],
          [-127.64381, 39.89685],
          [-127.65067, 39.91825],
          [-127.64014, 39.93158],
          [-127.62961, 39.9449],
          [-127.61908, 39.95823],
          [-127.60855, 39.97155],
          [-127.6154, 39.99294],
          [-127.62225, 40.01433],
          [-127.61171, 40.02765],
          [-127.60117, 40.04097],
          [-127.60802, 40.06236],
          [-127.61487, 40.08374],
          [-127.60433, 40.09705],
          [-127.59378, 40.11037],
          [-127.60063, 40.13174],
          [-127.59008, 40.14505],
          [-127.57952, 40.15836],
          [-127.58638, 40.17974],
          [-127.57582, 40.19304],
          [-127.56525, 40.20635],
          [-127.57211, 40.22772],
          [-127.57897, 40.24908],
          [-127.58583, 40.27045],
          [-127.57526, 40.28375],
          [-127.56469, 40.29704],
          [-127.57155, 40.3184],
          [-127.57841, 40.33976],
          [-127.56783, 40.35305],
          [-127.55725, 40.36635],
          [-127.54667, 40.37964],
          [-127.53608, 40.39293],
          [-127.52549, 40.40621],
          [-127.5149, 40.4195],
          [-127.52176, 40.44085],
          [-127.51117, 40.45413],
          [-127.50057, 40.46741],
          [-127.50743, 40.48876],
          [-127.49683, 40.50204],
          [-127.48622, 40.51532],
          [-127.49308, 40.53665],
          [-127.48247, 40.54993],
          [-127.47186, 40.5632],
          [-127.46125, 40.57648],
          [-127.45063, 40.58975],
          [-127.45749, 40.61108],
          [-127.44686, 40.62435],
          [-127.43624, 40.63761],
          [-127.42561, 40.65088],
          [-127.41498, 40.66414],
          [-127.42184, 40.68546],
          [-127.4112, 40.69873],
          [-127.40057, 40.71198],
          [-127.40742, 40.7333],
          [-127.39678, 40.74656],
          [-127.38614, 40.75982],
          [-127.393, 40.78113],
          [-127.38235, 40.79438],
          [-127.3717, 40.80763],
          [-127.37855, 40.82894],
          [-127.3679, 40.84219],
          [-127.35724, 40.85544],
          [-127.3641, 40.87674],
          [-127.35344, 40.88999],
          [-127.34277, 40.90323],
          [-127.34963, 40.92453],
          [-127.33896, 40.93777],
          [-127.32829, 40.95101],
          [-127.33515, 40.9723],
          [-127.34201, 40.9936],
          [-127.34887, 41.01489],
          [-127.33819, 41.02812],
          [-127.32751, 41.04135],
          [-127.31683, 41.05458],
          [-127.30614, 41.06781],
          [-127.313, 41.08909],
          [-127.30231, 41.10232],
          [-127.29162, 41.11554],
          [-127.29848, 41.13682],
          [-127.28778, 41.15004],
          [-127.27708, 41.16326],
          [-127.26638, 41.17648],
          [-127.25568, 41.18969],
          [-127.24497, 41.20291],
          [-127.23426, 41.21612],
          [-127.22354, 41.22933],
          [-127.21283, 41.24254],
          [-127.20211, 41.25575],
          [-127.19139, 41.26896],
          [-127.18066, 41.28216],
          [-127.16994, 41.29537],
          [-127.17678, 41.31663],
          [-127.16605, 41.32983],
          [-127.15532, 41.34303],
          [-127.14458, 41.35623],
          [-127.13384, 41.36942],
          [-127.1231, 41.38262],
          [-127.11235, 41.39581],
          [-127.10161, 41.409],
          [-127.09086, 41.42219],
          [-127.0801, 41.43538],
          [-127.06935, 41.44857],
          [-127.05859, 41.46175],
          [-127.04783, 41.47493],
          [-127.03706, 41.48812],
          [-127.02629, 41.5013],
          [-127.01552, 41.51447],
          [-127.00475, 41.52765],
          [-126.99398, 41.54083],
          [-126.9832, 41.554],
          [-126.97242, 41.56717],
          [-126.96163, 41.58034],
          [-126.95084, 41.59351],
          [-126.94005, 41.60668],
          [-126.94687, 41.62791],
          [-126.93608, 41.64108],
          [-126.92528, 41.65424],
          [-126.91448, 41.6674],
          [-126.90368, 41.68056],
          [-126.89288, 41.69372],
          [-126.88207, 41.70687],
          [-126.87126, 41.72003],
          [-126.86044, 41.73318],
          [-126.84963, 41.74633],
          [-126.83881, 41.75948],
          [-126.82799, 41.77263],
          [-126.81716, 41.78578],
          [-126.82397, 41.80699],
          [-126.81314, 41.82014],
          [-126.8023, 41.83328],
          [-126.80911, 41.85449],
          [-126.79827, 41.86763],
          [-126.78743, 41.88077],
          [-126.77659, 41.8939],
          [-126.76575, 41.90704],
          [-126.7549, 41.92017],
          [-126.7264, 41.92523],
          [-126.71555, 41.93836],
          [-126.70469, 41.95148],
          [-126.69383, 41.96461],
          [-126.68297, 41.97773],
          [-126.6721, 41.99085],
          [-126.66123, 42.00397],
          [-126.65036, 42.01709],
          [-126.65715, 42.03829],
          [-126.64627, 42.0514],
          [-126.61773, 42.05644],
          [-126.60685, 42.06955],
          [-126.59596, 42.08266],
          [-126.58507, 42.09577],
          [-126.57418, 42.10888],
          [-126.56329, 42.12199],
          [-126.55239, 42.13509],
          [-126.54149, 42.14819],
          [-126.53059, 42.16129],
          [-126.51968, 42.17439],
          [-126.50877, 42.18749],
          [-126.49786, 42.20059],
          [-126.48695, 42.21368],
          [-126.47603, 42.22677],
          [-126.4828, 42.24795],
          [-126.47187, 42.26104],
          [-126.46095, 42.27413],
          [-126.45002, 42.28721],
          [-126.42141, 42.29221],
          [-126.41047, 42.30529],
          [-126.39953, 42.31838],
          [-126.37091, 42.32337],
          [-126.35996, 42.33644],
          [-126.34901, 42.34952],
          [-126.33807, 42.36259],
          [-126.32711, 42.37566],
          [-126.31616, 42.38873],
          [-126.3052, 42.4018],
          [-126.27654, 42.40678],
          [-126.24788, 42.41174],
          [-126.21922, 42.41671],
          [-126.19055, 42.42167],
          [-126.17957, 42.43473],
          [-126.16859, 42.44778],
          [-126.15761, 42.46084],
          [-126.14662, 42.47389],
          [-126.11793, 42.47884],
          [-126.10694, 42.49189],
          [-126.09594, 42.50494],
          [-126.08494, 42.51798],
          [-126.07394, 42.53103],
          [-126.06293, 42.54407],
          [-126.05193, 42.55711],
          [-126.04091, 42.57015],
          [-126.0299, 42.58319],
          [-126.01888, 42.59623],
          [-126.00786, 42.60926],
          [-125.97913, 42.61418],
          [-125.9681, 42.62721],
          [-125.95707, 42.64024],
          [-125.92833, 42.64515],
          [-125.91729, 42.65818],
          [-125.90625, 42.6712],
          [-125.89521, 42.68423],
          [-125.88416, 42.69725],
          [-125.8554, 42.70214],
          [-125.84435, 42.71516],
          [-125.83329, 42.72818],
          [-125.82223, 42.74119],
          [-125.81117, 42.7542],
          [-125.80011, 42.76721],
          [-125.78904, 42.78022],
          [-125.77797, 42.79323],
          [-125.78462, 42.81435],
          [-125.77355, 42.82736],
          [-125.76247, 42.84036],
          [-125.75139, 42.85336],
          [-125.72257, 42.85823],
          [-125.69376, 42.8631],
          [-125.68266, 42.8761],
          [-125.67157, 42.88909],
          [-125.64274, 42.89395],
          [-125.63164, 42.90694],
          [-125.62053, 42.91992],
          [-125.59169, 42.92477],
          [-125.58058, 42.93776],
          [-125.56946, 42.95074],
          [-125.55835, 42.96372],
          [-125.54723, 42.9767],
          [-125.51836, 42.98153],
          [-125.50724, 42.99451],
          [-125.4961, 43.00748],
          [-125.46723, 43.01231],
          [-125.45609, 43.02528],
          [-125.44495, 43.03825],
          [-125.43381, 43.05121],
          [-125.42266, 43.06417],
          [-125.39377, 43.06899],
          [-125.38261, 43.08195],
          [-125.37146, 43.09491],
          [-125.34255, 43.09971],
          [-125.33139, 43.11267],
          [-125.32022, 43.12562],
          [-125.2913, 43.13042],
          [-125.26239, 43.13521],
          [-125.25121, 43.14816],
          [-125.24003, 43.1611],
          [-125.22884, 43.17405],
          [-125.21765, 43.18699],
          [-125.20646, 43.19993],
          [-125.19527, 43.21286],
          [-125.16632, 43.21764],
          [-125.15512, 43.23057],
          [-125.14392, 43.24351],
          [-125.13271, 43.25644],
          [-125.1215, 43.26937],
          [-125.11029, 43.28229],
          [-125.09907, 43.29522],
          [-125.08785, 43.30814],
          [-125.07663, 43.32106],
          [-125.06541, 43.33398],
          [-125.05418, 43.3469],
          [-125.04295, 43.35982],
          [-125.03172, 43.37273],
          [-125.02048, 43.38565],
          [-125.02701, 43.40673],
          [-125.01577, 43.41964],
          [-125.00453, 43.43254],
          [-124.99328, 43.44545],
          [-124.98203, 43.45836],
          [-124.97078, 43.47126],
          [-124.95952, 43.48416],
          [-124.96605, 43.50523],
          [-124.95479, 43.51813],
          [-124.94352, 43.53102],
          [-124.93226, 43.54392],
          [-124.92099, 43.55681],
          [-124.90972, 43.5697],
          [-124.89844, 43.58259],
          [-124.88717, 43.59548],
          [-124.85809, 43.6002],
          [-124.84681, 43.61308],
          [-124.83552, 43.62596],
          [-124.80643, 43.63067],
          [-124.79514, 43.64355],
          [-124.78384, 43.65642],
          [-124.75474, 43.66112],
          [-124.74343, 43.674],
          [-124.73213, 43.68687],
          [-124.72081, 43.69974],
          [-124.7095, 43.7126],
          [-124.69818, 43.72547],
          [-124.68686, 43.73833],
          [-124.65774, 43.74301],
          [-124.64641, 43.75587],
          [-124.65288, 43.77691],
          [-124.64155, 43.78977],
          [-124.63022, 43.80263],
          [-124.61888, 43.81548],
          [-124.60754, 43.82833],
          [-124.59619, 43.84118],
          [-124.58484, 43.85403],
          [-124.59131, 43.87506],
          [-124.57996, 43.8879],
          [-124.56861, 43.90075],
          [-124.55725, 43.91359],
          [-124.54589, 43.92643],
          [-124.55235, 43.94745],
          [-124.54099, 43.96029],
          [-124.52962, 43.97312],
          [-124.51825, 43.98595],
          [-124.50687, 43.99878],
          [-124.4955, 44.01161],
          [-124.48412, 44.02444],
          [-124.47273, 44.03727],
          [-124.44351, 44.04191],
          [-124.41428, 44.04654],
          [-124.38505, 44.05117],
          [-124.35581, 44.05579],
          [-124.33798, 44.0476],
          [-124.32015, 44.0394],
          [-124.30874, 44.05221],
          [-124.29733, 44.06503],
          [-124.26809, 44.06964],
          [-124.25026, 44.06143],
          [-124.23244, 44.05323],
          [-124.2032, 44.05783],
          [-124.19177, 44.07064],
          [-124.18035, 44.08344],
          [-124.15109, 44.08803],
          [-124.13966, 44.10083],
          [-124.12822, 44.11363],
          [-124.09895, 44.11821],
          [-124.06969, 44.12279],
          [-124.05824, 44.13558],
          [-124.04678, 44.14837],
          [-124.0175, 44.15294],
          [-123.98822, 44.15751],
          [-123.95894, 44.16207],
          [-123.94112, 44.15384],
          [-123.9233, 44.14561],
          [-123.89402, 44.15016],
          [-123.86473, 44.15471],
          [-123.83544, 44.15925],
          [-123.80615, 44.16378],
          [-123.78834, 44.15554],
          [-123.77054, 44.1473],
          [-123.74125, 44.15182],
          [-123.71195, 44.15634],
          [-123.69416, 44.14809],
          [-123.67636, 44.13984],
          [-123.65857, 44.13159],
          [-123.65229, 44.11056],
          [-123.63451, 44.1023],
          [-123.60522, 44.10681],
          [-123.58744, 44.09854],
          [-123.56967, 44.09028],
          [-123.54038, 44.09478],
          [-123.5111, 44.09927],
          [-123.48181, 44.10375],
          [-123.45251, 44.10824],
          [-123.43475, 44.09996],
          [-123.41699, 44.09168],
          [-123.38769, 44.09615],
          [-123.37616, 44.10891],
          [-123.36462, 44.12166],
          [-123.33532, 44.12612],
          [-123.30601, 44.13058],
          [-123.29446, 44.14333],
          [-123.28291, 44.15607],
          [-123.27135, 44.16881],
          [-123.25979, 44.18155],
          [-123.23046, 44.186],
          [-123.2189, 44.19873],
          [-123.20733, 44.21147],
          [-123.19575, 44.2242],
          [-123.18418, 44.23693],
          [-123.15483, 44.24136],
          [-123.14325, 44.25409],
          [-123.13166, 44.26681],
          [-123.12007, 44.27954],
          [-123.10848, 44.29226],
          [-123.09688, 44.30498],
          [-123.08528, 44.3177],
          [-123.07368, 44.33041],
          [-123.06208, 44.34313],
          [-123.05047, 44.35584],
          [-123.03886, 44.36855],
          [-123.02725, 44.38126],
          [-123.01563, 44.39396],
          [-123.00401, 44.40667],
          [-122.99239, 44.41937],
          [-122.96297, 44.42377],
          [-122.93356, 44.42816],
          [-122.90415, 44.43255],
          [-122.89251, 44.44525],
          [-122.88086, 44.45794],
          [-122.85144, 44.46232],
          [-122.82201, 44.46669],
          [-122.79257, 44.47106],
          [-122.76314, 44.47543],
          [-122.7337, 44.47979],
          [-122.70426, 44.48414],
          [-122.67482, 44.48849],
          [-122.66422, 44.5]
        ]
      }
    },
    {
      "type": "Feature",
      "id": "2026092612_f192_11000_001",
      "properties": {
        "product_id": "winter_storm_levels",
        "source_id": "nbm_snow_level",
        "parameter": "snow_level",
        "definition": "height of the wet-bulb 0.5 degree C surface",
        "level_ft_msl": 11000,
        "label": "11,000 ft MSL",
        "unit": "ft_msl",
        "cycle_time_utc": "2026-09-26T12:00:00Z",
        "valid_time_utc": "2026-10-04T12:00:00Z",
        "lead_hours": 192,
        "segment": 1,
        "length_m": 2146558.5
      },
      "geometry": {
        "type": "LineString",
        "coordinates": [
          [-122.46209, 30.25175],
          [-122.45026, 30.26725],
          [-122.44206, 30.27799],
          [-122.41627, 30.28256],
          [-122.40396, 30.29866],
          [-122.39575, 30.3094],
          [-122.36995, 30.31396],
          [-122.35763, 30.33006],
          [-122.34942, 30.3408],
          [-122.32361, 30.34535],
          [-122.31128, 30.36145],
          [-122.30306, 30.37218],
          [-122.29073, 30.38827],
          [-122.28251, 30.399],
          [-122.25668, 30.40355],
          [-122.24433, 30.41964],
          [-122.23611, 30.43036],
          [-122.21027, 30.4349],
          [-122.19792, 30.45098],
          [-122.18968, 30.46171],
          [-122.16383, 30.46623],
          [-122.15147, 30.48232],
          [-122.14323, 30.49304],
          [-122.13086, 30.50911],
          [-122.12262, 30.51983],
          [-122.09675, 30.52435],
          [-122.07089, 30.52886],
          [-122.05851, 30.54493],
          [-122.05025, 30.55565],
          [-122.02438, 30.56015],
          [-122.01199, 30.57622],
          [-122.00373, 30.58693],
          [-121.97785, 30.59142],
          [-121.96545, 30.60749],
          [-121.95718, 30.6182],
          [-121.93129, 30.62268],
          [-121.91888, 30.63874],
          [-121.9106, 30.64945],
          [-121.8847, 30.65393],
          [-121.87229, 30.66998],
          [-121.864, 30.68068],
          [-121.85158, 30.69673],
          [-121.85678, 30.71901],
          [-121.84849, 30.72971],
          [-121.83606, 30.74576],
          [-121.82777, 30.75646],
          [-121.80185, 30.76093],
          [-121.7894, 30.77697],
          [-121.78111, 30.78767],
          [-121.75517, 30.79213],
          [-121.72923, 30.79658],
          [-121.7033, 30.80103],
          [-121.67735, 30.80547],
          [-121.65141, 30.80991],
          [-121.62547, 30.81435],
          [-121.61299, 30.83037],
          [-121.60468, 30.84106],
          [-121.57872, 30.84549],
          [-121.56624, 30.86151],
          [-121.55792, 30.87219],
          [-121.53196, 30.87661],
          [-121.51947, 30.89263],
          [-121.51114, 30.90331],
          [-121.49864, 30.91933],
          [-121.4903, 30.93001],
          [-121.4778, 30.94602],
          [-121.46946, 30.9567],
          [-121.44348, 30.9611],
          [-121.41749, 30.9655],
          [-121.3915, 30.9699],
          [-121.36551, 30.97429],
          [-121.35299, 30.9903],
          [-121.34464, 31.00096],
          [-121.33211, 31.01697],
          [-121.32375, 31.02763],
          [-121.29774, 31.03201],
          [-121.2852, 31.04801],
          [-121.27684, 31.05867],
          [-121.2643, 31.07467],
          [-121.25593, 31.08533],
          [-121.22991, 31.0897],
          [-121.21735, 31.10569],
          [-121.20898, 31.11635],
          [-121.18295, 31.12071],
          [-121.15692, 31.12506],
          [-121.14435, 31.14105],
          [-121.13596, 31.1517],
          [-121.10992, 31.15605],
          [-121.08388, 31.16039],
          [-121.05784, 31.16473],
          [-121.03179, 31.16907],
          [-121.00574, 31.1734],
          [-120.99314, 31.18937],
          [-120.98475, 31.20001],
          [-120.95869, 31.20433],
          [-120.93263, 31.20865],
          [-120.90657, 31.21297],
          [-120.8805, 31.21728],
          [-120.85444, 31.22158],
          [-120.82837, 31.22588],
          [-120.8023, 31.23018],
          [-120.78967, 31.24613],
          [-120.78125, 31.25676],
          [-120.75517, 31.26105],
          [-120.72909, 31.26534],
          [-120.71645, 31.28128],
          [-120.70802, 31.29191],
          [-120.68193, 31.29619],
          [-120.66928, 31.31213],
          [-120.66084, 31.32275],
          [-120.63474, 31.32702],
          [-120.60864, 31.33128],
          [-120.58254, 31.33554],
          [-120.56987, 31.35147],
          [-120.56142, 31.36209],
          [-120.53531, 31.36635],
          [-120.5092, 31.37059],
          [-120.48308, 31.37484],
          [-120.45697, 31.37908],
          [-120.44428, 31.39499],
          [-120.43581, 31.40561],
          [-120.40969, 31.40984],
          [-120.39698, 31.42575],
          [-120.38851, 31.43636],
          [-120.36238, 31.44058],
          [-120.33624, 31.4448],
          [-120.32353, 31.46071],
          [-120.31505, 31.47131],
          [-120.30232, 31.48722],
          [-120.29384, 31.49782],
          [-120.28111, 31.51372],
          [-120.27262, 31.52432],
          [-120.24646, 31.52853],
          [-120.23372, 31.54442],
          [-120.22523, 31.55502],
          [-120.19906, 31.55921],
          [-120.18631, 31.57511],
          [-120.17781, 31.5857],
          [-120.15164, 31.58989],
          [-120.13888, 31.60578],
          [-120.13037, 31.61637],
          [-120.11761, 31.63225],
          [-120.10909, 31.64284],
          [-120.09632, 31.65872],
          [-120.08781, 31.66931],
          [-120.07503, 31.68519],
          [-120.06651, 31.69578],
          [-120.05373, 31.71166],
          [-120.0452, 31.72224],
          [-120.03242, 31.73811],
          [-120.03731, 31.76041],
          [-120.02878, 31.77099],
          [-120.01599, 31.78686],
          [-120.02088, 31.80915],
          [-120.02578, 31.83144],
          [-120.03068, 31.85373],
          [-120.03558, 31.87602],
          [-120.04048, 31.8983],
          [-120.04539, 31.92059],
          [-120.0503, 31.94287],
          [-120.0552, 31.96515],
          [-120.06012, 31.98743],
          [-120.06503, 32.00971],
          [-120.06994, 32.03199],
          [-120.07486, 32.05427],
          [-120.07978, 32.07654],
          [-120.0847, 32.09882],
          [-120.08962, 32.12109],
          [-120.10835, 32.13195],
          [-120.12085, 32.13919],
          [-120.12578, 32.16146],
          [-120.13071, 32.18373],
          [-120.13565, 32.206],
          [-120.14058, 32.22826],
          [-120.14552, 32.25053],
          [-120.13697, 32.26111],
          [-120.12413, 32.27697],
          [-120.12907, 32.29923],
          [-120.13401, 32.32149],
          [-120.15278, 32.33235],
          [-120.16529, 32.33958],
          [-120.17024, 32.36184],
          [-120.17519, 32.38409],
          [-120.18014, 32.40635],
          [-120.1851, 32.4286],
          [-120.19005, 32.45086],
          [-120.19501, 32.47311],
          [-120.19997, 32.49536],
          [-120.1914, 32.50593],
          [-120.17855, 32.52179],
          [-120.18351, 32.54404],
          [-120.18847, 32.56629],
          [-120.19343, 32.58853],
          [-120.21225, 32.59937],
          [-120.2248, 32.60659],
          [-120.22977, 32.62884],
          [-120.23474, 32.65108],
          [-120.23972, 32.67332],
          [-120.2447, 32.69556],
          [-120.26354, 32.70638],
          [-120.27611, 32.7136],
          [-120.26753, 32.72417],
          [-120.25466, 32.74003],
          [-120.25964, 32.76226],
          [-120.26463, 32.7845],
          [-120.25604, 32.79507],
          [-120.24316, 32.81092],
          [-120.24815, 32.83315],
          [-120.25313, 32.85538],
          [-120.25812, 32.87761],
          [-120.26311, 32.89984],
          [-120.2681, 32.92206],
          [-120.27309, 32.94429],
          [-120.27809, 32.96651],
          [-120.26949, 32.97707],
          [-120.25659, 32.99292],
          [-120.26159, 33.01514],
          [-120.26659, 33.03736],
          [-120.27158, 33.05958],
          [-120.27658, 33.08179],
          [-120.28159, 33.10401],
          [-120.28659, 33.12622],
          [-120.2916, 33.14843],
          [-120.29661, 33.17064],
          [-120.30162, 33.19285],
          [-120.32055, 33.20366],
          [-120.33317, 33.21086],
          [-120.33819, 33.23307],
          [-120.34321, 33.25527],
          [-120.34823, 33.27748],
          [-120.35326, 33.29968],
          [-120.35829, 33.32188],
          [-120.36331, 33.34408],
          [-120.36835, 33.36627],
          [-120.37338, 33.38847],
          [-120.37841, 33.41066],
          [-120.39739, 33.42145],
          [-120.41004, 33.42865],
          [-120.41508, 33.45084],
          [-120.42013, 33.47303],
          [-120.42518, 33.49522],
          [-120.44417, 33.506],
          [-120.45684, 33.51319],
          [-120.46189, 33.53537],
          [-120.46695, 33.55755],
          [-120.47201, 33.57974],
          [-120.49103, 33.59051],
          [-120.5037, 33.59769],
          [-120.50877, 33.61987],
          [-120.51384, 33.64205],
          [-120.51892, 33.66422],
          [-120.53795, 33.67499],
          [-120.55064, 33.68217],
          [-120.55572, 33.70434],
          [-120.56081, 33.72651],
          [-120.56589, 33.74868],
          [-120.57098, 33.77084],
          [-120.57607, 33.79301],
          [-120.58117, 33.81517],
          [-120.58626, 33.83733],
          [-120.59136, 33.85949],
          [-120.61043, 33.87025],
          [-120.62315, 33.87741],
          [-120.62825, 33.89957],
          [-120.63336, 33.92172],
          [-120.63847, 33.94388],
          [-120.64358, 33.96603],
          [-120.64869, 33.98818],
          [-120.65381, 34.01033],
          [-120.65893, 34.03248],
          [-120.66405, 34.05462],
          [-120.66917, 34.07676],
          [-120.67429, 34.09891],
          [-120.67942, 34.12105],
          [-120.68455, 34.14319],
          [-120.68968, 34.16532],
          [-120.69481, 34.18746],
          [-120.71395, 34.19819],
          [-120.72671, 34.20534],
          [-120.73185, 34.22748],
          [-120.73699, 34.24961],
          [-120.74214, 34.27174],
          [-120.74729, 34.29386],
          [-120.73863, 34.30441],
          [-120.72565, 34.32024],
          [-120.73079, 34.34237],
          [-120.73594, 34.36449],
          [-120.74109, 34.38661],
          [-120.74624, 34.40873],
          [-120.7514, 34.43085],
          [-120.75656, 34.45296],
          [-120.76171, 34.47508],
          [-120.76687, 34.49719],
          [-120.77204, 34.5193],
          [-120.7772, 34.54141],
          [-120.78237, 34.56352],
          [-120.78754, 34.58563],
          [-120.79271, 34.60773],
          [-120.81193, 34.61844],
          [-120.82474, 34.62558],
          [-120.82992, 34.64768],
          [-120.8351, 34.66978],
          [-120.85434, 34.68048],
          [-120.86716, 34.68761],
          [-120.87235, 34.7097],
          [-120.87755, 34.7318],
          [-120.88274, 34.75389],
          [-120.88794, 34.77598],
          [-120.89314, 34.79807],
          [-120.89834, 34.82015],
          [-120.9176, 34.83084],
          [-120.93045, 34.83797],
          [-120.93566, 34.86005],
          [-120.95494, 34.87073],
          [-120.96779, 34.87785],
          [-120.98707, 34.88853],
          [-120.99993, 34.89564],
          [-121.00516, 34.91772],
          [-121.01038, 34.9398],
          [-121.02968, 34.95047],
          [-121.04255, 34.95758],
          [-121.04779, 34.97965],
          [-121.06709, 34.99031],
          [-121.07997, 34.99742],
          [-121.08522, 35.01949],
          [-121.09047, 35.04156],
          [-121.09572, 35.06362],
          [-121.11505, 35.07427],
          [-121.12793, 35.08138],
          [-121.13319, 35.10344],
          [-121.13846, 35.12549],
          [-121.14372, 35.14755],
          [-121.14899, 35.1696],
          [-121.15426, 35.19166],
          [-121.15953, 35.21371],
          [-121.16481, 35.23576],
          [-121.17008, 35.2578],
          [-121.16139, 35.26835],
          [-121.14836, 35.28416],
          [-121.15363, 35.3062],
          [-121.15891, 35.32824],
          [-121.16419, 35.35028],
          [-121.16947, 35.37232],
          [-121.17475, 35.39436],
          [-121.18004, 35.41639],
          [-121.18533, 35.43843],
          [-121.19062, 35.46046],
          [-121.19591, 35.48249],
          [-121.2012, 35.50452],
          [-121.2065, 35.52654],
          [-121.2118, 35.54857],
          [-121.2171, 35.57059],
          [-121.2224, 35.59261],
          [-121.22771, 35.61463],
          [-121.23302, 35.63665],
          [-121.23832, 35.65866],
          [-121.24364, 35.68068],
          [-121.23492, 35.69121],
          [-121.22184, 35.707],
          [-121.22715, 35.72901],
          [-121.23247, 35.75102],
          [-121.23778, 35.77303],
          [-121.2431, 35.79503],
          [-121.23437, 35.80556],
          [-121.22128, 35.82134],
          [-121.21255, 35.83187],
          [-121.19946, 35.84765],
          [-121.19072, 35.85818],
          [-121.17762, 35.87396],
          [-121.16888, 35.88448],
          [-121.14173, 35.88877],
          [-121.12862, 35.90455],
          [-121.11987, 35.91507],
          [-121.09271, 35.91936],
          [-121.07958, 35.93513],
          [-121.07083, 35.94564],
          [-121.0577, 35.96141],
          [-121.06299, 35.9834],
          [-121.05423, 35.99391],
          [-121.04109, 36.00968],
          [-121.04638, 36.03167],
          [-121.05167, 36.05366],
          [-121.04291, 36.06417],
          [-121.02976, 36.07992],
          [-121.02099, 36.09043],
          [-121.00784, 36.10618],
          [-121.01313, 36.12817],
          [-121.00435, 36.13867],
          [-120.99119, 36.15442],
          [-120.99647, 36.17641],
          [-121.00176, 36.19839],
          [-120.99298, 36.20889],
          [-120.97981, 36.22463],
          [-120.9851, 36.24661],
          [-120.99038, 36.26858],
          [-120.9816, 36.27908],
          [-120.96841, 36.29482],
          [-120.9737, 36.31679],
          [-120.97899, 36.33876],
          [-120.9702, 36.34926],
          [-120.957, 36.36499],
          [-120.96229, 36.38696],
          [-120.96758, 36.40892],
          [-120.95878, 36.41941],
          [-120.94558, 36.43514],
          [-120.95087, 36.45711],
          [-120.95616, 36.47906],
          [-120.96146, 36.50102],
          [-120.96675, 36.52298],
          [-120.95794, 36.53346],
          [-120.94473, 36.54919],
          [-120.95002, 36.57114],
          [-120.95532, 36.59309],
          [-120.96062, 36.61504],
          [-120.96592, 36.63698],
          [-120.97122, 36.65893],
          [-120.97653, 36.68087],
          [-120.98184, 36.70281],
          [-120.98715, 36.72475],
          [-120.97833, 36.73522],
          [-120.96509, 36.75094],
          [-120.9704, 36.77287],
          [-120.97571, 36.79481],
          [-120.98102, 36.81674],
          [-120.98634, 36.83867],
          [-120.99165, 36.86059],
          [-120.99697, 36.88252],
          [-121.0023, 36.90444],
          [-120.99346, 36.91491],
          [-120.9802, 36.93061],
          [-120.98552, 36.95253],
          [-120.97668, 36.963],
          [-120.94925, 36.96725],
          [-120.93598, 36.98295],
          [-120.94129, 37.00486],
          [-120.93244, 37.01533],
          [-120.91916, 37.03102],
          [-120.9103, 37.04148],
          [-120.89702, 37.05717],
          [-120.90233, 37.07908],
          [-120.89347, 37.08954],
          [-120.88017, 37.10523],
          [-120.88548, 37.12714],
          [-120.87661, 37.13759],
          [-120.86331, 37.15327],
          [-120.86862, 37.17518],
          [-120.87393, 37.19708],
          [-120.87924, 37.21898],
          [-120.88456, 37.24087],
          [-120.88988, 37.26277],
          [-120.89519, 37.28466],
          [-120.90052, 37.30655],
          [-120.90584, 37.32844],
          [-120.91117, 37.35033],
          [-120.93088, 37.36092],
          [-120.94403, 37.36798],
          [-120.94936, 37.38986],
          [-120.9547, 37.41174],
          [-120.96004, 37.43362],
          [-120.96538, 37.45549],
          [-120.97073, 37.47736],
          [-120.96184, 37.48781],
          [-120.94851, 37.50348],
          [-120.95385, 37.52535],
          [-120.9592, 37.54721],
          [-120.96454, 37.56908],
          [-120.96989, 37.59094],
          [-120.97524, 37.6128],
          [-120.9806, 37.63466],
          [-120.98595, 37.65652],
          [-121.00573, 37.66709],
          [-121.01892, 37.67413],
          [-121.02429, 37.69598],
          [-121.02966, 37.71783],
          [-121.03503, 37.73968],
          [-121.0404, 37.76153],
          [-121.04578, 37.78337],
          [-121.06558, 37.79393],
          [-121.07879, 37.80096],
          [-121.08418, 37.8228],
          [-121.08956, 37.84464],
          [-121.09495, 37.86647],
          [-121.10034, 37.8883],
          [-121.10574, 37.91013],
          [-121.11113, 37.93196],
          [-121.11653, 37.95379],
          [-121.12193, 37.97561],
          [-121.12733, 37.99743],
          [-121.13274, 38.01925],
          [-121.13814, 38.04107],
          [-121.14355, 38.06288],
          [-121.14896, 38.08469],
          [-121.15438, 38.1065],
          [-121.15979, 38.12831],
          [-121.15087, 38.13874],
          [-121.13748, 38.15438],
          [-121.1429, 38.17618],
          [-121.13397, 38.1866],
          [-121.12057, 38.20224],
          [-121.11164, 38.21266],
          [-121.09824, 38.22829],
          [-121.0893, 38.23871],
          [-121.07589, 38.25433],
          [-121.0813, 38.27613],
          [-121.07235, 38.28654],
          [-121.05893, 38.30217],
          [-121.04999, 38.31258],
          [-121.03656, 38.3282],
          [-121.02761, 38.33861],
          [-121.01418, 38.35422],
          [-121.01958, 38.37601],
          [-121.01062, 38.38642],
          [-120.99718, 38.40203],
          [-121.00258, 38.42382],
          [-120.99362, 38.43422],
          [-120.98017, 38.44983],
          [-120.9712, 38.46023],
          [-120.95775, 38.47583],
          [-120.96314, 38.49761],
          [-120.96854, 38.51939],
          [-120.95956, 38.52979],
          [-120.9461, 38.54538],
          [-120.95149, 38.56715],
          [-120.95689, 38.58892],
          [-120.96229, 38.61069],
          [-120.95331, 38.62109],
          [-120.93983, 38.63668],
          [-120.94523, 38.65844],
          [-120.95063, 38.6802],
          [-120.95603, 38.70196],
          [-120.94704, 38.71235],
          [-120.93355, 38.72793],
          [-120.93895, 38.74969],
          [-120.94435, 38.77144],
          [-120.94976, 38.79319],
          [-120.95517, 38.81494],
          [-120.96058, 38.83668],
          [-120.96599, 38.85843],
          [-120.97141, 38.88017],
          [-120.97682, 38.90191],
          [-120.96782, 38.91229],
          [-120.9543, 38.92786],
          [-120.95972, 38.94959],
          [-120.96514, 38.97132],
          [-120.97056, 38.99305],
          [-120.97598, 39.01478],
          [-120.96697, 39.02515],
          [-120.95344, 39.04072],
          [-120.95886, 39.06244],
          [-120.96429, 39.08416],
          [-120.96971, 39.10588],
          [-120.96069, 39.11625],
          [-120.94715, 39.1318],
          [-120.95257, 39.15352],
          [-120.958, 39.17523],
          [-120.94897, 39.1856],
          [-120.93542, 39.20114],
          [-120.92638, 39.21151],
          [-120.91282, 39.22705],
          [-120.91825, 39.24876],
          [-120.90921, 39.25912],
          [-120.89564, 39.27466],
          [-120.90106, 39.29636],
          [-120.89201, 39.30672],
          [-120.87844, 39.32225],
          [-120.86939, 39.33261],
          [-120.85581, 39.34814],
          [-120.84675, 39.3585],
          [-120.83316, 39.37402],
          [-120.8241, 39.38437],
          [-120.81051, 39.3999],
          [-120.81592, 39.42159],
          [-120.80685, 39.43194],
          [-120.79325, 39.44746],
          [-120.78417, 39.4578],
          [-120.77056, 39.47332],
          [-120.76149, 39.48366],
          [-120.74787, 39.49917],
          [-120.75327, 39.52085],
          [-120.74419, 39.53119],
          [-120.73057, 39.5467],
          [-120.72148, 39.55704],
          [-120.70785, 39.57254],
          [-120.69876, 39.58287],
          [-120.67063, 39.58703],
          [-120.65699, 39.60253],
          [-120.64789, 39.61286],
          [-120.61975, 39.61701],
          [-120.59161, 39.62115],
          [-120.56347, 39.62529],
          [-120.54981, 39.64077],
          [-120.5407, 39.6511],
          [-120.51255, 39.65523],
          [-120.48439, 39.65935],
          [-120.45624, 39.66347],
          [-120.42808, 39.66759],
          [-120.41439, 39.68306],
          [-120.40526, 39.69337],
          [-120.37709, 39.69748],
          [-120.36339, 39.71295],
          [-120.35425, 39.72326],
          [-120.32608, 39.72736],
          [-120.2979, 39.73145],
          [-120.28418, 39.74691],
          [-120.27503, 39.75721],
          [-120.24684, 39.7613],
          [-120.23311, 39.77675],
          [-120.22396, 39.78705],
          [-120.21022, 39.80249],
          [-120.20106, 39.81279],
          [-120.17285, 39.81686],
          [-120.1591, 39.8323],
          [-120.14994, 39.8426],
          [-120.12172, 39.84666],
          [-120.10796, 39.86209],
          [-120.09878, 39.87238],
          [-120.07056, 39.87644],
          [-120.04233, 39.88049],
          [-120.01409, 39.88453],
          [-119.98586, 39.88857],
          [-119.95762, 39.89261],
          [-119.94422, 39.88556],
          [-119.92413, 39.87498],
          [-119.8959, 39.879],
          [-119.86766, 39.88302],
          [-119.85427, 39.87596],
          [-119.83419, 39.86537],
          [-119.80595, 39.86938],
          [-119.77771, 39.87339],
          [-119.74947, 39.8774],
          [-119.73565, 39.8928],
          [-119.72644, 39.90307],
          [-119.71261, 39.91847],
          [-119.70339, 39.92873],
          [-119.67514, 39.93272],
          [-119.64687, 39.93671],
          [-119.61861, 39.94069],
          [-119.59035, 39.94467],
          [-119.56208, 39.94864],
          [-119.53381, 39.9526],
          [-119.50554, 39.95657],
          [-119.47727, 39.96053],
          [-119.44899, 39.96448],
          [-119.42071, 39.96843],
          [-119.40734, 39.96134],
          [-119.38729, 39.9507],
          [-119.35901, 39.95464],
          [-119.33073, 39.95857],
          [-119.31737, 39.95147],
          [-119.29733, 39.94082],
          [-119.26905, 39.94475],
          [-119.24077, 39.94867],
          [-119.21249, 39.95259],
          [-119.18421, 39.9565],
          [-119.15592, 39.9604],
          [-119.12763, 39.96431],
          [-119.09934, 39.9682],
          [-119.086, 39.96109],
          [-119.06598, 39.95041],
          [-119.03769, 39.9543],
          [-119.0094, 39.95818],
          [-118.99606, 39.95106],
          [-118.97605, 39.94038],
          [-118.94776, 39.94425],
          [-118.93442, 39.93712],
          [-118.91442, 39.92643],
          [-118.88614, 39.93029],
          [-118.87281, 39.92316],
          [-118.85282, 39.91246],
          [-118.82453, 39.91631],
          [-118.81121, 39.90917],
          [-118.79123, 39.89847],
          [-118.76294, 39.90231],
          [-118.73466, 39.90615],
          [-118.70637, 39.90999],
          [-118.67808, 39.91382],
          [-118.64978, 39.91764],
          [-118.62149, 39.92147],
          [-118.6075, 39.93678],
          [-118.59817, 39.94698],
          [-118.56986, 39.9508],
          [-118.54156, 39.95461],
          [-118.51325, 39.95841],
          [-118.48494, 39.96221],
          [-118.47092, 39.97751],
          [-118.46157, 39.9877],
          [-118.43325, 39.99149],
          [-118.40493, 39.99528],
          [-118.3766, 39.99906],
          [-118.34828, 40.00284],
          [-118.31995, 40.00661],
          [-118.29161, 40.01038],
          [-118.27832, 40.0032],
          [-118.25837, 39.99244],
          [-118.23004, 39.9962],
          [-118.20171, 39.99995],
          [-118.17338, 40.0037],
          [-118.14504, 40.00744],
          [-118.1167, 40.01118],
          [-118.08836, 40.01492],
          [-118.06002, 40.01865],
          [-118.04593, 40.03391],
          [-118.03654, 40.04408],
          [-118.00819, 40.0478],
          [-117.97984, 40.05152],
          [-117.96655, 40.04432],
          [-117.94663, 40.03352],
          [-117.91828, 40.03723],
          [-117.90501, 40.03003],
          [-117.88509, 40.01922],
          [-117.85674, 40.02292],
          [-117.84347, 40.01572],
          [-117.82357, 40.0049],
          [-117.79522, 40.00859],
          [-117.78196, 40.00138],
          [-117.76207, 39.99056],
          [-117.73372, 39.99424],
          [-117.72046, 39.98702],
          [-117.70058, 39.97619],
          [-117.68733, 39.96897],
          [-117.66745, 39.95814],
          [-117.63911, 39.9618],
          [-117.61077, 39.96546],
          [-117.59662, 39.98069],
          [-117.58719, 39.99084],
          [-117.55884, 39.99449],
          [-117.54559, 39.98726],
          [-117.52572, 39.97641],
          [-117.49737, 39.98005],
          [-117.46902, 39.98369],
          [-117.44066, 39.98732],
          [-117.41231, 39.99095],
          [-117.38395, 39.99457],
          [-117.35559, 39.99819],
          [-117.34236, 39.99094],
          [-117.32251, 39.98007],
          [-117.29415, 39.98368],
          [-117.26579, 39.98729],
          [-117.25257, 39.98003],
          [-117.23273, 39.96915],
          [-117.20437, 39.97275],
          [-117.17601, 39.97634],
          [-117.14765, 39.97992],
          [-117.11928, 39.9835],
          [-117.09092, 39.98708],
          [-117.06255, 39.99065],
          [-117.03417, 39.99421],
          [-117.02097, 39.98694],
          [-117.00116, 39.97604],
          [-116.97279, 39.97959],
          [-116.94442, 39.98315],
          [-116.93121, 39.97587],
          [-116.91142, 39.96495],
          [-116.88305, 39.9685],
          [-116.86985, 39.96121],
          [-116.85006, 39.95029],
          [-116.82169, 39.95382],
          [-116.80851, 39.94654],
          [-116.78873, 39.9356],
          [-116.76036, 39.93913],
          [-116.74718, 39.93183],
          [-116.72741, 39.92089],
          [-116.69904, 39.92441],
          [-116.68587, 39.91711],
          [-116.66611, 39.90616],
          [-116.63774, 39.90967],
          [-116.62457, 39.90237],
          [-116.60482, 39.89141],
          [-116.57646, 39.89491],
          [-116.5481, 39.8984],
          [-116.53494, 39.89109],
          [-116.5152, 39.88012],
          [-116.48684, 39.8836],
          [-116.45848, 39.88708],
          [-116.43011, 39.89055],
          [-116.41696, 39.88323],
          [-116.39723, 39.87225],
          [-116.36887, 39.87571],
          [-116.34051, 39.87917],
          [-116.32736, 39.87184],
          [-116.30765, 39.86085],
          [-116.29451, 39.85352],
          [-116.2748, 39.84253],
          [-116.26166, 39.8352],
          [-116.24196, 39.8242],
          [-116.21361, 39.82764],
          [-116.20048, 39.8203],
          [-116.18078, 39.80929],
          [-116.15243, 39.81272],
          [-116.12408, 39.81614],
          [-116.11096, 39.8088],
          [-116.09128, 39.79778],
          [-116.06293, 39.8012],
          [-116.03457, 39.80461],
          [-116.00622, 39.80801],
          [-115.99311, 39.80066],
          [-115.97344, 39.78963],
          [-115.94509, 39.79302],
          [-115.91673, 39.79641],
          [-115.88837, 39.7998],
          [-115.86002, 39.80318],
          [-115.83166, 39.80655],
          [-115.80329, 39.80993],
          [-115.77493, 39.81329],
          [-115.74656, 39.81666],
          [-115.7182, 39.82002],
          [-115.68983, 39.82337],
          [-115.66146, 39.82672],
          [-115.63308, 39.83006],
          [-115.60471, 39.8334],
          [-115.57633, 39.83674],
          [-115.56324, 39.82935],
          [-115.54362, 39.81828],
          [-115.51524, 39.8216],
          [-115.48687, 39.82492],
          [-115.47379, 39.81753],
          [-115.45418, 39.80644],
          [-115.4258, 39.80975],
          [-115.39742, 39.81306],
          [-115.36905, 39.81636],
          [-115.34067, 39.81966],
          [-115.31229, 39.82295],
          [-115.2839, 39.82624],
          [-115.25552, 39.82953],
          [-115.22713, 39.8328],
          [-115.21266, 39.84785],
          [-115.203, 39.85788],
          [-115.17461, 39.86115],
          [-115.16155, 39.85374],
          [-115.14196, 39.84261],
          [-115.11357, 39.84587],
          [-115.08517, 39.84913],
          [-115.07212, 39.84171],
          [-115.05254, 39.83058],
          [-115.02415, 39.83383],
          [-114.99575, 39.83707],
          [-114.98271, 39.82964],
          [-114.96314, 39.8185],
          [-114.93475, 39.82173],
          [-114.90636, 39.82496],
          [-114.87796, 39.82818],
          [-114.86492, 39.82075],
          [-114.84538, 39.80959],
          [-114.81698, 39.8128],
          [-114.78859, 39.81601],
          [-114.77556, 39.80857],
          [-114.75602, 39.7974],
          [-114.72763, 39.8006],
          [-114.7146, 39.79315],
          [-114.69508, 39.78198],
          [-114.66669, 39.78517],
          [-114.65367, 39.77772],
          [-114.63415, 39.76654],
          [-114.62114, 39.75908],
          [-114.60163, 39.74789],
          [-114.58862, 39.74044],
          [-114.58449, 39.71861],
          [-114.56499, 39.70742],
          [-114.552, 39.69995],
          [-114.5325, 39.68876],
          [-114.51951, 39.68129],
          [-114.50002, 39.67009],
          [-114.48703, 39.66262],
          [-114.48293, 39.64078],
          [-114.47883, 39.61894],
          [-114.45936, 39.60773],
          [-114.44638, 39.60026],
          [-114.44228, 39.57842],
          [-114.42282, 39.5672],
          [-114.40985, 39.55972],
          [-114.3904, 39.5485],
          [-114.37744, 39.54102],
          [-114.35799, 39.52979],
          [-114.34503, 39.52231],
          [-114.32559, 39.51108],
          [-114.31264, 39.50359],
          [-114.2932, 39.49236],
          [-114.28025, 39.48487],
          [-114.2762, 39.46301],
          [-114.27215, 39.44114],
          [-114.25273, 39.4299],
          [-114.23979, 39.42241],
          [-114.23575, 39.40054],
          [-114.21634, 39.38929],
          [-114.20341, 39.38179],
          [-114.19937, 39.35992],
          [-114.17998, 39.34866],
          [-114.16706, 39.34116],
          [-114.16303, 39.31928],
          [-114.14365, 39.30802],
          [-114.13073, 39.30051],
          [-114.12671, 39.27863],
          [-114.1227, 39.25674],
          [-114.11869, 39.23485],
          [-114.09933, 39.22358],
          [-114.08642, 39.21607],
          [-114.08242, 39.19418],
          [-114.07842, 39.17228],
          [-114.05907, 39.161],
          [-114.04618, 39.15348],
          [-114.04218, 39.13158],
          [-114.02285, 39.1203],
          [-114.00996, 39.11278],
          [-113.99064, 39.10149],
          [-113.97776, 39.09396],
          [-113.95844, 39.08267],
          [-113.93021, 39.08575],
          [-113.91734, 39.07822],
          [-113.89803, 39.06691],
          [-113.8698, 39.06999],
          [-113.84158, 39.07305],
          [-113.81336, 39.07612],
          [-113.78513, 39.07917],
          [-113.7569, 39.08223],
          [-113.74232, 39.09721],
          [-113.7326, 39.10719],
          [-113.70436, 39.11023],
          [-113.67612, 39.11327],
          [-113.66152, 39.12824],
          [-113.65179, 39.13822],
          [-113.62354, 39.14125],
          [-113.59529, 39.14428],
          [-113.56704, 39.1473],
          [-113.53879, 39.15032],
          [-113.52593, 39.14276],
          [-113.50665, 39.13142],
          [-113.4784, 39.13442],
          [-113.45015, 39.13743],
          [-113.4219, 39.14043],
          [-113.39364, 39.14342],
          [-113.36538, 39.14641],
          [-113.33713, 39.14939],
          [-113.32428, 39.14182],
          [-113.30503, 39.13046],
          [-113.27677, 39.13343],
          [-113.24851, 39.1364],
          [-113.22025, 39.13937],
          [-113.19199, 39.14233],
          [-113.16373, 39.14529],
          [-113.13547, 39.14824],
          [-113.12079, 39.16316],
          [-113.111, 39.1731],
          [-113.08273, 39.17605],
          [-113.06804, 39.19096],
          [-113.05824, 39.2009],
          [-113.02996, 39.20384],
          [-113.01526, 39.21875],
          [-113.00546, 39.22868],
          [-112.99075, 39.24359],
          [-112.98094, 39.25352],
          [-112.96622, 39.26842],
          [-112.95641, 39.27835],
          [-112.92811, 39.28127],
          [-112.91338, 39.29616],
          [-112.90356, 39.30609],
          [-112.88883, 39.32098],
          [-112.879, 39.33091],
          [-112.86426, 39.34579],
          [-112.85443, 39.35572],
          [-112.8261, 39.35862],
          [-112.81135, 39.37349],
          [-112.80151, 39.38341],
          [-112.77318, 39.3863],
          [-112.74484, 39.38919],
          [-112.73007, 39.40406],
          [-112.72022, 39.41397],
          [-112.69187, 39.41685],
          [-112.66352, 39.41972],
          [-112.63517, 39.42259],
          [-112.60682, 39.42545],
          [-112.59202, 39.44031],
          [-112.58216, 39.45021],
          [-112.5538, 39.45306],
          [-112.53899, 39.46791],
          [-112.52912, 39.47781],
          [-112.50075, 39.48066],
          [-112.47238, 39.4835],
          [-112.45756, 39.49834],
          [-112.44768, 39.50823],
          [-112.41929, 39.51106],
          [-112.39091, 39.51389],
          [-112.36253, 39.51671],
          [-112.34769, 39.53154],
          [-112.33779, 39.54143],
          [-112.32294, 39.55625],
          [-112.31304, 39.56613],
          [-112.29819, 39.58096],
          [-112.28828, 39.59084],
          [-112.25988, 39.59364],
          [-112.24501, 39.60845],
          [-112.2351, 39.61833],
          [-112.20668, 39.62113],
          [-112.17826, 39.62392],
          [-112.14984, 39.6267],
          [-112.13703, 39.61906],
          [-112.11781, 39.60759],
          [-112.08939, 39.61037],
          [-112.06098, 39.61314],
          [-112.03256, 39.61591],
          [-112.00413, 39.61867],
          [-112, 39.61907]
        ]
      }
    },
    {
      "type": "Feature",
      "id": "2026092612_f192_12000_001",
      "properties": {
        "product_id": "winter_storm_levels",
        "source_id": "nbm_snow_level",
        "parameter": "snow_level",
        "definition": "height of the wet-bulb 0.5 degree C surface",
        "level_ft_msl": 12000,
        "label": "12,000 ft MSL",
        "unit": "ft_msl",
        "cycle_time_utc": "2026-09-26T12:00:00Z",
        "valid_time_utc": "2026-10-04T12:00:00Z",
        "lead_hours": 192,
        "segment": 1,
        "length_m": 933486.1
      },
      "geometry": {
        "type": "LineString",
        "coordinates": [
          [-113.65403, 30.08642],
          [-113.65546, 30.09531],
          [-113.65906, 30.11784],
          [-113.66267, 30.14038],
          [-113.65594, 30.14807],
          [-113.64022, 30.16603],
          [-113.64383, 30.18856],
          [-113.64744, 30.21109],
          [-113.65105, 30.23361],
          [-113.65466, 30.25614],
          [-113.65827, 30.27867],
          [-113.66188, 30.30119],
          [-113.6655, 30.32372],
          [-113.66911, 30.34624],
          [-113.67273, 30.36876],
          [-113.66599, 30.37646],
          [-113.65024, 30.39441],
          [-113.65386, 30.41693],
          [-113.65747, 30.43945],
          [-113.66109, 30.46197],
          [-113.66471, 30.48449],
          [-113.66833, 30.507],
          [-113.67195, 30.52952],
          [-113.67558, 30.55204],
          [-113.6792, 30.57455],
          [-113.68283, 30.59706],
          [-113.70368, 30.61064],
          [-113.71262, 30.61645],
          [-113.71625, 30.63896],
          [-113.71989, 30.66147],
          [-113.72352, 30.68398],
          [-113.7444, 30.69755],
          [-113.75334, 30.70336],
          [-113.75699, 30.72587],
          [-113.76063, 30.74837],
          [-113.76428, 30.77088],
          [-113.76793, 30.79338],
          [-113.77158, 30.81589],
          [-113.77523, 30.83839],
          [-113.76847, 30.84608],
          [-113.75267, 30.86402],
          [-113.75632, 30.88652],
          [-113.75997, 30.90902],
          [-113.76363, 30.93152],
          [-113.76728, 30.95402],
          [-113.77094, 30.97652],
          [-113.77459, 30.99901],
          [-113.76782, 31.0067],
          [-113.752, 31.02464],
          [-113.75566, 31.04713],
          [-113.75931, 31.06962],
          [-113.76297, 31.09212],
          [-113.75619, 31.0998],
          [-113.74036, 31.11774],
          [-113.74402, 31.14023],
          [-113.73723, 31.14791],
          [-113.72139, 31.16584],
          [-113.72504, 31.18833],
          [-113.71825, 31.19602],
          [-113.70241, 31.21394],
          [-113.70606, 31.23643],
          [-113.70971, 31.25892],
          [-113.70291, 31.2666],
          [-113.68705, 31.28452],
          [-113.6907, 31.30701],
          [-113.68391, 31.31469],
          [-113.66804, 31.33261],
          [-113.67168, 31.35509],
          [-113.66488, 31.36277],
          [-113.649, 31.38068],
          [-113.65265, 31.40316],
          [-113.64584, 31.41084],
          [-113.62995, 31.42875],
          [-113.62314, 31.43643],
          [-113.60725, 31.45434],
          [-113.61089, 31.47682],
          [-113.60407, 31.48449],
          [-113.58817, 31.5024],
          [-113.58135, 31.51007],
          [-113.56544, 31.52797],
          [-113.55862, 31.53565],
          [-113.5427, 31.55354],
          [-113.53587, 31.56121],
          [-113.51995, 31.57911],
          [-113.52357, 31.60159],
          [-113.51675, 31.60925],
          [-113.50081, 31.62715],
          [-113.50443, 31.64962],
          [-113.4976, 31.65729],
          [-113.48166, 31.67517],
          [-113.48528, 31.69765],
          [-113.47844, 31.70531],
          [-113.46249, 31.7232],
          [-113.46611, 31.74566],
          [-113.45927, 31.75333],
          [-113.4433, 31.77121],
          [-113.44692, 31.79368],
          [-113.44008, 31.80134],
          [-113.4241, 31.81922],
          [-113.42772, 31.84168],
          [-113.43134, 31.86415],
          [-113.42449, 31.87181],
          [-113.4085, 31.88968],
          [-113.41212, 31.91214],
          [-113.40526, 31.9198],
          [-113.38927, 31.93767],
          [-113.39288, 31.96013],
          [-113.38602, 31.96779],
          [-113.37002, 31.98565],
          [-113.37363, 32.00811],
          [-113.36676, 32.01577],
          [-113.35075, 32.03363],
          [-113.34388, 32.04128],
          [-113.32786, 32.05914],
          [-113.32099, 32.06679],
          [-113.30496, 32.08465],
          [-113.30856, 32.1071],
          [-113.31217, 32.12956],
          [-113.30529, 32.13721],
          [-113.28925, 32.15506],
          [-113.29285, 32.17751],
          [-113.31394, 32.19109],
          [-113.32298, 32.19691],
          [-113.32659, 32.21936],
          [-113.3302, 32.24181],
          [-113.32332, 32.24946],
          [-113.30727, 32.2673],
          [-113.31087, 32.28975],
          [-113.31448, 32.31219],
          [-113.31809, 32.33464],
          [-113.3217, 32.35708],
          [-113.32532, 32.37952],
          [-113.34645, 32.39309],
          [-113.35551, 32.3989],
          [-113.35913, 32.42134],
          [-113.36275, 32.44378],
          [-113.36637, 32.46621],
          [-113.37, 32.48864],
          [-113.37362, 32.51108],
          [-113.37725, 32.53351],
          [-113.38088, 32.55594],
          [-113.38451, 32.57837],
          [-113.40569, 32.59192],
          [-113.41477, 32.59773],
          [-113.4184, 32.62016],
          [-113.42204, 32.64258],
          [-113.42569, 32.665],
          [-113.42933, 32.68742],
          [-113.43297, 32.70984],
          [-113.42607, 32.71749],
          [-113.40997, 32.73533],
          [-113.41361, 32.75775],
          [-113.40671, 32.76539],
          [-113.39059, 32.78323],
          [-113.38368, 32.79087],
          [-113.36756, 32.8087],
          [-113.36065, 32.81634],
          [-113.34452, 32.83417],
          [-113.33761, 32.84181],
          [-113.32147, 32.85963],
          [-113.3251, 32.88204],
          [-113.31818, 32.88968],
          [-113.30204, 32.9075],
          [-113.29512, 32.91514],
          [-113.27896, 32.93296],
          [-113.28259, 32.95537],
          [-113.27566, 32.963],
          [-113.2595, 32.98081],
          [-113.26312, 33.00322],
          [-113.25619, 33.01085],
          [-113.24002, 33.02866],
          [-113.24364, 33.05107],
          [-113.2367, 33.0587],
          [-113.22052, 33.0765],
          [-113.22413, 33.09891],
          [-113.22775, 33.12131],
          [-113.23137, 33.14371],
          [-113.23499, 33.16611],
          [-113.23861, 33.1885],
          [-113.24223, 33.2109],
          [-113.24586, 33.23329],
          [-113.24949, 33.25569],
          [-113.25311, 33.27808],
          [-113.2744, 33.29163],
          [-113.28353, 33.29744],
          [-113.28716, 33.31982],
          [-113.30847, 33.33337],
          [-113.3176, 33.33917],
          [-113.32124, 33.36156],
          [-113.32489, 33.38394],
          [-113.3462, 33.39748],
          [-113.35534, 33.40328],
          [-113.37667, 33.41681],
          [-113.38581, 33.42261],
          [-113.40714, 33.43613],
          [-113.41629, 33.44193],
          [-113.41995, 33.4643],
          [-113.4413, 33.47783],
          [-113.45045, 33.48362],
          [-113.45412, 33.50599],
          [-113.47548, 33.51951],
          [-113.48464, 33.5253],
          [-113.506, 33.53881],
          [-113.51516, 33.5446],
          [-113.51885, 33.56697],
          [-113.54022, 33.58047],
          [-113.54939, 33.58626],
          [-113.55308, 33.60862],
          [-113.57447, 33.62212],
          [-113.58364, 33.6279],
          [-113.60504, 33.6414],
          [-113.61421, 33.64718],
          [-113.63561, 33.66067],
          [-113.66247, 33.65757],
          [-113.67165, 33.66335],
          [-113.69306, 33.67683],
          [-113.71993, 33.67372],
          [-113.72911, 33.6795],
          [-113.75053, 33.69297],
          [-113.7774, 33.68986],
          [-113.78658, 33.69563],
          [-113.80802, 33.70909],
          [-113.8172, 33.71486],
          [-113.83864, 33.72832],
          [-113.84783, 33.73409],
          [-113.86928, 33.74754],
          [-113.87847, 33.75331],
          [-113.89993, 33.76676],
          [-113.90913, 33.77252],
          [-113.93059, 33.78596],
          [-113.93979, 33.79172],
          [-113.96126, 33.80516],
          [-113.98815, 33.80202],
          [-113.99735, 33.80777],
          [-114.01883, 33.82121],
          [-114.04572, 33.81805],
          [-114.05493, 33.8238],
          [-114.07642, 33.83723],
          [-114.08563, 33.84298],
          [-114.10713, 33.8564],
          [-114.11634, 33.86215],
          [-114.13784, 33.87556],
          [-114.14706, 33.88131],
          [-114.16857, 33.89472],
          [-114.17779, 33.90046],
          [-114.18163, 33.9228],
          [-114.20315, 33.9362],
          [-114.21238, 33.94194],
          [-114.21622, 33.96427],
          [-114.22006, 33.9866],
          [-114.2416, 33.99999],
          [-114.25083, 34.00573],
          [-114.25468, 34.02806],
          [-114.25853, 34.05038],
          [-114.26239, 34.0727],
          [-114.26624, 34.09501],
          [-114.2701, 34.11733],
          [-114.26317, 34.12498],
          [-114.247, 34.14284],
          [-114.25085, 34.16515],
          [-114.25471, 34.18746],
          [-114.24777, 34.19511],
          [-114.23159, 34.21296],
          [-114.23544, 34.23527],
          [-114.23929, 34.25758],
          [-114.24315, 34.27989],
          [-114.23621, 34.28754],
          [-114.22001, 34.30538],
          [-114.22386, 34.32768],
          [-114.21692, 34.33533],
          [-114.20071, 34.35317],
          [-114.20456, 34.37547],
          [-114.19761, 34.38311],
          [-114.18139, 34.40095],
          [-114.18524, 34.42325],
          [-114.17828, 34.43089],
          [-114.16205, 34.44872],
          [-114.15509, 34.45636],
          [-114.13886, 34.47418],
          [-114.1319, 34.48182],
          [-114.11565, 34.49964],
          [-114.10869, 34.50728],
          [-114.09243, 34.5251],
          [-114.08547, 34.53274],
          [-114.0692, 34.55055],
          [-114.06223, 34.55819],
          [-114.04597, 34.576],
          [-114.03899, 34.58363],
          [-114.02272, 34.60144],
          [-114.01574, 34.60907],
          [-113.98866, 34.61221],
          [-113.97237, 34.63001],
          [-113.96539, 34.63764],
          [-113.9383, 34.64078],
          [-113.91121, 34.64391],
          [-113.88411, 34.64704],
          [-113.85702, 34.65016],
          [-113.82992, 34.65328],
          [-113.80283, 34.65639],
          [-113.77573, 34.6595],
          [-113.74863, 34.66261],
          [-113.72152, 34.66571],
          [-113.69442, 34.6688],
          [-113.66731, 34.67189],
          [-113.64021, 34.67498],
          [-113.6131, 34.67806],
          [-113.58599, 34.68114],
          [-113.56963, 34.6989],
          [-113.56261, 34.70651],
          [-113.5355, 34.70958],
          [-113.50838, 34.71264],
          [-113.492, 34.73039],
          [-113.48498, 34.73799],
          [-113.45785, 34.74105],
          [-113.43072, 34.7441],
          [-113.40359, 34.74715],
          [-113.37645, 34.75019],
          [-113.36721, 34.74442],
          [-113.34563, 34.73093],
          [-113.3185, 34.73397],
          [-113.30925, 34.72819],
          [-113.30557, 34.70589],
          [-113.284, 34.6924],
          [-113.27476, 34.68662],
          [-113.25321, 34.67312],
          [-113.22609, 34.67614],
          [-113.21685, 34.67036],
          [-113.19531, 34.65685],
          [-113.18607, 34.65106],
          [-113.18241, 34.62876],
          [-113.16088, 34.61525],
          [-113.13377, 34.61825],
          [-113.12455, 34.61246],
          [-113.10302, 34.59894],
          [-113.07592, 34.60194],
          [-113.04881, 34.60493],
          [-113.03959, 34.59913],
          [-113.01808, 34.5856],
          [-112.99098, 34.58858],
          [-112.96387, 34.59156],
          [-112.93677, 34.59453],
          [-112.90966, 34.5975],
          [-112.8932, 34.61519],
          [-112.88615, 34.62277],
          [-112.85903, 34.62573],
          [-112.84256, 34.64342],
          [-112.8355, 34.651],
          [-112.81903, 34.66869],
          [-112.81196, 34.67626],
          [-112.79548, 34.69394],
          [-112.79906, 34.71625],
          [-112.79199, 34.72383],
          [-112.7755, 34.74151],
          [-112.76843, 34.74908],
          [-112.75193, 34.76675],
          [-112.7555, 34.78906],
          [-112.75908, 34.81136],
          [-112.75201, 34.81893],
          [-112.73549, 34.8366],
          [-112.73907, 34.8589],
          [-112.73199, 34.86647],
          [-112.71546, 34.88413],
          [-112.71903, 34.90643],
          [-112.71195, 34.914],
          [-112.69541, 34.93166],
          [-112.69898, 34.95395],
          [-112.6919, 34.96152],
          [-112.67535, 34.97917],
          [-112.67892, 35.00146],
          [-112.67182, 35.00903],
          [-112.65527, 35.02668],
          [-112.65883, 35.04896],
          [-112.6624, 35.07125],
          [-112.66597, 35.09354],
          [-112.66954, 35.11582],
          [-112.69111, 35.12937],
          [-112.70036, 35.13518],
          [-112.70393, 35.15746],
          [-112.72552, 35.17101],
          [-112.73477, 35.17681],
          [-112.73836, 35.19909],
          [-112.75995, 35.21263],
          [-112.76921, 35.21843],
          [-112.7728, 35.2407],
          [-112.79441, 35.25424],
          [-112.80367, 35.26003],
          [-112.80728, 35.2823],
          [-112.8289, 35.29583],
          [-112.83817, 35.30163],
          [-112.84178, 35.32389],
          [-112.84539, 35.34615],
          [-112.849, 35.36842],
          [-112.85262, 35.39068],
          [-112.85624, 35.41293],
          [-112.85986, 35.43519],
          [-112.85275, 35.44275],
          [-112.83615, 35.46039],
          [-112.83977, 35.48265],
          [-112.83266, 35.4902],
          [-112.81605, 35.50784],
          [-112.80894, 35.5154],
          [-112.7816, 35.51834],
          [-112.76499, 35.53596],
          [-112.75786, 35.54352],
          [-112.74124, 35.56114],
          [-112.73412, 35.5687],
          [-112.71749, 35.58632],
          [-112.71036, 35.59387],
          [-112.69372, 35.61149],
          [-112.68659, 35.61904],
          [-112.66994, 35.63665],
          [-112.66281, 35.6442],
          [-112.63543, 35.64711],
          [-112.61878, 35.66472],
          [-112.61164, 35.67226],
          [-112.59497, 35.68986],
          [-112.58783, 35.69741],
          [-112.57115, 35.71501],
          [-112.56401, 35.72255],
          [-112.54733, 35.74014],
          [-112.54018, 35.74768],
          [-112.52349, 35.76527],
          [-112.51633, 35.77281],
          [-112.49964, 35.7904],
          [-112.49248, 35.79794],
          [-112.47578, 35.81552],
          [-112.46862, 35.82305],
          [-112.45191, 35.84063],
          [-112.44474, 35.84817],
          [-112.41732, 35.85104],
          [-112.38988, 35.85391],
          [-112.37316, 35.87148],
          [-112.36599, 35.87901],
          [-112.33855, 35.88187],
          [-112.31111, 35.88473],
          [-112.28366, 35.88758],
          [-112.26691, 35.90514],
          [-112.25973, 35.91266],
          [-112.23228, 35.9155],
          [-112.20483, 35.91834],
          [-112.17738, 35.92118],
          [-112.14992, 35.92401],
          [-112.14064, 35.91818],
          [-112.11898, 35.9046],
          [-112.09153, 35.90742],
          [-112.06408, 35.91023],
          [-112.03662, 35.91305],
          [-112.00916, 35.91585],
          [-112, 35.91679]
        ]
      }
    }
  ]
}

