{
  "type": "FeatureCollection",
  "contract_version": "1.0.0",
  "bbox": [-130, 30.04308, -112, 44.5],
  "features": [
    {
      "type": "Feature",
      "id": "2026092618_f228_09000_001",
      "properties": {
        "product_id": "winter_storm_levels",
        "source_id": "nbm_snow_level",
        "parameter": "snow_level",
        "definition": "height of the wet-bulb 0.5 degree C surface",
        "level_ft_msl": 9000,
        "label": "9,000 ft MSL",
        "unit": "ft_msl",
        "cycle_time_utc": "2026-09-26T18:00:00Z",
        "valid_time_utc": "2026-10-06T06:00:00Z",
        "lead_hours": 228,
        "segment": 1,
        "length_m": 79202
      },
      "geometry": {
        "type": "LineString",
        "coordinates": [
          [-130, 43.87495],
          [-129.99376, 43.88268],
          [-129.99163, 43.88531],
          [-129.97249, 43.909],
          [-129.97036, 43.91163],
          [-129.9512, 43.93531],
          [-129.94908, 43.93794],
          [-129.92991, 43.96161],
          [-129.92778, 43.96424],
          [-129.90861, 43.98791],
          [-129.90648, 43.99054],
          [-129.88729, 44.0142],
          [-129.88516, 44.01683],
          [-129.86596, 44.04049],
          [-129.86383, 44.04311],
          [-129.84462, 44.06676],
          [-129.84249, 44.06939],
          [-129.82327, 44.09303],
          [-129.82114, 44.09566],
          [-129.80191, 44.1193],
          [-129.79978, 44.12192],
          [-129.78054, 44.14555],
          [-129.7784, 44.14818],
          [-129.75915, 44.1718],
          [-129.76676, 44.19259],
          [-129.76462, 44.19522],
          [-129.74536, 44.21883],
          [-129.74322, 44.22145],
          [-129.72395, 44.24506],
          [-129.73155, 44.26585],
          [-129.7294, 44.26847],
          [-129.71012, 44.29207],
          [-129.70798, 44.29469],
          [-129.68868, 44.31828],
          [-129.69628, 44.33906],
          [-129.69414, 44.34168],
          [-129.67483, 44.36526],
          [-129.67269, 44.36788],
          [-129.65337, 44.39146],
          [-129.66097, 44.41223],
          [-129.65882, 44.41485],
          [-129.63949, 44.43842],
          [-129.63734, 44.44103],
          [-129.618, 44.4646],
          [-129.6256, 44.48535],
          [-129.62345, 44.48797],
          [-129.61356, 44.5]
        ]
      }
    },
    {
      "type": "Feature",
      "id": "2026092618_f228_10000_001",
      "properties": {
        "product_id": "winter_storm_levels",
        "source_id": "nbm_snow_level",
        "parameter": "snow_level",
        "definition": "height of the wet-bulb 0.5 degree C surface",
        "level_ft_msl": 10000,
        "label": "10,000 ft MSL",
        "unit": "ft_msl",
        "cycle_time_utc": "2026-09-26T18:00:00Z",
        "valid_time_utc": "2026-10-06T06:00:00Z",
        "lead_hours": 228,
        "segment": 1,
        "length_m": 21894.9
      },
      "geometry": {
        "type": "LineString",
        "coordinates": [
          [-123.89134, 42.81397],
          [-123.86869, 42.83975],
          [-123.84603, 42.86552],
          [-123.81089, 42.8489],
          [-123.80465, 42.82771],
          [-123.82731, 42.80194],
          [-123.8562, 42.79736],
          [-123.89134, 42.81397]
        ]
      }
    },
    {
      "type": "Feature",
      "id": "2026092618_f228_10000_002",
      "properties": {
        "product_id": "winter_storm_levels",
        "source_id": "nbm_snow_level",
        "parameter": "snow_level",
        "definition": "height of the wet-bulb 0.5 degree C surface",
        "level_ft_msl": 10000,
        "label": "10,000 ft MSL",
        "unit": "ft_msl",
        "cycle_time_utc": "2026-09-26T18:00:00Z",
        "valid_time_utc": "2026-10-06T06:00:00Z",
        "lead_hours": 228,
        "segment": 2,
        "length_m": 398224.2
      },
      "geometry": {
        "type": "LineString",
        "coordinates": [
          [-124.49622, 41.40072],
          [-124.48993, 41.37938],
          [-124.48364, 41.35802],
          [-124.47736, 41.33667],
          [-124.47108, 41.31531],
          [-124.4648, 41.29395],
          [-124.45852, 41.27259],
          [-124.45224, 41.25122],
          [-124.44597, 41.22985],
          [-124.4397, 41.20848],
          [-124.46184, 41.18239],
          [-124.45557, 41.16101],
          [-124.4493, 41.13963],
          [-124.44304, 41.11825],
          [-124.43678, 41.09687],
          [-124.43052, 41.07548],
          [-124.39589, 41.05881],
          [-124.36752, 41.06352],
          [-124.34539, 41.08961],
          [-124.32324, 41.1157],
          [-124.32948, 41.13709],
          [-124.33572, 41.15847],
          [-124.34197, 41.17985],
          [-124.34822, 41.20123],
          [-124.32605, 41.22731],
          [-124.33229, 41.24868],
          [-124.33854, 41.27005],
          [-124.34479, 41.29142],
          [-124.35105, 41.31278],
          [-124.32886, 41.33884],
          [-124.33511, 41.3602],
          [-124.34137, 41.38156],
          [-124.31916, 41.40761],
          [-124.32541, 41.42896],
          [-124.33167, 41.45031],
          [-124.32369, 41.474],
          [-124.3157, 41.49769],
          [-124.32196, 41.51903],
          [-124.32823, 41.54037],
          [-124.32024, 41.56405],
          [-124.31224, 41.58772],
          [-124.30424, 41.6114],
          [-124.29624, 41.63507],
          [-124.27084, 41.65041],
          [-124.24542, 41.66575],
          [-124.2374, 41.68941],
          [-124.22938, 41.71306],
          [-124.23563, 41.73438],
          [-124.24189, 41.7557],
          [-124.24815, 41.77701],
          [-124.24013, 41.80066],
          [-124.23209, 41.8243],
          [-124.23836, 41.8456],
          [-124.21602, 41.87157],
          [-124.20798, 41.8952],
          [-124.19993, 41.91883],
          [-124.19188, 41.94245],
          [-124.18382, 41.96607],
          [-124.19009, 41.98736],
          [-124.1677, 42.0133],
          [-124.15964, 42.03691],
          [-124.15157, 42.06051],
          [-124.12916, 42.08644],
          [-124.10674, 42.11236],
          [-124.08431, 42.13827],
          [-124.06187, 42.16417],
          [-124.03941, 42.19007],
          [-124.01695, 42.21596],
          [-124.00883, 42.23954],
          [-124.00071, 42.26311],
          [-123.97822, 42.28898],
          [-123.95571, 42.31485],
          [-123.9332, 42.34071],
          [-123.92505, 42.36426],
          [-123.93128, 42.38551],
          [-123.92313, 42.40906],
          [-123.91497, 42.4326],
          [-123.90682, 42.45614],
          [-123.88426, 42.48198],
          [-123.89049, 42.50321],
          [-123.89672, 42.52444],
          [-123.90296, 42.54567],
          [-123.90919, 42.5669],
          [-123.91544, 42.58812],
          [-123.92168, 42.60934],
          [-123.92793, 42.63056],
          [-123.93418, 42.65177],
          [-123.96927, 42.66839],
          [-123.99186, 42.64257],
          [-124.01442, 42.61675],
          [-124.03698, 42.59092],
          [-124.05953, 42.56508],
          [-124.05326, 42.54386],
          [-124.07579, 42.51802],
          [-124.0983, 42.49217],
          [-124.12081, 42.46631],
          [-124.14331, 42.44044],
          [-124.16579, 42.41457],
          [-124.18826, 42.38869],
          [-124.18198, 42.36745],
          [-124.17569, 42.34621],
          [-124.19815, 42.32032],
          [-124.19186, 42.29907],
          [-124.2143, 42.27317],
          [-124.20802, 42.25192],
          [-124.23044, 42.22601],
          [-124.22416, 42.20475],
          [-124.21787, 42.18349],
          [-124.24028, 42.15757],
          [-124.26267, 42.13164],
          [-124.25639, 42.11037],
          [-124.27877, 42.08444],
          [-124.27248, 42.06316],
          [-124.29485, 42.03722],
          [-124.3172, 42.01127],
          [-124.31091, 41.98999],
          [-124.33325, 41.96402],
          [-124.32696, 41.94274],
          [-124.34929, 41.91677],
          [-124.343, 41.89547],
          [-124.36531, 41.8695],
          [-124.35901, 41.8482],
          [-124.38131, 41.82221],
          [-124.37502, 41.80091],
          [-124.3973, 41.77491],
          [-124.39101, 41.7536],
          [-124.41328, 41.7276],
          [-124.40698, 41.70628],
          [-124.42923, 41.68027],
          [-124.42294, 41.65895],
          [-124.41665, 41.63763],
          [-124.43889, 41.6116],
          [-124.43259, 41.59028],
          [-124.45481, 41.56424],
          [-124.44852, 41.54291],
          [-124.47073, 41.51686],
          [-124.46444, 41.49553],
          [-124.48663, 41.46948],
          [-124.48034, 41.44813],
          [-124.47405, 41.42679],
          [-124.49622, 41.40072]
        ]
      }
    },
    {
      "type": "Feature",
      "id": "2026092618_f228_10000_003",
      "properties": {
        "product_id": "winter_storm_levels",
        "source_id": "nbm_snow_level",
        "parameter": "snow_level",
        "definition": "height of the wet-bulb 0.5 degree C surface",
        "level_ft_msl": 10000,
        "label": "10,000 ft MSL",
        "unit": "ft_msl",
        "cycle_time_utc": "2026-09-26T18:00:00Z",
        "valid_time_utc": "2026-10-06T06:00:00Z",
        "lead_hours": 228,
        "segment": 3,
        "length_m": 82187
      },
      "geometry": {
        "type": "LineString",
        "coordinates": [
          [-124.61349, 40.48313],
          [-124.60723, 40.46168],
          [-124.60097, 40.44022],
          [-124.56653, 40.42353],
          [-124.53834, 40.42828],
          [-124.51015, 40.43303],
          [-124.48196, 40.43777],
          [-124.45999, 40.46397],
          [-124.46622, 40.48542],
          [-124.44423, 40.51161],
          [-124.45046, 40.53306],
          [-124.45669, 40.55451],
          [-124.43469, 40.58069],
          [-124.44092, 40.60213],
          [-124.44715, 40.62358],
          [-124.45339, 40.64501],
          [-124.43136, 40.67118],
          [-124.4376, 40.69261],
          [-124.47211, 40.70931],
          [-124.50038, 40.70458],
          [-124.52864, 40.69984],
          [-124.55064, 40.67366],
          [-124.54439, 40.65223],
          [-124.53813, 40.6308],
          [-124.56012, 40.60461],
          [-124.58209, 40.57842],
          [-124.60406, 40.55223],
          [-124.5978, 40.53078],
          [-124.59154, 40.50934],
          [-124.61349, 40.48313]
        ]
      }
    },
    {
      "type": "Feature",
      "id": "2026092618_f228_10000_004",
      "properties": {
        "product_id": "winter_storm_levels",
        "source_id": "nbm_snow_level",
        "parameter": "snow_level",
        "definition": "height of the wet-bulb 0.5 degree C surface",
        "level_ft_msl": 10000,
        "label": "10,000 ft MSL",
        "unit": "ft_msl",
        "cycle_time_utc": "2026-09-26T18:00:00Z",
        "valid_time_utc": "2026-10-06T06:00:00Z",
        "lead_hours": 228,
        "segment": 4,
        "length_m": 797387.9
      },
      "geometry": {
        "type": "LineString",
        "coordinates": [
          [-124.66979, 40.06802],
          [-124.70412, 40.08473],
          [-124.71038, 40.10622],
          [-124.68854, 40.13249],
          [-124.66668, 40.15875],
          [-124.63857, 40.16352],
          [-124.61046, 40.1683],
          [-124.57611, 40.15158],
          [-124.56988, 40.13009],
          [-124.56365, 40.1086],
          [-124.58552, 40.08234],
          [-124.57929, 40.06084],
          [-124.57307, 40.03934],
          [-124.56684, 40.01784],
          [-124.56062, 39.99634],
          [-124.5544, 39.97483],
          [-124.57625, 39.94856],
          [-124.57003, 39.92705],
          [-124.56381, 39.90553],
          [-124.5576, 39.88402],
          [-124.55139, 39.8625],
          [-124.54518, 39.84098],
          [-124.53897, 39.81946],
          [-124.56079, 39.79316],
          [-124.55458, 39.77164],
          [-124.54838, 39.75011],
          [-124.54218, 39.72857],
          [-124.53598, 39.70704],
          [-124.52978, 39.6855],
          [-124.52359, 39.66396],
          [-124.5174, 39.64242],
          [-124.51121, 39.62087],
          [-124.50502, 39.59932],
          [-124.49884, 39.57777],
          [-124.52061, 39.55145],
          [-124.51443, 39.5299],
          [-124.48031, 39.51311],
          [-124.47413, 39.49155],
          [-124.44619, 39.49631],
          [-124.41825, 39.50106],
          [-124.3903, 39.50582],
          [-124.36236, 39.51056],
          [-124.34055, 39.53687],
          [-124.31873, 39.56317],
          [-124.29077, 39.5679],
          [-124.29691, 39.58946],
          [-124.27507, 39.61575],
          [-124.28121, 39.6373],
          [-124.25936, 39.66358],
          [-124.23749, 39.68985],
          [-124.21562, 39.71612],
          [-124.18761, 39.72083],
          [-124.16571, 39.74709],
          [-124.17184, 39.76863],
          [-124.14993, 39.79488],
          [-124.15605, 39.81642],
          [-124.13413, 39.84266],
          [-124.1122, 39.86889],
          [-124.11832, 39.89042],
          [-124.09637, 39.91665],
          [-124.10249, 39.93818],
          [-124.08053, 39.9644],
          [-124.08665, 39.98592],
          [-124.06468, 40.01213],
          [-124.0708, 40.03365],
          [-124.07692, 40.05516],
          [-124.08304, 40.07668],
          [-124.06105, 40.10287],
          [-124.06717, 40.12438],
          [-124.0733, 40.14589],
          [-124.07943, 40.1674],
          [-124.08556, 40.1889],
          [-124.06354, 40.21508],
          [-124.06967, 40.23658],
          [-124.0758, 40.25807],
          [-124.05377, 40.28424],
          [-124.0599, 40.30573],
          [-124.06604, 40.32722],
          [-124.04399, 40.35338],
          [-124.05012, 40.37486],
          [-124.02805, 40.40102],
          [-124.03419, 40.42249],
          [-124.01211, 40.44864],
          [-124.01824, 40.47011],
          [-123.99615, 40.49625],
          [-124.00228, 40.51771],
          [-124.00842, 40.53918],
          [-123.9863, 40.56531],
          [-123.99244, 40.58677],
          [-123.99858, 40.60822],
          [-124.00472, 40.62968],
          [-123.98258, 40.65579],
          [-123.98872, 40.67724],
          [-123.99487, 40.69869],
          [-123.97272, 40.72479],
          [-123.97886, 40.74624],
          [-123.985, 40.76768],
          [-123.99115, 40.78911],
          [-123.96898, 40.8152],
          [-123.97513, 40.83664],
          [-123.98128, 40.85807],
          [-123.98743, 40.87949],
          [-123.96524, 40.90557],
          [-123.97139, 40.92699],
          [-123.97754, 40.94841],
          [-123.9837, 40.96983],
          [-123.98986, 40.99125],
          [-123.96765, 41.01731],
          [-123.9738, 41.03872],
          [-123.97996, 41.06012],
          [-123.98613, 41.08153],
          [-123.96389, 41.10757],
          [-123.97006, 41.12897],
          [-123.97622, 41.15037],
          [-123.98239, 41.17177],
          [-123.96014, 41.1978],
          [-123.9663, 41.21919],
          [-123.97247, 41.24057],
          [-123.97865, 41.26196],
          [-123.95637, 41.28798],
          [-123.96254, 41.30936],
          [-123.96872, 41.33073],
          [-123.9749, 41.35211],
          [-123.9526, 41.37811],
          [-123.95878, 41.39948],
          [-123.96496, 41.42085],
          [-123.97114, 41.44221],
          [-123.97732, 41.46357],
          [-123.955, 41.48956],
          [-123.96119, 41.51092],
          [-123.96738, 41.53227],
          [-123.97356, 41.55362],
          [-123.95122, 41.57959],
          [-123.95741, 41.60094],
          [-123.9636, 41.62228],
          [-123.94124, 41.64825],
          [-123.94744, 41.66958],
          [-123.95363, 41.69092],
          [-123.93125, 41.71687],
          [-123.93745, 41.7382],
          [-123.94364, 41.75952],
          [-123.92125, 41.78547],
          [-123.92744, 41.80679],
          [-123.93364, 41.82811],
          [-123.91123, 41.85404],
          [-123.91743, 41.87535],
          [-123.895, 41.90127],
          [-123.9012, 41.92258],
          [-123.87875, 41.94849],
          [-123.88495, 41.9698],
          [-123.86249, 41.9957],
          [-123.86869, 42.017],
          [-123.84622, 42.04289],
          [-123.85241, 42.06419],
          [-123.82993, 42.09007],
          [-123.83612, 42.11136],
          [-123.81362, 42.13724],
          [-123.81982, 42.15852],
          [-123.7973, 42.18439],
          [-123.77477, 42.21025],
          [-123.75224, 42.2361],
          [-123.75842, 42.25737],
          [-123.73587, 42.28322],
          [-123.7133, 42.30906],
          [-123.69073, 42.33489],
          [-123.66814, 42.36072],
          [-123.67432, 42.38197],
          [-123.65171, 42.40779],
          [-123.6291, 42.4336],
          [-123.63527, 42.45485],
          [-123.61264, 42.48065],
          [-123.61881, 42.5019],
          [-123.59617, 42.52769],
          [-123.57351, 42.55347],
          [-123.55084, 42.57925],
          [-123.52816, 42.60502],
          [-123.50547, 42.63079],
          [-123.51163, 42.65201],
          [-123.48893, 42.67777],
          [-123.46621, 42.70352],
          [-123.44348, 42.72926],
          [-123.44963, 42.75048],
          [-123.42688, 42.77621],
          [-123.40413, 42.80193],
          [-123.38136, 42.82765],
          [-123.35858, 42.85336],
          [-123.33579, 42.87907],
          [-123.34193, 42.90027],
          [-123.31912, 42.92596],
          [-123.2963, 42.95165],
          [-123.27347, 42.97733],
          [-123.25063, 43.00301],
          [-123.22777, 43.02868],
          [-123.2049, 43.05434],
          [-123.18203, 43.07999],
          [-123.15302, 43.08445],
          [-123.13013, 43.1101],
          [-123.10721, 43.13573],
          [-123.08429, 43.16136],
          [-123.06136, 43.18698],
          [-123.03841, 43.2126],
          [-123.00936, 43.21704],
          [-122.9864, 43.24264],
          [-122.96342, 43.26824],
          [-122.94043, 43.29383],
          [-122.91743, 43.31941],
          [-122.89441, 43.34498],
          [-122.87139, 43.37055],
          [-122.84228, 43.37496],
          [-122.81924, 43.40052],
          [-122.79618, 43.42607],
          [-122.77311, 43.45161],
          [-122.75003, 43.47715],
          [-122.72089, 43.48154],
          [-122.69778, 43.50706],
          [-122.67467, 43.53258],
          [-122.65154, 43.55809],
          [-122.6284, 43.58359],
          [-122.60525, 43.60909],
          [-122.57607, 43.61345],
          [-122.55289, 43.63894],
          [-122.52971, 43.66442],
          [-122.50651, 43.68989],
          [-122.48331, 43.71535],
          [-122.46009, 43.74081],
          [-122.43086, 43.74514],
          [-122.40761, 43.77059],
          [-122.38436, 43.79603],
          [-122.3611, 43.82146],
          [-122.33184, 43.82578],
          [-122.30855, 43.8512],
          [-122.28525, 43.87661],
          [-122.25598, 43.88091],
          [-122.23266, 43.90631],
          [-122.20933, 43.93171],
          [-122.18003, 43.936],
          [-122.15668, 43.96138],
          [-122.12737, 43.96566],
          [-122.104, 43.99103],
          [-122.08061, 44.0164],
          [-122.05128, 44.02066],
          [-122.02788, 44.04602],
          [-122.00446, 44.07136],
          [-121.97511, 44.07562],
          [-121.95167, 44.10095],
          [-121.92822, 44.12628],
          [-121.89885, 44.13052],
          [-121.87538, 44.15583],
          [-121.8519, 44.18114],
          [-121.8284, 44.20644],
          [-121.799, 44.21067],
          [-121.77549, 44.23596],
          [-121.74608, 44.24017],
          [-121.72254, 44.26545],
          [-121.69312, 44.26965],
          [-121.6637, 44.27385],
          [-121.64013, 44.29911],
          [-121.6107, 44.30331],
          [-121.58126, 44.30749],
          [-121.54598, 44.29061],
          [-121.51655, 44.29478],
          [-121.48711, 44.29895],
          [-121.45767, 44.30312],
          [-121.42823, 44.30728],
          [-121.39878, 44.31144],
          [-121.37514, 44.33667],
          [-121.34568, 44.34081],
          [-121.32201, 44.36602],
          [-121.29833, 44.39123],
          [-121.27464, 44.41642],
          [-121.25094, 44.44161],
          [-121.22722, 44.4668],
          [-121.2035, 44.49197],
          [-121.19592, 44.5]
        ]
      }
    },
    {
      "type": "Feature",
      "id": "2026092618_f228_10000_005",
      "properties": {
        "product_id": "winter_storm_levels",
        "source_id": "nbm_snow_level",
        "parameter": "snow_level",
        "definition": "height of the wet-bulb 0.5 degree C surface",
        "level_ft_msl": 10000,
        "label": "10,000 ft MSL",
        "unit": "ft_msl",
        "cycle_time_utc": "2026-09-26T18:00:00Z",
        "valid_time_utc": "2026-10-06T06:00:00Z",
        "lead_hours": 228,
        "segment": 5,
        "length_m": 25621.7
      },
      "geometry": {
        "type": "LineString",
        "coordinates": [
          [-129.46571, 34.93586],
          [-129.45881, 34.91409],
          [-129.42537, 34.89798],
          [-129.39883, 34.90362],
          [-129.37917, 34.93103],
          [-129.38605, 34.9528],
          [-129.39293, 34.97457],
          [-129.41949, 34.96892],
          [-129.44605, 34.96327],
          [-129.46571, 34.93586]
        ]
      }
    },
    {
      "type": "Feature",
      "id": "2026092618_f228_10000_006",
      "properties": {
        "product_id": "winter_storm_levels",
        "source_id": "nbm_snow_level",
        "parameter": "snow_level",
        "definition": "height of the wet-bulb 0.5 degree C surface",
        "level_ft_msl": 10000,
        "label": "10,000 ft MSL",
        "unit": "ft_msl",
        "cycle_time_utc": "2026-09-26T18:00:00Z",
        "valid_time_utc": "2026-10-06T06:00:00Z",
        "lead_hours": 228,
        "segment": 6,
        "length_m": 1231381.1
      },
      "geometry": {
        "type": "LineString",
        "coordinates": [
          [-130, 34.58829],
          [-129.9792, 34.59281],
          [-129.95973, 34.62032],
          [-129.93329, 34.62606],
          [-129.90683, 34.63179],
          [-129.88038, 34.63752],
          [-129.85392, 34.64325],
          [-129.86088, 34.66501],
          [-129.84137, 34.6925],
          [-129.82185, 34.71998],
          [-129.80232, 34.74746],
          [-129.78278, 34.77493],
          [-129.76323, 34.8024],
          [-129.74368, 34.82987],
          [-129.71717, 34.83557],
          [-129.69759, 34.86302],
          [-129.67107, 34.86871],
          [-129.65148, 34.89616],
          [-129.67801, 34.89047],
          [-129.71147, 34.90654],
          [-129.71842, 34.92829],
          [-129.69883, 34.95574],
          [-129.70578, 34.97749],
          [-129.68617, 35.00493],
          [-129.69312, 35.02668],
          [-129.70007, 35.04843],
          [-129.68045, 35.07587],
          [-129.6874, 35.09761],
          [-129.66778, 35.12504],
          [-129.67473, 35.14678],
          [-129.68168, 35.16852],
          [-129.66204, 35.19594],
          [-129.64239, 35.22336],
          [-129.62272, 35.25077],
          [-129.60305, 35.27818],
          [-129.61, 35.29991],
          [-129.61695, 35.32165],
          [-129.6239, 35.34338],
          [-129.63086, 35.3651],
          [-129.63782, 35.38683],
          [-129.64478, 35.40855],
          [-129.65175, 35.43027],
          [-129.63205, 35.45767],
          [-129.61234, 35.48506],
          [-129.58567, 35.49073],
          [-129.55899, 35.49639],
          [-129.53231, 35.50205],
          [-129.50563, 35.5077],
          [-129.47894, 35.51335],
          [-129.45919, 35.54071],
          [-129.43249, 35.54635],
          [-129.41272, 35.57371],
          [-129.39294, 35.60107],
          [-129.36623, 35.60669],
          [-129.33951, 35.61232],
          [-129.31971, 35.63966],
          [-129.29298, 35.64528],
          [-129.26625, 35.65089],
          [-129.24642, 35.67822],
          [-129.22658, 35.70554],
          [-129.20672, 35.73286],
          [-129.18686, 35.76017],
          [-129.1601, 35.76577],
          [-129.13334, 35.77135],
          [-129.10657, 35.77694],
          [-129.0798, 35.78252],
          [-129.05302, 35.78809],
          [-129.02625, 35.79366],
          [-128.99947, 35.79923],
          [-128.97269, 35.80479],
          [-128.9459, 35.81035],
          [-128.91911, 35.8159],
          [-128.88549, 35.79973],
          [-128.8587, 35.80527],
          [-128.83191, 35.81081],
          [-128.80511, 35.81635],
          [-128.7715, 35.80015],
          [-128.74471, 35.80567],
          [-128.71111, 35.78946],
          [-128.67752, 35.77324],
          [-128.67072, 35.75151],
          [-128.66393, 35.72977],
          [-128.68392, 35.70251],
          [-128.70389, 35.67526],
          [-128.72386, 35.64799],
          [-128.75062, 35.64247],
          [-128.77737, 35.63694],
          [-128.77056, 35.61519],
          [-128.76376, 35.59345],
          [-128.75696, 35.5717],
          [-128.7769, 35.54442],
          [-128.79682, 35.51714],
          [-128.82354, 35.5116],
          [-128.85026, 35.50605],
          [-128.87016, 35.47876],
          [-128.89686, 35.4732],
          [-128.9304, 35.4894],
          [-128.93722, 35.51114],
          [-128.94406, 35.53289],
          [-128.97077, 35.52732],
          [-128.99065, 35.50001],
          [-129.01051, 35.4727],
          [-129.00367, 35.45095],
          [-128.99683, 35.42921],
          [-129.01668, 35.40188],
          [-129.00984, 35.38013],
          [-129.00301, 35.35838],
          [-129.02284, 35.33105],
          [-129.01601, 35.3093],
          [-129.03583, 35.28196],
          [-129.06248, 35.27638],
          [-129.08229, 35.24904],
          [-129.10893, 35.24345],
          [-129.12871, 35.21609],
          [-129.15535, 35.2105],
          [-129.17512, 35.18313],
          [-129.19488, 35.15577],
          [-129.22149, 35.15016],
          [-129.24123, 35.12279],
          [-129.26097, 35.09541],
          [-129.28069, 35.06802],
          [-129.27382, 35.04626],
          [-129.26696, 35.02449],
          [-129.26009, 35.00273],
          [-129.23352, 35.00835],
          [-129.20009, 34.99219],
          [-129.17351, 34.9978],
          [-129.14693, 35.0034],
          [-129.12719, 35.03078],
          [-129.1006, 35.03637],
          [-129.08083, 35.06374],
          [-129.05423, 35.06933],
          [-129.02763, 35.07491],
          [-129.00103, 35.08049],
          [-128.97442, 35.08607],
          [-128.94781, 35.09164],
          [-128.92119, 35.09721],
          [-128.89458, 35.10277],
          [-128.86117, 35.08655],
          [-128.83455, 35.0921],
          [-128.80793, 35.09765],
          [-128.78131, 35.1032],
          [-128.75469, 35.10874],
          [-128.7213, 35.09249],
          [-128.69467, 35.09802],
          [-128.66805, 35.10355],
          [-128.63467, 35.08728],
          [-128.6013, 35.07101],
          [-128.59457, 35.04922],
          [-128.56795, 35.05473],
          [-128.5346, 35.03844],
          [-128.50798, 35.04394],
          [-128.48135, 35.04944],
          [-128.45473, 35.05493],
          [-128.4348, 35.08222],
          [-128.40817, 35.08771],
          [-128.38822, 35.11498],
          [-128.35489, 35.09866],
          [-128.33493, 35.12593],
          [-128.30828, 35.1314],
          [-128.2883, 35.15866],
          [-128.26164, 35.16412],
          [-128.23497, 35.16958],
          [-128.20831, 35.17503],
          [-128.1883, 35.20227],
          [-128.16162, 35.20772],
          [-128.13494, 35.21316],
          [-128.11491, 35.24039],
          [-128.08822, 35.24582],
          [-128.06817, 35.27304],
          [-128.04147, 35.27847],
          [-128.01477, 35.28388],
          [-127.98806, 35.2893],
          [-127.96798, 35.31651],
          [-127.94789, 35.34371],
          [-127.92116, 35.34911],
          [-127.90105, 35.37631],
          [-127.87432, 35.3817],
          [-127.84758, 35.38709],
          [-127.82745, 35.41427],
          [-127.8007, 35.41965],
          [-127.77395, 35.42503],
          [-127.7538, 35.4522],
          [-127.72704, 35.45757],
          [-127.70686, 35.48473],
          [-127.68009, 35.49009],
          [-127.6599, 35.51724],
          [-127.63312, 35.5226],
          [-127.6129, 35.54974],
          [-127.58611, 35.55509],
          [-127.55932, 35.56043],
          [-127.53909, 35.58756],
          [-127.51228, 35.59289],
          [-127.48548, 35.59822],
          [-127.45867, 35.60354],
          [-127.4384, 35.63066],
          [-127.41158, 35.63597],
          [-127.3913, 35.66308],
          [-127.371, 35.69018],
          [-127.35069, 35.71728],
          [-127.33037, 35.74437],
          [-127.30352, 35.74966],
          [-127.28319, 35.77675],
          [-127.25633, 35.78203],
          [-127.23597, 35.80911],
          [-127.24249, 35.8309],
          [-127.22212, 35.85796],
          [-127.22864, 35.87975],
          [-127.20826, 35.90681],
          [-127.21477, 35.9286],
          [-127.19438, 35.95565],
          [-127.2009, 35.97743],
          [-127.18049, 36.00448],
          [-127.18701, 36.02626],
          [-127.16659, 36.0533],
          [-127.17311, 36.07507],
          [-127.17962, 36.09684],
          [-127.15919, 36.12388],
          [-127.16571, 36.14565],
          [-127.14527, 36.17267],
          [-127.17875, 36.18918],
          [-127.18528, 36.21094],
          [-127.1918, 36.2327],
          [-127.19833, 36.25446],
          [-127.20487, 36.27621],
          [-127.23839, 36.2927],
          [-127.27193, 36.30917],
          [-127.29892, 36.30389],
          [-127.33246, 36.32036],
          [-127.36602, 36.33681],
          [-127.39959, 36.35326],
          [-127.40617, 36.375],
          [-127.43975, 36.39144],
          [-127.47335, 36.40787],
          [-127.50695, 36.42429],
          [-127.54057, 36.44071],
          [-127.54718, 36.46244],
          [-127.5538, 36.48416],
          [-127.56041, 36.50589],
          [-127.56703, 36.52761],
          [-127.60069, 36.54401],
          [-127.63436, 36.56039],
          [-127.66803, 36.57678],
          [-127.64763, 36.60382],
          [-127.62723, 36.63086],
          [-127.60017, 36.63619],
          [-127.57311, 36.64151],
          [-127.54605, 36.64683],
          [-127.52561, 36.67385],
          [-127.49854, 36.67916],
          [-127.47808, 36.70617],
          [-127.45761, 36.73318],
          [-127.43713, 36.76019],
          [-127.41664, 36.78719],
          [-127.39614, 36.81418],
          [-127.37563, 36.84117],
          [-127.38223, 36.86287],
          [-127.36171, 36.88985],
          [-127.33458, 36.89513],
          [-127.31403, 36.92211],
          [-127.29348, 36.94907],
          [-127.27292, 36.97603],
          [-127.25235, 37.00299],
          [-127.25894, 37.02468],
          [-127.23835, 37.05163],
          [-127.24494, 37.07332],
          [-127.25153, 37.09501],
          [-127.23093, 37.12195],
          [-127.21032, 37.14889],
          [-127.1897, 37.17582],
          [-127.16249, 37.18106],
          [-127.14185, 37.20798],
          [-127.14843, 37.22966],
          [-127.12777, 37.25658],
          [-127.10054, 37.26181],
          [-127.07987, 37.28872],
          [-127.05262, 37.29394],
          [-127.02537, 37.29916],
          [-127.00468, 37.32605],
          [-126.97742, 37.33127],
          [-126.95671, 37.35815],
          [-126.92944, 37.36335],
          [-126.9087, 37.39023],
          [-126.88142, 37.39542],
          [-126.86067, 37.42229],
          [-126.83338, 37.42747],
          [-126.81261, 37.45433],
          [-126.78531, 37.45951],
          [-126.76453, 37.48635],
          [-126.74373, 37.51319],
          [-126.72292, 37.54003],
          [-126.70211, 37.56686],
          [-126.67477, 37.57201],
          [-126.68128, 37.59368],
          [-126.66044, 37.6205],
          [-126.63959, 37.64731],
          [-126.61873, 37.67412],
          [-126.59786, 37.70092],
          [-126.60436, 37.72258],
          [-126.58348, 37.74937],
          [-126.58998, 37.77102],
          [-126.56908, 37.79781],
          [-126.54818, 37.82459],
          [-126.55467, 37.84624],
          [-126.53375, 37.87301],
          [-126.51282, 37.89978],
          [-126.51932, 37.92142],
          [-126.49837, 37.94818],
          [-126.47742, 37.97494],
          [-126.45646, 38.00169],
          [-126.43548, 38.02844],
          [-126.44197, 38.05007],
          [-126.42098, 38.07681],
          [-126.39998, 38.10354],
          [-126.40647, 38.12516],
          [-126.38546, 38.15189],
          [-126.39194, 38.17351],
          [-126.39843, 38.19513],
          [-126.3774, 38.22185],
          [-126.38388, 38.24347],
          [-126.36284, 38.27017],
          [-126.36933, 38.29179],
          [-126.37582, 38.3134],
          [-126.35476, 38.3401],
          [-126.36125, 38.3617],
          [-126.36774, 38.38331],
          [-126.34667, 38.41],
          [-126.35316, 38.4316],
          [-126.35966, 38.45319],
          [-126.36615, 38.47479],
          [-126.34506, 38.50147],
          [-126.35156, 38.52306],
          [-126.35806, 38.54465],
          [-126.36456, 38.56623],
          [-126.37107, 38.58782],
          [-126.34995, 38.61448],
          [-126.35646, 38.63606],
          [-126.33533, 38.66272],
          [-126.3142, 38.68937],
          [-126.3207, 38.71095],
          [-126.29955, 38.73759],
          [-126.27839, 38.76423],
          [-126.25722, 38.79087],
          [-126.26372, 38.81243],
          [-126.24253, 38.83906],
          [-126.22134, 38.86568],
          [-126.20013, 38.89229],
          [-126.17243, 38.89734],
          [-126.15121, 38.92394],
          [-126.12997, 38.95054],
          [-126.10873, 38.97713],
          [-126.08747, 39.00372],
          [-126.06621, 39.0303],
          [-126.03846, 39.03533],
          [-126.01718, 39.0619],
          [-125.98942, 39.06691],
          [-125.96812, 39.09347],
          [-125.9468, 39.12003],
          [-125.92548, 39.14658],
          [-125.90414, 39.17312],
          [-125.88279, 39.19966],
          [-125.86144, 39.22619],
          [-125.84007, 39.25271],
          [-125.81869, 39.27923],
          [-125.7973, 39.30575],
          [-125.7759, 39.33225],
          [-125.75448, 39.35875],
          [-125.73306, 39.38525],
          [-125.71163, 39.41174],
          [-125.69018, 39.43822],
          [-125.66873, 39.4647],
          [-125.64726, 39.49117],
          [-125.65368, 39.51269],
          [-125.6322, 39.53915],
          [-125.61071, 39.56561],
          [-125.5892, 39.59206],
          [-125.56769, 39.61851],
          [-125.54617, 39.64495],
          [-125.52463, 39.67138],
          [-125.50309, 39.69781],
          [-125.48153, 39.72423],
          [-125.45997, 39.75064],
          [-125.43839, 39.77705],
          [-125.4168, 39.80346],
          [-125.3952, 39.82985],
          [-125.37359, 39.85624],
          [-125.34559, 39.86114],
          [-125.31759, 39.86603],
          [-125.28959, 39.87091],
          [-125.26159, 39.8758],
          [-125.23358, 39.88067],
          [-125.21192, 39.90704],
          [-125.1839, 39.9119],
          [-125.15588, 39.91677],
          [-125.13419, 39.94312],
          [-125.10616, 39.94797],
          [-125.07812, 39.95282],
          [-125.05009, 39.95767],
          [-125.02205, 39.96251],
          [-124.994, 39.96735],
          [-124.96596, 39.97218],
          [-124.94421, 39.9985],
          [-124.91616, 40.00332],
          [-124.89439, 40.02963],
          [-124.86632, 40.03444],
          [-124.83197, 40.01776],
          [-124.80391, 40.02257],
          [-124.77584, 40.02737],
          [-124.74777, 40.03216],
          [-124.7197, 40.03695],
          [-124.69162, 40.04174],
          [-124.66979, 40.06802]
        ]
      }
    },
    {
      "type": "Feature",
      "id": "2026092618_f228_11000_001",
      "properties": {
        "product_id": "winter_storm_levels",
        "source_id": "nbm_snow_level",
        "parameter": "snow_level",
        "definition": "height of the wet-bulb 0.5 degree C surface",
        "level_ft_msl": 11000,
        "label": "11,000 ft MSL",
        "unit": "ft_msl",
        "cycle_time_utc": "2026-09-26T18:00:00Z",
        "valid_time_utc": "2026-10-06T06:00:00Z",
        "lead_hours": 228,
        "segment": 1,
        "length_m": 2200762.4
      },
      "geometry": {
        "type": "LineString",
        "coordinates": [
          [-125.52622, 30.19327],
          [-125.52062, 30.20098],
          [-125.49497, 30.20605],
          [-125.46931, 30.21112],
          [-125.46733, 30.21385],
          [-125.44952, 30.23836],
          [-125.42385, 30.24342],
          [-125.42187, 30.24615],
          [-125.40404, 30.27065],
          [-125.37837, 30.27571],
          [-125.35269, 30.28076],
          [-125.35071, 30.28348],
          [-125.33286, 30.30798],
          [-125.30717, 30.31302],
          [-125.28149, 30.31806],
          [-125.2558, 30.3231],
          [-125.23011, 30.32813],
          [-125.22812, 30.33085],
          [-125.21023, 30.35533],
          [-125.18453, 30.36036],
          [-125.15883, 30.36537],
          [-125.15684, 30.36809],
          [-125.13894, 30.39257],
          [-125.11323, 30.39758],
          [-125.08751, 30.40258],
          [-125.0618, 30.40759],
          [-125.0598, 30.4103],
          [-125.04187, 30.43476],
          [-125.01615, 30.43976],
          [-124.99042, 30.44475],
          [-124.98843, 30.44747],
          [-124.97047, 30.47192],
          [-124.94474, 30.4769],
          [-124.94274, 30.47961],
          [-124.92477, 30.50406],
          [-124.89903, 30.50903],
          [-124.89703, 30.51175],
          [-124.87905, 30.53619],
          [-124.87705, 30.5389],
          [-124.85906, 30.56333],
          [-124.8333, 30.5683],
          [-124.8313, 30.57101],
          [-124.8133, 30.59544],
          [-124.78753, 30.6004],
          [-124.78552, 30.60311],
          [-124.76751, 30.62753],
          [-124.74173, 30.63248],
          [-124.73972, 30.63519],
          [-124.72169, 30.6596],
          [-124.6959, 30.66454],
          [-124.6939, 30.66726],
          [-124.67585, 30.69166],
          [-124.67384, 30.69438],
          [-124.65579, 30.71878],
          [-124.62998, 30.72371],
          [-124.62798, 30.72642],
          [-124.6099, 30.75082],
          [-124.6079, 30.75353],
          [-124.58982, 30.77792],
          [-124.58781, 30.78063],
          [-124.56972, 30.80502],
          [-124.54389, 30.80994],
          [-124.54188, 30.81264],
          [-124.52378, 30.83703],
          [-124.49794, 30.84193],
          [-124.49593, 30.84464],
          [-124.47781, 30.86902],
          [-124.4758, 30.87173],
          [-124.45767, 30.8961],
          [-124.45566, 30.89881],
          [-124.43753, 30.92318],
          [-124.43551, 30.92589],
          [-124.41737, 30.95025],
          [-124.3915, 30.95514],
          [-124.38949, 30.95785],
          [-124.37133, 30.98221],
          [-124.36931, 30.98491],
          [-124.35115, 31.00927],
          [-124.34913, 31.01198],
          [-124.33095, 31.03633],
          [-124.30506, 31.0412],
          [-124.30304, 31.04391],
          [-124.28486, 31.06825],
          [-124.25896, 31.07312],
          [-124.25694, 31.07582],
          [-124.23873, 31.10016],
          [-124.21283, 31.10502],
          [-124.18692, 31.10987],
          [-124.16101, 31.11472],
          [-124.15898, 31.11742],
          [-124.14075, 31.14175],
          [-124.11483, 31.14659],
          [-124.08891, 31.15142],
          [-124.08688, 31.15413],
          [-124.06863, 31.17844],
          [-124.0427, 31.18327],
          [-124.04067, 31.18597],
          [-124.02241, 31.21028],
          [-123.99647, 31.2151],
          [-123.99444, 31.2178],
          [-123.97615, 31.2421],
          [-123.95021, 31.24692],
          [-123.92425, 31.25173],
          [-123.92222, 31.25443],
          [-123.90392, 31.27872],
          [-123.87796, 31.28352],
          [-123.852, 31.28831],
          [-123.84996, 31.29101],
          [-123.83164, 31.31529],
          [-123.80567, 31.32008],
          [-123.80363, 31.32278],
          [-123.78529, 31.34705],
          [-123.75931, 31.35184],
          [-123.75727, 31.35453],
          [-123.73892, 31.3788],
          [-123.71293, 31.38357],
          [-123.71089, 31.38627],
          [-123.69253, 31.41053],
          [-123.66653, 31.41529],
          [-123.66449, 31.41799],
          [-123.6461, 31.44224],
          [-123.6201, 31.447],
          [-123.61805, 31.4497],
          [-123.59966, 31.47394],
          [-123.57364, 31.47869],
          [-123.5716, 31.48139],
          [-123.55318, 31.50563],
          [-123.55114, 31.50832],
          [-123.53272, 31.53256],
          [-123.50669, 31.53729],
          [-123.50464, 31.53999],
          [-123.4862, 31.56421],
          [-123.46016, 31.56894],
          [-123.45811, 31.57164],
          [-123.43966, 31.59586],
          [-123.41361, 31.60058],
          [-123.41156, 31.60327],
          [-123.3931, 31.62749],
          [-123.39105, 31.63018],
          [-123.37257, 31.65439],
          [-123.37052, 31.65708],
          [-123.35204, 31.68129],
          [-123.34999, 31.68398],
          [-123.3315, 31.70818],
          [-123.32944, 31.71087],
          [-123.31094, 31.73507],
          [-123.30889, 31.73776],
          [-123.29038, 31.76196],
          [-123.26428, 31.76665],
          [-123.26223, 31.76934],
          [-123.2437, 31.79353],
          [-123.24165, 31.79622],
          [-123.22312, 31.8204],
          [-123.22106, 31.82309],
          [-123.20252, 31.84727],
          [-123.20046, 31.84996],
          [-123.18191, 31.87414],
          [-123.17985, 31.87682],
          [-123.16129, 31.901],
          [-123.13516, 31.90567],
          [-123.1331, 31.90836],
          [-123.11453, 31.93252],
          [-123.11246, 31.93521],
          [-123.09388, 31.95937],
          [-123.09182, 31.96206],
          [-123.07323, 31.98622],
          [-123.07116, 31.9889],
          [-123.05256, 32.01306],
          [-123.0264, 32.01771],
          [-123.02434, 32.02039],
          [-123.00572, 32.04454],
          [-123.00365, 32.04723],
          [-122.98503, 32.07137],
          [-122.98296, 32.07405],
          [-122.96433, 32.0982],
          [-122.93815, 32.10283],
          [-122.91196, 32.10747],
          [-122.90989, 32.11015],
          [-122.89124, 32.13428],
          [-122.86505, 32.13891],
          [-122.83885, 32.14353],
          [-122.83677, 32.14621],
          [-122.8181, 32.17033],
          [-122.7919, 32.17494],
          [-122.78982, 32.17762],
          [-122.77113, 32.20174],
          [-122.76906, 32.20442],
          [-122.75036, 32.22853],
          [-122.72414, 32.23313],
          [-122.72206, 32.23581],
          [-122.70335, 32.25991],
          [-122.70127, 32.26259],
          [-122.68255, 32.28668],
          [-122.68047, 32.28936],
          [-122.66174, 32.31345],
          [-122.65966, 32.31613],
          [-122.64092, 32.34022],
          [-122.61467, 32.34481],
          [-122.61259, 32.34748],
          [-122.59383, 32.37156],
          [-122.56757, 32.37614],
          [-122.54131, 32.38071],
          [-122.53922, 32.38339],
          [-122.52045, 32.40746],
          [-122.49418, 32.41202],
          [-122.49209, 32.4147],
          [-122.4733, 32.43876],
          [-122.47121, 32.44143],
          [-122.45242, 32.4655],
          [-122.45033, 32.46817],
          [-122.43152, 32.49223],
          [-122.40523, 32.49677],
          [-122.37893, 32.50132],
          [-122.37684, 32.50399],
          [-122.35801, 32.52803],
          [-122.35592, 32.53071],
          [-122.33708, 32.55475],
          [-122.33499, 32.55742],
          [-122.31614, 32.58146],
          [-122.28982, 32.58599],
          [-122.28773, 32.58866],
          [-122.2931, 32.61083],
          [-122.29847, 32.63301],
          [-122.27961, 32.65704],
          [-122.27751, 32.65971],
          [-122.28288, 32.68188],
          [-122.26401, 32.70591],
          [-122.26191, 32.70858],
          [-122.24302, 32.7326],
          [-122.21666, 32.73711],
          [-122.21456, 32.73978],
          [-122.19566, 32.7638],
          [-122.19356, 32.76646],
          [-122.17465, 32.79047],
          [-122.17255, 32.79314],
          [-122.15363, 32.81715],
          [-122.15153, 32.81981],
          [-122.1326, 32.84381],
          [-122.1305, 32.84648],
          [-122.11156, 32.87048],
          [-122.10946, 32.87314],
          [-122.09051, 32.89714],
          [-122.08841, 32.8998],
          [-122.06946, 32.92379],
          [-122.06735, 32.92646],
          [-122.04839, 32.95044],
          [-122.02197, 32.95492],
          [-122.01986, 32.95759],
          [-122.00088, 32.98157],
          [-121.97446, 32.98604],
          [-121.97235, 32.9887],
          [-121.95335, 33.01267],
          [-121.95124, 33.01534],
          [-121.93224, 33.0393],
          [-121.93013, 33.04196],
          [-121.91112, 33.06593],
          [-121.90901, 33.06859],
          [-121.88999, 33.09255],
          [-121.88787, 33.09521],
          [-121.86884, 33.11916],
          [-121.86673, 33.12182],
          [-121.84769, 33.14577],
          [-121.82122, 33.15022],
          [-121.79475, 33.15466],
          [-121.76828, 33.15909],
          [-121.7418, 33.16353],
          [-121.71532, 33.16795],
          [-121.68884, 33.17238],
          [-121.66236, 33.1768],
          [-121.63588, 33.18121],
          [-121.60939, 33.18562],
          [-121.5829, 33.19002],
          [-121.55433, 33.17403],
          [-121.55115, 33.17226],
          [-121.52467, 33.17665],
          [-121.49818, 33.18104],
          [-121.47169, 33.18543],
          [-121.44519, 33.18981],
          [-121.4187, 33.19419],
          [-121.41657, 33.19685],
          [-121.39742, 33.22074],
          [-121.37092, 33.22511],
          [-121.36879, 33.22776],
          [-121.34963, 33.25165],
          [-121.3475, 33.2543],
          [-121.35272, 33.27647],
          [-121.33355, 33.30035],
          [-121.33142, 33.30301],
          [-121.31224, 33.32688],
          [-121.3101, 33.32953],
          [-121.29091, 33.3534],
          [-121.28878, 33.35606],
          [-121.29399, 33.37822],
          [-121.27479, 33.40209],
          [-121.27266, 33.40474],
          [-121.25345, 33.4286],
          [-121.25131, 33.43125],
          [-121.25652, 33.45342],
          [-121.26173, 33.47558],
          [-121.26695, 33.49774],
          [-121.24772, 33.5216],
          [-121.24558, 33.52425],
          [-121.25079, 33.54641],
          [-121.25601, 33.56856],
          [-121.26122, 33.59072],
          [-121.26644, 33.61287],
          [-121.27166, 33.63502],
          [-121.27688, 33.65717],
          [-121.25763, 33.68102],
          [-121.25549, 33.68367],
          [-121.26071, 33.70582],
          [-121.26594, 33.72796],
          [-121.27116, 33.75011],
          [-121.27639, 33.77225],
          [-121.28162, 33.7944],
          [-121.26234, 33.81823],
          [-121.2602, 33.82088],
          [-121.26543, 33.84302],
          [-121.27066, 33.86516],
          [-121.27589, 33.8873],
          [-121.28113, 33.90943],
          [-121.28637, 33.93156],
          [-121.26707, 33.95539],
          [-121.26492, 33.95804],
          [-121.27016, 33.98017],
          [-121.2754, 34.0023],
          [-121.25608, 34.02612],
          [-121.25394, 34.02877],
          [-121.23462, 34.05259],
          [-121.23247, 34.05523],
          [-121.2377, 34.07736],
          [-121.21837, 34.10117],
          [-121.21622, 34.10382],
          [-121.22145, 34.12594],
          [-121.20211, 34.14975],
          [-121.19996, 34.1524],
          [-121.18061, 34.1762],
          [-121.17845, 34.17884],
          [-121.18368, 34.20096],
          [-121.16432, 34.22476],
          [-121.16217, 34.2274],
          [-121.16739, 34.24952],
          [-121.14802, 34.27331],
          [-121.14586, 34.27596],
          [-121.15109, 34.29807],
          [-121.15632, 34.32018],
          [-121.13693, 34.34397],
          [-121.13477, 34.34661],
          [-121.14, 34.36872],
          [-121.14523, 34.39083],
          [-121.15046, 34.41294],
          [-121.13105, 34.43672],
          [-121.1289, 34.43936],
          [-121.13413, 34.46146],
          [-121.11471, 34.48524],
          [-121.11255, 34.48788],
          [-121.11778, 34.50998],
          [-121.12301, 34.53208],
          [-121.10357, 34.55585],
          [-121.10141, 34.55849],
          [-121.10665, 34.58058],
          [-121.0872, 34.60434],
          [-121.08504, 34.60698],
          [-121.06558, 34.63074],
          [-121.06342, 34.63338],
          [-121.06864, 34.65547],
          [-121.04917, 34.67923],
          [-121.04701, 34.68186],
          [-121.05224, 34.70395],
          [-121.03276, 34.7277],
          [-121.03059, 34.73034],
          [-121.03582, 34.75243],
          [-121.04104, 34.77451],
          [-121.02155, 34.79825],
          [-121.01938, 34.80089],
          [-121.02461, 34.82297],
          [-121.02984, 34.84505],
          [-121.03507, 34.86713],
          [-121.0403, 34.88921],
          [-121.04554, 34.91129],
          [-121.05077, 34.93336],
          [-121.05601, 34.95543],
          [-121.06125, 34.9775],
          [-121.0665, 34.99957],
          [-121.07174, 35.02164],
          [-121.07699, 35.0437],
          [-121.08224, 35.06577],
          [-121.0627, 35.08949],
          [-121.06053, 35.09213],
          [-121.06578, 35.11419],
          [-121.07103, 35.13625],
          [-121.07628, 35.1583],
          [-121.08154, 35.18036],
          [-121.0868, 35.20241],
          [-121.06723, 35.22612],
          [-121.06506, 35.22876],
          [-121.07032, 35.25081],
          [-121.07557, 35.27286],
          [-121.08083, 35.29491],
          [-121.0861, 35.31695],
          [-121.09136, 35.339],
          [-121.09663, 35.36104],
          [-121.07704, 35.38474],
          [-121.07486, 35.38737],
          [-121.08013, 35.40941],
          [-121.0854, 35.43145],
          [-121.09067, 35.45348],
          [-121.09594, 35.47552],
          [-121.10121, 35.49755],
          [-121.10649, 35.51958],
          [-121.08688, 35.54327],
          [-121.0847, 35.5459],
          [-121.08997, 35.56793],
          [-121.09525, 35.58995],
          [-121.10053, 35.61197],
          [-121.10581, 35.634],
          [-121.11109, 35.65601],
          [-121.11638, 35.67803],
          [-121.09674, 35.70171],
          [-121.09456, 35.70434],
          [-121.09984, 35.72636],
          [-121.10513, 35.74837],
          [-121.11042, 35.77038],
          [-121.09076, 35.79405],
          [-121.08857, 35.79668],
          [-121.09386, 35.81869],
          [-121.09915, 35.84069],
          [-121.10444, 35.86269],
          [-121.10974, 35.8847],
          [-121.09006, 35.90836],
          [-121.08787, 35.91099],
          [-121.09317, 35.93298],
          [-121.07348, 35.95664],
          [-121.07129, 35.95927],
          [-121.07658, 35.98126],
          [-121.08188, 36.00326],
          [-121.06217, 36.0269],
          [-121.05998, 36.02953],
          [-121.06527, 36.05152],
          [-121.07057, 36.07351],
          [-121.05085, 36.09715],
          [-121.04866, 36.09977],
          [-121.05395, 36.12176],
          [-121.03422, 36.14539],
          [-121.03203, 36.14802],
          [-121.03732, 36.17],
          [-121.01757, 36.19363],
          [-121.01538, 36.19625],
          [-121.02067, 36.21823],
          [-121.02597, 36.24021],
          [-121.00621, 36.26383],
          [-121.00401, 36.26645],
          [-121.00931, 36.28842],
          [-121.0146, 36.3104],
          [-121.0199, 36.33237],
          [-121.00012, 36.35598],
          [-120.99792, 36.3586],
          [-121.00322, 36.38057],
          [-121.00852, 36.40253],
          [-120.98873, 36.42613],
          [-120.98653, 36.42876],
          [-120.99182, 36.45072],
          [-120.99712, 36.47268],
          [-121.00243, 36.49463],
          [-121.00773, 36.51659],
          [-121.01304, 36.53854],
          [-121.01835, 36.56049],
          [-121.02366, 36.58244],
          [-121.02897, 36.60439],
          [-121.03428, 36.62633],
          [-121.0396, 36.64827],
          [-121.04492, 36.67021],
          [-121.02509, 36.6938],
          [-121.02288, 36.69642],
          [-121.0282, 36.71836],
          [-121.03352, 36.74029],
          [-121.03884, 36.76223],
          [-121.04417, 36.78416],
          [-121.02431, 36.80773],
          [-121.02211, 36.81035],
          [-121.02743, 36.83228],
          [-121.03276, 36.8542],
          [-121.03809, 36.87613],
          [-121.04342, 36.89805],
          [-121.02354, 36.92161],
          [-121.02133, 36.92423],
          [-121.02666, 36.94615],
          [-121.03199, 36.96806],
          [-121.0121, 36.99162],
          [-121.00989, 36.99424],
          [-121.01522, 37.01615],
          [-121.02055, 37.03806],
          [-121.02589, 37.05997],
          [-121.03122, 37.08188],
          [-121.01131, 37.10542],
          [-121.0091, 37.10804],
          [-121.01443, 37.12994],
          [-121.01977, 37.15184],
          [-120.99984, 37.17538],
          [-120.99763, 37.17799],
          [-121.00297, 37.19989],
          [-121.00831, 37.22178],
          [-121.01365, 37.24368],
          [-121.01899, 37.26557],
          [-121.02434, 37.28746],
          [-121.02968, 37.30934],
          [-121.03503, 37.33123],
          [-121.04039, 37.35311],
          [-121.02043, 37.37663],
          [-121.01821, 37.37924],
          [-121.02356, 37.40112],
          [-121.02891, 37.423],
          [-121.03427, 37.44487],
          [-121.03962, 37.46675],
          [-121.04498, 37.48862],
          [-121.05035, 37.51048],
          [-121.05571, 37.53235],
          [-121.06108, 37.55421],
          [-121.06645, 37.57608],
          [-121.07182, 37.59794],
          [-121.07719, 37.61979],
          [-121.05719, 37.64329],
          [-121.05496, 37.6459],
          [-121.06034, 37.66776],
          [-121.04032, 37.69125],
          [-121.0381, 37.69386],
          [-121.04347, 37.71571],
          [-121.04884, 37.73756],
          [-121.02881, 37.76104],
          [-121.02658, 37.76365],
          [-121.03196, 37.78549],
          [-121.03733, 37.80734],
          [-121.04271, 37.82918],
          [-121.02266, 37.85265],
          [-121.02043, 37.85526],
          [-121.02581, 37.87709],
          [-121.03118, 37.89893],
          [-121.01112, 37.92239],
          [-121.00889, 37.925],
          [-121.01427, 37.94683],
          [-120.99419, 37.97029],
          [-120.99196, 37.9729],
          [-120.99733, 37.99472],
          [-121.00271, 38.01654],
          [-121.00809, 38.03837],
          [-121.01347, 38.06018],
          [-120.99337, 38.08363],
          [-120.99114, 38.08624],
          [-120.99652, 38.10805],
          [-121.0019, 38.12987],
          [-120.98179, 38.15331],
          [-120.97955, 38.15591],
          [-120.98494, 38.17772],
          [-120.99032, 38.19952],
          [-120.97019, 38.22296],
          [-120.96795, 38.22556],
          [-120.97334, 38.24736],
          [-120.95319, 38.27079],
          [-120.95096, 38.27339],
          [-120.95634, 38.29519],
          [-120.96172, 38.31698],
          [-120.94156, 38.3404],
          [-120.93932, 38.343],
          [-120.94471, 38.36479],
          [-120.92454, 38.3882],
          [-120.92229, 38.3908],
          [-120.90211, 38.41421],
          [-120.89987, 38.41681],
          [-120.90525, 38.43859],
          [-120.88505, 38.46199],
          [-120.88281, 38.46459],
          [-120.86261, 38.48798],
          [-120.86036, 38.49058],
          [-120.86574, 38.51236],
          [-120.84552, 38.53575],
          [-120.84327, 38.53834],
          [-120.84865, 38.56012],
          [-120.82842, 38.5835],
          [-120.82617, 38.58609],
          [-120.83154, 38.60787],
          [-120.8113, 38.63124],
          [-120.80905, 38.63383],
          [-120.7888, 38.6572],
          [-120.78654, 38.65979],
          [-120.79191, 38.68156],
          [-120.77165, 38.70492],
          [-120.7694, 38.70751],
          [-120.77476, 38.72928],
          [-120.75448, 38.75263],
          [-120.75223, 38.75522],
          [-120.7576, 38.77698],
          [-120.76296, 38.79873],
          [-120.74267, 38.82208],
          [-120.74041, 38.82467],
          [-120.74578, 38.84642],
          [-120.75115, 38.86817],
          [-120.73084, 38.8915],
          [-120.72858, 38.8941],
          [-120.73395, 38.91584],
          [-120.73932, 38.93758],
          [-120.719, 38.96091],
          [-120.71674, 38.9635],
          [-120.72211, 38.98524],
          [-120.72748, 39.00697],
          [-120.73285, 39.02871],
          [-120.71251, 39.05202],
          [-120.71024, 39.05461],
          [-120.71562, 39.07634],
          [-120.69526, 39.09965],
          [-120.693, 39.10224],
          [-120.69837, 39.12396],
          [-120.70374, 39.14568],
          [-120.68337, 39.16898],
          [-120.6811, 39.17157],
          [-120.68647, 39.19329],
          [-120.66609, 39.21658],
          [-120.66382, 39.21917],
          [-120.66919, 39.24088],
          [-120.64879, 39.26416],
          [-120.64652, 39.26675],
          [-120.62611, 39.29003],
          [-120.62385, 39.29261],
          [-120.62921, 39.31432],
          [-120.60879, 39.33759],
          [-120.60652, 39.34018],
          [-120.58609, 39.36344],
          [-120.58381, 39.36603],
          [-120.56337, 39.38929],
          [-120.5611, 39.39187],
          [-120.54064, 39.41512],
          [-120.53837, 39.41771],
          [-120.51791, 39.44096],
          [-120.48981, 39.44509],
          [-120.48754, 39.44767],
          [-120.46706, 39.47091],
          [-120.43895, 39.47503],
          [-120.43667, 39.47761],
          [-120.41618, 39.50084],
          [-120.38806, 39.50495],
          [-120.38578, 39.50753],
          [-120.36527, 39.53076],
          [-120.33714, 39.53486],
          [-120.33486, 39.53744],
          [-120.31433, 39.56065],
          [-120.28619, 39.56475],
          [-120.28391, 39.56732],
          [-120.26336, 39.59053],
          [-120.26108, 39.5931],
          [-120.24052, 39.6163],
          [-120.23823, 39.61888],
          [-120.21766, 39.64207],
          [-120.1895, 39.64615],
          [-120.18721, 39.64872],
          [-120.16663, 39.6719],
          [-120.16434, 39.67448],
          [-120.14374, 39.69766],
          [-120.14145, 39.70023],
          [-120.12084, 39.7234],
          [-120.11855, 39.72598],
          [-120.09794, 39.74914],
          [-120.09565, 39.75171],
          [-120.07502, 39.77487],
          [-120.04682, 39.77893],
          [-120.04452, 39.7815],
          [-120.02388, 39.80465],
          [-120.02158, 39.80722],
          [-120.00093, 39.83036],
          [-119.97271, 39.8344],
          [-119.97041, 39.83698],
          [-119.94974, 39.86011],
          [-119.94744, 39.86268],
          [-119.92676, 39.88581],
          [-119.89852, 39.88984],
          [-119.89622, 39.89241],
          [-119.87552, 39.91553],
          [-119.87322, 39.91809],
          [-119.85251, 39.94121],
          [-119.85021, 39.94378],
          [-119.82949, 39.96688],
          [-119.82718, 39.96945],
          [-119.83242, 39.99111],
          [-119.81168, 40.01421],
          [-119.78341, 40.01822],
          [-119.7811, 40.02078],
          [-119.76035, 40.04388],
          [-119.75804, 40.04644],
          [-119.73728, 40.06953],
          [-119.73498, 40.07209],
          [-119.7142, 40.09517],
          [-119.71189, 40.09774],
          [-119.69111, 40.12081],
          [-119.6628, 40.12479],
          [-119.66049, 40.12736],
          [-119.63969, 40.15042],
          [-119.63738, 40.15298],
          [-119.61657, 40.17604],
          [-119.61426, 40.17861],
          [-119.59344, 40.20166],
          [-119.5651, 40.20563],
          [-119.56279, 40.20819],
          [-119.54195, 40.23123],
          [-119.5136, 40.23519],
          [-119.51128, 40.23775],
          [-119.49043, 40.26078],
          [-119.46207, 40.26473],
          [-119.45975, 40.26729],
          [-119.43888, 40.29032],
          [-119.43656, 40.29288],
          [-119.41568, 40.31589],
          [-119.3873, 40.31983],
          [-119.38498, 40.32239],
          [-119.36408, 40.3454],
          [-119.36176, 40.34795],
          [-119.34085, 40.37096],
          [-119.33852, 40.37351],
          [-119.3176, 40.39651],
          [-119.2892, 40.40043],
          [-119.28688, 40.40299],
          [-119.26594, 40.42597],
          [-119.23753, 40.42988],
          [-119.20911, 40.43379],
          [-119.1807, 40.43769],
          [-119.15228, 40.44159],
          [-119.14995, 40.44414],
          [-119.12897, 40.46711],
          [-119.10054, 40.471],
          [-119.07211, 40.47488],
          [-119.06978, 40.47743],
          [-119.04878, 40.50038],
          [-119.02034, 40.50426],
          [-118.9919, 40.50813],
          [-118.98956, 40.51068],
          [-118.96854, 40.53362],
          [-118.94008, 40.53748],
          [-118.91163, 40.54133],
          [-118.90929, 40.54388],
          [-118.88824, 40.56681],
          [-118.85978, 40.57066],
          [-118.83131, 40.5745],
          [-118.80284, 40.57834],
          [-118.77437, 40.58217],
          [-118.7459, 40.586],
          [-118.74355, 40.58855],
          [-118.72246, 40.61145],
          [-118.69397, 40.61527],
          [-118.66549, 40.61908],
          [-118.637, 40.62289],
          [-118.63466, 40.62544],
          [-118.61353, 40.64832],
          [-118.58503, 40.65212],
          [-118.55653, 40.65592],
          [-118.52803, 40.65971],
          [-118.49953, 40.6635],
          [-118.49717, 40.66604],
          [-118.47601, 40.68891],
          [-118.44749, 40.69269],
          [-118.41898, 40.69646],
          [-118.41662, 40.699],
          [-118.39543, 40.72185],
          [-118.39308, 40.72439],
          [-118.37187, 40.74723],
          [-118.34334, 40.751],
          [-118.34098, 40.75353],
          [-118.31976, 40.77637],
          [-118.29122, 40.78012],
          [-118.28886, 40.78266],
          [-118.26762, 40.80548],
          [-118.23907, 40.80923],
          [-118.23671, 40.81176],
          [-118.21545, 40.83458],
          [-118.18689, 40.83831],
          [-118.15832, 40.84204],
          [-118.15596, 40.84457],
          [-118.13468, 40.86738],
          [-118.13231, 40.86991],
          [-118.11102, 40.89271],
          [-118.08244, 40.89642],
          [-118.08007, 40.89895],
          [-118.05876, 40.92174],
          [-118.05639, 40.92427],
          [-118.03507, 40.94705],
          [-118.00647, 40.95076],
          [-118.0041, 40.95329],
          [-117.98277, 40.97606],
          [-117.95416, 40.97975],
          [-117.95178, 40.98228],
          [-117.93043, 41.00504],
          [-117.90181, 41.00873],
          [-117.89943, 41.01126],
          [-117.87806, 41.03401],
          [-117.87569, 41.03653],
          [-117.8543, 41.05928],
          [-117.85193, 41.06181],
          [-117.83053, 41.08454],
          [-117.80189, 41.08821],
          [-117.79951, 41.09074],
          [-117.7781, 41.11347],
          [-117.74944, 41.11713],
          [-117.74706, 41.11965],
          [-117.72563, 41.14237],
          [-117.72325, 41.1449],
          [-117.70181, 41.16761],
          [-117.67313, 41.17125],
          [-117.64446, 41.1749],
          [-117.64207, 41.17742],
          [-117.62061, 41.20012],
          [-117.61822, 41.20264],
          [-117.59675, 41.22533],
          [-117.56805, 41.22896],
          [-117.56566, 41.23148],
          [-117.54417, 41.25417],
          [-117.51547, 41.25779],
          [-117.51308, 41.26031],
          [-117.49157, 41.28298],
          [-117.46285, 41.28659],
          [-117.46046, 41.28911],
          [-117.43893, 41.31177],
          [-117.43654, 41.31429],
          [-117.415, 41.33695],
          [-117.38627, 41.34055],
          [-117.38387, 41.34306],
          [-117.36231, 41.36571],
          [-117.33357, 41.3693],
          [-117.33118, 41.37182],
          [-117.3096, 41.39445],
          [-117.3072, 41.39697],
          [-117.28562, 41.4196],
          [-117.25686, 41.42318],
          [-117.25446, 41.42569],
          [-117.23285, 41.44831],
          [-117.20408, 41.45188],
          [-117.20168, 41.45439],
          [-117.18006, 41.477],
          [-117.15128, 41.48056],
          [-117.14888, 41.48307],
          [-117.12724, 41.50567],
          [-117.09845, 41.50922],
          [-117.09604, 41.51173],
          [-117.07438, 41.53433],
          [-117.07198, 41.53684],
          [-117.05031, 41.55942],
          [-117.0215, 41.56296],
          [-116.99269, 41.56649],
          [-116.96388, 41.57001],
          [-116.93506, 41.57353],
          [-116.90625, 41.57705],
          [-116.87743, 41.58056],
          [-116.84861, 41.58407],
          [-116.81845, 41.56782],
          [-116.81511, 41.56601],
          [-116.78629, 41.56951],
          [-116.75747, 41.573],
          [-116.72864, 41.57649],
          [-116.69982, 41.57997],
          [-116.67099, 41.58345],
          [-116.64087, 41.56717],
          [-116.63752, 41.56536],
          [-116.6087, 41.56883],
          [-116.57987, 41.57229],
          [-116.55104, 41.57575],
          [-116.52221, 41.57921],
          [-116.49338, 41.58266],
          [-116.46455, 41.58611],
          [-116.43571, 41.58955],
          [-116.40562, 41.57323],
          [-116.40228, 41.57141],
          [-116.37345, 41.57485],
          [-116.34461, 41.57827],
          [-116.31577, 41.58169],
          [-116.28693, 41.58511],
          [-116.2845, 41.58761],
          [-116.26265, 41.6101],
          [-116.2338, 41.6135],
          [-116.20495, 41.61691],
          [-116.20252, 41.61941],
          [-116.18064, 41.64188],
          [-116.15178, 41.64527],
          [-116.14935, 41.64777],
          [-116.12745, 41.67023],
          [-116.09858, 41.67362],
          [-116.0697, 41.677],
          [-116.04083, 41.68037],
          [-116.01195, 41.68375],
          [-115.98307, 41.68711],
          [-115.98063, 41.68961],
          [-115.95869, 41.71204],
          [-115.9298, 41.7154],
          [-115.89976, 41.69901],
          [-115.89642, 41.69719],
          [-115.86754, 41.70054],
          [-115.83865, 41.70388],
          [-115.80976, 41.70722],
          [-115.78086, 41.71055],
          [-115.75197, 41.71388],
          [-115.72195, 41.69746],
          [-115.71862, 41.69564],
          [-115.68973, 41.69896],
          [-115.65973, 41.68253],
          [-115.6564, 41.6807],
          [-115.62751, 41.68401],
          [-115.59861, 41.68732],
          [-115.56972, 41.69062],
          [-115.54082, 41.69391],
          [-115.51193, 41.69721],
          [-115.48303, 41.70049],
          [-115.45413, 41.70378],
          [-115.45168, 41.70626],
          [-115.42961, 41.72863],
          [-115.4007, 41.73191],
          [-115.37179, 41.73517],
          [-115.34287, 41.73844],
          [-115.31396, 41.7417],
          [-115.28504, 41.74495],
          [-115.25612, 41.7482],
          [-115.22719, 41.75145],
          [-115.19827, 41.75469],
          [-115.16934, 41.75793],
          [-115.14042, 41.76116],
          [-115.11149, 41.76439],
          [-115.10902, 41.76687],
          [-115.08687, 41.78919],
          [-115.05793, 41.79241],
          [-115.02899, 41.79562],
          [-115.02653, 41.7981],
          [-115.00435, 41.8204],
          [-114.9754, 41.82361],
          [-114.97293, 41.82609],
          [-114.95074, 41.84838],
          [-114.92178, 41.85158],
          [-114.91931, 41.85405],
          [-114.8971, 41.87634],
          [-114.86812, 41.87953],
          [-114.86566, 41.882],
          [-114.84342, 41.90428],
          [-114.81444, 41.90746],
          [-114.78546, 41.91063],
          [-114.78299, 41.9131],
          [-114.76073, 41.93536],
          [-114.73174, 41.93853],
          [-114.70275, 41.94169],
          [-114.67375, 41.94484],
          [-114.64475, 41.94799],
          [-114.61576, 41.95113],
          [-114.58675, 41.95427],
          [-114.55775, 41.95741],
          [-114.52875, 41.96054],
          [-114.49974, 41.96367],
          [-114.47073, 41.96679],
          [-114.44172, 41.96991],
          [-114.41271, 41.97302],
          [-114.3837, 41.97613],
          [-114.38121, 41.97859],
          [-114.35885, 42.0008],
          [-114.32983, 42.0039],
          [-114.30081, 42.00699],
          [-114.27178, 42.01008],
          [-114.24275, 42.01316],
          [-114.24026, 42.01563],
          [-114.21786, 42.03781],
          [-114.18883, 42.04089],
          [-114.15979, 42.04396],
          [-114.13074, 42.04702],
          [-114.1017, 42.05008],
          [-114.07266, 42.05314],
          [-114.04361, 42.05619],
          [-114.01456, 42.05924],
          [-114.01207, 42.0617],
          [-113.98961, 42.08385],
          [-113.95977, 42.06717],
          [-113.95646, 42.06532],
          [-113.9274, 42.06835],
          [-113.89835, 42.07138],
          [-113.86929, 42.07441],
          [-113.84023, 42.07742],
          [-113.81117, 42.08044],
          [-113.78211, 42.08345],
          [-113.75304, 42.08645],
          [-113.72398, 42.08945],
          [-113.72147, 42.09191],
          [-113.69894, 42.11402],
          [-113.66987, 42.11701],
          [-113.64079, 42.12],
          [-113.63829, 42.12245],
          [-113.61573, 42.14455],
          [-113.58664, 42.14753],
          [-113.55686, 42.13079],
          [-113.55355, 42.12893],
          [-113.52446, 42.1319],
          [-113.52196, 42.13435],
          [-113.49937, 42.15643],
          [-113.47028, 42.15939],
          [-113.44118, 42.16234],
          [-113.41208, 42.16529],
          [-113.38299, 42.16824],
          [-113.35323, 42.15147],
          [-113.34992, 42.14961],
          [-113.34741, 42.15206],
          [-113.32478, 42.17411],
          [-113.29503, 42.15734],
          [-113.29173, 42.15547],
          [-113.26263, 42.1584],
          [-113.23289, 42.14161],
          [-113.22959, 42.13975],
          [-113.20049, 42.14266],
          [-113.17139, 42.14558],
          [-113.14168, 42.12877],
          [-113.13838, 42.12691],
          [-113.10928, 42.12981],
          [-113.08018, 42.13271],
          [-113.05108, 42.1356],
          [-113.02198, 42.13849],
          [-112.99288, 42.14137],
          [-112.9632, 42.12454],
          [-112.9599, 42.12267],
          [-112.9308, 42.12554],
          [-112.90113, 42.1087],
          [-112.89783, 42.10682],
          [-112.86874, 42.10969],
          [-112.83964, 42.11255],
          [-112.80999, 42.09569],
          [-112.80669, 42.09381],
          [-112.7776, 42.09666],
          [-112.74796, 42.07979],
          [-112.74467, 42.07792],
          [-112.71558, 42.08076],
          [-112.68595, 42.06387],
          [-112.68266, 42.062],
          [-112.65357, 42.06483],
          [-112.62397, 42.04793],
          [-112.62068, 42.04606],
          [-112.59159, 42.04888],
          [-112.5625, 42.05169],
          [-112.53341, 42.0545],
          [-112.50432, 42.05731],
          [-112.47474, 42.04039],
          [-112.47146, 42.03851],
          [-112.44237, 42.04131],
          [-112.41328, 42.0441],
          [-112.38372, 42.02716],
          [-112.38043, 42.02528],
          [-112.35135, 42.02807],
          [-112.3218, 42.01112],
          [-112.31852, 42.00923],
          [-112.28899, 41.99228],
          [-112.28571, 41.9904],
          [-112.25619, 41.97343],
          [-112.25247, 41.95182],
          [-112.24919, 41.94993],
          [-112.21968, 41.93296],
          [-112.21597, 41.91134],
          [-112.21269, 41.90945],
          [-112.18321, 41.89247],
          [-112.17993, 41.89058],
          [-112.15046, 41.87359],
          [-112.14676, 41.85196],
          [-112.14349, 41.85007],
          [-112.11403, 41.83307],
          [-112.11035, 41.81143],
          [-112.10708, 41.80955],
          [-112.07764, 41.79254],
          [-112.07396, 41.77089],
          [-112.07029, 41.74925],
          [-112.06702, 41.74736],
          [-112.03761, 41.73033],
          [-112.03434, 41.72844],
          [-112.00533, 41.73118],
          [-112, 41.72809]
        ]
      }
    },
    {
      "type": "Feature",
      "id": "2026092618_f228_12000_001",
      "properties": {
        "product_id": "winter_storm_levels",
        "source_id": "nbm_snow_level",
        "parameter": "snow_level",
        "definition": "height of the wet-bulb 0.5 degree C surface",
        "level_ft_msl": 12000,
        "label": "12,000 ft MSL",
        "unit": "ft_msl",
        "cycle_time_utc": "2026-09-26T18:00:00Z",
        "valid_time_utc": "2026-10-06T06:00:00Z",
        "lead_hours": 228,
        "segment": 1,
        "length_m": 1330141.5
      },
      "geometry": {
        "type": "LineString",
        "coordinates": [
          [-118.8553, 30.24391],
          [-118.84486, 30.25682],
          [-118.8406, 30.2621],
          [-118.82354, 30.28319],
          [-118.81927, 30.28846],
          [-118.80221, 30.30956],
          [-118.79794, 30.31483],
          [-118.80254, 30.33722],
          [-118.78547, 30.3583],
          [-118.7812, 30.36358],
          [-118.76412, 30.38466],
          [-118.75985, 30.38993],
          [-118.76444, 30.41232],
          [-118.74735, 30.4334],
          [-118.74308, 30.43867],
          [-118.72598, 30.45975],
          [-118.7217, 30.46502],
          [-118.72629, 30.4874],
          [-118.70918, 30.50848],
          [-118.7049, 30.51374],
          [-118.70949, 30.53613],
          [-118.69237, 30.5572],
          [-118.68809, 30.56247],
          [-118.69268, 30.58485],
          [-118.69727, 30.60723],
          [-118.68014, 30.6283],
          [-118.67586, 30.63357],
          [-118.68045, 30.65595],
          [-118.6633, 30.67701],
          [-118.65902, 30.68228],
          [-118.6636, 30.70465],
          [-118.64645, 30.72571],
          [-118.64216, 30.73098],
          [-118.64675, 30.75336],
          [-118.62958, 30.77441],
          [-118.62529, 30.77968],
          [-118.62988, 30.80205],
          [-118.6127, 30.8231],
          [-118.60841, 30.82837],
          [-118.613, 30.85074],
          [-118.61758, 30.87312],
          [-118.6004, 30.89416],
          [-118.5961, 30.89942],
          [-118.60068, 30.9218],
          [-118.60527, 30.94417],
          [-118.60986, 30.96654],
          [-118.59266, 30.98758],
          [-118.58836, 30.99284],
          [-118.59294, 31.01521],
          [-118.57573, 31.03625],
          [-118.57143, 31.04151],
          [-118.57601, 31.06388],
          [-118.55879, 31.08491],
          [-118.55448, 31.09017],
          [-118.55907, 31.11254],
          [-118.54184, 31.13357],
          [-118.53753, 31.13883],
          [-118.54211, 31.16119],
          [-118.54669, 31.18355],
          [-118.55128, 31.20592],
          [-118.53403, 31.22694],
          [-118.52972, 31.2322],
          [-118.53431, 31.25456],
          [-118.53889, 31.27692],
          [-118.52163, 31.29794],
          [-118.51732, 31.3032],
          [-118.5219, 31.32556],
          [-118.50463, 31.34657],
          [-118.50031, 31.35183],
          [-118.5049, 31.37419],
          [-118.48762, 31.3952],
          [-118.48329, 31.40045],
          [-118.466, 31.42147],
          [-118.46168, 31.42672],
          [-118.44438, 31.44773],
          [-118.44006, 31.45298],
          [-118.42275, 31.47398],
          [-118.41843, 31.47923],
          [-118.40111, 31.50023],
          [-118.39678, 31.50548],
          [-118.37946, 31.52648],
          [-118.37513, 31.53173],
          [-118.3578, 31.55272],
          [-118.33157, 31.55661],
          [-118.32724, 31.56186],
          [-118.3099, 31.58285],
          [-118.30556, 31.58809],
          [-118.28821, 31.60908],
          [-118.28387, 31.61432],
          [-118.26651, 31.6353],
          [-118.26217, 31.64055],
          [-118.24481, 31.66153],
          [-118.24046, 31.66677],
          [-118.22309, 31.68774],
          [-118.21875, 31.69299],
          [-118.20136, 31.71396],
          [-118.19702, 31.7192],
          [-118.17963, 31.74016],
          [-118.17528, 31.74541],
          [-118.15788, 31.76637],
          [-118.15353, 31.77161],
          [-118.13613, 31.79257],
          [-118.13177, 31.79781],
          [-118.11436, 31.81876],
          [-118.11001, 31.824],
          [-118.11454, 31.84635],
          [-118.09711, 31.8673],
          [-118.09275, 31.87254],
          [-118.09728, 31.89488],
          [-118.07985, 31.91583],
          [-118.07549, 31.92106],
          [-118.05805, 31.94201],
          [-118.05368, 31.94724],
          [-118.05821, 31.96959],
          [-118.06273, 31.99193],
          [-118.04527, 32.01286],
          [-118.04091, 32.0181],
          [-118.04543, 32.04044],
          [-118.04996, 32.06277],
          [-118.03249, 32.08371],
          [-118.02812, 32.08894],
          [-118.03264, 32.11128],
          [-118.01516, 32.13221],
          [-118.01079, 32.13744],
          [-118.01531, 32.15977],
          [-117.99782, 32.1807],
          [-117.99345, 32.18593],
          [-117.97595, 32.20685],
          [-117.97158, 32.21208],
          [-117.97609, 32.23441],
          [-117.95859, 32.25533],
          [-117.95421, 32.26056],
          [-117.93669, 32.28148],
          [-117.93231, 32.2867],
          [-117.93682, 32.30903],
          [-117.9193, 32.32994],
          [-117.91491, 32.33517],
          [-117.89738, 32.35608],
          [-117.893, 32.3613],
          [-117.87545, 32.38221],
          [-117.87107, 32.38743],
          [-117.87557, 32.40975],
          [-117.85802, 32.43065],
          [-117.85363, 32.43588],
          [-117.85813, 32.4582],
          [-117.84057, 32.47909],
          [-117.83617, 32.48432],
          [-117.84067, 32.50664],
          [-117.8231, 32.52753],
          [-117.81871, 32.53275],
          [-117.8232, 32.55507],
          [-117.80562, 32.57595],
          [-117.80122, 32.58117],
          [-117.80572, 32.60349],
          [-117.81022, 32.6258],
          [-117.79262, 32.64669],
          [-117.78822, 32.65191],
          [-117.77061, 32.67278],
          [-117.76621, 32.678],
          [-117.77071, 32.70031],
          [-117.75309, 32.72119],
          [-117.74868, 32.7264],
          [-117.75318, 32.74871],
          [-117.75767, 32.77102],
          [-117.74004, 32.79189],
          [-117.73563, 32.79711],
          [-117.74013, 32.81941],
          [-117.72248, 32.84027],
          [-117.71807, 32.84549],
          [-117.72257, 32.86779],
          [-117.72706, 32.8901],
          [-117.7094, 32.91095],
          [-117.70499, 32.91617],
          [-117.70948, 32.93847],
          [-117.69182, 32.95932],
          [-117.6874, 32.96453],
          [-117.69189, 32.98683],
          [-117.67421, 33.00768],
          [-117.66979, 33.01289],
          [-117.67428, 33.03519],
          [-117.6566, 33.05603],
          [-117.65217, 33.06125],
          [-117.63448, 33.08209],
          [-117.63005, 33.0873],
          [-117.61235, 33.10813],
          [-117.60792, 33.11334],
          [-117.61241, 33.13563],
          [-117.59469, 33.15647],
          [-117.59026, 33.16167],
          [-117.59474, 33.18396],
          [-117.57702, 33.20479],
          [-117.57259, 33.21],
          [-117.55485, 33.23082],
          [-117.55042, 33.23603],
          [-117.55489, 33.25831],
          [-117.53715, 33.27913],
          [-117.53271, 33.28434],
          [-117.53719, 33.30662],
          [-117.54166, 33.3289],
          [-117.5239, 33.34972],
          [-117.51946, 33.35492],
          [-117.52394, 33.3772],
          [-117.52841, 33.39948],
          [-117.51064, 33.42029],
          [-117.5062, 33.42549],
          [-117.48842, 33.4463],
          [-117.48397, 33.4515],
          [-117.46619, 33.4723],
          [-117.46174, 33.4775],
          [-117.44394, 33.4983],
          [-117.43949, 33.5035],
          [-117.44396, 33.52577],
          [-117.44842, 33.54804],
          [-117.43061, 33.56883],
          [-117.42616, 33.57403],
          [-117.43062, 33.5963],
          [-117.43509, 33.61857],
          [-117.41727, 33.63935],
          [-117.41281, 33.64455],
          [-117.41727, 33.66681],
          [-117.42174, 33.68908],
          [-117.4039, 33.70986],
          [-117.39944, 33.71505],
          [-117.4039, 33.73731],
          [-117.38606, 33.75809],
          [-117.3816, 33.76329],
          [-117.36374, 33.78406],
          [-117.35928, 33.78925],
          [-117.34141, 33.81002],
          [-117.33695, 33.81521],
          [-117.31908, 33.83598],
          [-117.29228, 33.83967],
          [-117.28781, 33.84486],
          [-117.26993, 33.86562],
          [-117.24312, 33.8693],
          [-117.23865, 33.87449],
          [-117.22075, 33.89524],
          [-117.21627, 33.90043],
          [-117.19837, 33.92118],
          [-117.19389, 33.92636],
          [-117.17597, 33.94711],
          [-117.17149, 33.95229],
          [-117.15357, 33.97303],
          [-117.14909, 33.97821],
          [-117.13116, 33.99895],
          [-117.12667, 34.00413],
          [-117.13109, 34.02638],
          [-117.11315, 34.04711],
          [-117.10866, 34.05229],
          [-117.11308, 34.07454],
          [-117.09513, 34.09526],
          [-117.09064, 34.10045],
          [-117.09506, 34.12269],
          [-117.09948, 34.14493],
          [-117.1039, 34.16718],
          [-117.10832, 34.18942],
          [-117.09035, 34.21013],
          [-117.08585, 34.21531],
          [-117.09027, 34.23755],
          [-117.0947, 34.25979],
          [-117.09912, 34.28202],
          [-117.08113, 34.30273],
          [-117.07663, 34.30791],
          [-117.05864, 34.32861],
          [-117.05413, 34.33379],
          [-117.05855, 34.35602],
          [-117.04055, 34.37672],
          [-117.03604, 34.3819],
          [-117.01802, 34.40259],
          [-117.01352, 34.40777],
          [-117.01793, 34.43],
          [-116.99991, 34.45069],
          [-116.9954, 34.45586],
          [-116.99981, 34.47808],
          [-116.98177, 34.49877],
          [-116.97726, 34.50394],
          [-116.95921, 34.52463],
          [-116.9547, 34.5298],
          [-116.95911, 34.55202],
          [-116.96351, 34.57424],
          [-116.94545, 34.59491],
          [-116.94094, 34.60008],
          [-116.94534, 34.6223],
          [-116.94975, 34.64451],
          [-116.93168, 34.66518],
          [-116.92716, 34.67035],
          [-116.93156, 34.69256],
          [-116.93597, 34.71477],
          [-116.91788, 34.73544],
          [-116.91336, 34.7406],
          [-116.91777, 34.76281],
          [-116.89967, 34.78347],
          [-116.89514, 34.78863],
          [-116.89955, 34.81084],
          [-116.88144, 34.83149],
          [-116.87691, 34.83666],
          [-116.88131, 34.85886],
          [-116.88572, 34.88106],
          [-116.89012, 34.90325],
          [-116.87199, 34.9239],
          [-116.86746, 34.92906],
          [-116.87376, 34.93278],
          [-116.89894, 34.94764],
          [-116.90336, 34.96984],
          [-116.90777, 34.99203],
          [-116.88963, 35.01267],
          [-116.8851, 35.01783],
          [-116.88951, 35.04002],
          [-116.89392, 35.06221],
          [-116.89834, 35.08439],
          [-116.88018, 35.10503],
          [-116.87564, 35.11019],
          [-116.88006, 35.13237],
          [-116.88447, 35.15455],
          [-116.88889, 35.17673],
          [-116.89331, 35.1989],
          [-116.87513, 35.21953],
          [-116.87059, 35.22469],
          [-116.8524, 35.24531],
          [-116.84786, 35.25047],
          [-116.82966, 35.27109],
          [-116.8025, 35.27469],
          [-116.79795, 35.27984],
          [-116.77975, 35.30045],
          [-116.77519, 35.30561],
          [-116.75698, 35.32621],
          [-116.7298, 35.3298],
          [-116.72525, 35.33495],
          [-116.70702, 35.35555],
          [-116.70246, 35.3607],
          [-116.68422, 35.3813],
          [-116.67966, 35.38645],
          [-116.66141, 35.40704],
          [-116.65685, 35.41219],
          [-116.63859, 35.43278],
          [-116.63403, 35.43792],
          [-116.61576, 35.45851],
          [-116.6112, 35.46365],
          [-116.59292, 35.48423],
          [-116.58835, 35.48938],
          [-116.57007, 35.50995],
          [-116.5655, 35.51509],
          [-116.54721, 35.53567],
          [-116.54264, 35.54081],
          [-116.52434, 35.56137],
          [-116.51976, 35.56652],
          [-116.50146, 35.58708],
          [-116.49688, 35.59222],
          [-116.47856, 35.61278],
          [-116.47398, 35.61791],
          [-116.45566, 35.63847],
          [-116.45108, 35.64361],
          [-116.43274, 35.66416],
          [-116.42816, 35.66929],
          [-116.40982, 35.68984],
          [-116.38254, 35.69336],
          [-116.37796, 35.6985],
          [-116.3596, 35.71903],
          [-116.35501, 35.72417],
          [-116.35935, 35.74632],
          [-116.34098, 35.76685],
          [-116.33639, 35.77198],
          [-116.31801, 35.79251],
          [-116.31342, 35.79764],
          [-116.31775, 35.81979],
          [-116.29936, 35.84031],
          [-116.29476, 35.84544],
          [-116.27637, 35.86596],
          [-116.27177, 35.87109],
          [-116.25336, 35.8916],
          [-116.24876, 35.89673],
          [-116.25308, 35.91887],
          [-116.23466, 35.93937],
          [-116.23006, 35.9445],
          [-116.21163, 35.965],
          [-116.20703, 35.97013],
          [-116.18859, 35.99063],
          [-116.18399, 35.99575],
          [-116.16554, 36.01625],
          [-116.16093, 36.02137],
          [-116.14248, 36.04186],
          [-116.13787, 36.04698],
          [-116.11941, 36.06747],
          [-116.11479, 36.07259],
          [-116.09633, 36.09307],
          [-116.09171, 36.09819],
          [-116.09601, 36.12032],
          [-116.07753, 36.14079],
          [-116.07291, 36.14591],
          [-116.05442, 36.16638],
          [-116.0498, 36.1715],
          [-116.05409, 36.19362],
          [-116.05838, 36.21574],
          [-116.03988, 36.23621],
          [-116.03525, 36.24132],
          [-116.03954, 36.26344],
          [-116.02103, 36.2839],
          [-116.0164, 36.28901],
          [-115.99788, 36.30947],
          [-115.99324, 36.31458],
          [-115.99753, 36.33669],
          [-116.00181, 36.3588],
          [-115.98328, 36.37925],
          [-115.97864, 36.38436],
          [-115.98293, 36.40647],
          [-115.96438, 36.42691],
          [-115.95974, 36.43202],
          [-115.94118, 36.45246],
          [-115.9137, 36.4559],
          [-115.90906, 36.461],
          [-115.89049, 36.48143],
          [-115.863, 36.48486],
          [-115.83551, 36.48829],
          [-115.80802, 36.49171],
          [-115.78052, 36.49513],
          [-115.75303, 36.49854],
          [-115.72764, 36.48358],
          [-115.72129, 36.47984],
          [-115.6938, 36.48325],
          [-115.66842, 36.46828],
          [-115.66208, 36.46454],
          [-115.63671, 36.44956],
          [-115.63037, 36.44582],
          [-115.60501, 36.43084],
          [-115.59867, 36.4271],
          [-115.57119, 36.43048],
          [-115.5437, 36.43386],
          [-115.51836, 36.41887],
          [-115.51417, 36.39675],
          [-115.50784, 36.393],
          [-115.48251, 36.378],
          [-115.47832, 36.35588],
          [-115.47199, 36.35213],
          [-115.44668, 36.33712],
          [-115.44035, 36.33337],
          [-115.41504, 36.31835],
          [-115.40872, 36.3146],
          [-115.38342, 36.29958],
          [-115.3771, 36.29582],
          [-115.35181, 36.2808],
          [-115.34766, 36.25867],
          [-115.34134, 36.25491],
          [-115.31389, 36.25825],
          [-115.30923, 36.26335],
          [-115.31337, 36.28548],
          [-115.31752, 36.30761],
          [-115.32166, 36.32974],
          [-115.32581, 36.35187],
          [-115.32996, 36.374],
          [-115.33629, 36.37775],
          [-115.36377, 36.37441],
          [-115.38908, 36.38942],
          [-115.39541, 36.39318],
          [-115.42073, 36.40819],
          [-115.4249, 36.43031],
          [-115.42908, 36.45243],
          [-115.43541, 36.45618],
          [-115.46075, 36.47118],
          [-115.46494, 36.49329],
          [-115.47127, 36.49704],
          [-115.49663, 36.51204],
          [-115.50082, 36.53415],
          [-115.48216, 36.55452],
          [-115.47749, 36.55962],
          [-115.48168, 36.58172],
          [-115.46301, 36.6021],
          [-115.45834, 36.60719],
          [-115.46253, 36.62929],
          [-115.44385, 36.64966],
          [-115.43917, 36.65475],
          [-115.44336, 36.67685],
          [-115.44755, 36.69894],
          [-115.45174, 36.72104],
          [-115.43303, 36.7414],
          [-115.42836, 36.74649],
          [-115.40965, 36.76684],
          [-115.40497, 36.77193],
          [-115.38625, 36.79228],
          [-115.38157, 36.79737],
          [-115.36284, 36.81771],
          [-115.35816, 36.8228],
          [-115.33942, 36.84314],
          [-115.33474, 36.84822],
          [-115.31599, 36.86856],
          [-115.28838, 36.87189],
          [-115.26078, 36.87522],
          [-115.23317, 36.87854],
          [-115.20556, 36.88186],
          [-115.17795, 36.88517],
          [-115.15033, 36.88848],
          [-115.12272, 36.89179],
          [-115.09733, 36.87676],
          [-115.09098, 36.873],
          [-115.06559, 36.85796],
          [-115.05925, 36.8542],
          [-115.03387, 36.83916],
          [-115.02753, 36.8354],
          [-115.00217, 36.82036],
          [-114.99582, 36.81659],
          [-114.97047, 36.80154],
          [-114.96413, 36.79778],
          [-114.93653, 36.80105],
          [-114.90893, 36.80432],
          [-114.88133, 36.80759],
          [-114.85373, 36.81085],
          [-114.84902, 36.81592],
          [-114.83019, 36.83621],
          [-114.82548, 36.84128],
          [-114.80664, 36.86156],
          [-114.77902, 36.86481],
          [-114.77431, 36.86988],
          [-114.75546, 36.89015],
          [-114.75074, 36.89522],
          [-114.73188, 36.91548],
          [-114.70424, 36.91872],
          [-114.69953, 36.92379],
          [-114.68065, 36.94405],
          [-114.67593, 36.94911],
          [-114.65704, 36.96937],
          [-114.65232, 36.97443],
          [-114.63342, 36.99468],
          [-114.6287, 36.99974],
          [-114.60979, 37.01999],
          [-114.58213, 37.0232],
          [-114.5774, 37.02826],
          [-114.55848, 37.0485],
          [-114.53081, 37.05171],
          [-114.52608, 37.05677],
          [-114.50714, 37.077],
          [-114.47946, 37.08019],
          [-114.45178, 37.08339],
          [-114.44704, 37.08844],
          [-114.42808, 37.10866],
          [-114.40039, 37.11184],
          [-114.3727, 37.11502],
          [-114.36795, 37.12008],
          [-114.34898, 37.14028],
          [-114.32128, 37.14345],
          [-114.29357, 37.14662],
          [-114.26586, 37.14978],
          [-114.23816, 37.15294],
          [-114.21045, 37.15609],
          [-114.18273, 37.15924],
          [-114.15502, 37.16239],
          [-114.12731, 37.16552],
          [-114.09959, 37.16866],
          [-114.07187, 37.17179],
          [-114.04415, 37.17491],
          [-114.01643, 37.17804],
          [-113.98871, 37.18115],
          [-113.96098, 37.18426],
          [-113.93326, 37.18737],
          [-113.92849, 37.19241],
          [-113.90942, 37.21256],
          [-113.88169, 37.21566],
          [-113.87692, 37.2207],
          [-113.85784, 37.24084],
          [-113.83009, 37.24393],
          [-113.80235, 37.24702],
          [-113.7746, 37.2501],
          [-113.74685, 37.25317],
          [-113.72157, 37.23796],
          [-113.71525, 37.23416],
          [-113.71047, 37.23919],
          [-113.69135, 37.25931],
          [-113.6636, 37.26237],
          [-113.63584, 37.26543],
          [-113.60809, 37.26849],
          [-113.6033, 37.27351],
          [-113.58416, 37.29362],
          [-113.55639, 37.29667],
          [-113.52863, 37.29971],
          [-113.50086, 37.30274],
          [-113.47309, 37.30577],
          [-113.4683, 37.3108],
          [-113.44912, 37.33089],
          [-113.44433, 37.33591],
          [-113.42514, 37.356],
          [-113.42034, 37.36102],
          [-113.42414, 37.3831],
          [-113.40495, 37.40318],
          [-113.40015, 37.4082],
          [-113.38094, 37.42828],
          [-113.37614, 37.4333],
          [-113.37993, 37.45537],
          [-113.38373, 37.47745],
          [-113.38752, 37.49953],
          [-113.39132, 37.5216],
          [-113.39512, 37.54367],
          [-113.39892, 37.56574],
          [-113.37968, 37.5858],
          [-113.37488, 37.59081],
          [-113.35563, 37.61087],
          [-113.32778, 37.61387],
          [-113.29992, 37.61687],
          [-113.27207, 37.61987],
          [-113.24421, 37.62286],
          [-113.21635, 37.62584],
          [-113.18849, 37.62882],
          [-113.16063, 37.6318],
          [-113.13276, 37.63477],
          [-113.1049, 37.63774],
          [-113.10007, 37.64274],
          [-113.08077, 37.66277],
          [-113.05289, 37.66572],
          [-113.02502, 37.66868],
          [-113.02019, 37.67368],
          [-113.00086, 37.69369],
          [-112.97298, 37.69664],
          [-112.94509, 37.69958],
          [-112.94026, 37.70458],
          [-112.92091, 37.72458],
          [-112.89302, 37.72751],
          [-112.88818, 37.73251],
          [-112.86882, 37.7525],
          [-112.84092, 37.75542],
          [-112.83608, 37.76042],
          [-112.8167, 37.7804],
          [-112.78879, 37.78331],
          [-112.78394, 37.78831],
          [-112.76455, 37.80828],
          [-112.73663, 37.81119],
          [-112.70871, 37.81409],
          [-112.68079, 37.81698],
          [-112.65286, 37.81987],
          [-112.64801, 37.82486],
          [-112.62859, 37.84482],
          [-112.60065, 37.8477],
          [-112.57272, 37.85058],
          [-112.54478, 37.85345],
          [-112.53992, 37.85844],
          [-112.52047, 37.87838],
          [-112.49253, 37.88124],
          [-112.46458, 37.8841],
          [-112.43663, 37.88696],
          [-112.43176, 37.89194],
          [-112.41229, 37.91187],
          [-112.38433, 37.91471],
          [-112.35637, 37.91755],
          [-112.3515, 37.92253],
          [-112.33201, 37.94245],
          [-112.30404, 37.94528],
          [-112.27607, 37.94811],
          [-112.27119, 37.95308],
          [-112.25168, 37.97299],
          [-112.2237, 37.97581],
          [-112.19572, 37.97862],
          [-112.16774, 37.98143],
          [-112.13976, 37.98424],
          [-112.13487, 37.98921],
          [-112.11533, 38.00909],
          [-112.11044, 38.01406],
          [-112.09088, 38.03394],
          [-112.08599, 38.03891],
          [-112.06643, 38.05878],
          [-112.06154, 38.06375],
          [-112.04196, 38.08362],
          [-112.01395, 38.08641],
          [-112.00906, 38.09137],
          [-112, 38.10056]
        ]
      }
    },
    {
      "type": "Feature",
      "id": "2026092618_f228_13000_001",
      "properties": {
        "product_id": "winter_storm_levels",
        "source_id": "nbm_snow_level",
        "parameter": "snow_level",
        "definition": "height of the wet-bulb 0.5 degree C surface",
        "level_ft_msl": 13000,
        "label": "13,000 ft MSL",
        "unit": "ft_msl",
        "cycle_time_utc": "2026-09-26T18:00:00Z",
        "valid_time_utc": "2026-10-06T06:00:00Z",
        "lead_hours": 228,
        "segment": 1,
        "length_m": 157974.9
      },
      "geometry": {
        "type": "LineString",
        "coordinates": [
          [-112.78256, 30.04308],
          [-112.78505, 30.05942],
          [-112.78849, 30.08197],
          [-112.79193, 30.10452],
          [-112.79537, 30.12708],
          [-112.79882, 30.14963],
          [-112.80226, 30.17218],
          [-112.78641, 30.19004],
          [-112.77962, 30.1977],
          [-112.78306, 30.22025],
          [-112.7865, 30.2428],
          [-112.78995, 30.26534],
          [-112.77408, 30.28321],
          [-112.76728, 30.29086],
          [-112.75141, 30.30872],
          [-112.74461, 30.31638],
          [-112.74805, 30.33892],
          [-112.73217, 30.35678],
          [-112.72536, 30.36443],
          [-112.70947, 30.38229],
          [-112.70266, 30.38994],
          [-112.7061, 30.41248],
          [-112.6902, 30.43033],
          [-112.68339, 30.43798],
          [-112.68682, 30.46052],
          [-112.67091, 30.47837],
          [-112.66409, 30.48602],
          [-112.64818, 30.50387],
          [-112.64136, 30.51151],
          [-112.64478, 30.53405],
          [-112.62886, 30.55189],
          [-112.62204, 30.55954],
          [-112.60611, 30.57738],
          [-112.59928, 30.58502],
          [-112.58334, 30.60286],
          [-112.55716, 30.60579],
          [-112.55032, 30.61344],
          [-112.53438, 30.63126],
          [-112.50818, 30.63419],
          [-112.50134, 30.64183],
          [-112.48539, 30.65966],
          [-112.45918, 30.66258],
          [-112.45234, 30.67021],
          [-112.45573, 30.69275],
          [-112.43976, 30.71057],
          [-112.41355, 30.71348],
          [-112.4067, 30.72112],
          [-112.39072, 30.73893],
          [-112.36449, 30.74183],
          [-112.33827, 30.74473],
          [-112.33142, 30.75236],
          [-112.31542, 30.77016],
          [-112.30856, 30.77779],
          [-112.29255, 30.79559],
          [-112.28569, 30.80322],
          [-112.26968, 30.82102],
          [-112.26281, 30.82864],
          [-112.24679, 30.84644],
          [-112.23992, 30.85406],
          [-112.24328, 30.8766],
          [-112.24664, 30.89913],
          [-112.2306, 30.91692],
          [-112.22373, 30.92454],
          [-112.20769, 30.94233],
          [-112.20081, 30.94995],
          [-112.18477, 30.96773],
          [-112.17789, 30.97535],
          [-112.16183, 30.99313],
          [-112.15495, 31.00075],
          [-112.13889, 31.01853],
          [-112.13201, 31.02615],
          [-112.11594, 31.04392],
          [-112.10905, 31.05154],
          [-112.09297, 31.06931],
          [-112.06667, 31.07216],
          [-112.05978, 31.07978],
          [-112.04369, 31.09754],
          [-112.01738, 31.10038],
          [-112.01048, 31.108],
          [-112, 31.11956]
        ]
      }
    }
  ]
}

