{
  "type": "FeatureCollection",
  "contract_version": "1.0.0",
  "bbox": [-130, 31.3092, -112, 44.5],
  "features": [
    {
      "type": "Feature",
      "id": "2026092712_f090_10000_001",
      "properties": {
        "product_id": "winter_storm_levels",
        "source_id": "nbm_snow_level",
        "parameter": "snow_level",
        "definition": "height of the wet-bulb 0.5 degree C surface",
        "level_ft_msl": 10000,
        "label": "10,000 ft MSL",
        "unit": "ft_msl",
        "cycle_time_utc": "2026-09-27T12:00:00Z",
        "valid_time_utc": "2026-10-01T06:00:00Z",
        "lead_hours": 90,
        "segment": 1,
        "length_m": 2519626.1
      },
      "geometry": {
        "type": "LineString",
        "coordinates": [
          [-130, 34.84803],
          [-129.98362, 34.87112],
          [-129.96411, 34.8986],
          [-129.93759, 34.90433],
          [-129.91806, 34.93181],
          [-129.89153, 34.93753],
          [-129.87198, 34.965],
          [-129.87896, 34.98675],
          [-129.8594, 35.01421],
          [-129.83983, 35.04166],
          [-129.82025, 35.06912],
          [-129.80066, 35.09656],
          [-129.77409, 35.10227],
          [-129.75448, 35.12971],
          [-129.73486, 35.15714],
          [-129.71523, 35.18457],
          [-129.68864, 35.19026],
          [-129.66899, 35.21768],
          [-129.64239, 35.22336],
          [-129.62272, 35.25077],
          [-129.59611, 35.25645],
          [-129.57643, 35.28385],
          [-129.5498, 35.28951],
          [-129.52317, 35.29517],
          [-129.50346, 35.32257],
          [-129.47682, 35.32822],
          [-129.45018, 35.33387],
          [-129.42354, 35.33951],
          [-129.4038, 35.36689],
          [-129.37714, 35.37252],
          [-129.35739, 35.39989],
          [-129.33762, 35.42725],
          [-129.31095, 35.43287],
          [-129.29117, 35.46023],
          [-129.27138, 35.48758],
          [-129.25157, 35.51492],
          [-129.22488, 35.52053],
          [-129.20506, 35.54786],
          [-129.17835, 35.55346],
          [-129.15851, 35.58079],
          [-129.13179, 35.58638],
          [-129.11194, 35.6137],
          [-129.09207, 35.64102],
          [-129.0722, 35.66832],
          [-129.05232, 35.69563],
          [-129.03242, 35.72293],
          [-129.00566, 35.7285],
          [-128.98575, 35.75579],
          [-128.96583, 35.78307],
          [-128.9459, 35.81035],
          [-128.92596, 35.83763],
          [-128.90601, 35.8649],
          [-128.88605, 35.89216],
          [-128.86608, 35.91942],
          [-128.8461, 35.94668],
          [-128.82611, 35.97393],
          [-128.80611, 36.00117],
          [-128.77927, 36.0067],
          [-128.7861, 36.02841],
          [-128.76608, 36.05565],
          [-128.74605, 36.08288],
          [-128.72602, 36.1101],
          [-128.70597, 36.13732],
          [-128.68591, 36.16454],
          [-128.66584, 36.19175],
          [-128.64576, 36.21895],
          [-128.65258, 36.24065],
          [-128.63248, 36.26785],
          [-128.61238, 36.29504],
          [-128.58546, 36.30053],
          [-128.55854, 36.30602],
          [-128.53841, 36.3332],
          [-128.51827, 36.36038],
          [-128.49812, 36.38755],
          [-128.47117, 36.39302],
          [-128.47797, 36.41471],
          [-128.4578, 36.44187],
          [-128.43762, 36.46903],
          [-128.41744, 36.49617],
          [-128.39724, 36.52332],
          [-128.37703, 36.55046],
          [-128.35681, 36.57759],
          [-128.33659, 36.60472],
          [-128.31635, 36.63184],
          [-128.2961, 36.65896],
          [-128.27584, 36.68608],
          [-128.28262, 36.70776],
          [-128.26235, 36.73486],
          [-128.24207, 36.76196],
          [-128.21501, 36.76738],
          [-128.19471, 36.79448],
          [-128.16764, 36.79989],
          [-128.14733, 36.82697],
          [-128.127, 36.85405],
          [-128.09992, 36.85945],
          [-128.07957, 36.88652],
          [-128.05922, 36.91358],
          [-128.03211, 36.91897],
          [-128.01174, 36.94603],
          [-127.98463, 36.95141],
          [-127.96424, 36.97845],
          [-127.93711, 36.98383],
          [-127.9167, 37.01086],
          [-127.89629, 37.03789],
          [-127.86914, 37.04325],
          [-127.84871, 37.07028],
          [-127.82155, 37.07563],
          [-127.8011, 37.10264],
          [-127.78063, 37.12965],
          [-127.76016, 37.15665],
          [-127.73967, 37.18365],
          [-127.71918, 37.21064],
          [-127.69867, 37.23762],
          [-127.67816, 37.2646],
          [-127.65763, 37.29158],
          [-127.66432, 37.31323],
          [-127.64378, 37.3402],
          [-127.62323, 37.36716],
          [-127.62992, 37.38881],
          [-127.60935, 37.41576],
          [-127.58878, 37.44271],
          [-127.56152, 37.44802],
          [-127.54093, 37.47496],
          [-127.52033, 37.50189],
          [-127.527, 37.52353],
          [-127.53368, 37.54517],
          [-127.54036, 37.5668],
          [-127.54704, 37.58843],
          [-127.55372, 37.61006],
          [-127.56041, 37.63169],
          [-127.5671, 37.65332],
          [-127.57379, 37.67494],
          [-127.60781, 37.69126],
          [-127.61451, 37.71288],
          [-127.62121, 37.7345],
          [-127.62792, 37.75611],
          [-127.63463, 37.77772],
          [-127.64134, 37.79933],
          [-127.62071, 37.82624],
          [-127.60006, 37.85315],
          [-127.5794, 37.88005],
          [-127.55873, 37.90695],
          [-127.56544, 37.92855],
          [-127.57215, 37.95014],
          [-127.55146, 37.97703],
          [-127.53077, 38.00391],
          [-127.51006, 38.03079],
          [-127.48935, 38.05765],
          [-127.46862, 38.08452],
          [-127.47532, 38.10611],
          [-127.45458, 38.13296],
          [-127.43383, 38.15981],
          [-127.44053, 38.18139],
          [-127.44723, 38.20297],
          [-127.42646, 38.22982],
          [-127.43316, 38.25139],
          [-127.41238, 38.27823],
          [-127.41908, 38.2998],
          [-127.39829, 38.32662],
          [-127.37749, 38.35345],
          [-127.35668, 38.38026],
          [-127.36337, 38.40183],
          [-127.37007, 38.42339],
          [-127.37677, 38.44495],
          [-127.38347, 38.4665],
          [-127.39018, 38.48806],
          [-127.36935, 38.51486],
          [-127.37605, 38.53641],
          [-127.3552, 38.56321],
          [-127.36191, 38.58475],
          [-127.34105, 38.61154],
          [-127.34775, 38.63308],
          [-127.32688, 38.65986],
          [-127.30599, 38.68663],
          [-127.2851, 38.7134],
          [-127.26419, 38.74016],
          [-127.24328, 38.76692],
          [-127.22235, 38.79366],
          [-127.22904, 38.81519],
          [-127.23574, 38.83672],
          [-127.24244, 38.85825],
          [-127.24914, 38.87977],
          [-127.22819, 38.90651],
          [-127.20723, 38.93324],
          [-127.18626, 38.95996],
          [-127.16528, 38.98668],
          [-127.13761, 38.99188],
          [-127.11661, 39.01859],
          [-127.12329, 39.0401],
          [-127.10228, 39.0668],
          [-127.10897, 39.08831],
          [-127.11566, 39.10981],
          [-127.09463, 39.1365],
          [-127.10132, 39.15801],
          [-127.08028, 39.18469],
          [-127.05923, 39.21137],
          [-127.03816, 39.23804],
          [-127.01709, 39.26471],
          [-126.98933, 39.26988],
          [-126.96157, 39.27504],
          [-126.9338, 39.2802],
          [-126.91269, 39.30685],
          [-126.91936, 39.32834],
          [-126.92602, 39.34983],
          [-126.9049, 39.37647],
          [-126.88376, 39.4031],
          [-126.86262, 39.42973],
          [-126.86928, 39.4512],
          [-126.84812, 39.47782],
          [-126.82695, 39.50444],
          [-126.80577, 39.53104],
          [-126.77793, 39.53617],
          [-126.75673, 39.56277],
          [-126.73552, 39.58936],
          [-126.7143, 39.61595],
          [-126.72094, 39.63741],
          [-126.69971, 39.66399],
          [-126.70635, 39.68545],
          [-126.6851, 39.71202],
          [-126.66384, 39.73858],
          [-126.64257, 39.76514],
          [-126.64921, 39.78659],
          [-126.65585, 39.80804],
          [-126.66249, 39.82949],
          [-126.6412, 39.85603],
          [-126.64784, 39.87748],
          [-126.65449, 39.89892],
          [-126.66113, 39.92035],
          [-126.63983, 39.94689],
          [-126.64647, 39.96832],
          [-126.62515, 39.99485],
          [-126.65978, 40.01118],
          [-126.66643, 40.0326],
          [-126.67309, 40.05403],
          [-126.67975, 40.07545],
          [-126.68642, 40.09687],
          [-126.66508, 40.12338],
          [-126.67174, 40.14479],
          [-126.67841, 40.1662],
          [-126.65706, 40.1927],
          [-126.66372, 40.21411],
          [-126.67039, 40.23551],
          [-126.67707, 40.25691],
          [-126.65569, 40.2834],
          [-126.66237, 40.3048],
          [-126.66904, 40.32619],
          [-126.67572, 40.34758],
          [-126.6824, 40.36897],
          [-126.661, 40.39545],
          [-126.66769, 40.41683],
          [-126.67437, 40.43821],
          [-126.68105, 40.45959],
          [-126.65964, 40.48605],
          [-126.66633, 40.50743],
          [-126.6449, 40.53388],
          [-126.65159, 40.55525],
          [-126.65828, 40.57662],
          [-126.66497, 40.59798],
          [-126.67166, 40.61934],
          [-126.7065, 40.63561],
          [-126.71321, 40.65697],
          [-126.69176, 40.68341],
          [-126.67031, 40.70984],
          [-126.64214, 40.71492],
          [-126.62066, 40.74134],
          [-126.59918, 40.76776],
          [-126.60587, 40.7891],
          [-126.58437, 40.81551],
          [-126.59106, 40.83685],
          [-126.59775, 40.85818],
          [-126.60445, 40.87952],
          [-126.61115, 40.90085],
          [-126.61785, 40.92218],
          [-126.62456, 40.9435],
          [-126.63127, 40.96483],
          [-126.63798, 40.98615],
          [-126.64469, 41.00746],
          [-126.65141, 41.02878],
          [-126.65813, 41.05009],
          [-126.69312, 41.06633],
          [-126.72811, 41.08256],
          [-126.73485, 41.10386],
          [-126.7416, 41.12516],
          [-126.74834, 41.14646],
          [-126.78338, 41.16267],
          [-126.79013, 41.18397],
          [-126.79689, 41.20525],
          [-126.80365, 41.22654],
          [-126.81042, 41.24783],
          [-126.8455, 41.26402],
          [-126.85227, 41.28529],
          [-126.85905, 41.30657],
          [-126.86583, 41.32784],
          [-126.87262, 41.34911],
          [-126.8794, 41.37038],
          [-126.88619, 41.39164],
          [-126.92133, 41.4078],
          [-126.92814, 41.42906],
          [-126.90658, 41.45542],
          [-126.91338, 41.47667],
          [-126.89182, 41.50302],
          [-126.87024, 41.52935],
          [-126.87704, 41.5506],
          [-126.88384, 41.57184],
          [-126.89064, 41.59308],
          [-126.89745, 41.61432],
          [-126.90426, 41.63555],
          [-126.88266, 41.66187],
          [-126.88947, 41.6831],
          [-126.89628, 41.70433],
          [-126.9031, 41.72555],
          [-126.90992, 41.74677],
          [-126.91674, 41.76799],
          [-126.92356, 41.78921],
          [-126.90193, 41.81551],
          [-126.90876, 41.83672],
          [-126.91559, 41.85792],
          [-126.92242, 41.87913],
          [-126.90077, 41.90541],
          [-126.9076, 41.92661],
          [-126.91443, 41.94781],
          [-126.92127, 41.969],
          [-126.92811, 41.99019],
          [-126.93495, 42.01138],
          [-126.94179, 42.03257],
          [-126.94864, 42.05375],
          [-126.95549, 42.07493],
          [-126.96235, 42.0961],
          [-126.9692, 42.11728],
          [-126.97606, 42.13845],
          [-126.95437, 42.1647],
          [-126.96123, 42.18587],
          [-126.96809, 42.20703],
          [-127.00353, 42.2231],
          [-126.98182, 42.24934],
          [-126.9887, 42.2705],
          [-126.96698, 42.29673],
          [-126.94525, 42.32296],
          [-126.95212, 42.3441],
          [-126.93037, 42.37032],
          [-126.93724, 42.39146],
          [-126.94411, 42.4126],
          [-126.95099, 42.43374],
          [-126.95787, 42.45487],
          [-126.99339, 42.47092],
          [-127.00028, 42.49204],
          [-127.00717, 42.51317],
          [-127.04272, 42.5292],
          [-127.04963, 42.55032],
          [-127.05653, 42.57143],
          [-127.03477, 42.59763],
          [-127.04167, 42.61873],
          [-127.04858, 42.63984],
          [-127.05549, 42.66094],
          [-127.06241, 42.68204],
          [-127.06933, 42.70314],
          [-127.07625, 42.72423],
          [-127.08317, 42.74532],
          [-127.06138, 42.77149],
          [-127.0683, 42.79257],
          [-127.04649, 42.81874],
          [-127.05341, 42.83981],
          [-127.08909, 42.85581],
          [-127.09602, 42.87688],
          [-127.10296, 42.89795],
          [-127.08114, 42.9241],
          [-127.08808, 42.94516],
          [-127.09502, 42.96622],
          [-127.07318, 42.99236],
          [-127.05132, 43.01849],
          [-127.02253, 43.02356],
          [-127.00065, 43.04968],
          [-126.97184, 43.05474],
          [-126.94995, 43.08085],
          [-126.92113, 43.0859],
          [-126.89921, 43.112],
          [-126.87038, 43.11704],
          [-126.84845, 43.14313],
          [-126.8196, 43.14816],
          [-126.79075, 43.15319],
          [-126.7619, 43.15822],
          [-126.73305, 43.16324],
          [-126.71107, 43.1893],
          [-126.6822, 43.19431],
          [-126.65333, 43.19932],
          [-126.62446, 43.20432],
          [-126.59559, 43.20932],
          [-126.55986, 43.19327],
          [-126.52415, 43.1772],
          [-126.48845, 43.16113],
          [-126.45958, 43.16611],
          [-126.43071, 43.17108],
          [-126.40184, 43.17605],
          [-126.36616, 43.15996],
          [-126.33728, 43.16492],
          [-126.30841, 43.16987],
          [-126.27274, 43.15376],
          [-126.23709, 43.13763],
          [-126.20822, 43.14257],
          [-126.17934, 43.14751],
          [-126.15046, 43.15244],
          [-126.12158, 43.15737],
          [-126.08595, 43.14121],
          [-126.05707, 43.14613],
          [-126.02145, 43.12997],
          [-125.99257, 43.13487],
          [-125.96369, 43.13977],
          [-125.9348, 43.14467],
          [-125.91261, 43.17064],
          [-125.88371, 43.17553],
          [-125.85481, 43.18041],
          [-125.83259, 43.20637],
          [-125.80368, 43.21124],
          [-125.78144, 43.23719],
          [-125.75252, 43.24205],
          [-125.73026, 43.26799],
          [-125.70132, 43.27284],
          [-125.67238, 43.2777],
          [-125.64344, 43.28254],
          [-125.61449, 43.28739],
          [-125.58554, 43.29223],
          [-125.55659, 43.29706],
          [-125.53427, 43.32296],
          [-125.50531, 43.32779],
          [-125.47634, 43.33261],
          [-125.44737, 43.33742],
          [-125.4184, 43.34223],
          [-125.38282, 43.32597],
          [-125.35385, 43.33077],
          [-125.32488, 43.33556],
          [-125.2959, 43.34036],
          [-125.26692, 43.34514],
          [-125.23794, 43.34993],
          [-125.21552, 43.37578],
          [-125.18653, 43.38055],
          [-125.15753, 43.38532],
          [-125.13509, 43.41116],
          [-125.10608, 43.41592],
          [-125.07707, 43.42068],
          [-125.04805, 43.42543],
          [-125.01904, 43.43017],
          [-124.99002, 43.43491],
          [-124.96099, 43.43965],
          [-124.93197, 43.44438],
          [-124.90294, 43.44911],
          [-124.87391, 43.45383],
          [-124.84488, 43.45855],
          [-124.81584, 43.46327],
          [-124.7868, 43.46797],
          [-124.75776, 43.47268],
          [-124.73519, 43.49845],
          [-124.70614, 43.50315],
          [-124.68355, 43.52891],
          [-124.65448, 43.5336],
          [-124.62541, 43.53828],
          [-124.59634, 43.54296],
          [-124.56727, 43.54763],
          [-124.53819, 43.5523],
          [-124.50911, 43.55696],
          [-124.48003, 43.56162],
          [-124.45737, 43.58735],
          [-124.42828, 43.592],
          [-124.39918, 43.59664],
          [-124.36368, 43.58021],
          [-124.33458, 43.58484],
          [-124.30549, 43.58947],
          [-124.27, 43.57302],
          [-124.24091, 43.57764],
          [-124.21181, 43.58226],
          [-124.1827, 43.58687],
          [-124.14724, 43.57039],
          [-124.11814, 43.575],
          [-124.08903, 43.57959],
          [-124.05359, 43.5631],
          [-124.02448, 43.56769],
          [-123.98906, 43.55118],
          [-123.95364, 43.53466],
          [-123.92454, 43.53923],
          [-123.88914, 43.5227],
          [-123.85375, 43.50617],
          [-123.81837, 43.48962],
          [-123.78301, 43.47306],
          [-123.74765, 43.4565],
          [-123.71856, 43.46104],
          [-123.68323, 43.44447],
          [-123.65414, 43.449],
          [-123.62505, 43.45353],
          [-123.58973, 43.43693],
          [-123.56064, 43.44145],
          [-123.53155, 43.44596],
          [-123.49625, 43.42935],
          [-123.46716, 43.43385],
          [-123.43806, 43.43835],
          [-123.40897, 43.44285],
          [-123.37987, 43.44734],
          [-123.35077, 43.45183],
          [-123.32166, 43.45631],
          [-123.29872, 43.48191],
          [-123.26961, 43.48638],
          [-123.24049, 43.49085],
          [-123.21137, 43.49531],
          [-123.18224, 43.49977],
          [-123.15312, 43.50423],
          [-123.12399, 43.50867],
          [-123.09486, 43.51312],
          [-123.06572, 43.51756],
          [-123.03659, 43.52199],
          [-123.00745, 43.52642],
          [-122.97831, 43.53085],
          [-122.94916, 43.53527],
          [-122.92611, 43.56082],
          [-122.89695, 43.56523],
          [-122.86779, 43.56963],
          [-122.83863, 43.57404],
          [-122.80947, 43.57844],
          [-122.7803, 43.58283],
          [-122.75113, 43.58722],
          [-122.72196, 43.5916],
          [-122.69279, 43.59598],
          [-122.65757, 43.57922],
          [-122.6284, 43.58359],
          [-122.59923, 43.58796],
          [-122.57005, 43.59232],
          [-122.54087, 43.59667],
          [-122.51168, 43.60103],
          [-122.4825, 43.60537],
          [-122.45331, 43.60971],
          [-122.42412, 43.61405],
          [-122.39492, 43.61838],
          [-122.36573, 43.62271],
          [-122.3425, 43.64817],
          [-122.31329, 43.65249],
          [-122.28408, 43.6568],
          [-122.25487, 43.66111],
          [-122.22565, 43.66541],
          [-122.19643, 43.66971],
          [-122.16721, 43.67401],
          [-122.13799, 43.6783],
          [-122.10877, 43.68259],
          [-122.07954, 43.68687],
          [-122.05031, 43.69114],
          [-122.02107, 43.69542],
          [-121.98594, 43.67854],
          [-121.95671, 43.68281],
          [-121.92159, 43.66592],
          [-121.88648, 43.64903],
          [-121.88061, 43.62788],
          [-121.84553, 43.61097],
          [-121.81045, 43.59406],
          [-121.77539, 43.57714],
          [-121.74034, 43.56021],
          [-121.71114, 43.56443],
          [-121.6761, 43.54749],
          [-121.6469, 43.55171],
          [-121.61769, 43.55592],
          [-121.58848, 43.56013],
          [-121.55926, 43.56433],
          [-121.53005, 43.56853],
          [-121.50661, 43.59389],
          [-121.48317, 43.61925],
          [-121.45393, 43.62343],
          [-121.43047, 43.64878],
          [-121.40699, 43.67411],
          [-121.37774, 43.67829],
          [-121.35424, 43.70361],
          [-121.32497, 43.70777],
          [-121.30145, 43.73309],
          [-121.27217, 43.73724],
          [-121.24864, 43.76254],
          [-121.21935, 43.76669],
          [-121.19579, 43.79198],
          [-121.16649, 43.79612],
          [-121.13718, 43.80025],
          [-121.10217, 43.78322],
          [-121.07287, 43.78734],
          [-121.04356, 43.79146],
          [-121.01426, 43.79557],
          [-120.98495, 43.79968],
          [-120.94996, 43.78263],
          [-120.92065, 43.78672],
          [-120.89134, 43.79082],
          [-120.85637, 43.77374],
          [-120.82706, 43.77783],
          [-120.79775, 43.78191],
          [-120.76843, 43.78598],
          [-120.73912, 43.79005],
          [-120.7098, 43.79411],
          [-120.6861, 43.81934],
          [-120.65677, 43.82339],
          [-120.63305, 43.8486],
          [-120.60371, 43.85265],
          [-120.57997, 43.87785],
          [-120.55062, 43.88189],
          [-120.52127, 43.88592],
          [-120.49191, 43.88995],
          [-120.45697, 43.87281],
          [-120.42762, 43.87683],
          [-120.3927, 43.85968],
          [-120.35779, 43.84252],
          [-120.32844, 43.84653],
          [-120.29354, 43.82936],
          [-120.25866, 43.81218],
          [-120.22379, 43.79499],
          [-120.18894, 43.77779],
          [-120.1596, 43.78177],
          [-120.12476, 43.76456],
          [-120.09542, 43.76853],
          [-120.0606, 43.75131],
          [-120.03126, 43.75527],
          [-119.99646, 43.73803],
          [-119.96712, 43.74198],
          [-119.93779, 43.74593],
          [-119.903, 43.72867],
          [-119.87366, 43.73261],
          [-119.84433, 43.73654],
          [-119.81499, 43.74047],
          [-119.78022, 43.72319],
          [-119.75089, 43.72711],
          [-119.72155, 43.73102],
          [-119.6868, 43.71372],
          [-119.65746, 43.71762],
          [-119.62273, 43.70031],
          [-119.58802, 43.683],
          [-119.55868, 43.68688],
          [-119.52398, 43.66955],
          [-119.48929, 43.65221],
          [-119.45997, 43.65609],
          [-119.42529, 43.63873],
          [-119.39597, 43.6426],
          [-119.36131, 43.62523],
          [-119.32667, 43.60785],
          [-119.29735, 43.6117],
          [-119.26272, 43.59431],
          [-119.2281, 43.57692],
          [-119.19879, 43.58075],
          [-119.16419, 43.56334],
          [-119.1296, 43.54592],
          [-119.10029, 43.54974],
          [-119.06572, 43.53231],
          [-119.03641, 43.53612],
          [-119.00185, 43.51868],
          [-118.97255, 43.52248],
          [-118.93801, 43.50502],
          [-118.9087, 43.50881],
          [-118.87418, 43.49134],
          [-118.84488, 43.49512],
          [-118.81037, 43.47763],
          [-118.78107, 43.4814],
          [-118.74658, 43.4639],
          [-118.71728, 43.46766],
          [-118.6828, 43.45015],
          [-118.6535, 43.4539],
          [-118.61904, 43.43638],
          [-118.58975, 43.44012],
          [-118.55531, 43.42258],
          [-118.52601, 43.42632],
          [-118.49671, 43.43004],
          [-118.46229, 43.41249],
          [-118.43299, 43.4162],
          [-118.4037, 43.41992],
          [-118.36929, 43.40234],
          [-118.34, 43.40605],
          [-118.30561, 43.38846],
          [-118.27632, 43.39215],
          [-118.24195, 43.37455],
          [-118.21265, 43.37823],
          [-118.1783, 43.36062],
          [-118.14396, 43.343],
          [-118.11467, 43.34667],
          [-118.08035, 43.32903],
          [-118.04604, 43.31139],
          [-118.01174, 43.29373],
          [-117.98246, 43.29738],
          [-117.94817, 43.27972],
          [-117.9189, 43.28336],
          [-117.88463, 43.26568],
          [-117.85038, 43.24799],
          [-117.82111, 43.25162],
          [-117.78687, 43.23392],
          [-117.75264, 43.21621],
          [-117.71843, 43.19849],
          [-117.68422, 43.18076],
          [-117.65497, 43.18436],
          [-117.62078, 43.16663],
          [-117.58661, 43.14888],
          [-117.55736, 43.15246],
          [-117.5232, 43.1347],
          [-117.48905, 43.11694],
          [-117.45981, 43.12051],
          [-117.42568, 43.10273],
          [-117.39157, 43.08494],
          [-117.36233, 43.08849],
          [-117.32823, 43.07069],
          [-117.29414, 43.05288],
          [-117.26006, 43.03506],
          [-117.226, 43.01723],
          [-117.19677, 43.02076],
          [-117.16273, 43.00292],
          [-117.13351, 43.00644],
          [-117.09947, 42.98859],
          [-117.07025, 42.9921],
          [-117.04103, 42.99561],
          [-117.01181, 42.99912],
          [-116.9778, 42.98124],
          [-116.94858, 42.98473],
          [-116.91935, 42.98822],
          [-116.89013, 42.99171],
          [-116.8609, 42.99519],
          [-116.83167, 42.99866],
          [-116.80244, 43.00213],
          [-116.7732, 43.0056],
          [-116.73923, 42.98768],
          [-116.71, 42.99113],
          [-116.68077, 42.99458],
          [-116.64682, 42.97665],
          [-116.61289, 42.9587],
          [-116.57897, 42.94074],
          [-116.54506, 42.92278],
          [-116.51116, 42.90481],
          [-116.47728, 42.88683],
          [-116.44341, 42.86884],
          [-116.40955, 42.85085],
          [-116.38035, 42.85425],
          [-116.3465, 42.83624],
          [-116.31267, 42.81823],
          [-116.28347, 42.82162],
          [-116.24966, 42.80359],
          [-116.21586, 42.78555],
          [-116.18207, 42.7675],
          [-116.14829, 42.74945],
          [-116.11911, 42.75282],
          [-116.08535, 42.73475],
          [-116.0516, 42.71667],
          [-116.01786, 42.69859],
          [-115.98869, 42.70194],
          [-115.95497, 42.68384],
          [-115.9258, 42.68718],
          [-115.8921, 42.66907],
          [-115.86293, 42.67239],
          [-115.82924, 42.65427],
          [-115.80007, 42.65759],
          [-115.7664, 42.63945],
          [-115.73274, 42.62131],
          [-115.70359, 42.62461],
          [-115.66994, 42.60646],
          [-115.64079, 42.60975],
          [-115.60716, 42.59158],
          [-115.57355, 42.5734],
          [-115.5444, 42.57668],
          [-115.5108, 42.55849],
          [-115.48165, 42.56176],
          [-115.44807, 42.54355],
          [-115.41892, 42.54681],
          [-115.38536, 42.5286],
          [-115.35622, 42.53185],
          [-115.32707, 42.53509],
          [-115.29353, 42.51686],
          [-115.26438, 42.52009],
          [-115.23086, 42.50185],
          [-115.20172, 42.50507],
          [-115.16821, 42.48681],
          [-115.13907, 42.49003],
          [-115.10557, 42.47175],
          [-115.07644, 42.47496],
          [-115.04296, 42.45667],
          [-115.01383, 42.45987],
          [-114.98036, 42.44157],
          [-114.95123, 42.44476],
          [-114.9221, 42.44794],
          [-114.88866, 42.42962],
          [-114.85953, 42.4328],
          [-114.8304, 42.43597],
          [-114.80126, 42.43913],
          [-114.77213, 42.44229],
          [-114.73872, 42.42394],
          [-114.70958, 42.4271],
          [-114.68045, 42.43024],
          [-114.65131, 42.43338],
          [-114.62217, 42.43652],
          [-114.59303, 42.43965],
          [-114.56388, 42.44278],
          [-114.53474, 42.4459],
          [-114.50559, 42.44902],
          [-114.47644, 42.45214],
          [-114.44729, 42.45524],
          [-114.42235, 42.47985],
          [-114.39319, 42.48295],
          [-114.36822, 42.50755],
          [-114.37242, 42.52906],
          [-114.34743, 42.55365],
          [-114.35163, 42.57514],
          [-114.35582, 42.59663],
          [-114.38922, 42.61503],
          [-114.39343, 42.63652],
          [-114.39763, 42.658],
          [-114.43106, 42.67639],
          [-114.43528, 42.69787],
          [-114.46873, 42.71624],
          [-114.47295, 42.73771],
          [-114.50642, 42.75607],
          [-114.51066, 42.77754],
          [-114.54414, 42.79589],
          [-114.57764, 42.81423],
          [-114.5819, 42.83569],
          [-114.61542, 42.85402],
          [-114.61968, 42.87547],
          [-114.65322, 42.89379],
          [-114.68678, 42.9121],
          [-114.69106, 42.93354],
          [-114.72463, 42.95184],
          [-114.75822, 42.97013],
          [-114.76252, 42.99156],
          [-114.79613, 43.00984],
          [-114.80044, 43.03127],
          [-114.83406, 43.04954],
          [-114.8677, 43.0678],
          [-114.87203, 43.08922],
          [-114.90569, 43.10747],
          [-114.91003, 43.12888],
          [-114.94371, 43.14711],
          [-114.94806, 43.16852],
          [-114.98176, 43.18674],
          [-114.98611, 43.20814],
          [-114.99047, 43.22954],
          [-115.0242, 43.24775],
          [-115.02857, 43.26914],
          [-115.03295, 43.29052],
          [-115.0667, 43.30872],
          [-115.07109, 43.3301],
          [-115.07547, 43.35148],
          [-115.07986, 43.37285],
          [-115.08424, 43.39422],
          [-115.08863, 43.41559],
          [-115.09302, 43.43695],
          [-115.09742, 43.45832],
          [-115.10181, 43.47967],
          [-115.10621, 43.50103],
          [-115.11061, 43.52238],
          [-115.11501, 43.54373],
          [-115.11941, 43.56508],
          [-115.12382, 43.58642],
          [-115.11349, 43.60936],
          [-115.10316, 43.63229],
          [-115.10756, 43.65362],
          [-115.11197, 43.67495],
          [-115.11638, 43.69628],
          [-115.09128, 43.72079],
          [-115.09569, 43.74212],
          [-115.1001, 43.76344],
          [-115.10451, 43.78475],
          [-115.07939, 43.80925],
          [-115.08379, 43.83056],
          [-115.0882, 43.85187],
          [-115.06306, 43.87635],
          [-115.06747, 43.89765],
          [-115.07188, 43.91895],
          [-115.07629, 43.94025],
          [-115.05112, 43.96471],
          [-115.05553, 43.986],
          [-115.05994, 44.00729],
          [-115.06435, 44.02857],
          [-115.06876, 44.04985],
          [-115.07318, 44.07113],
          [-115.06279, 44.09399],
          [-115.05239, 44.11685],
          [-115.05681, 44.13811],
          [-115.06122, 44.15938],
          [-115.06564, 44.18064],
          [-115.05524, 44.20348],
          [-115.04483, 44.22632],
          [-115.04924, 44.24758],
          [-115.05367, 44.26883],
          [-115.02841, 44.29324],
          [-115.03283, 44.31448],
          [-115.00755, 44.33888],
          [-115.01197, 44.36012],
          [-114.98667, 44.38451],
          [-114.99109, 44.40574],
          [-114.96578, 44.43012],
          [-114.97019, 44.45134],
          [-114.94486, 44.47571],
          [-114.9196, 44.5]
        ]
      }
    },
    {
      "type": "Feature",
      "id": "2026092712_f090_11000_001",
      "properties": {
        "product_id": "winter_storm_levels",
        "source_id": "nbm_snow_level",
        "parameter": "snow_level",
        "definition": "height of the wet-bulb 0.5 degree C surface",
        "level_ft_msl": 11000,
        "label": "11,000 ft MSL",
        "unit": "ft_msl",
        "cycle_time_utc": "2026-09-27T12:00:00Z",
        "valid_time_utc": "2026-10-01T06:00:00Z",
        "lead_hours": 90,
        "segment": 1,
        "length_m": 30401.8
      },
      "geometry": {
        "type": "LineString",
        "coordinates": [
          [-112, 39.66953],
          [-112.01061, 39.67586],
          [-112.01381, 39.67778],
          [-112.04264, 39.69499],
          [-112.04585, 39.6969],
          [-112.07469, 39.7141],
          [-112.05232, 39.73629],
          [-112.04983, 39.73875],
          [-112.05343, 39.76063],
          [-112.03105, 39.78281],
          [-112.02857, 39.78527],
          [-112.03216, 39.80715],
          [-112.03576, 39.82902],
          [-112.01336, 39.85119],
          [-112.01087, 39.85365],
          [-112.01446, 39.87552],
          [-112, 39.88982]
        ]
      }
    },
    {
      "type": "Feature",
      "id": "2026092712_f090_11000_002",
      "properties": {
        "product_id": "winter_storm_levels",
        "source_id": "nbm_snow_level",
        "parameter": "snow_level",
        "definition": "height of the wet-bulb 0.5 degree C surface",
        "level_ft_msl": 11000,
        "label": "11,000 ft MSL",
        "unit": "ft_msl",
        "cycle_time_utc": "2026-09-27T12:00:00Z",
        "valid_time_utc": "2026-10-01T06:00:00Z",
        "lead_hours": 90,
        "segment": 2,
        "length_m": 11216.5
      },
      "geometry": {
        "type": "LineString",
        "coordinates": [
          [-112.04083, 39.4727],
          [-112.03835, 39.47516],
          [-112.00997, 39.47793],
          [-112.00677, 39.47602],
          [-112.0032, 39.45411],
          [-112.00568, 39.45164],
          [-112.03405, 39.44887],
          [-112.03725, 39.45079],
          [-112.04083, 39.4727]
        ]
      }
    },
    {
      "type": "Feature",
      "id": "2026092712_f090_11000_003",
      "properties": {
        "product_id": "winter_storm_levels",
        "source_id": "nbm_snow_level",
        "parameter": "snow_level",
        "definition": "height of the wet-bulb 0.5 degree C surface",
        "level_ft_msl": 11000,
        "label": "11,000 ft MSL",
        "unit": "ft_msl",
        "cycle_time_utc": "2026-09-27T12:00:00Z",
        "valid_time_utc": "2026-10-01T06:00:00Z",
        "lead_hours": 90,
        "segment": 3,
        "length_m": 412932.7
      },
      "geometry": {
        "type": "LineString",
        "coordinates": [
          [-115.6606, 32.43729],
          [-115.65836, 32.43987],
          [-115.63815, 32.46311],
          [-115.6359, 32.46569],
          [-115.61569, 32.48892],
          [-115.61976, 32.5113],
          [-115.62382, 32.53367],
          [-115.62789, 32.55605],
          [-115.63197, 32.57842],
          [-115.63604, 32.6008],
          [-115.64011, 32.62317],
          [-115.63786, 32.62575],
          [-115.6113, 32.62918],
          [-115.58474, 32.63261],
          [-115.56448, 32.65582],
          [-115.56223, 32.6584],
          [-115.53566, 32.66182],
          [-115.51539, 32.68502],
          [-115.51313, 32.6876],
          [-115.48655, 32.69101],
          [-115.46627, 32.71421],
          [-115.47031, 32.73658],
          [-115.46806, 32.73915],
          [-115.44776, 32.76235],
          [-115.4455, 32.76492],
          [-115.4189, 32.76832],
          [-115.39859, 32.79151],
          [-115.39633, 32.79408],
          [-115.37601, 32.81726],
          [-115.37375, 32.81984],
          [-115.34714, 32.82322],
          [-115.3268, 32.8464],
          [-115.32454, 32.84897],
          [-115.30419, 32.87214],
          [-115.30821, 32.89451],
          [-115.30595, 32.89708],
          [-115.28559, 32.92024],
          [-115.28333, 32.92282],
          [-115.26296, 32.94598],
          [-115.2607, 32.94855],
          [-115.24032, 32.97171],
          [-115.23805, 32.97428],
          [-115.2114, 32.97764],
          [-115.18474, 32.981],
          [-115.15808, 32.98435],
          [-115.13768, 33.00749],
          [-115.13541, 33.01006],
          [-115.11499, 33.03319],
          [-115.11898, 33.05555],
          [-115.11671, 33.05813],
          [-115.09629, 33.08126],
          [-115.10027, 33.10361],
          [-115.10426, 33.12597],
          [-115.10199, 33.12854],
          [-115.07529, 33.13188],
          [-115.07222, 33.12998],
          [-115.06824, 33.10762],
          [-115.07051, 33.10505],
          [-115.09095, 33.08192],
          [-115.08697, 33.05956],
          [-115.05937, 33.04244],
          [-115.05631, 33.04054],
          [-115.05233, 33.01817],
          [-115.02476, 33.00104],
          [-114.99809, 33.00437],
          [-114.99503, 33.00246],
          [-114.96746, 32.98532],
          [-114.9644, 32.98342],
          [-114.96044, 32.96105],
          [-114.95649, 32.93868],
          [-114.95254, 32.9163],
          [-114.94859, 32.89393],
          [-114.94464, 32.87156],
          [-114.94691, 32.86899],
          [-114.96733, 32.84586],
          [-114.96338, 32.82349],
          [-114.93586, 32.80633],
          [-114.9328, 32.80443],
          [-114.92886, 32.78205],
          [-114.92492, 32.75967],
          [-114.92098, 32.73728],
          [-114.91704, 32.7149],
          [-114.91311, 32.69251],
          [-114.91538, 32.68995],
          [-114.93577, 32.66681],
          [-114.93183, 32.64443],
          [-114.92789, 32.62204],
          [-114.92396, 32.59965],
          [-114.92622, 32.59708],
          [-114.9466, 32.57394],
          [-114.94266, 32.55155],
          [-114.93872, 32.52916],
          [-114.93479, 32.50676],
          [-114.93086, 32.48437],
          [-114.92693, 32.46197],
          [-114.92919, 32.4594],
          [-114.94954, 32.43625],
          [-114.9456, 32.41385],
          [-114.94167, 32.39145],
          [-114.93774, 32.36905],
          [-114.93382, 32.34665],
          [-114.92989, 32.32425],
          [-114.93215, 32.32167],
          [-114.95247, 32.29852],
          [-114.94854, 32.27611],
          [-114.94462, 32.25371],
          [-114.94069, 32.2313],
          [-114.94295, 32.22872],
          [-114.96325, 32.20557],
          [-114.95932, 32.18316],
          [-114.96158, 32.18058],
          [-114.98187, 32.15742],
          [-114.97794, 32.13501],
          [-114.9802, 32.13243],
          [-115.00048, 32.10926],
          [-114.99655, 32.08685],
          [-114.99262, 32.06443],
          [-114.98869, 32.04202],
          [-114.99094, 32.03944],
          [-115.0112, 32.01627],
          [-115.01345, 32.01369],
          [-115.03989, 32.01035],
          [-115.06014, 31.98717],
          [-115.0562, 31.96475],
          [-115.05845, 31.96218],
          [-115.07868, 31.93899],
          [-115.07474, 31.91657],
          [-115.07699, 31.91399],
          [-115.09721, 31.8908],
          [-115.09946, 31.88822],
          [-115.11967, 31.86503],
          [-115.12192, 31.86245],
          [-115.14212, 31.83925],
          [-115.14436, 31.83667],
          [-115.16456, 31.81347],
          [-115.1668, 31.81089],
          [-115.19319, 31.80752],
          [-115.21337, 31.78431],
          [-115.21561, 31.78173],
          [-115.23579, 31.75852],
          [-115.23182, 31.73609],
          [-115.23406, 31.73351],
          [-115.26043, 31.73014],
          [-115.28058, 31.70691],
          [-115.28282, 31.70433],
          [-115.30918, 31.70095],
          [-115.33554, 31.69756],
          [-115.3619, 31.69417],
          [-115.38825, 31.69077],
          [-115.39129, 31.69268],
          [-115.39528, 31.7151],
          [-115.4226, 31.73222],
          [-115.42564, 31.73412],
          [-115.45297, 31.75124],
          [-115.45601, 31.75314],
          [-115.46002, 31.77556],
          [-115.46403, 31.79798],
          [-115.46804, 31.82039],
          [-115.47206, 31.84281],
          [-115.49942, 31.85991],
          [-115.50247, 31.86181],
          [-115.50649, 31.88422],
          [-115.51051, 31.90664],
          [-115.50827, 31.90922],
          [-115.48813, 31.93246],
          [-115.48589, 31.93504],
          [-115.45949, 31.93845],
          [-115.43308, 31.94186],
          [-115.41291, 31.96509],
          [-115.4403, 31.9822],
          [-115.44334, 31.9841],
          [-115.44736, 32.00651],
          [-115.47476, 32.02361],
          [-115.4778, 32.02551],
          [-115.50521, 32.0426],
          [-115.53164, 32.03918],
          [-115.53469, 32.04108],
          [-115.56211, 32.05817],
          [-115.56516, 32.06006],
          [-115.5692, 32.08247],
          [-115.57324, 32.10487],
          [-115.57729, 32.12727],
          [-115.58133, 32.14966],
          [-115.58538, 32.17206],
          [-115.58943, 32.19446],
          [-115.59348, 32.21685],
          [-115.59754, 32.23924],
          [-115.60159, 32.26164],
          [-115.62908, 32.2787],
          [-115.63213, 32.2806],
          [-115.63619, 32.30298],
          [-115.64026, 32.32537],
          [-115.64432, 32.34776],
          [-115.64839, 32.37014],
          [-115.65246, 32.39253],
          [-115.65653, 32.41491],
          [-115.6606, 32.43729]
        ]
      }
    },
    {
      "type": "Feature",
      "id": "2026092712_f090_11000_004",
      "properties": {
        "product_id": "winter_storm_levels",
        "source_id": "nbm_snow_level",
        "parameter": "snow_level",
        "definition": "height of the wet-bulb 0.5 degree C surface",
        "level_ft_msl": 11000,
        "label": "11,000 ft MSL",
        "unit": "ft_msl",
        "cycle_time_utc": "2026-09-27T12:00:00Z",
        "valid_time_utc": "2026-10-01T06:00:00Z",
        "lead_hours": 90,
        "segment": 4,
        "length_m": 2886976.8
      },
      "geometry": {
        "type": "LineString",
        "coordinates": [
          [-129.59319, 31.3092],
          [-129.59129, 31.31197],
          [-129.57419, 31.33689],
          [-129.57229, 31.33966],
          [-129.55517, 31.36458],
          [-129.55327, 31.36734],
          [-129.55997, 31.38931],
          [-129.54285, 31.41422],
          [-129.51712, 31.41994],
          [-129.49138, 31.42565],
          [-129.48947, 31.42842],
          [-129.47233, 31.45332],
          [-129.44658, 31.45903],
          [-129.42083, 31.46473],
          [-129.41893, 31.4675],
          [-129.40176, 31.49239],
          [-129.376, 31.49809],
          [-129.37409, 31.50085],
          [-129.35691, 31.52574],
          [-129.355, 31.52851],
          [-129.33781, 31.55339],
          [-129.31204, 31.55907],
          [-129.28626, 31.56475],
          [-129.26048, 31.57043],
          [-129.2347, 31.5761],
          [-129.20891, 31.58176],
          [-129.18312, 31.58743],
          [-129.15733, 31.59308],
          [-129.13154, 31.59874],
          [-129.12962, 31.6015],
          [-129.11238, 31.62636],
          [-129.08657, 31.632],
          [-129.06077, 31.63764],
          [-129.03158, 31.62294],
          [-129.02834, 31.62131],
          [-129.00254, 31.62694],
          [-128.97673, 31.63257],
          [-128.94756, 31.61785],
          [-128.94432, 31.61621],
          [-128.94239, 31.61897],
          [-128.9251, 31.64381],
          [-128.89929, 31.64942],
          [-128.87347, 31.65503],
          [-128.84765, 31.66064],
          [-128.82182, 31.66624],
          [-128.8199, 31.669],
          [-128.80258, 31.69382],
          [-128.80065, 31.69658],
          [-128.80723, 31.71856],
          [-128.81381, 31.74053],
          [-128.79647, 31.76535],
          [-128.79455, 31.76811],
          [-128.80113, 31.79008],
          [-128.80771, 31.81206],
          [-128.79036, 31.83687],
          [-128.78843, 31.83962],
          [-128.77108, 31.86443],
          [-128.7452, 31.87002],
          [-128.74327, 31.87278],
          [-128.74985, 31.89475],
          [-128.73248, 31.91955],
          [-128.73055, 31.9223],
          [-128.71316, 31.9471],
          [-128.71123, 31.94986],
          [-128.69384, 31.97465],
          [-128.69191, 31.9774],
          [-128.67451, 32.00219],
          [-128.67258, 32.00495],
          [-128.67915, 32.02692],
          [-128.68572, 32.04888],
          [-128.66831, 32.07367],
          [-128.66637, 32.07642],
          [-128.64896, 32.1012],
          [-128.64702, 32.10396],
          [-128.62959, 32.12874],
          [-128.62765, 32.13149],
          [-128.61022, 32.15626],
          [-128.60828, 32.15901],
          [-128.59084, 32.18379],
          [-128.5889, 32.18654],
          [-128.57144, 32.2113],
          [-128.5695, 32.21406],
          [-128.55204, 32.23882],
          [-128.5501, 32.24157],
          [-128.53263, 32.26633],
          [-128.50666, 32.27187],
          [-128.48068, 32.27741],
          [-128.4547, 32.28295],
          [-128.42872, 32.28848],
          [-128.39945, 32.27368],
          [-128.3962, 32.27204],
          [-128.37021, 32.27756],
          [-128.34423, 32.28308],
          [-128.31824, 32.28859],
          [-128.28899, 32.27377],
          [-128.28574, 32.27213],
          [-128.25975, 32.27763],
          [-128.23376, 32.28313],
          [-128.20777, 32.28862],
          [-128.18177, 32.29411],
          [-128.15577, 32.2996],
          [-128.12654, 32.28476],
          [-128.12329, 32.28311],
          [-128.09729, 32.28858],
          [-128.07129, 32.29406],
          [-128.04207, 32.27919],
          [-128.03882, 32.27754],
          [-128.01282, 32.28301],
          [-127.98681, 32.28847],
          [-127.96081, 32.29392],
          [-127.9348, 32.29937],
          [-127.93284, 32.30211],
          [-127.91523, 32.3268],
          [-127.91327, 32.32955],
          [-127.89565, 32.35423],
          [-127.86963, 32.35967],
          [-127.86767, 32.36241],
          [-127.85003, 32.38709],
          [-127.824, 32.39252],
          [-127.82204, 32.39526],
          [-127.80439, 32.41993],
          [-127.80242, 32.42267],
          [-127.78477, 32.44734],
          [-127.7828, 32.45008],
          [-127.78923, 32.47207],
          [-127.77156, 32.49673],
          [-127.7696, 32.49947],
          [-127.77602, 32.52145],
          [-127.75834, 32.54611],
          [-127.73227, 32.55152],
          [-127.7303, 32.55426],
          [-127.71261, 32.57891],
          [-127.68652, 32.58432],
          [-127.66043, 32.58972],
          [-127.65847, 32.59246],
          [-127.64075, 32.6171],
          [-127.61465, 32.6225],
          [-127.58855, 32.62789],
          [-127.58658, 32.63062],
          [-127.56884, 32.65525],
          [-127.54273, 32.66064],
          [-127.51349, 32.64569],
          [-127.51024, 32.64403],
          [-127.48413, 32.6494],
          [-127.45802, 32.65477],
          [-127.45604, 32.65751],
          [-127.43827, 32.68212],
          [-127.41215, 32.68749],
          [-127.38603, 32.69284],
          [-127.3599, 32.69819],
          [-127.33067, 32.68322],
          [-127.32742, 32.68155],
          [-127.30129, 32.6869],
          [-127.27516, 32.69223],
          [-127.24903, 32.69757],
          [-127.2229, 32.7029],
          [-127.19676, 32.70822],
          [-127.17062, 32.71355],
          [-127.14141, 32.69854],
          [-127.13816, 32.69687],
          [-127.11202, 32.70218],
          [-127.08588, 32.70749],
          [-127.05974, 32.71279],
          [-127.03359, 32.71809],
          [-127.00744, 32.72338],
          [-126.98129, 32.72868],
          [-126.9521, 32.71363],
          [-126.94885, 32.71196],
          [-126.9227, 32.71724],
          [-126.92072, 32.71997],
          [-126.90282, 32.74452],
          [-126.87364, 32.72946],
          [-126.87039, 32.72779],
          [-126.84423, 32.73306],
          [-126.81807, 32.73832],
          [-126.79191, 32.74358],
          [-126.76574, 32.74884],
          [-126.73658, 32.73375],
          [-126.73334, 32.73208],
          [-126.70717, 32.73732],
          [-126.681, 32.74257],
          [-126.65483, 32.7478],
          [-126.62866, 32.75304],
          [-126.59951, 32.73793],
          [-126.59627, 32.73625],
          [-126.57009, 32.74147],
          [-126.54095, 32.72636],
          [-126.53772, 32.72468],
          [-126.50858, 32.70955],
          [-126.50535, 32.70787],
          [-126.47918, 32.71308],
          [-126.45006, 32.69794],
          [-126.44682, 32.69626],
          [-126.41771, 32.68112],
          [-126.41447, 32.67944],
          [-126.38831, 32.68463],
          [-126.3592, 32.66948],
          [-126.35597, 32.6678],
          [-126.32688, 32.65264],
          [-126.32365, 32.65095],
          [-126.29748, 32.65613],
          [-126.29548, 32.65885],
          [-126.27746, 32.68334],
          [-126.25128, 32.68851],
          [-126.2251, 32.69368],
          [-126.19892, 32.69884],
          [-126.17274, 32.704],
          [-126.14656, 32.70916],
          [-126.14455, 32.71188],
          [-126.12649, 32.73634],
          [-126.10029, 32.74149],
          [-126.09829, 32.74421],
          [-126.08021, 32.76867],
          [-126.05401, 32.77381],
          [-126.0278, 32.77894],
          [-126.00159, 32.78407],
          [-125.99958, 32.78679],
          [-125.98148, 32.81123],
          [-125.95526, 32.81636],
          [-125.95324, 32.81907],
          [-125.93513, 32.84351],
          [-125.9089, 32.84862],
          [-125.88267, 32.85374],
          [-125.85644, 32.85884],
          [-125.85442, 32.86156],
          [-125.83627, 32.88598],
          [-125.83426, 32.88869],
          [-125.8161, 32.91311],
          [-125.78985, 32.91821],
          [-125.78783, 32.92092],
          [-125.76966, 32.94533],
          [-125.7434, 32.95042],
          [-125.74138, 32.95313],
          [-125.7232, 32.97754],
          [-125.72118, 32.98025],
          [-125.72723, 33.00229],
          [-125.73329, 33.02432],
          [-125.73936, 33.04635],
          [-125.72116, 33.07075],
          [-125.71913, 33.07346],
          [-125.72519, 33.09549],
          [-125.70698, 33.11989],
          [-125.68068, 33.12496],
          [-125.67866, 33.12767],
          [-125.66043, 33.15206],
          [-125.63412, 33.15712],
          [-125.6078, 33.16219],
          [-125.60578, 33.16489],
          [-125.58753, 33.18927],
          [-125.5855, 33.19198],
          [-125.56724, 33.21635],
          [-125.56521, 33.21906],
          [-125.54695, 33.24343],
          [-125.54492, 33.24614],
          [-125.52664, 33.2705],
          [-125.5003, 33.27555],
          [-125.49827, 33.27825],
          [-125.47997, 33.30261],
          [-125.45362, 33.30765],
          [-125.42726, 33.31268],
          [-125.4009, 33.3177],
          [-125.39887, 33.32041],
          [-125.38055, 33.34475],
          [-125.37852, 33.34746],
          [-125.36019, 33.3718],
          [-125.33381, 33.37681],
          [-125.30743, 33.38182],
          [-125.3054, 33.38453],
          [-125.28705, 33.40886],
          [-125.26066, 33.41386],
          [-125.23427, 33.41886],
          [-125.23223, 33.42156],
          [-125.21386, 33.44588],
          [-125.18746, 33.45087],
          [-125.18542, 33.45357],
          [-125.16703, 33.47788],
          [-125.14062, 33.48286],
          [-125.11421, 33.48784],
          [-125.0878, 33.49281],
          [-125.08575, 33.49551],
          [-125.06734, 33.51981],
          [-125.04091, 33.52477],
          [-125.01449, 33.52973],
          [-124.98806, 33.53469],
          [-124.98601, 33.53739],
          [-124.96757, 33.56167],
          [-124.96552, 33.56437],
          [-124.94707, 33.58865],
          [-124.92062, 33.59359],
          [-124.91857, 33.59629],
          [-124.9001, 33.62056],
          [-124.89805, 33.62326],
          [-124.87958, 33.64753],
          [-124.85312, 33.65246],
          [-124.82665, 33.65739],
          [-124.80019, 33.66231],
          [-124.77372, 33.66723],
          [-124.74725, 33.67215],
          [-124.74519, 33.67484],
          [-124.72667, 33.69909],
          [-124.72462, 33.70178],
          [-124.70609, 33.72603],
          [-124.70403, 33.72872],
          [-124.6855, 33.75296],
          [-124.659, 33.75786],
          [-124.65694, 33.76055],
          [-124.63839, 33.78478],
          [-124.61189, 33.78967],
          [-124.60983, 33.79236],
          [-124.59126, 33.81659],
          [-124.56475, 33.82147],
          [-124.5356, 33.80604],
          [-124.53236, 33.80432],
          [-124.50585, 33.8092],
          [-124.47933, 33.81406],
          [-124.45281, 33.81893],
          [-124.42629, 33.82379],
          [-124.39977, 33.82865],
          [-124.3977, 33.83134],
          [-124.37909, 33.85553],
          [-124.37702, 33.85822],
          [-124.35839, 33.88241],
          [-124.35632, 33.8851],
          [-124.33769, 33.90929],
          [-124.33561, 33.91198],
          [-124.31697, 33.93616],
          [-124.29042, 33.941],
          [-124.26386, 33.94583],
          [-124.2373, 33.95066],
          [-124.21074, 33.95548],
          [-124.20867, 33.95817],
          [-124.21448, 33.9802],
          [-124.1958, 34.00437],
          [-124.19372, 34.00705],
          [-124.19954, 34.02908],
          [-124.20535, 34.05111],
          [-124.18666, 34.07527],
          [-124.18458, 34.07795],
          [-124.16588, 34.10211],
          [-124.13928, 34.10692],
          [-124.1372, 34.1096],
          [-124.14301, 34.13163],
          [-124.12429, 34.15577],
          [-124.1222, 34.15845],
          [-124.10347, 34.1826],
          [-124.10139, 34.18528],
          [-124.08265, 34.20942],
          [-124.05602, 34.21421],
          [-124.05394, 34.21689],
          [-124.03519, 34.24103],
          [-124.00855, 34.24581],
          [-124.00646, 34.24849],
          [-123.98769, 34.27262],
          [-123.96104, 34.2774],
          [-123.95896, 34.28007],
          [-123.94017, 34.30419],
          [-123.93808, 34.30687],
          [-123.94386, 34.32889],
          [-123.92506, 34.353],
          [-123.92298, 34.35568],
          [-123.90417, 34.37978],
          [-123.87749, 34.38455],
          [-123.8754, 34.38722],
          [-123.85658, 34.41132],
          [-123.85449, 34.414],
          [-123.83566, 34.43809],
          [-123.83356, 34.44077],
          [-123.81472, 34.46486],
          [-123.81263, 34.46754],
          [-123.79378, 34.49162],
          [-123.79169, 34.4943],
          [-123.77283, 34.51838],
          [-123.77073, 34.52105],
          [-123.75186, 34.54513],
          [-123.74977, 34.5478],
          [-123.73089, 34.57187],
          [-123.72879, 34.57455],
          [-123.70991, 34.59862],
          [-123.70781, 34.60129],
          [-123.68892, 34.62535],
          [-123.68682, 34.62803],
          [-123.66791, 34.65209],
          [-123.66581, 34.65476],
          [-123.6469, 34.67881],
          [-123.6448, 34.68148],
          [-123.62588, 34.70553],
          [-123.62377, 34.70821],
          [-123.60484, 34.73225],
          [-123.60274, 34.73492],
          [-123.5838, 34.75896],
          [-123.55702, 34.76367],
          [-123.55491, 34.76634],
          [-123.53596, 34.79037],
          [-123.50917, 34.79507],
          [-123.50706, 34.79774],
          [-123.48809, 34.82177],
          [-123.48598, 34.82444],
          [-123.467, 34.84846],
          [-123.44019, 34.85314],
          [-123.43808, 34.85581],
          [-123.41908, 34.87983],
          [-123.41697, 34.88249],
          [-123.39797, 34.9065],
          [-123.39586, 34.90917],
          [-123.37684, 34.93317],
          [-123.35001, 34.93784],
          [-123.3479, 34.94051],
          [-123.32887, 34.96451],
          [-123.32675, 34.96717],
          [-123.30771, 34.99116],
          [-123.3056, 34.99383],
          [-123.28655, 35.01782],
          [-123.28443, 35.02048],
          [-123.26538, 35.04446],
          [-123.23851, 35.04911],
          [-123.23639, 35.05178],
          [-123.21732, 35.07575],
          [-123.2152, 35.07842],
          [-123.19612, 35.10239],
          [-123.194, 35.10505],
          [-123.17491, 35.12901],
          [-123.17278, 35.13168],
          [-123.15368, 35.15564],
          [-123.12679, 35.16027],
          [-123.12467, 35.16293],
          [-123.10555, 35.18688],
          [-123.07864, 35.19151],
          [-123.05174, 35.19612],
          [-123.02483, 35.20074],
          [-123.0227, 35.2034],
          [-123.00356, 35.22734],
          [-122.97664, 35.23194],
          [-122.97451, 35.2346],
          [-122.98015, 35.25659],
          [-122.96098, 35.28052],
          [-122.95885, 35.28318],
          [-122.96449, 35.30516],
          [-122.94531, 35.32908],
          [-122.94318, 35.33174],
          [-122.924, 35.35566],
          [-122.92186, 35.35832],
          [-122.90267, 35.38223],
          [-122.90054, 35.38489],
          [-122.90617, 35.40687],
          [-122.88696, 35.43078],
          [-122.88483, 35.43343],
          [-122.86561, 35.45734],
          [-122.86348, 35.45999],
          [-122.8691, 35.48197],
          [-122.84987, 35.50587],
          [-122.84774, 35.50852],
          [-122.85336, 35.53049],
          [-122.83412, 35.55439],
          [-122.83199, 35.55704],
          [-122.81274, 35.58093],
          [-122.8106, 35.58358],
          [-122.81622, 35.60555],
          [-122.79696, 35.62943],
          [-122.79482, 35.63208],
          [-122.77555, 35.65596],
          [-122.77341, 35.65861],
          [-122.75413, 35.68249],
          [-122.75199, 35.68514],
          [-122.7327, 35.70901],
          [-122.73056, 35.71166],
          [-122.71126, 35.73552],
          [-122.6842, 35.74007],
          [-122.68206, 35.74272],
          [-122.66275, 35.76658],
          [-122.6606, 35.76923],
          [-122.64128, 35.79308],
          [-122.61421, 35.79762],
          [-122.61206, 35.80027],
          [-122.61765, 35.82222],
          [-122.59831, 35.84607],
          [-122.59616, 35.84871],
          [-122.57681, 35.87255],
          [-122.57466, 35.8752],
          [-122.5553, 35.89903],
          [-122.55315, 35.90168],
          [-122.53378, 35.9255],
          [-122.50667, 35.93002],
          [-122.50452, 35.93267],
          [-122.48513, 35.95649],
          [-122.48298, 35.95913],
          [-122.46358, 35.98295],
          [-122.46143, 35.98559],
          [-122.467, 36.00754],
          [-122.44759, 36.03135],
          [-122.44544, 36.034],
          [-122.42602, 36.0578],
          [-122.42386, 36.06044],
          [-122.40444, 36.08424],
          [-122.40228, 36.08689],
          [-122.38284, 36.11068],
          [-122.38068, 36.11332],
          [-122.36124, 36.13711],
          [-122.35908, 36.13976],
          [-122.36464, 36.1617],
          [-122.34518, 36.18548],
          [-122.34302, 36.18812],
          [-122.34858, 36.21006],
          [-122.32911, 36.23383],
          [-122.32695, 36.23648],
          [-122.30747, 36.26025],
          [-122.30531, 36.26289],
          [-122.28582, 36.28666],
          [-122.28365, 36.2893],
          [-122.26416, 36.31306],
          [-122.23694, 36.31753],
          [-122.23477, 36.32017],
          [-122.21526, 36.34392],
          [-122.21309, 36.34656],
          [-122.19357, 36.37031],
          [-122.1914, 36.37295],
          [-122.17187, 36.39669],
          [-122.14463, 36.40114],
          [-122.14246, 36.40378],
          [-122.12291, 36.42752],
          [-122.12074, 36.43016],
          [-122.10118, 36.45389],
          [-122.09901, 36.45652],
          [-122.07944, 36.48025],
          [-122.05218, 36.48469],
          [-122.02491, 36.48912],
          [-122.02273, 36.49175],
          [-122.00314, 36.51547],
          [-122.00097, 36.5181],
          [-121.98137, 36.54181],
          [-121.97919, 36.54445],
          [-121.95958, 36.56815],
          [-121.9574, 36.57078],
          [-121.93778, 36.59448],
          [-121.9356, 36.59712],
          [-121.9411, 36.61903],
          [-121.92147, 36.64273],
          [-121.91929, 36.64536],
          [-121.89965, 36.66905],
          [-121.89747, 36.67168],
          [-121.87782, 36.69536],
          [-121.87563, 36.69799],
          [-121.85598, 36.72167],
          [-121.85379, 36.7243],
          [-121.83412, 36.74798],
          [-121.83194, 36.75061],
          [-121.83742, 36.77252],
          [-121.81774, 36.79618],
          [-121.81555, 36.79881],
          [-121.82104, 36.82072],
          [-121.80134, 36.84438],
          [-121.79916, 36.84701],
          [-121.77945, 36.87066],
          [-121.77726, 36.87329],
          [-121.75755, 36.89694],
          [-121.75536, 36.89957],
          [-121.73564, 36.92322],
          [-121.73345, 36.92584],
          [-121.73892, 36.94774],
          [-121.71919, 36.97138],
          [-121.717, 36.97401],
          [-121.72247, 36.9959],
          [-121.70272, 37.01953],
          [-121.70053, 37.02216],
          [-121.68077, 37.04579],
          [-121.67858, 37.04841],
          [-121.68404, 37.0703],
          [-121.68951, 37.09218],
          [-121.66974, 37.1158],
          [-121.66755, 37.11843],
          [-121.67302, 37.14031],
          [-121.65323, 37.16392],
          [-121.65103, 37.16655],
          [-121.63124, 37.19016],
          [-121.62904, 37.19278],
          [-121.63451, 37.21466],
          [-121.6147, 37.23826],
          [-121.6125, 37.24088],
          [-121.59269, 37.26448],
          [-121.59048, 37.2671],
          [-121.57066, 37.29069],
          [-121.56846, 37.29331],
          [-121.57392, 37.31518],
          [-121.57938, 37.33705],
          [-121.55954, 37.36064],
          [-121.55733, 37.36326],
          [-121.56279, 37.38512],
          [-121.56825, 37.40698],
          [-121.5484, 37.43056],
          [-121.54619, 37.43318],
          [-121.55165, 37.45503],
          [-121.53178, 37.4786],
          [-121.52958, 37.48122],
          [-121.53504, 37.50308],
          [-121.51516, 37.52664],
          [-121.51295, 37.52926],
          [-121.51841, 37.55111],
          [-121.49851, 37.57467],
          [-121.4963, 37.57728],
          [-121.50176, 37.59913],
          [-121.48186, 37.62268],
          [-121.47964, 37.6253],
          [-121.4851, 37.64714],
          [-121.46518, 37.67068],
          [-121.46297, 37.6733],
          [-121.46843, 37.69514],
          [-121.47388, 37.71697],
          [-121.45395, 37.74051],
          [-121.45174, 37.74312],
          [-121.45719, 37.76496],
          [-121.43725, 37.78848],
          [-121.43503, 37.7911],
          [-121.44049, 37.81293],
          [-121.44595, 37.83475],
          [-121.45141, 37.85658],
          [-121.45687, 37.8784],
          [-121.46234, 37.90022],
          [-121.44237, 37.92374],
          [-121.44015, 37.92635],
          [-121.44561, 37.94816],
          [-121.45108, 37.96998],
          [-121.43109, 37.99349],
          [-121.42887, 37.9961],
          [-121.43434, 38.01791],
          [-121.41434, 38.04141],
          [-121.41212, 38.04402],
          [-121.41758, 38.06582],
          [-121.42305, 38.08763],
          [-121.40304, 38.11112],
          [-121.40081, 38.11373],
          [-121.40628, 38.13553],
          [-121.41175, 38.15733],
          [-121.41722, 38.17912],
          [-121.42269, 38.20092],
          [-121.40265, 38.2244],
          [-121.40043, 38.22701],
          [-121.4059, 38.2488],
          [-121.38585, 38.27227],
          [-121.38362, 38.27488],
          [-121.38909, 38.29666],
          [-121.36903, 38.32013],
          [-121.3668, 38.32274],
          [-121.37227, 38.34452],
          [-121.3522, 38.36798],
          [-121.34997, 38.37059],
          [-121.35544, 38.39236],
          [-121.33535, 38.41582],
          [-121.33312, 38.41842],
          [-121.33859, 38.44019],
          [-121.31849, 38.46364],
          [-121.31626, 38.46625],
          [-121.32172, 38.48802],
          [-121.30161, 38.51146],
          [-121.29938, 38.51406],
          [-121.30484, 38.53582],
          [-121.28472, 38.55926],
          [-121.28248, 38.56186],
          [-121.28795, 38.58362],
          [-121.26781, 38.60705],
          [-121.26557, 38.60965],
          [-121.27104, 38.63141],
          [-121.25089, 38.65483],
          [-121.24865, 38.65743],
          [-121.25411, 38.67918],
          [-121.23395, 38.70259],
          [-121.23171, 38.70519],
          [-121.23717, 38.72694],
          [-121.24263, 38.74869],
          [-121.22245, 38.77209],
          [-121.22021, 38.77469],
          [-121.22567, 38.79643],
          [-121.23114, 38.81817],
          [-121.23661, 38.83991],
          [-121.21641, 38.8633],
          [-121.21417, 38.8659],
          [-121.21963, 38.88763],
          [-121.2251, 38.90936],
          [-121.23057, 38.93109],
          [-121.21036, 38.95447],
          [-121.20811, 38.95707],
          [-121.21358, 38.97879],
          [-121.21905, 39.00051],
          [-121.22453, 39.02223],
          [-121.23, 39.04395],
          [-121.23548, 39.06566],
          [-121.24096, 39.08737],
          [-121.24645, 39.10908],
          [-121.25193, 39.13079],
          [-121.25742, 39.15249],
          [-121.26291, 39.1742],
          [-121.24266, 39.19756],
          [-121.2404, 39.20015],
          [-121.24589, 39.22185],
          [-121.25139, 39.24354],
          [-121.25688, 39.26524],
          [-121.26238, 39.28693],
          [-121.26787, 39.30862],
          [-121.24759, 39.33196],
          [-121.24534, 39.33455],
          [-121.25084, 39.35624],
          [-121.25634, 39.37792],
          [-121.26184, 39.3996],
          [-121.26734, 39.42127],
          [-121.27285, 39.44295],
          [-121.27836, 39.46462],
          [-121.25805, 39.48795],
          [-121.25579, 39.49054],
          [-121.2613, 39.51221],
          [-121.26681, 39.53387],
          [-121.27232, 39.55554],
          [-121.27784, 39.5772],
          [-121.28336, 39.59885],
          [-121.28887, 39.62051],
          [-121.2944, 39.64216],
          [-121.29992, 39.66381],
          [-121.30545, 39.68546],
          [-121.31097, 39.7071],
          [-121.31434, 39.70884],
          [-121.34464, 39.72449],
          [-121.35018, 39.74613],
          [-121.35572, 39.76777],
          [-121.36127, 39.7894],
          [-121.36681, 39.81103],
          [-121.37018, 39.81277],
          [-121.40052, 39.8284],
          [-121.40608, 39.85003],
          [-121.41164, 39.87165],
          [-121.41501, 39.87339],
          [-121.44538, 39.889],
          [-121.45094, 39.91062],
          [-121.45652, 39.93224],
          [-121.45989, 39.93397],
          [-121.49028, 39.94958],
          [-121.49586, 39.97119],
          [-121.49924, 39.97292],
          [-121.52965, 39.98852],
          [-121.53524, 40.01012],
          [-121.54083, 40.03172],
          [-121.54421, 40.03346],
          [-121.57464, 40.04904],
          [-121.58025, 40.07064],
          [-121.58585, 40.09223],
          [-121.59146, 40.11382],
          [-121.59485, 40.11555],
          [-121.62531, 40.13112],
          [-121.63093, 40.15271],
          [-121.63655, 40.17429],
          [-121.64217, 40.19587],
          [-121.6478, 40.21745],
          [-121.65343, 40.23903],
          [-121.65906, 40.2606],
          [-121.66469, 40.28218],
          [-121.67033, 40.30374],
          [-121.67596, 40.32531],
          [-121.67936, 40.32704],
          [-121.7099, 40.34257],
          [-121.71554, 40.36413],
          [-121.72119, 40.38569],
          [-121.72685, 40.40725],
          [-121.7325, 40.4288],
          [-121.73816, 40.45035],
          [-121.74382, 40.4719],
          [-121.74948, 40.49345],
          [-121.75515, 40.51499],
          [-121.76081, 40.53653],
          [-121.76648, 40.55807],
          [-121.77215, 40.5796],
          [-121.77783, 40.60113],
          [-121.7835, 40.62266],
          [-121.76308, 40.64592],
          [-121.76081, 40.6485],
          [-121.76649, 40.67002],
          [-121.77216, 40.69155],
          [-121.77784, 40.71307],
          [-121.78353, 40.73458],
          [-121.76308, 40.75782],
          [-121.76081, 40.7604],
          [-121.76649, 40.78191],
          [-121.77218, 40.80342],
          [-121.75172, 40.82665],
          [-121.74944, 40.82923],
          [-121.75512, 40.85074],
          [-121.76081, 40.87224],
          [-121.74033, 40.89546],
          [-121.73806, 40.89804],
          [-121.74374, 40.91953],
          [-121.74943, 40.94103],
          [-121.72893, 40.96424],
          [-121.72666, 40.96682],
          [-121.73234, 40.98831],
          [-121.73803, 41.00979],
          [-121.71752, 41.03299],
          [-121.71524, 41.03557],
          [-121.72093, 41.05705],
          [-121.72662, 41.07853],
          [-121.73231, 41.10001],
          [-121.71178, 41.12319],
          [-121.7095, 41.12577],
          [-121.71519, 41.14724],
          [-121.72088, 41.16871],
          [-121.70034, 41.19188],
          [-121.69806, 41.19446],
          [-121.70375, 41.21592],
          [-121.68319, 41.23909],
          [-121.6809, 41.24167],
          [-121.6866, 41.26313],
          [-121.66602, 41.28629],
          [-121.66374, 41.28886],
          [-121.66943, 41.31031],
          [-121.64884, 41.33346],
          [-121.64655, 41.33604],
          [-121.62596, 41.35918],
          [-121.62367, 41.36176],
          [-121.60306, 41.3849],
          [-121.60077, 41.38747],
          [-121.58015, 41.4106],
          [-121.57786, 41.41317],
          [-121.55724, 41.4363],
          [-121.55494, 41.43887],
          [-121.5343, 41.46199],
          [-121.53201, 41.46456],
          [-121.51136, 41.48768],
          [-121.48275, 41.49192],
          [-121.48045, 41.49449],
          [-121.45978, 41.5176],
          [-121.43116, 41.52183],
          [-121.40252, 41.52606],
          [-121.37389, 41.53029],
          [-121.34526, 41.53451],
          [-121.31442, 41.51901],
          [-121.31099, 41.51729],
          [-121.28236, 41.5215],
          [-121.25372, 41.52571],
          [-121.22508, 41.52991],
          [-121.19644, 41.53411],
          [-121.1678, 41.5383],
          [-121.13698, 41.52277],
          [-121.13356, 41.52104],
          [-121.10492, 41.52523],
          [-121.07627, 41.52941],
          [-121.04762, 41.53358],
          [-121.01897, 41.53775],
          [-120.99032, 41.54192],
          [-120.96167, 41.54608],
          [-120.93301, 41.55023],
          [-120.90435, 41.55438],
          [-120.87569, 41.55853],
          [-120.84703, 41.56267],
          [-120.81625, 41.54709],
          [-120.81284, 41.54536],
          [-120.78417, 41.54949],
          [-120.75551, 41.55362],
          [-120.72475, 41.53802],
          [-120.72134, 41.53629],
          [-120.69267, 41.5404],
          [-120.66193, 41.52479],
          [-120.65851, 41.52306],
          [-120.62985, 41.52717],
          [-120.59912, 41.51155],
          [-120.59571, 41.50981],
          [-120.56705, 41.51391],
          [-120.53838, 41.518],
          [-120.50767, 41.50237],
          [-120.50426, 41.50063],
          [-120.4756, 41.50471],
          [-120.44693, 41.50879],
          [-120.41827, 41.51287],
          [-120.3896, 41.51694],
          [-120.36093, 41.521],
          [-120.33225, 41.52506],
          [-120.32993, 41.52762],
          [-120.30899, 41.55059],
          [-120.28031, 41.55464],
          [-120.25162, 41.55869],
          [-120.22293, 41.56273],
          [-120.19424, 41.56677],
          [-120.16555, 41.5708],
          [-120.13685, 41.57483],
          [-120.10619, 41.55913],
          [-120.10278, 41.55738],
          [-120.07408, 41.5614],
          [-120.04539, 41.56542],
          [-120.01669, 41.56943],
          [-119.98604, 41.55371],
          [-119.98264, 41.55196],
          [-119.95394, 41.55596],
          [-119.92524, 41.55996],
          [-119.89654, 41.56395],
          [-119.86783, 41.56793],
          [-119.83913, 41.57192],
          [-119.81042, 41.57589],
          [-119.78171, 41.57987],
          [-119.75109, 41.56411],
          [-119.74769, 41.56235],
          [-119.71898, 41.56632],
          [-119.69027, 41.57028],
          [-119.65967, 41.5545],
          [-119.65628, 41.55275],
          [-119.62756, 41.55669],
          [-119.59698, 41.54091],
          [-119.59359, 41.53915],
          [-119.56301, 41.52336],
          [-119.55962, 41.5216],
          [-119.53091, 41.52553],
          [-119.50035, 41.50973],
          [-119.49696, 41.50797],
          [-119.46641, 41.49216],
          [-119.46302, 41.4904],
          [-119.43248, 41.47458],
          [-119.42909, 41.47282],
          [-119.39856, 41.45699],
          [-119.39517, 41.45523],
          [-119.36466, 41.43939],
          [-119.36127, 41.43763],
          [-119.33076, 41.42179],
          [-119.32556, 41.40028],
          [-119.32217, 41.39852],
          [-119.29168, 41.38266],
          [-119.2883, 41.3809],
          [-119.25782, 41.36504],
          [-119.25264, 41.34352],
          [-119.24925, 41.34176],
          [-119.21879, 41.32589],
          [-119.21362, 41.30436],
          [-119.20845, 41.28283],
          [-119.20506, 41.28107],
          [-119.17463, 41.26519],
          [-119.16947, 41.24365],
          [-119.16609, 41.24189],
          [-119.13567, 41.22599],
          [-119.13052, 41.20445],
          [-119.12537, 41.18291],
          [-119.12199, 41.18114],
          [-119.0916, 41.16524],
          [-119.08646, 41.14369],
          [-119.08133, 41.12214],
          [-119.07619, 41.10058],
          [-119.07282, 41.09881],
          [-119.04246, 41.08289],
          [-119.03733, 41.06133],
          [-119.03221, 41.03977],
          [-119.02709, 41.01821],
          [-119.02197, 40.99664],
          [-119.01686, 40.97507],
          [-119.03796, 40.95218],
          [-119.04031, 40.94963],
          [-119.03519, 40.92806],
          [-119.03007, 40.90648],
          [-119.02496, 40.8849],
          [-119.01985, 40.86332],
          [-119.01474, 40.84173],
          [-119.00963, 40.82014],
          [-119.03071, 40.79723],
          [-119.03305, 40.79468],
          [-119.02794, 40.77309],
          [-119.02283, 40.7515],
          [-119.01773, 40.7299],
          [-119.01263, 40.7083],
          [-119.00753, 40.68669],
          [-119.00243, 40.66509],
          [-118.99734, 40.64348],
          [-118.99224, 40.62187],
          [-118.98715, 40.60025],
          [-118.98206, 40.57863],
          [-118.97871, 40.57686],
          [-118.94852, 40.56088],
          [-118.94344, 40.53926],
          [-118.93836, 40.51763],
          [-118.93329, 40.496],
          [-118.92993, 40.49423],
          [-118.89978, 40.47823],
          [-118.89643, 40.47645],
          [-118.86628, 40.46045],
          [-118.86122, 40.43881],
          [-118.85617, 40.41717],
          [-118.85282, 40.41539],
          [-118.82269, 40.39938],
          [-118.81765, 40.37773],
          [-118.81261, 40.35609],
          [-118.80757, 40.33444],
          [-118.80422, 40.33266],
          [-118.77413, 40.31662],
          [-118.7691, 40.29497],
          [-118.76576, 40.29319],
          [-118.73568, 40.27715],
          [-118.73234, 40.27536],
          [-118.70228, 40.25931],
          [-118.69727, 40.23765],
          [-118.69226, 40.21599],
          [-118.68725, 40.19432],
          [-118.68224, 40.17265],
          [-118.67724, 40.15097],
          [-118.67223, 40.1293],
          [-118.66723, 40.10762],
          [-118.68824, 40.08467],
          [-118.69057, 40.08211],
          [-118.68724, 40.08033],
          [-118.65724, 40.06426],
          [-118.65225, 40.04257],
          [-118.64891, 40.04078],
          [-118.61893, 40.0247],
          [-118.61395, 40.00301],
          [-118.60896, 39.98132],
          [-118.60398, 39.95962],
          [-118.60066, 39.95783],
          [-118.5707, 39.94174],
          [-118.56573, 39.92004],
          [-118.56241, 39.91825],
          [-118.53247, 39.90214],
          [-118.52915, 39.90035],
          [-118.49922, 39.88424],
          [-118.4959, 39.88245],
          [-118.46599, 39.86632],
          [-118.46266, 39.86453],
          [-118.43276, 39.84841],
          [-118.42944, 39.84661],
          [-118.39954, 39.83048],
          [-118.39622, 39.82869],
          [-118.36794, 39.83247],
          [-118.33806, 39.81632],
          [-118.33474, 39.81453],
          [-118.30647, 39.8183],
          [-118.27819, 39.82207],
          [-118.24832, 39.80591],
          [-118.24501, 39.80411],
          [-118.21673, 39.80787],
          [-118.18688, 39.7917],
          [-118.18356, 39.7899],
          [-118.15528, 39.79365],
          [-118.12545, 39.77746],
          [-118.12213, 39.77567],
          [-118.09386, 39.77941],
          [-118.06558, 39.78314],
          [-118.0373, 39.78687],
          [-118.00749, 39.77067],
          [-118.00417, 39.76887],
          [-117.9759, 39.77259],
          [-117.94762, 39.7763],
          [-117.91933, 39.78002],
          [-117.89105, 39.78372],
          [-117.86276, 39.78743],
          [-117.83448, 39.79112],
          [-117.80469, 39.77489],
          [-117.80138, 39.77308],
          [-117.7731, 39.77677],
          [-117.74481, 39.78045],
          [-117.71652, 39.78413],
          [-117.68823, 39.78781],
          [-117.65993, 39.79148],
          [-117.63163, 39.79514],
          [-117.60334, 39.79881],
          [-117.60098, 39.80135],
          [-117.57979, 39.8242],
          [-117.55149, 39.82786],
          [-117.52173, 39.81157],
          [-117.51843, 39.80976],
          [-117.49012, 39.8134],
          [-117.46182, 39.81704],
          [-117.43351, 39.82068],
          [-117.40519, 39.82431],
          [-117.37688, 39.82793],
          [-117.37452, 39.83047],
          [-117.35327, 39.85329],
          [-117.32495, 39.85691],
          [-117.29662, 39.86052],
          [-117.2683, 39.86413],
          [-117.23997, 39.86773],
          [-117.21164, 39.87133],
          [-117.20927, 39.87386],
          [-117.18798, 39.89666],
          [-117.18562, 39.89919],
          [-117.16432, 39.92199],
          [-117.16195, 39.92452],
          [-117.14064, 39.94732],
          [-117.11228, 39.9509],
          [-117.08392, 39.95447],
          [-117.05556, 39.95804],
          [-117.0272, 39.96161],
          [-116.99883, 39.96517],
          [-116.96913, 39.9488],
          [-116.96583, 39.94698],
          [-116.93747, 39.95053],
          [-116.93509, 39.95306],
          [-116.91373, 39.97582],
          [-116.88536, 39.97937],
          [-116.85698, 39.98291],
          [-116.8273, 39.96652],
          [-116.824, 39.9647],
          [-116.79563, 39.96822],
          [-116.79325, 39.97075],
          [-116.77185, 39.99349],
          [-116.74347, 39.99701],
          [-116.74109, 39.99954],
          [-116.71967, 40.02227],
          [-116.69128, 40.02578],
          [-116.66288, 40.02929],
          [-116.63449, 40.03279],
          [-116.60609, 40.03629],
          [-116.57769, 40.03978],
          [-116.54929, 40.04327],
          [-116.52089, 40.04675],
          [-116.5185, 40.04927],
          [-116.49702, 40.07197],
          [-116.46861, 40.07545],
          [-116.4402, 40.07892],
          [-116.41178, 40.08238],
          [-116.38336, 40.08584],
          [-116.35494, 40.0893],
          [-116.32652, 40.09275],
          [-116.2981, 40.09619],
          [-116.26967, 40.09964],
          [-116.26728, 40.10215],
          [-116.24573, 40.12482],
          [-116.24334, 40.12734],
          [-116.22179, 40.14999],
          [-116.21939, 40.15251],
          [-116.19783, 40.17516],
          [-116.19543, 40.17768],
          [-116.17386, 40.20032],
          [-116.1454, 40.20374],
          [-116.143, 40.20626],
          [-116.14747, 40.22799],
          [-116.12588, 40.25063],
          [-116.0974, 40.25404],
          [-116.095, 40.25655],
          [-116.09947, 40.27828],
          [-116.07786, 40.3009],
          [-116.07545, 40.30342],
          [-116.07992, 40.32514],
          [-116.05829, 40.34776],
          [-116.05588, 40.35027],
          [-116.03424, 40.37288],
          [-116.03184, 40.37539],
          [-116.01019, 40.39799],
          [-116.00778, 40.4005],
          [-116.01224, 40.42222],
          [-115.99057, 40.44481],
          [-115.98816, 40.44732],
          [-115.96649, 40.46991],
          [-115.96408, 40.47242],
          [-115.96853, 40.49413],
          [-115.94684, 40.51671],
          [-115.91828, 40.52009],
          [-115.88973, 40.52346],
          [-115.86117, 40.52683],
          [-115.83261, 40.5302],
          [-115.80405, 40.53356],
          [-115.80164, 40.53606],
          [-115.7799, 40.55862],
          [-115.77749, 40.56112],
          [-115.75574, 40.58367],
          [-115.75332, 40.58618],
          [-115.73157, 40.60872],
          [-115.70298, 40.61206],
          [-115.70056, 40.61457],
          [-115.67879, 40.6371],
          [-115.67637, 40.63961],
          [-115.65458, 40.66213],
          [-115.65216, 40.66464],
          [-115.63037, 40.68716],
          [-115.62794, 40.68966],
          [-115.60614, 40.71218],
          [-115.60371, 40.71468],
          [-115.5819, 40.73719],
          [-115.55327, 40.7405],
          [-115.55084, 40.74301],
          [-115.52901, 40.76551],
          [-115.50037, 40.76881],
          [-115.49795, 40.77131],
          [-115.47609, 40.7938],
          [-115.44745, 40.7971],
          [-115.4188, 40.80039],
          [-115.39015, 40.80368],
          [-115.38772, 40.80618],
          [-115.36584, 40.82865],
          [-115.33718, 40.83193],
          [-115.30852, 40.83521],
          [-115.27883, 40.81863],
          [-115.27554, 40.81679],
          [-115.24688, 40.82006],
          [-115.21822, 40.82332],
          [-115.18955, 40.82657],
          [-115.16089, 40.82983],
          [-115.13123, 40.81323],
          [-115.12794, 40.81138],
          [-115.09928, 40.81462],
          [-115.06963, 40.79801],
          [-115.06634, 40.79617],
          [-115.03768, 40.7994],
          [-115.00902, 40.80263],
          [-114.98035, 40.80585],
          [-114.95169, 40.80907],
          [-114.94925, 40.81156],
          [-114.92727, 40.83398],
          [-114.89859, 40.83719],
          [-114.86992, 40.84039],
          [-114.86747, 40.84288],
          [-114.84547, 40.86529],
          [-114.81678, 40.86848],
          [-114.81433, 40.87097],
          [-114.79231, 40.89337],
          [-114.76362, 40.89656],
          [-114.73492, 40.89974],
          [-114.70622, 40.90292],
          [-114.67752, 40.90609],
          [-114.64882, 40.90926],
          [-114.62011, 40.91242],
          [-114.59052, 40.89574],
          [-114.58723, 40.89389],
          [-114.55853, 40.89704],
          [-114.52895, 40.88035],
          [-114.52566, 40.87849],
          [-114.49609, 40.86179],
          [-114.49281, 40.85994],
          [-114.46411, 40.86308],
          [-114.43456, 40.84636],
          [-114.43128, 40.84451],
          [-114.40173, 40.82779],
          [-114.39845, 40.82593],
          [-114.36892, 40.8092],
          [-114.36563, 40.80735],
          [-114.33611, 40.79061],
          [-114.33283, 40.78875],
          [-114.30332, 40.77201],
          [-114.30004, 40.77015],
          [-114.27136, 40.77326],
          [-114.24187, 40.75651],
          [-114.23859, 40.75465],
          [-114.20992, 40.75775],
          [-114.18043, 40.74099],
          [-114.17716, 40.73913],
          [-114.14849, 40.74222],
          [-114.11902, 40.72544],
          [-114.11574, 40.72358],
          [-114.08708, 40.72666],
          [-114.05762, 40.70987],
          [-114.05435, 40.70801],
          [-114.02568, 40.71108],
          [-113.99624, 40.69428],
          [-113.99297, 40.69242],
          [-113.96431, 40.69548],
          [-113.93488, 40.67867],
          [-113.93162, 40.6768],
          [-113.90296, 40.67986],
          [-113.87429, 40.6829],
          [-113.84563, 40.68595],
          [-113.81623, 40.66912],
          [-113.81296, 40.66725],
          [-113.7843, 40.67028],
          [-113.75491, 40.65344],
          [-113.75164, 40.65157],
          [-113.72227, 40.63472],
          [-113.719, 40.63285],
          [-113.69035, 40.63587],
          [-113.66169, 40.63888],
          [-113.63233, 40.62202],
          [-113.62907, 40.62015],
          [-113.59972, 40.60328],
          [-113.59646, 40.6014],
          [-113.56712, 40.58452],
          [-113.56317, 40.56277],
          [-113.55992, 40.56089],
          [-113.5306, 40.544],
          [-113.52734, 40.54213],
          [-113.49803, 40.52523],
          [-113.49477, 40.52336],
          [-113.46547, 40.50646],
          [-113.46222, 40.50458],
          [-113.43359, 40.50756],
          [-113.40431, 40.49064],
          [-113.40105, 40.48877],
          [-113.37178, 40.47185],
          [-113.36853, 40.46997],
          [-113.33926, 40.45304],
          [-113.33601, 40.45116],
          [-113.3074, 40.45412],
          [-113.27878, 40.45707],
          [-113.24953, 40.44013],
          [-113.24629, 40.43825],
          [-113.21705, 40.4213],
          [-113.2138, 40.41942],
          [-113.18458, 40.40246],
          [-113.18133, 40.40058],
          [-113.15212, 40.38361],
          [-113.14888, 40.38173],
          [-113.12027, 40.38466],
          [-113.09107, 40.36768],
          [-113.08783, 40.3658],
          [-113.05923, 40.36872],
          [-113.03005, 40.35173],
          [-113.02681, 40.34985],
          [-112.99763, 40.33285],
          [-112.99439, 40.33096],
          [-112.9658, 40.33387],
          [-112.93664, 40.31687],
          [-112.9334, 40.31498],
          [-112.90425, 40.29797],
          [-112.90102, 40.29608],
          [-112.87188, 40.27906],
          [-112.86864, 40.27717],
          [-112.83951, 40.26014],
          [-112.83628, 40.25825],
          [-112.8077, 40.26113],
          [-112.77859, 40.24409],
          [-112.77482, 40.22228],
          [-112.77159, 40.22039],
          [-112.74249, 40.20334],
          [-112.73874, 40.18153],
          [-112.73498, 40.15971],
          [-112.73122, 40.13789],
          [-112.72747, 40.11606],
          [-112.74977, 40.09383],
          [-112.75225, 40.09136],
          [-112.74849, 40.06954],
          [-112.74474, 40.04771],
          [-112.74098, 40.02587],
          [-112.76326, 40.00363],
          [-112.76574, 40.00116],
          [-112.76198, 39.97932],
          [-112.78425, 39.95707],
          [-112.78672, 39.9546],
          [-112.78296, 39.93276],
          [-112.77921, 39.91091],
          [-112.77545, 39.88907],
          [-112.7717, 39.86722],
          [-112.79394, 39.84495],
          [-112.79641, 39.84248],
          [-112.81863, 39.82021],
          [-112.8211, 39.81774],
          [-112.81734, 39.79588],
          [-112.83956, 39.77361],
          [-112.84203, 39.77113],
          [-112.83826, 39.74927],
          [-112.8345, 39.7274],
          [-112.83074, 39.70554],
          [-112.82698, 39.68367],
          [-112.82322, 39.6618],
          [-112.84541, 39.63951],
          [-112.84787, 39.63703],
          [-112.84411, 39.61515],
          [-112.84035, 39.59328],
          [-112.83659, 39.5714],
          [-112.83284, 39.54951],
          [-112.82963, 39.54761],
          [-112.80071, 39.53052],
          [-112.79696, 39.50863],
          [-112.79322, 39.48674],
          [-112.78947, 39.46485],
          [-112.78573, 39.44295],
          [-112.78199, 39.42106],
          [-112.77825, 39.39916],
          [-112.80039, 39.37684],
          [-112.80285, 39.37436],
          [-112.79911, 39.35246],
          [-112.79537, 39.33055],
          [-112.79163, 39.30864],
          [-112.78789, 39.28673],
          [-112.78469, 39.28483],
          [-112.75638, 39.28772],
          [-112.72806, 39.2906],
          [-112.69975, 39.29348],
          [-112.69729, 39.29596],
          [-112.67514, 39.31827],
          [-112.64682, 39.32114],
          [-112.6185, 39.32401],
          [-112.61603, 39.32648],
          [-112.59387, 39.34878],
          [-112.56553, 39.35164],
          [-112.53719, 39.35449],
          [-112.53473, 39.35696],
          [-112.51254, 39.37925],
          [-112.48419, 39.38209],
          [-112.45585, 39.38493],
          [-112.45338, 39.3874],
          [-112.45705, 39.40931],
          [-112.46072, 39.43122],
          [-112.4385, 39.45348],
          [-112.43603, 39.45596],
          [-112.4138, 39.47821],
          [-112.38542, 39.48104],
          [-112.35705, 39.48386],
          [-112.32822, 39.46669],
          [-112.32458, 39.44478],
          [-112.32093, 39.42287],
          [-112.31773, 39.42096],
          [-112.28937, 39.42378],
          [-112.26101, 39.42658],
          [-112.25854, 39.42905],
          [-112.23627, 39.45129],
          [-112.2338, 39.45376],
          [-112.23742, 39.47567],
          [-112.21514, 39.4979],
          [-112.21267, 39.50037],
          [-112.19038, 39.5226],
          [-112.1879, 39.52507],
          [-112.1656, 39.54729],
          [-112.16312, 39.54976],
          [-112.14081, 39.57197],
          [-112.1124, 39.57475],
          [-112.0836, 39.55754],
          [-112.0804, 39.55563],
          [-112.05199, 39.5584],
          [-112.02359, 39.56117],
          [-112.0211, 39.56363],
          [-112.02469, 39.58553],
          [-112.00234, 39.60772],
          [-112, 39.60795]
        ]
      }
    },
    {
      "type": "Feature",
      "id": "2026092712_f090_12000_001",
      "properties": {
        "product_id": "winter_storm_levels",
        "source_id": "nbm_snow_level",
        "parameter": "snow_level",
        "definition": "height of the wet-bulb 0.5 degree C surface",
        "level_ft_msl": 12000,
        "label": "12,000 ft MSL",
        "unit": "ft_msl",
        "cycle_time_utc": "2026-09-27T12:00:00Z",
        "valid_time_utc": "2026-10-01T06:00:00Z",
        "lead_hours": 90,
        "segment": 1,
        "length_m": 302238.1
      },
      "geometry": {
        "type": "LineString",
        "coordinates": [
          [-112, 32.21105],
          [-112.02057, 32.20886],
          [-112.04451, 32.22457],
          [-112.05049, 32.22849],
          [-112.07706, 32.22565],
          [-112.10363, 32.2228],
          [-112.12758, 32.2385],
          [-112.13357, 32.24242],
          [-112.16014, 32.23956],
          [-112.1867, 32.2367],
          [-112.21067, 32.25239],
          [-112.21666, 32.25631],
          [-112.24323, 32.25343],
          [-112.26721, 32.26911],
          [-112.2732, 32.27303],
          [-112.29719, 32.2887],
          [-112.30319, 32.29261],
          [-112.32718, 32.30828],
          [-112.33318, 32.31219],
          [-112.35718, 32.32785],
          [-112.36318, 32.33177],
          [-112.38719, 32.34742],
          [-112.3932, 32.35134],
          [-112.41722, 32.36698],
          [-112.42322, 32.3709],
          [-112.44981, 32.36799],
          [-112.47384, 32.38363],
          [-112.47985, 32.38754],
          [-112.50389, 32.40318],
          [-112.5099, 32.40708],
          [-112.53394, 32.42271],
          [-112.53996, 32.42662],
          [-112.56401, 32.44224],
          [-112.57003, 32.44615],
          [-112.59409, 32.46177],
          [-112.6001, 32.46567],
          [-112.62417, 32.48129],
          [-112.62765, 32.50374],
          [-112.63367, 32.50764],
          [-112.65776, 32.52325],
          [-112.66125, 32.54569],
          [-112.66727, 32.54959],
          [-112.69137, 32.56519],
          [-112.69486, 32.58764],
          [-112.69836, 32.61008],
          [-112.70439, 32.61398],
          [-112.7285, 32.62957],
          [-112.73201, 32.65201],
          [-112.73551, 32.67445],
          [-112.73902, 32.69688],
          [-112.74253, 32.71932],
          [-112.74857, 32.72322],
          [-112.77271, 32.7388],
          [-112.77623, 32.76123],
          [-112.77975, 32.78366],
          [-112.78327, 32.80609],
          [-112.78679, 32.82852],
          [-112.79031, 32.85094],
          [-112.79383, 32.87337],
          [-112.79736, 32.89579],
          [-112.80089, 32.91822],
          [-112.80441, 32.94064],
          [-112.80794, 32.96306],
          [-112.81147, 32.98548],
          [-112.81501, 33.00789],
          [-112.81854, 33.03031],
          [-112.82208, 33.05272],
          [-112.80351, 33.07302],
          [-112.79886, 33.0781],
          [-112.8024, 33.10051],
          [-112.80593, 33.12292],
          [-112.80947, 33.14533],
          [-112.813, 33.16774],
          [-112.79442, 33.18803],
          [-112.78977, 33.19311],
          [-112.7933, 33.21551],
          [-112.7747, 33.2358],
          [-112.77005, 33.24087],
          [-112.77358, 33.26328],
          [-112.77712, 33.28568],
          [-112.7585, 33.30596],
          [-112.75385, 33.31103],
          [-112.75738, 33.33343],
          [-112.73875, 33.35371],
          [-112.7341, 33.35878],
          [-112.73762, 33.38117],
          [-112.71899, 33.40145],
          [-112.71433, 33.40652],
          [-112.71785, 33.42891],
          [-112.6992, 33.44918],
          [-112.69454, 33.45425],
          [-112.69807, 33.47664],
          [-112.67941, 33.4969],
          [-112.67474, 33.50197],
          [-112.67826, 33.52436],
          [-112.65959, 33.54461],
          [-112.65492, 33.54968],
          [-112.63624, 33.56993],
          [-112.63157, 33.575],
          [-112.63509, 33.59738],
          [-112.61639, 33.61763],
          [-112.61172, 33.62269],
          [-112.59302, 33.64294],
          [-112.58835, 33.648],
          [-112.56964, 33.66824],
          [-112.56496, 33.6733],
          [-112.54624, 33.69354],
          [-112.54156, 33.6986],
          [-112.52284, 33.71883],
          [-112.49593, 33.72174],
          [-112.49125, 33.7268],
          [-112.47251, 33.74702],
          [-112.44559, 33.74992],
          [-112.44091, 33.75497],
          [-112.42215, 33.77519],
          [-112.41747, 33.78025],
          [-112.39871, 33.80046],
          [-112.37177, 33.80335],
          [-112.36708, 33.8084],
          [-112.34831, 33.82861],
          [-112.34361, 33.83366],
          [-112.32483, 33.85386],
          [-112.32013, 33.85891],
          [-112.30134, 33.87911],
          [-112.29664, 33.88416],
          [-112.27785, 33.90435],
          [-112.27314, 33.9094],
          [-112.25434, 33.92959],
          [-112.24963, 33.93464],
          [-112.23082, 33.95482],
          [-112.22611, 33.95987],
          [-112.20729, 33.98005],
          [-112.20258, 33.9851],
          [-112.20602, 34.00747],
          [-112.18719, 34.02764],
          [-112.18248, 34.03269],
          [-112.16363, 34.05286],
          [-112.15892, 34.0579],
          [-112.14007, 34.07807],
          [-112.11306, 34.08091],
          [-112.10835, 34.08595],
          [-112.08948, 34.10611],
          [-112.08476, 34.11115],
          [-112.08818, 34.13352],
          [-112.06931, 34.15367],
          [-112.06459, 34.15871],
          [-112.0457, 34.17887],
          [-112.04098, 34.1839],
          [-112.02208, 34.20405],
          [-112, 34.20635]
        ]
      }
    }
  ]
}

