{
  "type": "FeatureCollection",
  "contract_version": "1.0.0",
  "bbox": [-130, 30.23891, -112, 44.5],
  "features": [
    {
      "type": "Feature",
      "id": "2026092612_f126_08000_001",
      "properties": {
        "product_id": "winter_storm_levels",
        "source_id": "nbm_snow_level",
        "parameter": "snow_level",
        "definition": "height of the wet-bulb 0.5 degree C surface",
        "level_ft_msl": 8000,
        "label": "8,000 ft MSL",
        "unit": "ft_msl",
        "cycle_time_utc": "2026-09-26T12:00:00Z",
        "valid_time_utc": "2026-10-01T18:00:00Z",
        "lead_hours": 126,
        "segment": 1,
        "length_m": 27086.3
      },
      "geometry": {
        "type": "LineString",
        "coordinates": [
          [-130, 44.41961],
          [-129.9731, 44.42468],
          [-129.95598, 44.44566],
          [-129.9517, 44.45091],
          [-129.92264, 44.45637],
          [-129.89357, 44.46184],
          [-129.8645, 44.4673],
          [-129.83542, 44.47275],
          [-129.80634, 44.4782],
          [-129.77726, 44.48365],
          [-129.74818, 44.48909],
          [-129.71909, 44.49452],
          [-129.69, 44.49995],
          [-129.68974, 44.5]
        ]
      }
    },
    {
      "type": "Feature",
      "id": "2026092612_f126_09000_001",
      "properties": {
        "product_id": "winter_storm_levels",
        "source_id": "nbm_snow_level",
        "parameter": "snow_level",
        "definition": "height of the wet-bulb 0.5 degree C surface",
        "level_ft_msl": 9000,
        "label": "9,000 ft MSL",
        "unit": "ft_msl",
        "cycle_time_utc": "2026-09-26T12:00:00Z",
        "valid_time_utc": "2026-10-01T18:00:00Z",
        "lead_hours": 126,
        "segment": 1,
        "length_m": 3562.6
      },
      "geometry": {
        "type": "LineString",
        "coordinates": [
          [-130, 38.99241],
          [-129.99306, 39.00167],
          [-130, 39.0221]
        ]
      }
    },
    {
      "type": "Feature",
      "id": "2026092612_f126_09000_002",
      "properties": {
        "product_id": "winter_storm_levels",
        "source_id": "nbm_snow_level",
        "parameter": "snow_level",
        "definition": "height of the wet-bulb 0.5 degree C surface",
        "level_ft_msl": 9000,
        "label": "9,000 ft MSL",
        "unit": "ft_msl",
        "cycle_time_utc": "2026-09-26T12:00:00Z",
        "valid_time_utc": "2026-10-01T18:00:00Z",
        "lead_hours": 126,
        "segment": 2,
        "length_m": 1135969.1
      },
      "geometry": {
        "type": "LineString",
        "coordinates": [
          [-130, 39.02351],
          [-129.9983, 39.02578],
          [-129.98006, 39.05011],
          [-129.98733, 39.07151],
          [-129.9853, 39.07421],
          [-129.96704, 39.09854],
          [-129.96501, 39.10125],
          [-129.93745, 39.10689],
          [-129.91917, 39.13121],
          [-129.91714, 39.13391],
          [-129.89886, 39.15823],
          [-129.89682, 39.16093],
          [-129.86924, 39.16656],
          [-129.85094, 39.19087],
          [-129.8489, 39.19357],
          [-129.82131, 39.19919],
          [-129.80299, 39.22349],
          [-129.80095, 39.22619],
          [-129.78263, 39.25049],
          [-129.78059, 39.25319],
          [-129.76225, 39.27748],
          [-129.76021, 39.28018],
          [-129.74187, 39.30446],
          [-129.73983, 39.30716],
          [-129.7122, 39.31276],
          [-129.69383, 39.33704],
          [-129.69179, 39.33973],
          [-129.66415, 39.34532],
          [-129.6365, 39.35091],
          [-129.61812, 39.37517],
          [-129.61607, 39.37787],
          [-129.58842, 39.38345],
          [-129.56076, 39.38902],
          [-129.54235, 39.41327],
          [-129.5403, 39.41597],
          [-129.52188, 39.44021],
          [-129.51983, 39.44291],
          [-129.5014, 39.46715],
          [-129.49935, 39.46984],
          [-129.48091, 39.49408],
          [-129.47886, 39.49677],
          [-129.46041, 39.521],
          [-129.45836, 39.52369],
          [-129.4399, 39.54792],
          [-129.43785, 39.55061],
          [-129.41938, 39.57483],
          [-129.42658, 39.59619],
          [-129.42452, 39.59888],
          [-129.3968, 39.60442],
          [-129.37831, 39.62863],
          [-129.37626, 39.63132],
          [-129.35776, 39.65553],
          [-129.3557, 39.65822],
          [-129.32796, 39.66374],
          [-129.30021, 39.66927],
          [-129.28169, 39.69346],
          [-129.27963, 39.69615],
          [-129.25187, 39.70166],
          [-129.22411, 39.70718],
          [-129.19634, 39.71268],
          [-129.16858, 39.71819],
          [-129.14081, 39.72368],
          [-129.11303, 39.72918],
          [-129.10954, 39.72759],
          [-129.07812, 39.7133],
          [-129.05954, 39.73747],
          [-129.05748, 39.74015],
          [-129.02969, 39.74563],
          [-129.00191, 39.75111],
          [-128.99842, 39.74952],
          [-128.96701, 39.73521],
          [-128.96352, 39.73362],
          [-128.93212, 39.71931],
          [-128.90434, 39.72477],
          [-128.87655, 39.73023],
          [-128.84876, 39.73568],
          [-128.82097, 39.74113],
          [-128.79317, 39.74657],
          [-128.78969, 39.74497],
          [-128.75831, 39.73063],
          [-128.73051, 39.73607],
          [-128.70271, 39.74149],
          [-128.67491, 39.74692],
          [-128.64711, 39.75234],
          [-128.6193, 39.75775],
          [-128.59149, 39.76316],
          [-128.56368, 39.76857],
          [-128.53586, 39.77397],
          [-128.50804, 39.77937],
          [-128.48022, 39.78476],
          [-128.4524, 39.79015],
          [-128.43366, 39.81423],
          [-128.43158, 39.81691],
          [-128.40374, 39.82229],
          [-128.3759, 39.82766],
          [-128.35714, 39.85174],
          [-128.35505, 39.85441],
          [-128.3272, 39.85978],
          [-128.30842, 39.88385],
          [-128.30634, 39.88652],
          [-128.28755, 39.91058],
          [-128.28546, 39.91325],
          [-128.25759, 39.91861],
          [-128.22972, 39.92396],
          [-128.2109, 39.948],
          [-128.20881, 39.95067],
          [-128.18999, 39.97472],
          [-128.18789, 39.97739],
          [-128.16906, 40.00143],
          [-128.16697, 40.0041],
          [-128.14812, 40.02813],
          [-128.14603, 40.0308],
          [-128.12717, 40.05482],
          [-128.13413, 40.07619],
          [-128.13204, 40.07886],
          [-128.11317, 40.10288],
          [-128.12013, 40.12424],
          [-128.11804, 40.1269],
          [-128.09916, 40.15091],
          [-128.13057, 40.16534],
          [-128.13406, 40.16695],
          [-128.14103, 40.1883],
          [-128.14801, 40.20965],
          [-128.15498, 40.231],
          [-128.16196, 40.25234],
          [-128.16894, 40.27368],
          [-128.16685, 40.27635],
          [-128.14795, 40.30035],
          [-128.15493, 40.32168],
          [-128.15283, 40.32435],
          [-128.13393, 40.34834],
          [-128.14091, 40.36967],
          [-128.13881, 40.37234],
          [-128.11989, 40.39632],
          [-128.11779, 40.39899],
          [-128.09886, 40.42296],
          [-128.10584, 40.44429],
          [-128.10374, 40.44695],
          [-128.0848, 40.47092],
          [-128.08269, 40.47359],
          [-128.06374, 40.49755],
          [-128.07072, 40.51887],
          [-128.0777, 40.54019],
          [-128.08468, 40.5615],
          [-128.09167, 40.58281],
          [-128.08956, 40.58547],
          [-128.07059, 40.60942],
          [-128.07758, 40.63073],
          [-128.08457, 40.65203],
          [-128.09156, 40.67333],
          [-128.08945, 40.67599],
          [-128.07047, 40.69993],
          [-128.07746, 40.72123],
          [-128.07535, 40.72389],
          [-128.05635, 40.74782],
          [-128.05424, 40.75048],
          [-128.03524, 40.77441],
          [-128.04223, 40.79569],
          [-128.04011, 40.79835],
          [-128.02109, 40.82227],
          [-128.02809, 40.84356],
          [-128.02597, 40.84621],
          [-128.00694, 40.87013],
          [-128.00482, 40.87278],
          [-127.98578, 40.89669],
          [-127.99277, 40.91796],
          [-127.99976, 40.93924],
          [-127.99765, 40.94189],
          [-127.97859, 40.96579],
          [-127.98558, 40.98706],
          [-127.99258, 41.00833],
          [-127.99958, 41.02959],
          [-128.00658, 41.05085],
          [-128.00446, 41.0535],
          [-127.98538, 41.07739],
          [-127.99238, 41.09864],
          [-127.99026, 41.1013],
          [-127.97118, 41.12517],
          [-127.97818, 41.14642],
          [-127.97606, 41.14907],
          [-127.95696, 41.17294],
          [-127.95483, 41.17559],
          [-127.93572, 41.19946],
          [-127.94272, 41.2207],
          [-127.9406, 41.22335],
          [-127.92148, 41.2472],
          [-127.91935, 41.24985],
          [-127.90022, 41.2737],
          [-127.89809, 41.27635],
          [-127.87895, 41.30019],
          [-127.87682, 41.30284],
          [-127.85767, 41.32668],
          [-127.85554, 41.32933],
          [-127.83638, 41.35316],
          [-127.83425, 41.35581],
          [-127.81508, 41.37963],
          [-127.81295, 41.38228],
          [-127.79377, 41.4061],
          [-127.80075, 41.42732],
          [-127.79862, 41.42997],
          [-127.77943, 41.45378],
          [-127.77729, 41.45643],
          [-127.75809, 41.48023],
          [-127.75595, 41.48288],
          [-127.73674, 41.50668],
          [-127.7346, 41.50932],
          [-127.71538, 41.53312],
          [-127.71324, 41.53576],
          [-127.6849, 41.54098],
          [-127.65656, 41.54619],
          [-127.62821, 41.5514],
          [-127.60895, 41.57518],
          [-127.61591, 41.59639],
          [-127.62287, 41.6176],
          [-127.62073, 41.62024],
          [-127.60146, 41.64401],
          [-127.60842, 41.66521],
          [-127.60627, 41.66785],
          [-127.58699, 41.69161],
          [-127.59395, 41.71281],
          [-127.59181, 41.71545],
          [-127.57251, 41.7392],
          [-127.57947, 41.7604],
          [-127.57732, 41.76303],
          [-127.55802, 41.78678],
          [-127.55587, 41.78942],
          [-127.53655, 41.81315],
          [-127.54351, 41.83434],
          [-127.54136, 41.83698],
          [-127.52203, 41.86071],
          [-127.52899, 41.88189],
          [-127.52684, 41.88452],
          [-127.50749, 41.90825],
          [-127.50534, 41.91088],
          [-127.48599, 41.9346],
          [-127.49294, 41.95577],
          [-127.49079, 41.9584],
          [-127.47143, 41.98211],
          [-127.46927, 41.98475],
          [-127.44079, 41.98991],
          [-127.42141, 42.01361],
          [-127.41925, 42.01624],
          [-127.39076, 42.0214],
          [-127.36227, 42.02656],
          [-127.34286, 42.05024],
          [-127.3407, 42.05287],
          [-127.31219, 42.05802],
          [-127.28368, 42.06316],
          [-127.26425, 42.08683],
          [-127.26209, 42.08946],
          [-127.23357, 42.09459],
          [-127.20504, 42.09972],
          [-127.17652, 42.10484],
          [-127.14799, 42.10996],
          [-127.11945, 42.11507],
          [-127.09092, 42.12018],
          [-127.07143, 42.14382],
          [-127.06926, 42.14645],
          [-127.04071, 42.15155],
          [-127.0212, 42.17518],
          [-127.02808, 42.19634],
          [-127.02591, 42.19897],
          [-127.00639, 42.22259],
          [-127.01326, 42.24375],
          [-127.01109, 42.24637],
          [-126.99155, 42.26999],
          [-126.98938, 42.27261],
          [-126.96984, 42.29622],
          [-126.96766, 42.29885],
          [-126.93907, 42.30393],
          [-126.91047, 42.309],
          [-126.88187, 42.31407],
          [-126.85327, 42.31914],
          [-126.82466, 42.3242],
          [-126.79605, 42.32925],
          [-126.76744, 42.3343],
          [-126.73882, 42.33935],
          [-126.7102, 42.34439],
          [-126.68158, 42.34943],
          [-126.65296, 42.35446],
          [-126.62433, 42.35949],
          [-126.5957, 42.36452],
          [-126.56707, 42.36953],
          [-126.53843, 42.37455],
          [-126.51876, 42.3981],
          [-126.51657, 42.40071],
          [-126.49689, 42.42426],
          [-126.4947, 42.42687],
          [-126.46605, 42.43187],
          [-126.44635, 42.45541],
          [-126.44416, 42.45802],
          [-126.41549, 42.46301],
          [-126.39577, 42.48654],
          [-126.39358, 42.48915],
          [-126.3649, 42.49413],
          [-126.34517, 42.51765],
          [-126.34297, 42.52026],
          [-126.31428, 42.52523],
          [-126.29453, 42.54874],
          [-126.29233, 42.55135],
          [-126.27257, 42.57485],
          [-126.27037, 42.57746],
          [-126.2506, 42.60095],
          [-126.2484, 42.60356],
          [-126.21968, 42.60852],
          [-126.19989, 42.632],
          [-126.19769, 42.63461],
          [-126.17788, 42.65808],
          [-126.17568, 42.66069],
          [-126.14694, 42.66563],
          [-126.12712, 42.6891],
          [-126.12492, 42.69171],
          [-126.09617, 42.69664],
          [-126.07633, 42.7201],
          [-126.07412, 42.7227],
          [-126.04536, 42.72763],
          [-126.0166, 42.73255],
          [-125.99673, 42.756],
          [-125.99452, 42.7586],
          [-125.96575, 42.76351],
          [-125.94586, 42.78695],
          [-125.94365, 42.78955],
          [-125.91487, 42.79445],
          [-125.89497, 42.81788],
          [-125.89275, 42.82048],
          [-125.87284, 42.84389],
          [-125.87063, 42.84649],
          [-125.85071, 42.8699],
          [-125.84849, 42.87251],
          [-125.82856, 42.89591],
          [-125.82634, 42.89851],
          [-125.79752, 42.90339],
          [-125.77757, 42.92679],
          [-125.77535, 42.92939],
          [-125.75539, 42.95277],
          [-125.75317, 42.95537],
          [-125.72432, 42.96024],
          [-125.70434, 42.98362],
          [-125.70212, 42.98622],
          [-125.67327, 42.99108],
          [-125.65327, 43.01445],
          [-125.65105, 43.01704],
          [-125.62218, 43.02189],
          [-125.60216, 43.04525],
          [-125.59994, 43.04785],
          [-125.57106, 43.05269],
          [-125.55102, 43.07604],
          [-125.5488, 43.07863],
          [-125.5199, 43.08347],
          [-125.49985, 43.1068],
          [-125.49762, 43.1094],
          [-125.46872, 43.11422],
          [-125.44865, 43.13755],
          [-125.44642, 43.14014],
          [-125.4175, 43.14496],
          [-125.38859, 43.14977],
          [-125.36849, 43.17309],
          [-125.36626, 43.17568],
          [-125.34615, 43.19898],
          [-125.34391, 43.20157],
          [-125.31498, 43.20637],
          [-125.29485, 43.22967],
          [-125.29261, 43.23226],
          [-125.27248, 43.25555],
          [-125.27024, 43.25814],
          [-125.24128, 43.26292],
          [-125.21232, 43.2677],
          [-125.19216, 43.29098],
          [-125.18992, 43.29357],
          [-125.16095, 43.29834],
          [-125.13197, 43.30311],
          [-125.11178, 43.32637],
          [-125.10954, 43.32896],
          [-125.08055, 43.33371],
          [-125.05157, 43.33847],
          [-125.02258, 43.34322],
          [-125.00235, 43.36646],
          [-125.0001, 43.36905],
          [-124.9711, 43.37379],
          [-124.9421, 43.37852],
          [-124.92185, 43.40176],
          [-124.9196, 43.40434],
          [-124.89058, 43.40906],
          [-124.86156, 43.41379],
          [-124.84128, 43.437],
          [-124.83903, 43.43958],
          [-124.81, 43.4443],
          [-124.78097, 43.449],
          [-124.76066, 43.47221],
          [-124.75841, 43.47479],
          [-124.72936, 43.47949],
          [-124.70031, 43.48418],
          [-124.67999, 43.50737],
          [-124.67773, 43.50995],
          [-124.64867, 43.51463],
          [-124.62832, 43.53781],
          [-124.62606, 43.54039],
          [-124.59699, 43.54507],
          [-124.57662, 43.56824],
          [-124.57436, 43.57081],
          [-124.54528, 43.57548],
          [-124.51619, 43.58014],
          [-124.4958, 43.6033],
          [-124.49353, 43.60587],
          [-124.46444, 43.61053],
          [-124.43534, 43.61518],
          [-124.41492, 43.63832],
          [-124.41265, 43.64089],
          [-124.38354, 43.64553],
          [-124.35442, 43.65017],
          [-124.32531, 43.6548],
          [-124.29619, 43.65942],
          [-124.26707, 43.66405],
          [-124.2466, 43.68716],
          [-124.24432, 43.68973],
          [-124.21519, 43.69434],
          [-124.1947, 43.71745],
          [-124.19243, 43.72002],
          [-124.16328, 43.72462],
          [-124.14278, 43.74772],
          [-124.1405, 43.75028],
          [-124.11134, 43.75488],
          [-124.09082, 43.77796],
          [-124.08854, 43.78053],
          [-124.068, 43.80361],
          [-124.06572, 43.80617],
          [-124.04518, 43.82925],
          [-124.04289, 43.83181],
          [-124.01371, 43.83639],
          [-123.99314, 43.85945],
          [-123.99086, 43.86201],
          [-123.96166, 43.86658],
          [-123.94108, 43.88963],
          [-123.93879, 43.89219],
          [-123.90958, 43.89675],
          [-123.88898, 43.9198],
          [-123.88669, 43.92236],
          [-123.85747, 43.92691],
          [-123.83685, 43.94994],
          [-123.83456, 43.9525],
          [-123.80533, 43.95704],
          [-123.78469, 43.98006],
          [-123.7824, 43.98262],
          [-123.76175, 44.00563],
          [-123.75946, 44.00819],
          [-123.7388, 44.0312],
          [-123.7365, 44.03375],
          [-123.71583, 44.05676],
          [-123.71353, 44.05931],
          [-123.68426, 44.06383],
          [-123.66357, 44.08682],
          [-123.66127, 44.08938],
          [-123.63199, 44.09389],
          [-123.61129, 44.11687],
          [-123.60898, 44.11942],
          [-123.58827, 44.1424],
          [-123.58596, 44.14495],
          [-123.55666, 44.14945],
          [-123.52736, 44.15394],
          [-123.50661, 44.1769],
          [-123.50431, 44.17946],
          [-123.47499, 44.18394],
          [-123.45423, 44.20689],
          [-123.45192, 44.20944],
          [-123.4226, 44.21391],
          [-123.39327, 44.21838],
          [-123.37248, 44.24132],
          [-123.37016, 44.24387],
          [-123.34082, 44.24833],
          [-123.31148, 44.25279],
          [-123.29066, 44.27571],
          [-123.28835, 44.27826],
          [-123.259, 44.2827],
          [-123.22964, 44.28715],
          [-123.20028, 44.29158],
          [-123.17092, 44.29602],
          [-123.15006, 44.31892],
          [-123.14774, 44.32146],
          [-123.11837, 44.32589],
          [-123.08899, 44.33031],
          [-123.05961, 44.33472],
          [-123.03871, 44.3576],
          [-123.03639, 44.36014],
          [-123.007, 44.36455],
          [-122.97761, 44.36895],
          [-122.95669, 44.39182],
          [-122.95436, 44.39436],
          [-122.93343, 44.41722],
          [-122.9311, 44.41976],
          [-122.90169, 44.42415],
          [-122.88074, 44.447],
          [-122.87841, 44.44954],
          [-122.85745, 44.47238],
          [-122.85512, 44.47492],
          [-122.82568, 44.47929],
          [-122.79625, 44.48366],
          [-122.76681, 44.48803],
          [-122.73706, 44.49134],
          [-122.70752, 44.49534],
          [-122.70437, 44.49508],
          [-122.67512, 44.48954],
          [-122.644, 44.48811],
          [-122.61303, 44.4872],
          [-122.61141, 44.48689],
          [-122.57766, 44.47105],
          [-122.57638, 44.47015],
          [-122.56319, 44.45018],
          [-122.56424, 44.42812],
          [-122.56461, 44.42587],
          [-122.57239, 44.40501],
          [-122.58524, 44.39106],
          [-122.59133, 44.3803],
          [-122.60487, 44.35638],
          [-122.60554, 44.35518],
          [-122.6184, 44.33246],
          [-122.62584, 44.3193],
          [-122.63192, 44.30853],
          [-122.64544, 44.28459],
          [-122.64611, 44.2834],
          [-122.65429, 44.26135],
          [-122.66266, 44.23817],
          [-122.66303, 44.23592],
          [-122.66637, 44.21567],
          [-122.67008, 44.19317],
          [-122.65936, 44.17281],
          [-122.65793, 44.15107],
          [-122.66116, 44.12864],
          [-122.66202, 44.12631],
          [-122.66535, 44.10605],
          [-122.66368, 44.08434],
          [-122.67081, 44.06131],
          [-122.66474, 44.04025],
          [-122.63291, 44.0252],
          [-122.6036, 44.02956],
          [-122.58267, 44.05244],
          [-122.58034, 44.05498],
          [-122.55102, 44.05932],
          [-122.53006, 44.08219],
          [-122.52774, 44.08473],
          [-122.50677, 44.10759],
          [-122.50444, 44.11013],
          [-122.4751, 44.11446],
          [-122.45411, 44.13731],
          [-122.45178, 44.13985],
          [-122.43079, 44.16269],
          [-122.42845, 44.16523],
          [-122.39909, 44.16955],
          [-122.37808, 44.19238],
          [-122.37574, 44.19492],
          [-122.34637, 44.19923],
          [-122.32534, 44.22205],
          [-122.323, 44.22459],
          [-122.29362, 44.22889],
          [-122.27257, 44.2517],
          [-122.27023, 44.25424],
          [-122.24917, 44.27704],
          [-122.24682, 44.27958],
          [-122.21742, 44.28386],
          [-122.19634, 44.30666],
          [-122.194, 44.30919],
          [-122.1729, 44.33198],
          [-122.17056, 44.33451],
          [-122.14114, 44.33878],
          [-122.12003, 44.36156],
          [-122.11768, 44.36409],
          [-122.09656, 44.38687],
          [-122.09421, 44.3894],
          [-122.06477, 44.39366],
          [-122.04363, 44.41642],
          [-122.04128, 44.41895],
          [-122.01182, 44.4232],
          [-121.99066, 44.44595],
          [-121.98831, 44.44848],
          [-121.96714, 44.47122],
          [-121.96479, 44.47375],
          [-121.93531, 44.47799],
          [-121.91479, 44.5]
        ]
      }
    },
    {
      "type": "Feature",
      "id": "2026092612_f126_10000_001",
      "properties": {
        "product_id": "winter_storm_levels",
        "source_id": "nbm_snow_level",
        "parameter": "snow_level",
        "definition": "height of the wet-bulb 0.5 degree C surface",
        "level_ft_msl": 10000,
        "label": "10,000 ft MSL",
        "unit": "ft_msl",
        "cycle_time_utc": "2026-09-26T12:00:00Z",
        "valid_time_utc": "2026-10-01T18:00:00Z",
        "lead_hours": 126,
        "segment": 1,
        "length_m": 306978.5
      },
      "geometry": {
        "type": "LineString",
        "coordinates": [
          [-114.72562, 43.99932],
          [-114.72128, 43.97802],
          [-114.71695, 43.95673],
          [-114.71261, 43.93542],
          [-114.70828, 43.91412],
          [-114.70395, 43.89281],
          [-114.69962, 43.8715],
          [-114.6953, 43.85019],
          [-114.69098, 43.82887],
          [-114.65711, 43.81067],
          [-114.62325, 43.79245],
          [-114.58941, 43.77423],
          [-114.55558, 43.756],
          [-114.52605, 43.7591],
          [-114.49651, 43.76219],
          [-114.46697, 43.76528],
          [-114.43317, 43.74703],
          [-114.40364, 43.7501],
          [-114.3741, 43.75318],
          [-114.34456, 43.75624],
          [-114.31502, 43.75931],
          [-114.28547, 43.76236],
          [-114.25171, 43.74408],
          [-114.22217, 43.74713],
          [-114.18841, 43.72883],
          [-114.15888, 43.73187],
          [-114.12514, 43.71356],
          [-114.09142, 43.69524],
          [-114.05771, 43.67691],
          [-114.02818, 43.67993],
          [-113.99449, 43.66159],
          [-113.96081, 43.64324],
          [-113.92715, 43.62488],
          [-113.89763, 43.62788],
          [-113.86398, 43.60951],
          [-113.83447, 43.6125],
          [-113.80496, 43.61548],
          [-113.77544, 43.61846],
          [-113.74592, 43.62144],
          [-113.72051, 43.64578],
          [-113.69508, 43.67011],
          [-113.66964, 43.69443],
          [-113.64418, 43.71875],
          [-113.64827, 43.74011],
          [-113.6228, 43.76441],
          [-113.62689, 43.78576],
          [-113.63098, 43.80711],
          [-113.63507, 43.82845],
          [-113.60957, 43.85274],
          [-113.61366, 43.87408],
          [-113.61775, 43.89542],
          [-113.62184, 43.91675],
          [-113.59632, 43.94102],
          [-113.57078, 43.96529],
          [-113.54523, 43.98955],
          [-113.51967, 44.0138],
          [-113.4941, 44.03805],
          [-113.49817, 44.05936],
          [-113.47257, 44.0836],
          [-113.47664, 44.10491],
          [-113.48071, 44.12621],
          [-113.48478, 44.14751],
          [-113.48886, 44.16881],
          [-113.49293, 44.19011],
          [-113.49701, 44.2114],
          [-113.5308, 44.22977],
          [-113.5646, 44.24812],
          [-113.59431, 44.24519],
          [-113.62402, 44.24225],
          [-113.64962, 44.21802],
          [-113.67932, 44.21507],
          [-113.7049, 44.19082],
          [-113.73046, 44.16657],
          [-113.75601, 44.14232],
          [-113.75188, 44.12102],
          [-113.77741, 44.09675],
          [-113.80293, 44.07248],
          [-113.82844, 44.0482],
          [-113.85808, 44.04522],
          [-113.88357, 44.02092],
          [-113.9132, 44.01793],
          [-113.94283, 44.01494],
          [-113.97246, 44.01194],
          [-114.00209, 44.00894],
          [-114.0359, 44.02723],
          [-114.06973, 44.04552],
          [-114.10357, 44.06381],
          [-114.13321, 44.06078],
          [-114.16707, 44.07905],
          [-114.20093, 44.09731],
          [-114.23058, 44.09427],
          [-114.26447, 44.11252],
          [-114.29837, 44.13076],
          [-114.32802, 44.12771],
          [-114.36194, 44.14593],
          [-114.39159, 44.14287],
          [-114.42125, 44.1398],
          [-114.45519, 44.15801],
          [-114.48484, 44.15493],
          [-114.5102, 44.13057],
          [-114.53985, 44.12749],
          [-114.56949, 44.12439],
          [-114.59482, 44.10002],
          [-114.62446, 44.09692],
          [-114.64977, 44.07253],
          [-114.67506, 44.04813],
          [-114.70035, 44.02373],
          [-114.72562, 43.99932]
        ]
      }
    },
    {
      "type": "Feature",
      "id": "2026092612_f126_10000_002",
      "properties": {
        "product_id": "winter_storm_levels",
        "source_id": "nbm_snow_level",
        "parameter": "snow_level",
        "definition": "height of the wet-bulb 0.5 degree C surface",
        "level_ft_msl": 10000,
        "label": "10,000 ft MSL",
        "unit": "ft_msl",
        "cycle_time_utc": "2026-09-26T12:00:00Z",
        "valid_time_utc": "2026-10-01T18:00:00Z",
        "lead_hours": 126,
        "segment": 2,
        "length_m": 2422851.5
      },
      "geometry": {
        "type": "LineString",
        "coordinates": [
          [-130, 33.07156],
          [-129.97521, 33.07704],
          [-129.94912, 33.08281],
          [-129.92303, 33.08857],
          [-129.89694, 33.09433],
          [-129.87771, 33.12194],
          [-129.85161, 33.12769],
          [-129.8255, 33.13343],
          [-129.79939, 33.13918],
          [-129.77328, 33.14491],
          [-129.74716, 33.15064],
          [-129.72105, 33.15637],
          [-129.68809, 33.14023],
          [-129.66198, 33.14595],
          [-129.63586, 33.15166],
          [-129.60973, 33.15737],
          [-129.59042, 33.18495],
          [-129.56429, 33.19065],
          [-129.53815, 33.19635],
          [-129.51202, 33.20204],
          [-129.49267, 33.2296],
          [-129.46653, 33.23529],
          [-129.44038, 33.24097],
          [-129.41422, 33.24664],
          [-129.38807, 33.25232],
          [-129.36191, 33.25799],
          [-129.32898, 33.24177],
          [-129.29606, 33.22555],
          [-129.2699, 33.23121],
          [-129.24374, 33.23686],
          [-129.25049, 33.25874],
          [-129.23108, 33.28626],
          [-129.21165, 33.31378],
          [-129.18547, 33.31942],
          [-129.15929, 33.32506],
          [-129.1331, 33.33069],
          [-129.10691, 33.33631],
          [-129.08072, 33.34194],
          [-129.05452, 33.34755],
          [-129.02161, 33.33128],
          [-128.99542, 33.33689],
          [-128.96251, 33.32061],
          [-128.95581, 33.29872],
          [-128.9753, 33.27123],
          [-129.00148, 33.26562],
          [-129.02766, 33.26001],
          [-129.05383, 33.2544],
          [-129.07329, 33.22689],
          [-129.06657, 33.205],
          [-129.03369, 33.18872],
          [-129.00083, 33.17244],
          [-128.97467, 33.17805],
          [-128.94851, 33.18365],
          [-128.92235, 33.18925],
          [-128.89618, 33.19484],
          [-128.87669, 33.22233],
          [-128.85051, 33.22792],
          [-128.85719, 33.24982],
          [-128.86387, 33.27171],
          [-128.87055, 33.29361],
          [-128.90343, 33.30991],
          [-128.91012, 33.3318],
          [-128.89061, 33.35928],
          [-128.8644, 33.36487],
          [-128.84488, 33.39234],
          [-128.85156, 33.41423],
          [-128.85825, 33.43611],
          [-128.83871, 33.46358],
          [-128.81247, 33.46915],
          [-128.77956, 33.45284],
          [-128.74666, 33.43652],
          [-128.72042, 33.44208],
          [-128.68753, 33.42574],
          [-128.6613, 33.4313],
          [-128.63506, 33.43685],
          [-128.60882, 33.44239],
          [-128.58258, 33.44793],
          [-128.55634, 33.45346],
          [-128.53009, 33.459],
          [-128.50384, 33.46452],
          [-128.48421, 33.49194],
          [-128.45795, 33.49746],
          [-128.43169, 33.50298],
          [-128.40543, 33.50849],
          [-128.37916, 33.51399],
          [-128.35289, 33.51949],
          [-128.32662, 33.52499],
          [-128.30694, 33.55239],
          [-128.28065, 33.55788],
          [-128.26095, 33.58526],
          [-128.23466, 33.59074],
          [-128.24124, 33.61265],
          [-128.22152, 33.64002],
          [-128.20179, 33.6674],
          [-128.18205, 33.69477],
          [-128.1623, 33.72213],
          [-128.13597, 33.72759],
          [-128.10964, 33.73305],
          [-128.08986, 33.76041],
          [-128.06352, 33.76586],
          [-128.04373, 33.7932],
          [-128.01738, 33.79864],
          [-127.99757, 33.82598],
          [-127.97121, 33.83142],
          [-127.95139, 33.85875],
          [-127.92502, 33.86417],
          [-127.90517, 33.89149],
          [-127.88532, 33.91881],
          [-127.89185, 33.9407],
          [-127.87199, 33.96801],
          [-127.85211, 33.99532],
          [-127.82571, 34.00073],
          [-127.80582, 34.02803],
          [-127.7794, 34.03343],
          [-127.75949, 34.06072],
          [-127.73306, 34.06611],
          [-127.71314, 34.09339],
          [-127.6867, 34.09878],
          [-127.66676, 34.12605],
          [-127.64681, 34.15332],
          [-127.62036, 34.15869],
          [-127.60039, 34.18595],
          [-127.57392, 34.19132],
          [-127.55394, 34.21857],
          [-127.52746, 34.22393],
          [-127.50099, 34.22928],
          [-127.47451, 34.23463],
          [-127.45449, 34.26187],
          [-127.428, 34.26721],
          [-127.40797, 34.29443],
          [-127.38147, 34.29977],
          [-127.36142, 34.32699],
          [-127.33491, 34.33231],
          [-127.31484, 34.35952],
          [-127.28832, 34.36484],
          [-127.26823, 34.39204],
          [-127.24814, 34.41924],
          [-127.22803, 34.44643],
          [-127.20792, 34.47362],
          [-127.18779, 34.50081],
          [-127.16766, 34.52799],
          [-127.17408, 34.54987],
          [-127.15393, 34.57704],
          [-127.13378, 34.60421],
          [-127.11361, 34.63138],
          [-127.09343, 34.65854],
          [-127.07325, 34.68569],
          [-127.07966, 34.70757],
          [-127.05946, 34.73472],
          [-127.03925, 34.76186],
          [-127.01903, 34.789],
          [-126.99881, 34.81614],
          [-127.00521, 34.83801],
          [-127.01163, 34.85988],
          [-127.01804, 34.88174],
          [-127.02446, 34.90361],
          [-127.03087, 34.92547],
          [-127.0373, 34.94733],
          [-127.01704, 34.97446],
          [-126.99678, 35.00158],
          [-126.97651, 35.02869],
          [-126.95622, 35.0558],
          [-126.93593, 35.0829],
          [-126.90922, 35.08815],
          [-126.88891, 35.11524],
          [-126.86859, 35.14233],
          [-126.875, 35.16418],
          [-126.85466, 35.19127],
          [-126.83432, 35.21835],
          [-126.84072, 35.2402],
          [-126.82037, 35.26727],
          [-126.82677, 35.28912],
          [-126.83317, 35.31096],
          [-126.8128, 35.33803],
          [-126.8192, 35.35987],
          [-126.79882, 35.38693],
          [-126.80522, 35.40876],
          [-126.78483, 35.43582],
          [-126.76442, 35.46287],
          [-126.74401, 35.48991],
          [-126.72358, 35.51695],
          [-126.72998, 35.53878],
          [-126.70954, 35.56581],
          [-126.68909, 35.59284],
          [-126.66864, 35.61986],
          [-126.64817, 35.64688],
          [-126.62769, 35.67389],
          [-126.60721, 35.7009],
          [-126.58671, 35.7279],
          [-126.5662, 35.7549],
          [-126.54569, 35.78189],
          [-126.51879, 35.78706],
          [-126.49825, 35.81405],
          [-126.47771, 35.84102],
          [-126.45715, 35.868],
          [-126.43659, 35.89497],
          [-126.41601, 35.92193],
          [-126.38908, 35.92707],
          [-126.36848, 35.95403],
          [-126.34154, 35.95916],
          [-126.32093, 35.98611],
          [-126.32727, 36.00792],
          [-126.33361, 36.02973],
          [-126.31299, 36.05667],
          [-126.29235, 36.0836],
          [-126.2717, 36.11053],
          [-126.27804, 36.13233],
          [-126.25738, 36.15925],
          [-126.23672, 36.18617],
          [-126.20971, 36.19128],
          [-126.18902, 36.21819],
          [-126.162, 36.22329],
          [-126.14129, 36.25019],
          [-126.14761, 36.27198],
          [-126.1269, 36.29887],
          [-126.13322, 36.32067],
          [-126.11249, 36.34755],
          [-126.11881, 36.36934],
          [-126.09807, 36.39622],
          [-126.07731, 36.42309],
          [-126.08363, 36.44488],
          [-126.06287, 36.47175],
          [-126.06919, 36.49353],
          [-126.07551, 36.51531],
          [-126.05473, 36.54217],
          [-126.06105, 36.56394],
          [-126.04025, 36.59079],
          [-126.01945, 36.61764],
          [-125.99863, 36.64448],
          [-125.9715, 36.64954],
          [-125.95067, 36.67638],
          [-125.92982, 36.7032],
          [-125.90897, 36.73002],
          [-125.88811, 36.75684],
          [-125.86094, 36.76188],
          [-125.84006, 36.78869],
          [-125.81916, 36.81549],
          [-125.79198, 36.82052],
          [-125.77107, 36.84732],
          [-125.77735, 36.86908],
          [-125.75643, 36.89586],
          [-125.73549, 36.92264],
          [-125.71455, 36.94942],
          [-125.72083, 36.97117],
          [-125.69987, 36.99794],
          [-125.70615, 37.01969],
          [-125.68518, 37.04645],
          [-125.69145, 37.0682],
          [-125.69773, 37.08995],
          [-125.67675, 37.1167],
          [-125.68303, 37.13844],
          [-125.66203, 37.16519],
          [-125.66831, 37.18692],
          [-125.6473, 37.21366],
          [-125.65357, 37.2354],
          [-125.63255, 37.26213],
          [-125.63883, 37.28386],
          [-125.61779, 37.31058],
          [-125.62407, 37.33231],
          [-125.60302, 37.35903],
          [-125.58196, 37.38574],
          [-125.56089, 37.41245],
          [-125.56716, 37.43417],
          [-125.57343, 37.45589],
          [-125.60707, 37.47262],
          [-125.61336, 37.49433],
          [-125.61965, 37.51604],
          [-125.59856, 37.54274],
          [-125.57746, 37.56943],
          [-125.55635, 37.59612],
          [-125.53523, 37.6228],
          [-125.5141, 37.64947],
          [-125.49296, 37.67614],
          [-125.49924, 37.69784],
          [-125.47809, 37.7245],
          [-125.48436, 37.7462],
          [-125.46319, 37.77285],
          [-125.46947, 37.79455],
          [-125.44829, 37.82119],
          [-125.45456, 37.84288],
          [-125.46084, 37.86457],
          [-125.43964, 37.89121],
          [-125.44592, 37.91289],
          [-125.42471, 37.93952],
          [-125.43098, 37.9612],
          [-125.40976, 37.98782],
          [-125.38853, 38.01444],
          [-125.3948, 38.03611],
          [-125.37356, 38.06272],
          [-125.37983, 38.08439],
          [-125.3861, 38.10606],
          [-125.36484, 38.13266],
          [-125.37112, 38.15432],
          [-125.34984, 38.18092],
          [-125.32855, 38.2075],
          [-125.33483, 38.22916],
          [-125.31353, 38.25574],
          [-125.29222, 38.28232],
          [-125.26463, 38.28723],
          [-125.2433, 38.3138],
          [-125.22196, 38.34036],
          [-125.20061, 38.36691],
          [-125.173, 38.37182],
          [-125.15163, 38.39836],
          [-125.15788, 38.42001],
          [-125.1365, 38.44654],
          [-125.1151, 38.47307],
          [-125.0937, 38.4996],
          [-125.07229, 38.52612],
          [-125.05086, 38.55263],
          [-125.02943, 38.57914],
          [-125.03566, 38.60077],
          [-125.01421, 38.62727],
          [-124.99275, 38.65377],
          [-124.97128, 38.68026],
          [-124.9498, 38.70674],
          [-124.95602, 38.72836],
          [-124.93453, 38.75484],
          [-124.91302, 38.7813],
          [-124.8915, 38.80777],
          [-124.86998, 38.83423],
          [-124.87619, 38.85584],
          [-124.85465, 38.88229],
          [-124.8331, 38.90873],
          [-124.81153, 38.93517],
          [-124.81774, 38.95678],
          [-124.79617, 38.98321],
          [-124.77458, 39.00963],
          [-124.75298, 39.03605],
          [-124.72518, 39.04086],
          [-124.70356, 39.06727],
          [-124.67574, 39.07208],
          [-124.64792, 39.07688],
          [-124.62628, 39.10328],
          [-124.60462, 39.12966],
          [-124.6108, 39.15126],
          [-124.58913, 39.17764],
          [-124.56745, 39.20401],
          [-124.54576, 39.23038],
          [-124.55194, 39.25197],
          [-124.53023, 39.27833],
          [-124.50852, 39.30468],
          [-124.51469, 39.32626],
          [-124.49296, 39.35261],
          [-124.47122, 39.37895],
          [-124.44947, 39.40528],
          [-124.42155, 39.41004],
          [-124.39978, 39.43637],
          [-124.37185, 39.44112],
          [-124.35006, 39.46743],
          [-124.32212, 39.47217],
          [-124.30031, 39.49848],
          [-124.27236, 39.50321],
          [-124.24441, 39.50794],
          [-124.22258, 39.53423],
          [-124.19461, 39.53895],
          [-124.17276, 39.56523],
          [-124.14479, 39.56994],
          [-124.11681, 39.57465],
          [-124.08883, 39.57935],
          [-124.06085, 39.58404],
          [-124.03287, 39.58874],
          [-124.00488, 39.59343],
          [-123.98297, 39.61967],
          [-123.95497, 39.62435],
          [-123.93304, 39.65059],
          [-123.9111, 39.67683],
          [-123.91716, 39.69839],
          [-123.92323, 39.71995],
          [-123.90127, 39.74617],
          [-123.90734, 39.76772],
          [-123.91341, 39.78927],
          [-123.89144, 39.81549],
          [-123.86945, 39.84169],
          [-123.84139, 39.84635],
          [-123.81332, 39.851],
          [-123.79131, 39.87719],
          [-123.76323, 39.88184],
          [-123.7412, 39.90802],
          [-123.71311, 39.91265],
          [-123.69106, 39.93883],
          [-123.66297, 39.94345],
          [-123.64089, 39.96961],
          [-123.64692, 39.99115],
          [-123.62484, 40.01731],
          [-123.63086, 40.03884],
          [-123.60876, 40.06498],
          [-123.58063, 40.06959],
          [-123.55851, 40.09573],
          [-123.53036, 40.10033],
          [-123.50823, 40.12645],
          [-123.48608, 40.15257],
          [-123.49208, 40.1741],
          [-123.46992, 40.20021],
          [-123.44774, 40.22631],
          [-123.42556, 40.25241],
          [-123.43156, 40.27392],
          [-123.40935, 40.30001],
          [-123.38115, 40.30459],
          [-123.35294, 40.30915],
          [-123.32473, 40.31372],
          [-123.29651, 40.31828],
          [-123.2683, 40.32283],
          [-123.24604, 40.34889],
          [-123.21782, 40.35344],
          [-123.18363, 40.33646],
          [-123.15541, 40.341],
          [-123.12718, 40.34553],
          [-123.10488, 40.37157],
          [-123.07664, 40.3761],
          [-123.0484, 40.38061],
          [-123.02608, 40.40664],
          [-123.00375, 40.43266],
          [-122.98141, 40.45868],
          [-122.95905, 40.48468],
          [-122.96497, 40.50619],
          [-122.9426, 40.53219],
          [-122.94851, 40.55369],
          [-122.92613, 40.57968],
          [-122.93205, 40.60117],
          [-122.90965, 40.62716],
          [-122.88724, 40.65313],
          [-122.89315, 40.67462],
          [-122.89906, 40.69611],
          [-122.90498, 40.71759],
          [-122.9109, 40.73907],
          [-122.91682, 40.76055],
          [-122.92274, 40.78202],
          [-122.92867, 40.80349],
          [-122.9346, 40.82496],
          [-122.9689, 40.84194],
          [-122.97484, 40.8634],
          [-122.98078, 40.88486],
          [-123.01512, 40.90183],
          [-123.02107, 40.92328],
          [-123.05542, 40.94023],
          [-123.06139, 40.96168],
          [-123.06735, 40.98313],
          [-123.07332, 41.00458],
          [-123.07929, 41.02602],
          [-123.08526, 41.04746],
          [-123.09124, 41.06889],
          [-123.06878, 41.09483],
          [-123.07475, 41.11626],
          [-123.08073, 41.13769],
          [-123.08671, 41.15911],
          [-123.06423, 41.18504],
          [-123.07021, 41.20646],
          [-123.04771, 41.23238],
          [-123.05369, 41.25379],
          [-123.03118, 41.2797],
          [-123.00866, 41.3056],
          [-123.01463, 41.32701],
          [-122.9921, 41.3529],
          [-122.99807, 41.3743],
          [-123.00405, 41.3957],
          [-123.01003, 41.4171],
          [-123.01601, 41.4385],
          [-123.02199, 41.45989],
          [-123.02798, 41.48128],
          [-123.03397, 41.50266],
          [-123.03996, 41.52405],
          [-123.01739, 41.54992],
          [-122.98882, 41.5544],
          [-122.96622, 41.58025],
          [-122.93764, 41.58472],
          [-122.91503, 41.61057],
          [-122.88644, 41.61503],
          [-122.85784, 41.61949],
          [-122.82924, 41.62394],
          [-122.80064, 41.62839],
          [-122.77799, 41.65421],
          [-122.74938, 41.65865],
          [-122.7267, 41.68446],
          [-122.70401, 41.71026],
          [-122.67538, 41.71469],
          [-122.64675, 41.71911],
          [-122.61811, 41.72353],
          [-122.58948, 41.72794],
          [-122.56084, 41.73235],
          [-122.5322, 41.73675],
          [-122.50355, 41.74115],
          [-122.4749, 41.74555],
          [-122.44625, 41.74994],
          [-122.4176, 41.75432],
          [-122.39482, 41.78008],
          [-122.36616, 41.78445],
          [-122.34335, 41.8102],
          [-122.32054, 41.83593],
          [-122.29771, 41.86167],
          [-122.26902, 41.86602],
          [-122.24617, 41.89174],
          [-122.22331, 41.91746],
          [-122.19461, 41.9218],
          [-122.17173, 41.9475],
          [-122.14301, 41.95184],
          [-122.11429, 41.95617],
          [-122.08556, 41.9605],
          [-122.05683, 41.96482],
          [-122.03391, 41.9905],
          [-122.00517, 41.99482],
          [-121.97643, 41.99913],
          [-121.94769, 42.00343],
          [-121.91894, 42.00773],
          [-121.8902, 42.01203],
          [-121.86145, 42.01632],
          [-121.83269, 42.0206],
          [-121.80394, 42.02489],
          [-121.77518, 42.02916],
          [-121.74642, 42.03343],
          [-121.71766, 42.0377],
          [-121.68889, 42.04197],
          [-121.66013, 42.04622],
          [-121.63708, 42.07184],
          [-121.6083, 42.07609],
          [-121.57952, 42.08033],
          [-121.55074, 42.08457],
          [-121.52766, 42.11017],
          [-121.49887, 42.1144],
          [-121.47577, 42.13999],
          [-121.44696, 42.14421],
          [-121.41816, 42.14843],
          [-121.39503, 42.174],
          [-121.36621, 42.17821],
          [-121.33739, 42.18241],
          [-121.31424, 42.20797],
          [-121.2854, 42.21216],
          [-121.25657, 42.21635],
          [-121.22774, 42.22054],
          [-121.20454, 42.24608],
          [-121.1757, 42.25025],
          [-121.15248, 42.27578],
          [-121.12363, 42.27995],
          [-121.10039, 42.30546],
          [-121.07153, 42.30962],
          [-121.04827, 42.33512],
          [-121.02501, 42.36062],
          [-120.99612, 42.36476],
          [-120.97284, 42.39025],
          [-120.94954, 42.41572],
          [-120.92623, 42.4412],
          [-120.90291, 42.46666],
          [-120.9085, 42.48799],
          [-120.88517, 42.51345],
          [-120.89076, 42.53477],
          [-120.86741, 42.56022],
          [-120.84404, 42.58566],
          [-120.82067, 42.61109],
          [-120.82625, 42.63241],
          [-120.80286, 42.65783],
          [-120.77946, 42.68324],
          [-120.75047, 42.68734],
          [-120.72148, 42.69144],
          [-120.69248, 42.69553],
          [-120.66348, 42.69961],
          [-120.63449, 42.70369],
          [-120.60548, 42.70777],
          [-120.57094, 42.69053],
          [-120.53641, 42.67328],
          [-120.50742, 42.67734],
          [-120.4729, 42.66007],
          [-120.44391, 42.66413],
          [-120.41491, 42.66817],
          [-120.38591, 42.67221],
          [-120.3569, 42.67625],
          [-120.3279, 42.68029],
          [-120.29889, 42.68431],
          [-120.26988, 42.68834],
          [-120.24087, 42.69236],
          [-120.21186, 42.69637],
          [-120.18829, 42.72171],
          [-120.15927, 42.72571],
          [-120.13024, 42.72971],
          [-120.10665, 42.75503],
          [-120.07761, 42.75902],
          [-120.054, 42.78433],
          [-120.02495, 42.78831],
          [-119.9959, 42.79229],
          [-119.96684, 42.79626],
          [-119.93779, 42.80023],
          [-119.90873, 42.8042],
          [-119.87967, 42.80816],
          [-119.856, 42.83343],
          [-119.82692, 42.83738],
          [-119.79785, 42.84133],
          [-119.77415, 42.86659],
          [-119.74506, 42.87052],
          [-119.72134, 42.89577],
          [-119.69225, 42.8997],
          [-119.66315, 42.90362],
          [-119.63405, 42.90754],
          [-119.61029, 42.93277],
          [-119.58118, 42.93668],
          [-119.55207, 42.94058],
          [-119.52295, 42.94448],
          [-119.49916, 42.96969],
          [-119.47003, 42.97358],
          [-119.4409, 42.97747],
          [-119.41708, 43.00266],
          [-119.38794, 43.00654],
          [-119.3588, 43.01041],
          [-119.32966, 43.01428],
          [-119.30579, 43.03945],
          [-119.27664, 43.04331],
          [-119.24748, 43.04716],
          [-119.22359, 43.07232],
          [-119.19443, 43.07616],
          [-119.16526, 43.08],
          [-119.13609, 43.08384],
          [-119.11216, 43.10898],
          [-119.08298, 43.1128],
          [-119.05379, 43.11662],
          [-119.02461, 43.12044],
          [-118.99542, 43.12426],
          [-118.96623, 43.12806],
          [-118.93704, 43.13187],
          [-118.90784, 43.13567],
          [-118.87865, 43.13946],
          [-118.84945, 43.14325],
          [-118.82024, 43.14703],
          [-118.79104, 43.15081],
          [-118.76183, 43.15459],
          [-118.73263, 43.15836],
          [-118.70342, 43.16213],
          [-118.6742, 43.16589],
          [-118.64499, 43.16965],
          [-118.61577, 43.1734],
          [-118.58655, 43.17714],
          [-118.55733, 43.18089],
          [-118.52811, 43.18463],
          [-118.49888, 43.18836],
          [-118.46965, 43.19209],
          [-118.44042, 43.19581],
          [-118.40609, 43.17822],
          [-118.37686, 43.18193],
          [-118.34255, 43.16433],
          [-118.31332, 43.16803],
          [-118.27902, 43.15041],
          [-118.2498, 43.15411],
          [-118.22057, 43.1578],
          [-118.19134, 43.16148],
          [-118.15707, 43.14384],
          [-118.12784, 43.14752],
          [-118.09861, 43.15119],
          [-118.06938, 43.15486],
          [-118.04014, 43.15852],
          [-118.0059, 43.14085],
          [-117.97667, 43.1445],
          [-117.94244, 43.12681],
          [-117.91321, 43.13046],
          [-117.88397, 43.1341],
          [-117.84976, 43.11639],
          [-117.82053, 43.12002],
          [-117.7913, 43.12364],
          [-117.76206, 43.12726],
          [-117.72788, 43.10954],
          [-117.69865, 43.11315],
          [-117.66941, 43.11675],
          [-117.64017, 43.12035],
          [-117.60601, 43.1026],
          [-117.57677, 43.10619],
          [-117.54754, 43.10978],
          [-117.5183, 43.11336],
          [-117.49395, 43.13828],
          [-117.4647, 43.14185],
          [-117.43545, 43.14542],
          [-117.40619, 43.14898],
          [-117.38181, 43.17388],
          [-117.35255, 43.17744],
          [-117.32328, 43.18098],
          [-117.29401, 43.18453],
          [-117.26474, 43.18807],
          [-117.23547, 43.1916],
          [-117.20135, 43.17379],
          [-117.17208, 43.17731],
          [-117.14281, 43.18083],
          [-117.11353, 43.18435],
          [-117.08426, 43.18786],
          [-117.05498, 43.19137],
          [-117.02569, 43.19487],
          [-116.99641, 43.19836],
          [-116.96234, 43.18051],
          [-116.93306, 43.18399],
          [-116.90377, 43.18748],
          [-116.86972, 43.1696],
          [-116.84044, 43.17307],
          [-116.8064, 43.15518],
          [-116.77712, 43.15865],
          [-116.7431, 43.14074],
          [-116.71383, 43.1442],
          [-116.67982, 43.12628],
          [-116.65055, 43.12972],
          [-116.61656, 43.11179],
          [-116.58259, 43.09386],
          [-116.54863, 43.07591],
          [-116.51468, 43.05796],
          [-116.48074, 43.04],
          [-116.44682, 43.02203],
          [-116.41756, 43.02544],
          [-116.38366, 43.00745],
          [-116.34976, 42.98946],
          [-116.32051, 42.99286],
          [-116.28663, 42.97485],
          [-116.25739, 42.97824],
          [-116.22353, 42.96022],
          [-116.19428, 42.96359],
          [-116.16044, 42.94556],
          [-116.1266, 42.92752],
          [-116.09737, 42.93088],
          [-116.06355, 42.91283],
          [-116.02974, 42.89477],
          [-116.00052, 42.89812],
          [-115.96673, 42.88004],
          [-115.9375, 42.88338],
          [-115.90373, 42.86529],
          [-115.8745, 42.86862],
          [-115.84075, 42.85052],
          [-115.81152, 42.85384],
          [-115.77778, 42.83572],
          [-115.74856, 42.83903],
          [-115.71484, 42.82091],
          [-115.68562, 42.8242],
          [-115.65191, 42.80606],
          [-115.6227, 42.80935],
          [-115.58901, 42.7912],
          [-115.55979, 42.79448],
          [-115.52612, 42.77631],
          [-115.49246, 42.75814],
          [-115.46325, 42.7614],
          [-115.43404, 42.76466],
          [-115.4004, 42.74647],
          [-115.3712, 42.74972],
          [-115.33757, 42.73151],
          [-115.30837, 42.73475],
          [-115.27916, 42.73799],
          [-115.24556, 42.71977],
          [-115.21635, 42.72299],
          [-115.18277, 42.70476],
          [-115.15357, 42.70797],
          [-115.12, 42.68972],
          [-115.0908, 42.69293],
          [-115.05724, 42.67467],
          [-115.0237, 42.6564],
          [-114.99451, 42.65959],
          [-114.96099, 42.64131],
          [-114.9318, 42.64449],
          [-114.9026, 42.64767],
          [-114.8691, 42.62936],
          [-114.83991, 42.63253],
          [-114.80642, 42.61422],
          [-114.77724, 42.61737],
          [-114.74377, 42.59905],
          [-114.71458, 42.6022],
          [-114.68113, 42.58386],
          [-114.65194, 42.58699],
          [-114.61851, 42.56864],
          [-114.58933, 42.57177],
          [-114.56015, 42.57489],
          [-114.52673, 42.55652],
          [-114.49755, 42.55964],
          [-114.46837, 42.56275],
          [-114.43497, 42.54436],
          [-114.4058, 42.54746],
          [-114.37662, 42.55055],
          [-114.34743, 42.55365],
          [-114.31825, 42.55673],
          [-114.28906, 42.55981],
          [-114.25988, 42.56289],
          [-114.23069, 42.56596],
          [-114.2015, 42.56903],
          [-114.16815, 42.55059],
          [-114.13896, 42.55365],
          [-114.10977, 42.55671],
          [-114.08058, 42.55975],
          [-114.05138, 42.5628],
          [-114.02219, 42.56584],
          [-113.99299, 42.56887],
          [-113.95968, 42.5504],
          [-113.93049, 42.55342],
          [-113.90129, 42.55644],
          [-113.87209, 42.55946],
          [-113.83881, 42.54096],
          [-113.80961, 42.54397],
          [-113.78041, 42.54697],
          [-113.75122, 42.54996],
          [-113.72201, 42.55296],
          [-113.69281, 42.55594],
          [-113.65956, 42.53741],
          [-113.63036, 42.54039],
          [-113.60116, 42.54336],
          [-113.57196, 42.54633],
          [-113.54275, 42.5493],
          [-113.51354, 42.55225],
          [-113.48033, 42.53369],
          [-113.45113, 42.53664],
          [-113.42192, 42.53958],
          [-113.39271, 42.54252],
          [-113.35952, 42.52394],
          [-113.33032, 42.52687],
          [-113.29714, 42.50827],
          [-113.26794, 42.51119],
          [-113.23479, 42.49258],
          [-113.20559, 42.49549],
          [-113.17639, 42.49839],
          [-113.14718, 42.5013],
          [-113.11798, 42.50419],
          [-113.08877, 42.50709],
          [-113.05565, 42.48844],
          [-113.02645, 42.49132],
          [-112.99724, 42.4942],
          [-112.97193, 42.51861],
          [-112.94272, 42.52148],
          [-112.9135, 42.52434],
          [-112.88428, 42.5272],
          [-112.85506, 42.53006],
          [-112.82584, 42.53291],
          [-112.79662, 42.53575],
          [-112.76739, 42.53859],
          [-112.73817, 42.54143],
          [-112.7051, 42.52272],
          [-112.67588, 42.52555],
          [-112.64665, 42.52837],
          [-112.61743, 42.53119],
          [-112.5882, 42.534],
          [-112.55897, 42.53681],
          [-112.52974, 42.53961],
          [-112.5005, 42.54241],
          [-112.47127, 42.5452],
          [-112.44203, 42.54799],
          [-112.40902, 42.52923],
          [-112.37978, 42.53201],
          [-112.34679, 42.51324],
          [-112.31756, 42.51601],
          [-112.28458, 42.49723],
          [-112.25535, 42.49999],
          [-112.22612, 42.50275],
          [-112.19689, 42.5055],
          [-112.16766, 42.50824],
          [-112.13842, 42.51098],
          [-112.10919, 42.51372],
          [-112.08365, 42.538],
          [-112.05441, 42.54073],
          [-112.02885, 42.565],
          [-112, 42.56768]
        ]
      }
    },
    {
      "type": "Feature",
      "id": "2026092612_f126_11000_001",
      "properties": {
        "product_id": "winter_storm_levels",
        "source_id": "nbm_snow_level",
        "parameter": "snow_level",
        "definition": "height of the wet-bulb 0.5 degree C surface",
        "level_ft_msl": 11000,
        "label": "11,000 ft MSL",
        "unit": "ft_msl",
        "cycle_time_utc": "2026-09-26T12:00:00Z",
        "valid_time_utc": "2026-10-01T18:00:00Z",
        "lead_hours": 126,
        "segment": 1,
        "length_m": 136027.1
      },
      "geometry": {
        "type": "LineString",
        "coordinates": [
          [-115.59863, 39.08791],
          [-115.59432, 39.06604],
          [-115.59001, 39.04417],
          [-115.5857, 39.02229],
          [-115.58139, 39.00042],
          [-115.57708, 38.97854],
          [-115.57278, 38.95666],
          [-115.56848, 38.93477],
          [-115.56418, 38.91289],
          [-115.55988, 38.891],
          [-115.5307, 38.87431],
          [-115.52746, 38.87245],
          [-115.52317, 38.85056],
          [-115.49402, 38.83386],
          [-115.49078, 38.832],
          [-115.46163, 38.81529],
          [-115.45839, 38.81343],
          [-115.42925, 38.79672],
          [-115.42602, 38.79486],
          [-115.39689, 38.77814],
          [-115.36879, 38.78146],
          [-115.34069, 38.78477],
          [-115.31922, 38.80746],
          [-115.31683, 38.80998],
          [-115.29535, 38.83267],
          [-115.29296, 38.83519],
          [-115.27147, 38.85787],
          [-115.26908, 38.86039],
          [-115.24757, 38.88307],
          [-115.25181, 38.90497],
          [-115.25604, 38.92686],
          [-115.25365, 38.92938],
          [-115.23213, 38.95205],
          [-115.23636, 38.97394],
          [-115.2406, 38.99582],
          [-115.23821, 38.99834],
          [-115.21667, 39.021],
          [-115.2209, 39.04288],
          [-115.22514, 39.06476],
          [-115.22937, 39.08664],
          [-115.25856, 39.10337],
          [-115.2618, 39.10523],
          [-115.26605, 39.1271],
          [-115.27029, 39.14897],
          [-115.27454, 39.17084],
          [-115.30376, 39.18756],
          [-115.30701, 39.18941],
          [-115.33623, 39.20612],
          [-115.33948, 39.20797],
          [-115.36872, 39.22467],
          [-115.37197, 39.22653],
          [-115.40121, 39.24322],
          [-115.42944, 39.2399],
          [-115.45766, 39.23658],
          [-115.48587, 39.23326],
          [-115.5074, 39.21059],
          [-115.50979, 39.20807],
          [-115.5313, 39.18539],
          [-115.53369, 39.18288],
          [-115.55519, 39.1602],
          [-115.55758, 39.15768],
          [-115.57908, 39.13499],
          [-115.57477, 39.11312],
          [-115.57715, 39.1106],
          [-115.59863, 39.08791]
        ]
      }
    },
    {
      "type": "Feature",
      "id": "2026092612_f126_11000_002",
      "properties": {
        "product_id": "winter_storm_levels",
        "source_id": "nbm_snow_level",
        "parameter": "snow_level",
        "definition": "height of the wet-bulb 0.5 degree C surface",
        "level_ft_msl": 11000,
        "label": "11,000 ft MSL",
        "unit": "ft_msl",
        "cycle_time_utc": "2026-09-26T12:00:00Z",
        "valid_time_utc": "2026-10-01T18:00:00Z",
        "lead_hours": 126,
        "segment": 2,
        "length_m": 2390151.3
      },
      "geometry": {
        "type": "LineString",
        "coordinates": [
          [-123.48379, 30.23891],
          [-123.48219, 30.24104],
          [-123.45644, 30.24578],
          [-123.43069, 30.25052],
          [-123.42866, 30.25321],
          [-123.41042, 30.27749],
          [-123.40839, 30.28019],
          [-123.41387, 30.30243],
          [-123.41935, 30.32468],
          [-123.42483, 30.34692],
          [-123.43031, 30.36916],
          [-123.4358, 30.3914],
          [-123.41753, 30.41567],
          [-123.4155, 30.41837],
          [-123.39723, 30.44264],
          [-123.3952, 30.44533],
          [-123.37691, 30.4696],
          [-123.35111, 30.47432],
          [-123.32531, 30.47904],
          [-123.32327, 30.48173],
          [-123.30497, 30.50599],
          [-123.27916, 30.5107],
          [-123.27712, 30.5134],
          [-123.28259, 30.53563],
          [-123.26426, 30.55988],
          [-123.26223, 30.56258],
          [-123.2439, 30.58683],
          [-123.21806, 30.59152],
          [-123.21603, 30.59422],
          [-123.19768, 30.61846],
          [-123.17184, 30.62315],
          [-123.146, 30.62783],
          [-123.12015, 30.63252],
          [-123.0943, 30.6372],
          [-123.06615, 30.62138],
          [-123.06302, 30.61963],
          [-123.03718, 30.6243],
          [-123.01133, 30.62896],
          [-123.00928, 30.63165],
          [-122.99089, 30.65587],
          [-122.96503, 30.66052],
          [-122.96299, 30.66321],
          [-122.94458, 30.68742],
          [-122.94253, 30.69011],
          [-122.92411, 30.71431],
          [-122.92207, 30.717],
          [-122.92747, 30.73924],
          [-122.93288, 30.76149],
          [-122.91445, 30.78569],
          [-122.9124, 30.78837],
          [-122.89397, 30.81257],
          [-122.86807, 30.81721],
          [-122.86602, 30.8199],
          [-122.84757, 30.84409],
          [-122.82166, 30.84872],
          [-122.81961, 30.85141],
          [-122.80114, 30.87559],
          [-122.77523, 30.88021],
          [-122.77317, 30.8829],
          [-122.75469, 30.90707],
          [-122.75264, 30.90976],
          [-122.73414, 30.93393],
          [-122.73209, 30.93662],
          [-122.71359, 30.96079],
          [-122.71153, 30.96347],
          [-122.69303, 30.98764],
          [-122.69097, 30.99032],
          [-122.67245, 31.01448],
          [-122.67039, 31.01717],
          [-122.65187, 31.04132],
          [-122.64981, 31.04401],
          [-122.65518, 31.06625],
          [-122.63664, 31.0904],
          [-122.63458, 31.09308],
          [-122.63995, 31.11532],
          [-122.62141, 31.13947],
          [-122.61934, 31.14215],
          [-122.60079, 31.1663],
          [-122.5748, 31.17089],
          [-122.57274, 31.17357],
          [-122.55417, 31.19771],
          [-122.52817, 31.20229],
          [-122.50217, 31.20686],
          [-122.50011, 31.20954],
          [-122.48151, 31.23367],
          [-122.45551, 31.23824],
          [-122.45344, 31.24092],
          [-122.43483, 31.26504],
          [-122.43277, 31.26772],
          [-122.41415, 31.29184],
          [-122.41208, 31.29452],
          [-122.39346, 31.31863],
          [-122.36743, 31.32319],
          [-122.36536, 31.32587],
          [-122.34672, 31.34997],
          [-122.32068, 31.35452],
          [-122.31861, 31.3572],
          [-122.29996, 31.3813],
          [-122.29788, 31.38397],
          [-122.27922, 31.40807],
          [-122.27715, 31.41075],
          [-122.25848, 31.43484],
          [-122.23242, 31.43937],
          [-122.20635, 31.4439],
          [-122.18029, 31.44842],
          [-122.15422, 31.45293],
          [-122.126, 31.43698],
          [-122.12286, 31.43521],
          [-122.09465, 31.41925],
          [-122.09152, 31.41747],
          [-122.06331, 31.40151],
          [-122.06018, 31.39973],
          [-122.03412, 31.40423],
          [-122.00593, 31.38825],
          [-122.00279, 31.38648],
          [-121.97673, 31.39096],
          [-121.94855, 31.37498],
          [-121.9433, 31.35273],
          [-121.94017, 31.35095],
          [-121.91201, 31.33496],
          [-121.90888, 31.33318],
          [-121.88283, 31.33765],
          [-121.88074, 31.34032],
          [-121.862, 31.36437],
          [-121.85992, 31.36705],
          [-121.84117, 31.39109],
          [-121.8151, 31.39555],
          [-121.81302, 31.39822],
          [-121.79425, 31.42226],
          [-121.76818, 31.42672],
          [-121.7421, 31.43117],
          [-121.71602, 31.43561],
          [-121.68786, 31.41958],
          [-121.68473, 31.4178],
          [-121.65658, 31.40176],
          [-121.65346, 31.39998],
          [-121.62532, 31.38393],
          [-121.62219, 31.38215],
          [-121.59612, 31.38657],
          [-121.56799, 31.37052],
          [-121.56487, 31.36873],
          [-121.53879, 31.37315],
          [-121.51272, 31.37756],
          [-121.48664, 31.38197],
          [-121.45853, 31.3659],
          [-121.4554, 31.36411],
          [-121.42933, 31.36851],
          [-121.40325, 31.3729],
          [-121.37717, 31.37729],
          [-121.35109, 31.38168],
          [-121.325, 31.38606],
          [-121.29892, 31.39044],
          [-121.27283, 31.39481],
          [-121.24674, 31.39918],
          [-121.22064, 31.40354],
          [-121.19455, 31.4079],
          [-121.19245, 31.41056],
          [-121.17356, 31.43453],
          [-121.17146, 31.43719],
          [-121.15255, 31.46115],
          [-121.12644, 31.4655],
          [-121.10033, 31.46984],
          [-121.09823, 31.4725],
          [-121.0793, 31.49646],
          [-121.0772, 31.49912],
          [-121.05826, 31.52306],
          [-121.03214, 31.52739],
          [-121.03003, 31.53005],
          [-121.01108, 31.55399],
          [-121.00898, 31.55665],
          [-120.99002, 31.58059],
          [-120.98791, 31.58325],
          [-120.96895, 31.60718],
          [-120.96684, 31.60984],
          [-120.94786, 31.63377],
          [-120.94576, 31.63642],
          [-120.92677, 31.66035],
          [-120.92466, 31.66301],
          [-120.92973, 31.68527],
          [-120.91073, 31.70919],
          [-120.90862, 31.71185],
          [-120.88962, 31.73577],
          [-120.88751, 31.73842],
          [-120.89257, 31.76069],
          [-120.87355, 31.7846],
          [-120.87144, 31.78726],
          [-120.85242, 31.81117],
          [-120.82622, 31.81546],
          [-120.8241, 31.81812],
          [-120.80506, 31.84202],
          [-120.80295, 31.84467],
          [-120.7839, 31.86857],
          [-120.78178, 31.87122],
          [-120.76272, 31.89512],
          [-120.76061, 31.89777],
          [-120.74154, 31.92166],
          [-120.71531, 31.92594],
          [-120.71319, 31.92859],
          [-120.69411, 31.95247],
          [-120.69199, 31.95512],
          [-120.6729, 31.979],
          [-120.67078, 31.98165],
          [-120.67581, 32.00391],
          [-120.65671, 32.02779],
          [-120.65459, 32.03044],
          [-120.65962, 32.0527],
          [-120.66465, 32.07496],
          [-120.66968, 32.09721],
          [-120.65057, 32.12108],
          [-120.64844, 32.12373],
          [-120.62932, 32.14759],
          [-120.62719, 32.15025],
          [-120.60806, 32.1741],
          [-120.58176, 32.17836],
          [-120.55547, 32.1826],
          [-120.52917, 32.18685],
          [-120.52704, 32.1895],
          [-120.50788, 32.21334],
          [-120.48158, 32.21758],
          [-120.47945, 32.22023],
          [-120.46027, 32.24406],
          [-120.45814, 32.24671],
          [-120.43895, 32.27055],
          [-120.43682, 32.27319],
          [-120.41762, 32.29702],
          [-120.41549, 32.29967],
          [-120.39629, 32.3235],
          [-120.39415, 32.32614],
          [-120.39915, 32.3484],
          [-120.37993, 32.37222],
          [-120.35358, 32.37643],
          [-120.32724, 32.38064],
          [-120.3251, 32.38328],
          [-120.30586, 32.40709],
          [-120.2795, 32.41129],
          [-120.25315, 32.41549],
          [-120.22678, 32.41968],
          [-120.22464, 32.42233],
          [-120.20538, 32.44612],
          [-120.20324, 32.44877],
          [-120.18397, 32.47256],
          [-120.18182, 32.4752],
          [-120.18678, 32.49745],
          [-120.1675, 32.52124],
          [-120.16535, 32.52388],
          [-120.14606, 32.54766],
          [-120.14392, 32.55031],
          [-120.12461, 32.57409],
          [-120.12247, 32.57673],
          [-120.12742, 32.59898],
          [-120.1081, 32.62275],
          [-120.08169, 32.62692],
          [-120.05527, 32.63108],
          [-120.02886, 32.63523],
          [-120.00244, 32.63939],
          [-120.00029, 32.64203],
          [-120.00522, 32.66427],
          [-120.01015, 32.68652],
          [-120.01508, 32.70876],
          [-120.02002, 32.73101],
          [-120.00066, 32.75476],
          [-119.9985, 32.7574],
          [-119.97914, 32.78115],
          [-119.97698, 32.78379],
          [-119.98192, 32.80603],
          [-119.96254, 32.82977],
          [-119.96038, 32.83241],
          [-119.96531, 32.85465],
          [-119.94592, 32.87839],
          [-119.94377, 32.88103],
          [-119.92436, 32.90476],
          [-119.92221, 32.9074],
          [-119.92713, 32.92964],
          [-119.93206, 32.95187],
          [-119.91265, 32.9756],
          [-119.91049, 32.97824],
          [-119.91541, 33.00047],
          [-119.92034, 33.0227],
          [-119.90091, 33.04643],
          [-119.89875, 33.04906],
          [-119.90368, 33.07129],
          [-119.90861, 33.09352],
          [-119.91176, 33.09533],
          [-119.94007, 33.11161],
          [-119.92063, 33.13533],
          [-119.91847, 33.13797],
          [-119.92341, 33.16019],
          [-119.92835, 33.18241],
          [-119.93328, 33.20463],
          [-119.93822, 33.22685],
          [-119.94317, 33.24906],
          [-119.9237, 33.27278],
          [-119.92154, 33.27541],
          [-119.92648, 33.29763],
          [-119.93142, 33.31984],
          [-119.93637, 33.34205],
          [-119.91689, 33.36576],
          [-119.91472, 33.36839],
          [-119.91967, 33.3906],
          [-119.90017, 33.4143],
          [-119.89801, 33.41694],
          [-119.90295, 33.43914],
          [-119.9079, 33.46135],
          [-119.91105, 33.46316],
          [-119.93946, 33.47942],
          [-119.94262, 33.48123],
          [-119.97104, 33.49749],
          [-119.976, 33.51969],
          [-119.98096, 33.54189],
          [-119.98593, 33.56409],
          [-119.99089, 33.58628],
          [-119.99586, 33.60848],
          [-120.00083, 33.63067],
          [-119.98132, 33.65436],
          [-119.97915, 33.657],
          [-119.98412, 33.67919],
          [-119.98909, 33.70137],
          [-119.96956, 33.72506],
          [-119.96739, 33.7277],
          [-119.97236, 33.74988],
          [-119.95281, 33.77357],
          [-119.95064, 33.7762],
          [-119.95561, 33.79838],
          [-119.93605, 33.82206],
          [-119.93388, 33.82469],
          [-119.93885, 33.84687],
          [-119.94382, 33.86905],
          [-119.94879, 33.89123],
          [-119.95376, 33.91341],
          [-119.95874, 33.93558],
          [-119.96372, 33.95775],
          [-119.9687, 33.97993],
          [-119.97368, 34.0021],
          [-119.97866, 34.02426],
          [-119.98365, 34.04643],
          [-119.98863, 34.0686],
          [-119.96904, 34.09226],
          [-119.96686, 34.09489],
          [-119.97185, 34.11705],
          [-119.97683, 34.13921],
          [-119.98182, 34.16137],
          [-119.98682, 34.18353],
          [-119.99181, 34.20569],
          [-119.99681, 34.22784],
          [-119.97718, 34.2515],
          [-119.975, 34.25413],
          [-119.95537, 34.27778],
          [-119.95319, 34.2804],
          [-119.93355, 34.30405],
          [-119.93137, 34.30668],
          [-119.91172, 34.33032],
          [-119.90953, 34.33295],
          [-119.91452, 34.35509],
          [-119.89486, 34.37873],
          [-119.89267, 34.38136],
          [-119.89766, 34.4035],
          [-119.90264, 34.42565],
          [-119.90583, 34.42745],
          [-119.93267, 34.42333],
          [-119.96133, 34.43955],
          [-119.96633, 34.46169],
          [-119.97133, 34.48383],
          [-119.95166, 34.50747],
          [-119.94947, 34.51009],
          [-119.92979, 34.53372],
          [-119.92761, 34.53635],
          [-119.90791, 34.55997],
          [-119.90573, 34.5626],
          [-119.91072, 34.58473],
          [-119.91572, 34.60686],
          [-119.92072, 34.62899],
          [-119.92572, 34.65112],
          [-119.93072, 34.67325],
          [-119.93573, 34.69537],
          [-119.93892, 34.69717],
          [-119.96765, 34.71338],
          [-119.97266, 34.7355],
          [-119.97768, 34.75762],
          [-119.98269, 34.77974],
          [-119.96297, 34.80335],
          [-119.96078, 34.80597],
          [-119.9658, 34.82809],
          [-119.94606, 34.8517],
          [-119.94387, 34.85432],
          [-119.94889, 34.87643],
          [-119.9539, 34.89854],
          [-119.95892, 34.92065],
          [-119.96394, 34.94276],
          [-119.96897, 34.96486],
          [-119.94921, 34.98846],
          [-119.94701, 34.99108],
          [-119.92725, 35.01468],
          [-119.92505, 35.0173],
          [-119.90527, 35.04089],
          [-119.90308, 35.04351],
          [-119.90809, 35.06561],
          [-119.91311, 35.08771],
          [-119.91813, 35.1098],
          [-119.92315, 35.1319],
          [-119.90336, 35.15548],
          [-119.90116, 35.1581],
          [-119.90618, 35.18019],
          [-119.9112, 35.20228],
          [-119.91622, 35.22437],
          [-119.92125, 35.24645],
          [-119.92628, 35.26854],
          [-119.90646, 35.29211],
          [-119.90426, 35.29473],
          [-119.90928, 35.31681],
          [-119.88945, 35.34037],
          [-119.88725, 35.34299],
          [-119.89227, 35.36507],
          [-119.87243, 35.38863],
          [-119.87022, 35.39125],
          [-119.87525, 35.41332],
          [-119.88027, 35.4354],
          [-119.86041, 35.45895],
          [-119.85821, 35.46156],
          [-119.86323, 35.48363],
          [-119.84336, 35.50718],
          [-119.84115, 35.50979],
          [-119.84617, 35.53186],
          [-119.8512, 35.55393],
          [-119.85623, 35.57599],
          [-119.85945, 35.57779],
          [-119.88839, 35.59396],
          [-119.89343, 35.61602],
          [-119.87354, 35.63956],
          [-119.87133, 35.64217],
          [-119.87637, 35.66423],
          [-119.85646, 35.68776],
          [-119.85425, 35.69038],
          [-119.83434, 35.71391],
          [-119.83213, 35.71652],
          [-119.83716, 35.73857],
          [-119.81723, 35.76209],
          [-119.81502, 35.76471],
          [-119.82005, 35.78676],
          [-119.82508, 35.8088],
          [-119.83012, 35.83085],
          [-119.83516, 35.85289],
          [-119.8402, 35.87493],
          [-119.84524, 35.89697],
          [-119.85028, 35.91901],
          [-119.83033, 35.94252],
          [-119.82811, 35.94513],
          [-119.83315, 35.96717],
          [-119.8382, 35.9892],
          [-119.81822, 36.0127],
          [-119.81601, 36.01531],
          [-119.82105, 36.03734],
          [-119.80107, 36.06084],
          [-119.79885, 36.06345],
          [-119.80389, 36.08547],
          [-119.80893, 36.1075],
          [-119.81398, 36.12952],
          [-119.81902, 36.15154],
          [-119.82407, 36.17356],
          [-119.82913, 36.19558],
          [-119.83236, 36.19737],
          [-119.86147, 36.21351],
          [-119.86653, 36.23552],
          [-119.87159, 36.25754],
          [-119.87666, 36.27954],
          [-119.88172, 36.30155],
          [-119.88679, 36.32356],
          [-119.89186, 36.34556],
          [-119.89694, 36.36756],
          [-119.90018, 36.36935],
          [-119.92934, 36.38547],
          [-119.90932, 36.40895],
          [-119.90709, 36.41156],
          [-119.91217, 36.43355],
          [-119.91725, 36.45555],
          [-119.89721, 36.47902],
          [-119.89499, 36.48162],
          [-119.90007, 36.50361],
          [-119.88002, 36.52708],
          [-119.87779, 36.52968],
          [-119.88287, 36.55167],
          [-119.88795, 36.57365],
          [-119.86788, 36.59711],
          [-119.86565, 36.59972],
          [-119.84558, 36.62317],
          [-119.84334, 36.62577],
          [-119.84842, 36.64775],
          [-119.82833, 36.6712],
          [-119.8261, 36.6738],
          [-119.83118, 36.69578],
          [-119.83625, 36.71775],
          [-119.81615, 36.74119],
          [-119.81391, 36.74379],
          [-119.81899, 36.76577],
          [-119.82407, 36.78773],
          [-119.82915, 36.8097],
          [-119.83423, 36.83166],
          [-119.83932, 36.85363],
          [-119.81919, 36.87705],
          [-119.81695, 36.87966],
          [-119.82203, 36.90161],
          [-119.80189, 36.92503],
          [-119.79965, 36.92764],
          [-119.80474, 36.94959],
          [-119.80982, 36.97154],
          [-119.81491, 36.9935],
          [-119.79475, 37.01691],
          [-119.79251, 37.01951],
          [-119.79759, 37.04145],
          [-119.80268, 37.0634],
          [-119.80777, 37.08534],
          [-119.78759, 37.10874],
          [-119.78535, 37.11134],
          [-119.79043, 37.13328],
          [-119.79552, 37.15522],
          [-119.80062, 37.17716],
          [-119.78042, 37.20055],
          [-119.77817, 37.20315],
          [-119.78326, 37.22508],
          [-119.78836, 37.24701],
          [-119.79345, 37.26894],
          [-119.77324, 37.29232],
          [-119.77099, 37.29492],
          [-119.77608, 37.31684],
          [-119.75585, 37.34022],
          [-119.75361, 37.34281],
          [-119.7587, 37.36473],
          [-119.76379, 37.38665],
          [-119.76889, 37.40857],
          [-119.77399, 37.43048],
          [-119.77909, 37.4524],
          [-119.78419, 37.47431],
          [-119.7893, 37.49621],
          [-119.7944, 37.51812],
          [-119.79951, 37.54002],
          [-119.80462, 37.56192],
          [-119.80973, 37.58382],
          [-119.81485, 37.60572],
          [-119.81997, 37.62762],
          [-119.82509, 37.64951],
          [-119.83021, 37.6714],
          [-119.83533, 37.69329],
          [-119.84046, 37.71518],
          [-119.84558, 37.73706],
          [-119.85071, 37.75894],
          [-119.85585, 37.78082],
          [-119.86098, 37.8027],
          [-119.86612, 37.82458],
          [-119.87125, 37.84645],
          [-119.87639, 37.86832],
          [-119.88154, 37.89019],
          [-119.88668, 37.91206],
          [-119.89183, 37.93392],
          [-119.89698, 37.95579],
          [-119.90213, 37.97765],
          [-119.90728, 37.99951],
          [-119.91244, 38.02136],
          [-119.91759, 38.04322],
          [-119.92275, 38.06507],
          [-119.92791, 38.08692],
          [-119.93446, 38.10856],
          [-119.93637, 38.11054],
          [-119.95352, 38.12837],
          [-119.97118, 38.14839],
          [-119.97636, 38.17023],
          [-119.98154, 38.19206],
          [-119.98672, 38.2139],
          [-119.9919, 38.23573],
          [-119.99708, 38.25757],
          [-120.00227, 38.27939],
          [-120.00746, 38.30122],
          [-120.01265, 38.32305],
          [-120.01784, 38.34487],
          [-120.02114, 38.34664],
          [-120.05086, 38.36261],
          [-120.05606, 38.38443],
          [-120.06127, 38.40625],
          [-120.06647, 38.42806],
          [-120.07168, 38.44987],
          [-120.07689, 38.47168],
          [-120.0821, 38.49348],
          [-120.08732, 38.51529],
          [-120.09254, 38.53709],
          [-120.09776, 38.55889],
          [-120.10298, 38.58069],
          [-120.1082, 38.60248],
          [-120.11343, 38.62427],
          [-120.1061, 38.6479],
          [-120.09825, 38.66935],
          [-120.09598, 38.67193],
          [-120.10121, 38.69372],
          [-120.10643, 38.7155],
          [-120.08601, 38.73878],
          [-120.08374, 38.74136],
          [-120.08897, 38.76314],
          [-120.06853, 38.78641],
          [-120.06626, 38.78899],
          [-120.04582, 38.81226],
          [-120.04354, 38.81484],
          [-120.02309, 38.8381],
          [-120.02081, 38.84068],
          [-120.00035, 38.86393],
          [-119.97239, 38.86799],
          [-119.94442, 38.87204],
          [-119.91646, 38.87609],
          [-119.88661, 38.86014],
          [-119.8833, 38.85836],
          [-119.85533, 38.8624],
          [-119.8255, 38.84644],
          [-119.82219, 38.84466],
          [-119.79423, 38.84869],
          [-119.76441, 38.83271],
          [-119.76109, 38.83094],
          [-119.73313, 38.83496],
          [-119.70333, 38.81897],
          [-119.70002, 38.81719],
          [-119.67206, 38.8212],
          [-119.64226, 38.8052],
          [-119.63896, 38.80342],
          [-119.611, 38.80742],
          [-119.58303, 38.81142],
          [-119.55326, 38.7954],
          [-119.54995, 38.79362],
          [-119.52199, 38.79761],
          [-119.49403, 38.80159],
          [-119.49174, 38.80417],
          [-119.47117, 38.82736],
          [-119.4432, 38.83134],
          [-119.41522, 38.83531],
          [-119.38725, 38.83927],
          [-119.38496, 38.84185],
          [-119.36435, 38.86502],
          [-119.33637, 38.86898],
          [-119.33408, 38.87155],
          [-119.31345, 38.89472],
          [-119.28546, 38.89867],
          [-119.28316, 38.90124],
          [-119.26252, 38.9244],
          [-119.23452, 38.92834],
          [-119.20651, 38.93227],
          [-119.20422, 38.93484],
          [-119.18355, 38.95799],
          [-119.15553, 38.96191],
          [-119.12752, 38.96584],
          [-119.09949, 38.96975],
          [-119.07147, 38.97366],
          [-119.06917, 38.97623],
          [-119.04847, 38.99936],
          [-119.02044, 39.00326],
          [-118.9924, 39.00716],
          [-118.96436, 39.01105],
          [-118.96206, 39.01362],
          [-118.94133, 39.03673],
          [-118.93902, 39.0393],
          [-118.91828, 39.0624],
          [-118.89023, 39.06628],
          [-118.88792, 39.06884],
          [-118.86716, 39.09194],
          [-118.86485, 39.0945],
          [-118.84408, 39.11759],
          [-118.84178, 39.12015],
          [-118.84676, 39.14193],
          [-118.82598, 39.16501],
          [-118.7979, 39.16888],
          [-118.79559, 39.17144],
          [-118.77478, 39.19451],
          [-118.74502, 39.17838],
          [-118.74172, 39.17659],
          [-118.71363, 39.18044],
          [-118.68553, 39.18429],
          [-118.65744, 39.18813],
          [-118.62934, 39.19197],
          [-118.60124, 39.1958],
          [-118.57314, 39.19963],
          [-118.57082, 39.20219],
          [-118.54996, 39.22523],
          [-118.52185, 39.22905],
          [-118.49212, 39.21288],
          [-118.4872, 39.1911],
          [-118.4839, 39.1893],
          [-118.45419, 39.17312],
          [-118.45088, 39.17133],
          [-118.42278, 39.17513],
          [-118.39308, 39.15894],
          [-118.38978, 39.15714],
          [-118.36168, 39.16094],
          [-118.33358, 39.16473],
          [-118.33126, 39.16729],
          [-118.31036, 39.1903],
          [-118.28225, 39.19408],
          [-118.25414, 39.19786],
          [-118.22602, 39.20163],
          [-118.1979, 39.2054],
          [-118.16978, 39.20916],
          [-118.16746, 39.21172],
          [-118.14651, 39.23471],
          [-118.14418, 39.23726],
          [-118.12323, 39.26025],
          [-118.09509, 39.264],
          [-118.06695, 39.26774],
          [-118.03881, 39.27148],
          [-118.01067, 39.27522],
          [-117.98252, 39.27895],
          [-117.98019, 39.2815],
          [-117.95919, 39.30446],
          [-117.92953, 39.2882],
          [-117.92623, 39.2864],
          [-117.89808, 39.29012],
          [-117.86993, 39.29383],
          [-117.84177, 39.29754],
          [-117.81362, 39.30124],
          [-117.81128, 39.30379],
          [-117.79024, 39.32673],
          [-117.76207, 39.33042],
          [-117.75973, 39.33297],
          [-117.73867, 39.3559],
          [-117.7105, 39.35959],
          [-117.68232, 39.36327],
          [-117.65414, 39.36695],
          [-117.62596, 39.37062],
          [-117.59777, 39.37429],
          [-117.59543, 39.37683],
          [-117.57432, 39.39974],
          [-117.54613, 39.40339],
          [-117.5165, 39.38708],
          [-117.51321, 39.38526],
          [-117.48359, 39.36894],
          [-117.4803, 39.36712],
          [-117.45211, 39.37077],
          [-117.42392, 39.37441],
          [-117.39573, 39.37804],
          [-117.36754, 39.38167],
          [-117.33934, 39.3853],
          [-117.31114, 39.38892],
          [-117.28294, 39.39254],
          [-117.25474, 39.39615],
          [-117.22654, 39.39976],
          [-117.19696, 39.38338],
          [-117.19367, 39.38156],
          [-117.16547, 39.38516],
          [-117.13727, 39.38876],
          [-117.10906, 39.39234],
          [-117.0795, 39.37595],
          [-117.07487, 39.35415],
          [-117.07159, 39.35233],
          [-117.04205, 39.33592],
          [-117.03742, 39.31412],
          [-117.03414, 39.31229],
          [-117.00462, 39.29588],
          [-117.00134, 39.29406],
          [-116.97183, 39.27764],
          [-116.96855, 39.27581],
          [-116.94037, 39.27938],
          [-116.91087, 39.26294],
          [-116.90759, 39.26112],
          [-116.8781, 39.24468],
          [-116.87482, 39.24285],
          [-116.84665, 39.2464],
          [-116.81847, 39.24995],
          [-116.79029, 39.25349],
          [-116.76211, 39.25702],
          [-116.73393, 39.26055],
          [-116.70574, 39.26408],
          [-116.67756, 39.2676],
          [-116.67519, 39.27014],
          [-116.65391, 39.29294],
          [-116.62571, 39.29645],
          [-116.59751, 39.29996],
          [-116.59515, 39.3025],
          [-116.57384, 39.32529],
          [-116.54563, 39.32879],
          [-116.51742, 39.33228],
          [-116.48921, 39.33577],
          [-116.461, 39.33926],
          [-116.43278, 39.34274],
          [-116.40335, 39.32623],
          [-116.40008, 39.32439],
          [-116.37186, 39.32786],
          [-116.34244, 39.31134],
          [-116.33917, 39.3095],
          [-116.30976, 39.29297],
          [-116.30649, 39.29114],
          [-116.27708, 39.2746],
          [-116.27382, 39.27276],
          [-116.24442, 39.25622],
          [-116.24116, 39.25438],
          [-116.21178, 39.23783],
          [-116.20851, 39.23599],
          [-116.17914, 39.21943],
          [-116.17588, 39.21759],
          [-116.14651, 39.20103],
          [-116.14208, 39.17918],
          [-116.13882, 39.17734],
          [-116.10947, 39.16077],
          [-116.10505, 39.13892],
          [-116.10063, 39.11707],
          [-116.09621, 39.09521],
          [-116.09296, 39.09337],
          [-116.06364, 39.07678],
          [-116.05923, 39.05492],
          [-116.05482, 39.03306],
          [-116.05042, 39.0112],
          [-116.04601, 38.98933],
          [-116.04161, 38.96746],
          [-116.03836, 38.96562],
          [-116.00909, 38.94901],
          [-116.0047, 38.92714],
          [-116.00031, 38.90526],
          [-115.99592, 38.88338],
          [-115.99267, 38.88154],
          [-115.96343, 38.86492],
          [-115.95905, 38.84303],
          [-115.95467, 38.82115],
          [-115.95029, 38.79926],
          [-115.94592, 38.77737],
          [-115.94155, 38.75548],
          [-115.93718, 38.73358],
          [-115.93393, 38.73173],
          [-115.90474, 38.71509],
          [-115.90038, 38.69319],
          [-115.89602, 38.67129],
          [-115.89167, 38.64939],
          [-115.88842, 38.64754],
          [-115.85927, 38.63088],
          [-115.85603, 38.62903],
          [-115.82688, 38.61236],
          [-115.82364, 38.61051],
          [-115.7956, 38.6139],
          [-115.76646, 38.59723],
          [-115.76323, 38.59538],
          [-115.7341, 38.57869],
          [-115.73087, 38.57684],
          [-115.70283, 38.58022],
          [-115.67372, 38.56352],
          [-115.67048, 38.56167],
          [-115.64138, 38.54497],
          [-115.63815, 38.54311],
          [-115.61012, 38.54647],
          [-115.58103, 38.52976],
          [-115.5778, 38.52791],
          [-115.54977, 38.53126],
          [-115.5474, 38.53379],
          [-115.52602, 38.55653],
          [-115.49799, 38.55987],
          [-115.46995, 38.56321],
          [-115.44191, 38.56654],
          [-115.41387, 38.56987],
          [-115.38582, 38.5732],
          [-115.35778, 38.57652],
          [-115.32872, 38.55977],
          [-115.32549, 38.5579],
          [-115.29745, 38.56121],
          [-115.26841, 38.54445],
          [-115.26518, 38.54259],
          [-115.23714, 38.54589],
          [-115.2091, 38.54919],
          [-115.18105, 38.55248],
          [-115.17867, 38.555],
          [-115.15721, 38.5777],
          [-115.15482, 38.58022],
          [-115.15903, 38.60215],
          [-115.13755, 38.62484],
          [-115.13516, 38.62736],
          [-115.13936, 38.64928],
          [-115.14357, 38.6712],
          [-115.12207, 38.69388],
          [-115.11969, 38.6964],
          [-115.12389, 38.71832],
          [-115.12809, 38.74024],
          [-115.13229, 38.76215],
          [-115.11078, 38.78482],
          [-115.10839, 38.78734],
          [-115.11259, 38.80925],
          [-115.09106, 38.83191],
          [-115.08867, 38.83443],
          [-115.06713, 38.85709],
          [-115.06474, 38.8596],
          [-115.06893, 38.88151],
          [-115.04738, 38.90416],
          [-115.04499, 38.90667],
          [-115.04918, 38.92857],
          [-115.02761, 38.95121],
          [-115.02522, 38.95373],
          [-115.00364, 38.97637],
          [-115.00124, 38.97888],
          [-115.00543, 39.00077],
          [-114.98384, 39.0234],
          [-114.98144, 39.02592],
          [-114.95984, 39.04854],
          [-114.95744, 39.05105],
          [-114.96162, 39.07294],
          [-114.94001, 39.09556],
          [-114.93761, 39.09807],
          [-114.94178, 39.11995],
          [-114.92016, 39.14256],
          [-114.91775, 39.14507],
          [-114.89612, 39.16767],
          [-114.89371, 39.17018],
          [-114.87206, 39.19278],
          [-114.86966, 39.19529],
          [-114.848, 39.21788],
          [-114.84559, 39.22039],
          [-114.82392, 39.24298],
          [-114.82152, 39.24549],
          [-114.79984, 39.26807],
          [-114.79743, 39.27058],
          [-114.77574, 39.29315],
          [-114.74748, 39.29636],
          [-114.71922, 39.29957],
          [-114.69007, 39.28277],
          [-114.68683, 39.2809],
          [-114.65769, 39.26409],
          [-114.65356, 39.24222],
          [-114.64944, 39.22034],
          [-114.64532, 39.19846],
          [-114.6412, 39.17658],
          [-114.63708, 39.1547],
          [-114.63297, 39.13281],
          [-114.62885, 39.11092],
          [-114.62474, 39.08903],
          [-114.62063, 39.06714],
          [-114.61652, 39.04524],
          [-114.61329, 39.04337],
          [-114.58422, 39.02653],
          [-114.58012, 39.00463],
          [-114.5769, 39.00276],
          [-114.54785, 38.98591],
          [-114.54462, 38.98404],
          [-114.51644, 38.98722],
          [-114.48826, 38.99039],
          [-114.46007, 38.99356],
          [-114.43189, 38.99672],
          [-114.42948, 38.99923],
          [-114.40776, 39.02179],
          [-114.37957, 39.02494],
          [-114.37716, 39.02745],
          [-114.35543, 39.04999],
          [-114.32722, 39.05314],
          [-114.2982, 39.03625],
          [-114.29498, 39.03438],
          [-114.26596, 39.01749],
          [-114.26193, 38.99558],
          [-114.25871, 38.9937],
          [-114.22971, 38.9768],
          [-114.22569, 38.95488],
          [-114.22167, 38.93297],
          [-114.21845, 38.93109],
          [-114.18947, 38.91417],
          [-114.18546, 38.89225],
          [-114.18145, 38.87033],
          [-114.20318, 38.84778],
          [-114.20559, 38.84528],
          [-114.20158, 38.82335],
          [-114.19757, 38.80142],
          [-114.21928, 38.77887],
          [-114.22169, 38.77636],
          [-114.21767, 38.75443],
          [-114.23937, 38.73187],
          [-114.26749, 38.72873],
          [-114.29643, 38.74564],
          [-114.29964, 38.74752],
          [-114.32776, 38.74438],
          [-114.35671, 38.76128],
          [-114.35993, 38.76316],
          [-114.38889, 38.78006],
          [-114.3921, 38.78193],
          [-114.42023, 38.77877],
          [-114.44836, 38.77561],
          [-114.45077, 38.7731],
          [-114.47242, 38.75051],
          [-114.50054, 38.74734],
          [-114.50294, 38.74482],
          [-114.52458, 38.72223],
          [-114.52698, 38.71972],
          [-114.54861, 38.69711],
          [-114.55101, 38.6946],
          [-114.57262, 38.67199],
          [-114.57502, 38.66948],
          [-114.57094, 38.64754],
          [-114.59254, 38.62493],
          [-114.59494, 38.62241],
          [-114.61653, 38.59979],
          [-114.61893, 38.59728],
          [-114.61484, 38.57533],
          [-114.63641, 38.5527],
          [-114.63881, 38.55019],
          [-114.63472, 38.52824],
          [-114.63063, 38.50629],
          [-114.65219, 38.48366],
          [-114.65458, 38.48114],
          [-114.65049, 38.45919],
          [-114.67203, 38.43654],
          [-114.67443, 38.43402],
          [-114.67033, 38.41207],
          [-114.69186, 38.38941],
          [-114.69426, 38.3869],
          [-114.69104, 38.38502],
          [-114.66215, 38.36815],
          [-114.65894, 38.36627],
          [-114.63005, 38.34939],
          [-114.62684, 38.34751],
          [-114.59883, 38.35071],
          [-114.57082, 38.35391],
          [-114.56842, 38.35642],
          [-114.54687, 38.37906],
          [-114.51885, 38.38225],
          [-114.49083, 38.38543],
          [-114.48844, 38.38795],
          [-114.46686, 38.41057],
          [-114.43883, 38.41375],
          [-114.4108, 38.41692],
          [-114.38277, 38.42008],
          [-114.35473, 38.42324],
          [-114.35233, 38.42575],
          [-114.33072, 38.44836],
          [-114.30186, 38.43143],
          [-114.29865, 38.42954],
          [-114.27061, 38.43269],
          [-114.24257, 38.43583],
          [-114.21453, 38.43897],
          [-114.18569, 38.42202],
          [-114.18249, 38.42013],
          [-114.15366, 38.40317],
          [-114.15046, 38.40129],
          [-114.12164, 38.38432],
          [-114.11844, 38.38244],
          [-114.08963, 38.36547],
          [-114.08643, 38.36358],
          [-114.05764, 38.3466],
          [-114.05444, 38.34471],
          [-114.02565, 38.32773],
          [-114.02246, 38.32584],
          [-113.99443, 38.32894],
          [-113.96566, 38.31195],
          [-113.96247, 38.31006],
          [-113.93445, 38.31315],
          [-113.90569, 38.29614],
          [-113.9025, 38.29425],
          [-113.87448, 38.29733],
          [-113.84646, 38.30041],
          [-113.81772, 38.28339],
          [-113.81453, 38.2815],
          [-113.7858, 38.26447],
          [-113.78261, 38.26257],
          [-113.75459, 38.26564],
          [-113.72588, 38.2486],
          [-113.72269, 38.2467],
          [-113.69468, 38.24976],
          [-113.66667, 38.25281],
          [-113.63797, 38.23575],
          [-113.63478, 38.23386],
          [-113.60609, 38.21679],
          [-113.60291, 38.2149],
          [-113.57423, 38.19783],
          [-113.57104, 38.19593],
          [-113.54237, 38.17885],
          [-113.53919, 38.17695],
          [-113.51053, 38.15987],
          [-113.50735, 38.15797],
          [-113.4787, 38.14088],
          [-113.47552, 38.13898],
          [-113.44753, 38.142],
          [-113.41954, 38.14501],
          [-113.39155, 38.14802],
          [-113.36356, 38.15102],
          [-113.33556, 38.15402],
          [-113.33314, 38.15652],
          [-113.31137, 38.17902],
          [-113.28337, 38.18201],
          [-113.28095, 38.18451],
          [-113.25916, 38.20701],
          [-113.25674, 38.20951],
          [-113.23494, 38.232],
          [-113.20692, 38.23497],
          [-113.1789, 38.23794],
          [-113.15088, 38.24091],
          [-113.12285, 38.24387],
          [-113.09483, 38.24683],
          [-113.0668, 38.24978],
          [-113.03877, 38.25273],
          [-113.01074, 38.25568],
          [-113.00831, 38.25817],
          [-112.98645, 38.28062],
          [-112.95841, 38.28356],
          [-112.95598, 38.28605],
          [-112.9341, 38.3085],
          [-112.90606, 38.31143],
          [-112.90362, 38.31392],
          [-112.88173, 38.33635],
          [-112.8793, 38.33885],
          [-112.85739, 38.36128],
          [-112.85496, 38.36377],
          [-112.83304, 38.38619],
          [-112.8306, 38.38868],
          [-112.80868, 38.4111],
          [-112.80624, 38.41359],
          [-112.80995, 38.43559],
          [-112.78801, 38.458],
          [-112.78557, 38.46049],
          [-112.78928, 38.48249],
          [-112.76732, 38.50489],
          [-112.76488, 38.50738],
          [-112.74292, 38.52978],
          [-112.74048, 38.53227],
          [-112.74418, 38.55426],
          [-112.7222, 38.57665],
          [-112.69408, 38.57954],
          [-112.69163, 38.58203],
          [-112.66964, 38.60441],
          [-112.66719, 38.60689],
          [-112.64519, 38.62927],
          [-112.64274, 38.63176],
          [-112.62073, 38.65413],
          [-112.59258, 38.657],
          [-112.59013, 38.65948],
          [-112.5681, 38.68185],
          [-112.56565, 38.68433],
          [-112.54361, 38.70669],
          [-112.51544, 38.70954],
          [-112.51299, 38.71203],
          [-112.49093, 38.73437],
          [-112.46276, 38.73722],
          [-112.46031, 38.7397],
          [-112.43823, 38.76204],
          [-112.43578, 38.76452],
          [-112.41369, 38.78685],
          [-112.41123, 38.78933],
          [-112.38913, 38.81166],
          [-112.38668, 38.81414],
          [-112.36457, 38.83646],
          [-112.36211, 38.83894],
          [-112.33999, 38.86125],
          [-112.33754, 38.86373],
          [-112.31541, 38.88604],
          [-112.31295, 38.88852],
          [-112.29081, 38.91082],
          [-112.28835, 38.9133],
          [-112.2662, 38.9356],
          [-112.26374, 38.93807],
          [-112.24158, 38.96036],
          [-112.23911, 38.96284],
          [-112.21694, 38.98513],
          [-112.1887, 38.98793],
          [-112.18623, 38.9904],
          [-112.16404, 39.01268],
          [-112.13579, 39.01547],
          [-112.10753, 39.01826],
          [-112.07927, 39.02104],
          [-112.05101, 39.02382],
          [-112.02237, 39.00656],
          [-112.01918, 39.00464],
          [-112, 39.00652]
        ]
      }
    }
  ]
}

