{
  "type": "FeatureCollection",
  "contract_version": "1.0.0",
  "bbox": [-130, 30.1724, -112, 44.5],
  "features": [
    {
      "type": "Feature",
      "id": "2026093018_f240_09000_001",
      "properties": {
        "product_id": "winter_storm_levels",
        "source_id": "nbm_snow_level",
        "parameter": "snow_level",
        "definition": "height of the wet-bulb 0.5 degree C surface",
        "level_ft_msl": 9000,
        "label": "9,000 ft MSL",
        "unit": "ft_msl",
        "cycle_time_utc": "2026-09-30T18:00:00Z",
        "valid_time_utc": "2026-10-10T18:00:00Z",
        "lead_hours": 240,
        "segment": 1,
        "length_m": 194410.4
      },
      "geometry": {
        "type": "LineString",
        "coordinates": [
          [-127.19633, 44.5],
          [-127.18261, 44.48131],
          [-127.17554, 44.46046],
          [-127.16643, 44.43996],
          [-127.15411, 44.42001],
          [-127.14706, 44.39915],
          [-127.1473, 44.37702],
          [-127.14365, 44.35556],
          [-127.14633, 44.33301],
          [-127.14793, 44.31948],
          [-127.14803, 44.31063],
          [-127.15167, 44.2879],
          [-127.15143, 44.26584],
          [-127.15595, 44.2518],
          [-127.15702, 44.24277],
          [-127.16649, 44.21902],
          [-127.171, 44.20497],
          [-127.17401, 44.19561],
          [-127.18153, 44.17219],
          [-127.18604, 44.15813],
          [-127.19487, 44.14775],
          [-127.20811, 44.13218],
          [-127.21111, 44.12281],
          [-127.20989, 44.10089],
          [-127.22312, 44.08531],
          [-127.23194, 44.07493],
          [-127.24517, 44.05934],
          [-127.25398, 44.04895],
          [-127.2672, 44.03336],
          [-127.27601, 44.02297],
          [-127.28922, 44.00738],
          [-127.29803, 43.99698],
          [-127.31123, 43.98138],
          [-127.32004, 43.97098],
          [-127.30559, 43.96465],
          [-127.27652, 43.96973],
          [-127.24746, 43.9748],
          [-127.23865, 43.9852],
          [-127.22543, 44.00079],
          [-127.19635, 44.00585],
          [-127.16727, 44.01091],
          [-127.15845, 44.0213],
          [-127.14521, 44.03689],
          [-127.11612, 44.04194],
          [-127.10729, 44.05232],
          [-127.09404, 44.0679],
          [-127.08521, 44.07828],
          [-127.07196, 44.09385],
          [-127.04284, 44.09889],
          [-127.034, 44.10927],
          [-127.02073, 44.12483],
          [-126.99161, 44.12986],
          [-126.96993, 44.12033],
          [-126.95548, 44.11398],
          [-126.93381, 44.10444],
          [-126.91937, 44.09808],
          [-126.8977, 44.08854],
          [-126.89073, 44.06763],
          [-126.87629, 44.06126],
          [-126.85464, 44.05172],
          [-126.84021, 44.04535],
          [-126.81856, 44.0358],
          [-126.80414, 44.02943],
          [-126.7825, 44.01987],
          [-126.77555, 43.99894],
          [-126.76113, 43.99256],
          [-126.73951, 43.983],
          [-126.7251, 43.97662],
          [-126.71623, 43.98699],
          [-126.70293, 44.00255],
          [-126.69406, 44.01292],
          [-126.68075, 44.02847],
          [-126.65164, 44.03345],
          [-126.64276, 44.04381],
          [-126.64969, 44.06474],
          [-126.63636, 44.08028],
          [-126.62748, 44.09064],
          [-126.61415, 44.10618],
          [-126.60526, 44.11654],
          [-126.59193, 44.13207],
          [-126.58303, 44.14242],
          [-126.56969, 44.15795],
          [-126.56079, 44.1683],
          [-126.56771, 44.18922],
          [-126.55435, 44.20474],
          [-126.54545, 44.21509],
          [-126.53209, 44.23061],
          [-126.52318, 44.24095],
          [-126.5301, 44.26186],
          [-126.53701, 44.28276],
          [-126.52364, 44.29827],
          [-126.51472, 44.30861],
          [-126.50135, 44.32412],
          [-126.49243, 44.33446],
          [-126.47904, 44.34996],
          [-126.47012, 44.36029],
          [-126.47703, 44.38118],
          [-126.46363, 44.39668],
          [-126.4547, 44.40701],
          [-126.46161, 44.4279],
          [-126.44821, 44.44339],
          [-126.43927, 44.45371],
          [-126.42586, 44.4692],
          [-126.41692, 44.47952],
          [-126.4237, 44.5]
        ]
      }
    },
    {
      "type": "Feature",
      "id": "2026093018_f240_09000_002",
      "properties": {
        "product_id": "winter_storm_levels",
        "source_id": "nbm_snow_level",
        "parameter": "snow_level",
        "definition": "height of the wet-bulb 0.5 degree C surface",
        "level_ft_msl": 9000,
        "label": "9,000 ft MSL",
        "unit": "ft_msl",
        "cycle_time_utc": "2026-09-30T18:00:00Z",
        "valid_time_utc": "2026-10-10T18:00:00Z",
        "lead_hours": 240,
        "segment": 2,
        "length_m": 13606
      },
      "geometry": {
        "type": "LineString",
        "coordinates": [
          [-127.37108, 43.93989],
          [-127.36401, 43.91897],
          [-127.34957, 43.91264],
          [-127.34078, 43.92304],
          [-127.32758, 43.93865],
          [-127.31879, 43.94905],
          [-127.33323, 43.95538],
          [-127.36229, 43.95029],
          [-127.37108, 43.93989]
        ]
      }
    },
    {
      "type": "Feature",
      "id": "2026093018_f240_10000_001",
      "properties": {
        "product_id": "winter_storm_levels",
        "source_id": "nbm_snow_level",
        "parameter": "snow_level",
        "definition": "height of the wet-bulb 0.5 degree C surface",
        "level_ft_msl": 10000,
        "label": "10,000 ft MSL",
        "unit": "ft_msl",
        "cycle_time_utc": "2026-09-30T18:00:00Z",
        "valid_time_utc": "2026-10-10T18:00:00Z",
        "lead_hours": 240,
        "segment": 1,
        "length_m": 321566
      },
      "geometry": {
        "type": "LineString",
        "coordinates": [
          [-120.32907, 44.5],
          [-120.31592, 44.4936],
          [-120.29836, 44.48505],
          [-120.2808, 44.4765],
          [-120.26324, 44.46795],
          [-120.24568, 44.4594],
          [-120.22813, 44.45084],
          [-120.21059, 44.44228],
          [-120.19304, 44.43372],
          [-120.18749, 44.41263],
          [-120.18194, 44.39153],
          [-120.16441, 44.38297],
          [-120.15426, 44.37341],
          [-120.14134, 44.3533],
          [-120.1358, 44.33219],
          [-120.11829, 44.32362],
          [-120.10077, 44.31504],
          [-120.08326, 44.30646],
          [-120.07312, 44.29689],
          [-120.06023, 44.27677],
          [-120.04273, 44.26818],
          [-120.02523, 44.2596],
          [-120.01973, 44.23848],
          [-120.00224, 44.22988],
          [-119.98475, 44.22129],
          [-119.97189, 44.20115],
          [-119.96178, 44.19157],
          [-119.9443, 44.18297],
          [-119.93145, 44.16282],
          [-119.92134, 44.15323],
          [-119.91124, 44.14365],
          [-119.89841, 44.12349],
          [-119.89294, 44.10234],
          [-119.88747, 44.0812],
          [-119.882, 44.06005],
          [-119.89399, 44.04751],
          [-119.90597, 44.03497],
          [-119.9005, 44.01381],
          [-119.91248, 44.00127],
          [-119.92445, 43.98872],
          [-119.90701, 43.98011],
          [-119.88958, 43.97149],
          [-119.87215, 43.96287],
          [-119.86017, 43.97542],
          [-119.84819, 43.98796],
          [-119.81878, 43.99188],
          [-119.78936, 43.9958],
          [-119.77737, 44.00833],
          [-119.76538, 44.02087],
          [-119.73595, 44.02478],
          [-119.70652, 44.02868],
          [-119.69451, 44.04121],
          [-119.6825, 44.05373],
          [-119.65306, 44.05763],
          [-119.64105, 44.07015],
          [-119.62903, 44.08267],
          [-119.59958, 44.08656],
          [-119.57012, 44.09044],
          [-119.54067, 44.09431],
          [-119.52863, 44.10682],
          [-119.51659, 44.11933],
          [-119.48713, 44.1232],
          [-119.45766, 44.12706],
          [-119.42818, 44.13092],
          [-119.41613, 44.14342],
          [-119.40407, 44.15592],
          [-119.37459, 44.15977],
          [-119.34511, 44.16361],
          [-119.31562, 44.16745],
          [-119.30355, 44.17994],
          [-119.29147, 44.19243],
          [-119.26197, 44.19626],
          [-119.24989, 44.20875],
          [-119.2378, 44.22123],
          [-119.20829, 44.22505],
          [-119.1962, 44.23753],
          [-119.1841, 44.25001],
          [-119.15458, 44.25382],
          [-119.14248, 44.2663],
          [-119.13037, 44.27877],
          [-119.10084, 44.28257],
          [-119.07131, 44.28637],
          [-119.04177, 44.29016],
          [-119.01223, 44.29394],
          [-119.00011, 44.30641],
          [-118.98798, 44.31887],
          [-118.95843, 44.32265],
          [-118.92888, 44.32642],
          [-118.89932, 44.33019],
          [-118.86977, 44.33395],
          [-118.84021, 44.33771],
          [-118.81065, 44.34146],
          [-118.79849, 44.35391],
          [-118.78633, 44.36635],
          [-118.75676, 44.3701],
          [-118.72718, 44.37384],
          [-118.69761, 44.37757],
          [-118.66803, 44.38131],
          [-118.63845, 44.38503],
          [-118.60887, 44.38875],
          [-118.59668, 44.40118],
          [-118.58448, 44.41361],
          [-118.55489, 44.41732],
          [-118.52529, 44.42103],
          [-118.4957, 44.42473],
          [-118.4661, 44.42843],
          [-118.43649, 44.43212],
          [-118.41911, 44.4234],
          [-118.40173, 44.41467],
          [-118.37213, 44.41836],
          [-118.34252, 44.42203],
          [-118.31292, 44.42571],
          [-118.28331, 44.42938],
          [-118.2537, 44.43304],
          [-118.23633, 44.4243],
          [-118.21897, 44.41556],
          [-118.18936, 44.41921],
          [-118.15975, 44.42286],
          [-118.14239, 44.41411],
          [-118.12504, 44.40536],
          [-118.09543, 44.409],
          [-118.07808, 44.40024],
          [-118.06073, 44.39148],
          [-118.03113, 44.39511],
          [-118.00152, 44.39874],
          [-117.98418, 44.38997],
          [-117.96684, 44.38121],
          [-117.93724, 44.38482],
          [-117.90763, 44.38843],
          [-117.87802, 44.39204],
          [-117.8484, 44.39564],
          [-117.81879, 44.39924],
          [-117.78917, 44.40284],
          [-117.75955, 44.40642],
          [-117.72993, 44.41001],
          [-117.71762, 44.42238],
          [-117.70531, 44.43475],
          [-117.67568, 44.43832],
          [-117.64605, 44.44189],
          [-117.61641, 44.44546],
          [-117.58677, 44.44902],
          [-117.57444, 44.46138],
          [-117.56211, 44.47373],
          [-117.53246, 44.47728],
          [-117.51515, 44.46848],
          [-117.49784, 44.45967],
          [-117.46819, 44.46321],
          [-117.43854, 44.46675],
          [-117.42124, 44.45794],
          [-117.40394, 44.44912],
          [-117.3743, 44.45265],
          [-117.34465, 44.45617],
          [-117.31499, 44.45969],
          [-117.28534, 44.4632],
          [-117.27297, 44.47554],
          [-117.2606, 44.48787],
          [-117.23093, 44.49138],
          [-117.20126, 44.49488],
          [-117.19611, 44.5]
        ]
      }
    },
    {
      "type": "Feature",
      "id": "2026093018_f240_10000_002",
      "properties": {
        "product_id": "winter_storm_levels",
        "source_id": "nbm_snow_level",
        "parameter": "snow_level",
        "definition": "height of the wet-bulb 0.5 degree C surface",
        "level_ft_msl": 10000,
        "label": "10,000 ft MSL",
        "unit": "ft_msl",
        "cycle_time_utc": "2026-09-30T18:00:00Z",
        "valid_time_utc": "2026-10-10T18:00:00Z",
        "lead_hours": 240,
        "segment": 2,
        "length_m": 267475.5
      },
      "geometry": {
        "type": "LineString",
        "coordinates": [
          [-129.70819, 35.65023],
          [-129.7012, 35.62853],
          [-129.69421, 35.60682],
          [-129.67737, 35.59881],
          [-129.66053, 35.59079],
          [-129.6437, 35.58277],
          [-129.62686, 35.57475],
          [-129.6199, 35.55304],
          [-129.60307, 35.54502],
          [-129.57638, 35.55068],
          [-129.55956, 35.54265],
          [-129.54274, 35.53462],
          [-129.51605, 35.54028],
          [-129.48935, 35.54593],
          [-129.46266, 35.55157],
          [-129.45278, 35.56526],
          [-129.44289, 35.57894],
          [-129.41619, 35.58457],
          [-129.38948, 35.59021],
          [-129.36277, 35.59583],
          [-129.35287, 35.60951],
          [-129.34297, 35.62318],
          [-129.31625, 35.6288],
          [-129.30634, 35.64247],
          [-129.29643, 35.65614],
          [-129.28652, 35.6698],
          [-129.27661, 35.68347],
          [-129.26669, 35.69713],
          [-129.25677, 35.71079],
          [-129.23003, 35.7164],
          [-129.20328, 35.722],
          [-129.17652, 35.7276],
          [-129.14977, 35.73319],
          [-129.12301, 35.73878],
          [-129.09625, 35.74436],
          [-129.08631, 35.75801],
          [-129.07636, 35.77166],
          [-129.04959, 35.77723],
          [-129.02281, 35.7828],
          [-128.99604, 35.78837],
          [-128.96926, 35.79393],
          [-128.95244, 35.78585],
          [-128.93563, 35.77777],
          [-128.90885, 35.78332],
          [-128.88207, 35.78887],
          [-128.85528, 35.79441],
          [-128.82849, 35.79995],
          [-128.8017, 35.80548],
          [-128.77491, 35.81101],
          [-128.76492, 35.82464],
          [-128.75493, 35.83827],
          [-128.72812, 35.84379],
          [-128.71132, 35.83569],
          [-128.69451, 35.82758],
          [-128.66771, 35.83309],
          [-128.6409, 35.8386],
          [-128.6141, 35.8441],
          [-128.58728, 35.8496],
          [-128.56047, 35.8551],
          [-128.53365, 35.86059],
          [-128.52363, 35.8742],
          [-128.5136, 35.88781],
          [-128.50357, 35.90142],
          [-128.49354, 35.91503],
          [-128.4835, 35.92863],
          [-128.49027, 35.95036],
          [-128.50708, 35.95849],
          [-128.53392, 35.953],
          [-128.55073, 35.96112],
          [-128.56755, 35.96924],
          [-128.59439, 35.96375],
          [-128.62123, 35.95825],
          [-128.64806, 35.95274],
          [-128.6749, 35.94724],
          [-128.70173, 35.94172],
          [-128.72856, 35.93621],
          [-128.73856, 35.92259],
          [-128.74857, 35.90897],
          [-128.77538, 35.90344],
          [-128.8022, 35.89791],
          [-128.81902, 35.90601],
          [-128.83585, 35.9141],
          [-128.86266, 35.90856],
          [-128.88947, 35.90302],
          [-128.91628, 35.89747],
          [-128.94309, 35.89192],
          [-128.95992, 35.9],
          [-128.97676, 35.90808],
          [-128.98673, 35.89444],
          [-128.9967, 35.88081],
          [-129.0235, 35.87524],
          [-129.05029, 35.86967],
          [-129.07709, 35.8641],
          [-129.10388, 35.85852],
          [-129.13066, 35.85294],
          [-129.15745, 35.84735],
          [-129.18423, 35.84176],
          [-129.21101, 35.83617],
          [-129.23779, 35.83057],
          [-129.26456, 35.82496],
          [-129.28141, 35.83301],
          [-129.29826, 35.84106],
          [-129.32503, 35.83545],
          [-129.3518, 35.82983],
          [-129.37857, 35.82421],
          [-129.40534, 35.81858],
          [-129.42219, 35.82662],
          [-129.43905, 35.83465],
          [-129.44895, 35.82098],
          [-129.45886, 35.80731],
          [-129.48562, 35.80167],
          [-129.51237, 35.79603],
          [-129.52227, 35.78236],
          [-129.53216, 35.76868],
          [-129.5589, 35.76303],
          [-129.58564, 35.75737],
          [-129.59553, 35.74369],
          [-129.60541, 35.73001],
          [-129.63214, 35.72435],
          [-129.65887, 35.71868],
          [-129.66873, 35.70499],
          [-129.6786, 35.6913],
          [-129.68847, 35.67761],
          [-129.69833, 35.66392],
          [-129.70819, 35.65023]
        ]
      }
    },
    {
      "type": "Feature",
      "id": "2026093018_f240_10000_003",
      "properties": {
        "product_id": "winter_storm_levels",
        "source_id": "nbm_snow_level",
        "parameter": "snow_level",
        "definition": "height of the wet-bulb 0.5 degree C surface",
        "level_ft_msl": 10000,
        "label": "10,000 ft MSL",
        "unit": "ft_msl",
        "cycle_time_utc": "2026-09-30T18:00:00Z",
        "valid_time_utc": "2026-10-10T18:00:00Z",
        "lead_hours": 240,
        "segment": 3,
        "length_m": 1298429.8
      },
      "geometry": {
        "type": "LineString",
        "coordinates": [
          [-130, 37.0115],
          [-129.99479, 37.01259],
          [-129.97771, 37.00465],
          [-129.96063, 36.99671],
          [-129.9336, 37.0024],
          [-129.90657, 37.00808],
          [-129.8895, 37.00013],
          [-129.87243, 36.99218],
          [-129.8454, 36.99785],
          [-129.81836, 37.00353],
          [-129.79133, 37.00919],
          [-129.76429, 37.01486],
          [-129.74722, 37.00689],
          [-129.73016, 36.99892],
          [-129.70312, 37.00458],
          [-129.67608, 37.01023],
          [-129.64903, 37.01587],
          [-129.62198, 37.02151],
          [-129.59493, 37.02715],
          [-129.57788, 37.01917],
          [-129.56083, 37.01118],
          [-129.53378, 37.01681],
          [-129.50672, 37.02243],
          [-129.47966, 37.02805],
          [-129.4526, 37.03366],
          [-129.43556, 37.02566],
          [-129.41852, 37.01767],
          [-129.39146, 37.02327],
          [-129.36439, 37.02887],
          [-129.35437, 37.04247],
          [-129.34433, 37.05607],
          [-129.31726, 37.06166],
          [-129.29018, 37.06725],
          [-129.28014, 37.08084],
          [-129.2701, 37.09444],
          [-129.24301, 37.10002],
          [-129.23296, 37.11361],
          [-129.22291, 37.1272],
          [-129.19581, 37.13277],
          [-129.16871, 37.13833],
          [-129.15865, 37.15192],
          [-129.14858, 37.1655],
          [-129.12147, 37.17106],
          [-129.09435, 37.17661],
          [-129.08428, 37.19019],
          [-129.0742, 37.20376],
          [-129.04707, 37.20931],
          [-129.01995, 37.21485],
          [-128.99282, 37.22038],
          [-128.98272, 37.23395],
          [-128.97263, 37.24752],
          [-128.94549, 37.25305],
          [-128.91834, 37.25857],
          [-128.89119, 37.26409],
          [-128.88108, 37.27765],
          [-128.87097, 37.29121],
          [-128.84382, 37.29672],
          [-128.81665, 37.30223],
          [-128.80653, 37.31578],
          [-128.79641, 37.32933],
          [-128.76924, 37.33483],
          [-128.74206, 37.34032],
          [-128.73193, 37.35387],
          [-128.72179, 37.36742],
          [-128.6946, 37.3729],
          [-128.66742, 37.37838],
          [-128.65727, 37.39193],
          [-128.64712, 37.40547],
          [-128.61992, 37.41094],
          [-128.59272, 37.41641],
          [-128.56552, 37.42187],
          [-128.55535, 37.4354],
          [-128.54518, 37.44893],
          [-128.51797, 37.45439],
          [-128.49075, 37.45984],
          [-128.48057, 37.47337],
          [-128.47039, 37.48689],
          [-128.44316, 37.49233],
          [-128.43298, 37.50585],
          [-128.42279, 37.51937],
          [-128.39555, 37.52481],
          [-128.36831, 37.53024],
          [-128.34106, 37.53566],
          [-128.31382, 37.54108],
          [-128.28657, 37.5465],
          [-128.25932, 37.55191],
          [-128.2491, 37.56542],
          [-128.23888, 37.57892],
          [-128.21162, 37.58433],
          [-128.18435, 37.58973],
          [-128.17413, 37.60323],
          [-128.16389, 37.61673],
          [-128.13662, 37.62212],
          [-128.12638, 37.63561],
          [-128.11614, 37.64911],
          [-128.08885, 37.65449],
          [-128.07861, 37.66798],
          [-128.06836, 37.68147],
          [-128.04106, 37.68685],
          [-128.02402, 37.67873],
          [-128.00698, 37.67061],
          [-127.97968, 37.67597],
          [-127.96942, 37.68946],
          [-127.95915, 37.70294],
          [-127.93184, 37.7083],
          [-127.92157, 37.72178],
          [-127.9113, 37.73525],
          [-127.88398, 37.7406],
          [-127.8737, 37.75407],
          [-127.86341, 37.76755],
          [-127.83608, 37.77289],
          [-127.82579, 37.78636],
          [-127.8155, 37.79982],
          [-127.78816, 37.80516],
          [-127.76082, 37.81048],
          [-127.75051, 37.82395],
          [-127.74021, 37.83741],
          [-127.71285, 37.84272],
          [-127.6855, 37.84804],
          [-127.65814, 37.85335],
          [-127.64782, 37.8668],
          [-127.6375, 37.88025],
          [-127.61013, 37.88556],
          [-127.58275, 37.89085],
          [-127.57242, 37.9043],
          [-127.56208, 37.91775],
          [-127.55174, 37.93119],
          [-127.5414, 37.94463],
          [-127.53106, 37.95808],
          [-127.52071, 37.97152],
          [-127.51036, 37.98496],
          [-127.50001, 37.99839],
          [-127.48966, 38.01183],
          [-127.4793, 38.02527],
          [-127.46894, 38.0387],
          [-127.47564, 38.06029],
          [-127.46527, 38.07372],
          [-127.45491, 38.08715],
          [-127.44454, 38.10058],
          [-127.43417, 38.11401],
          [-127.42379, 38.12743],
          [-127.41341, 38.14086],
          [-127.40304, 38.15428],
          [-127.39265, 38.1677],
          [-127.38227, 38.18112],
          [-127.37188, 38.19454],
          [-127.37857, 38.21612],
          [-127.36818, 38.22954],
          [-127.35778, 38.24296],
          [-127.36447, 38.26453],
          [-127.35407, 38.27795],
          [-127.34367, 38.29136],
          [-127.35036, 38.31293],
          [-127.35705, 38.3345],
          [-127.34664, 38.34791],
          [-127.33623, 38.36132],
          [-127.32582, 38.37472],
          [-127.31541, 38.38813],
          [-127.3221, 38.40969],
          [-127.31168, 38.42309],
          [-127.30126, 38.43649],
          [-127.29084, 38.44989],
          [-127.28041, 38.46329],
          [-127.26999, 38.47669],
          [-127.25956, 38.49008],
          [-127.24912, 38.50347],
          [-127.23869, 38.51687],
          [-127.24537, 38.53842],
          [-127.23493, 38.55181],
          [-127.22449, 38.5652],
          [-127.21404, 38.57859],
          [-127.20359, 38.59197],
          [-127.19314, 38.60535],
          [-127.16557, 38.61057],
          [-127.15511, 38.62395],
          [-127.14465, 38.63733],
          [-127.13419, 38.6507],
          [-127.12372, 38.66408],
          [-127.11326, 38.67745],
          [-127.10279, 38.69083],
          [-127.09231, 38.7042],
          [-127.08184, 38.71757],
          [-127.07136, 38.73094],
          [-127.06088, 38.74431],
          [-127.0504, 38.75767],
          [-127.03991, 38.77104],
          [-127.02942, 38.7844],
          [-127.01893, 38.79776],
          [-127.00844, 38.81112],
          [-126.99794, 38.82448],
          [-126.9703, 38.82966],
          [-126.95979, 38.84301],
          [-126.94929, 38.85637],
          [-126.93878, 38.86972],
          [-126.92827, 38.88307],
          [-126.91776, 38.89642],
          [-126.90724, 38.90977],
          [-126.89672, 38.92311],
          [-126.8862, 38.93646],
          [-126.87567, 38.9498],
          [-126.86515, 38.96314],
          [-126.83746, 38.9683],
          [-126.82693, 38.98164],
          [-126.81639, 38.99497],
          [-126.80585, 39.00831],
          [-126.79531, 39.02164],
          [-126.78476, 39.03498],
          [-126.77422, 39.04831],
          [-126.76367, 39.06164],
          [-126.75312, 39.07496],
          [-126.74256, 39.08829],
          [-126.732, 39.10162],
          [-126.72144, 39.11494],
          [-126.71088, 39.12826],
          [-126.70031, 39.14159],
          [-126.68975, 39.1549],
          [-126.67918, 39.16822],
          [-126.6686, 39.18154],
          [-126.65802, 39.19485],
          [-126.66463, 39.21637],
          [-126.65405, 39.22968],
          [-126.64347, 39.24299],
          [-126.63288, 39.2563],
          [-126.6051, 39.26141],
          [-126.59451, 39.27471],
          [-126.58392, 39.28802],
          [-126.57332, 39.30132],
          [-126.56272, 39.31462],
          [-126.55211, 39.32793],
          [-126.5587, 39.34943],
          [-126.5481, 39.36272],
          [-126.52029, 39.36782],
          [-126.50967, 39.38111],
          [-126.49906, 39.39441],
          [-126.48844, 39.4077],
          [-126.47782, 39.42099],
          [-126.46719, 39.43427],
          [-126.47377, 39.45577],
          [-126.46314, 39.46905],
          [-126.45251, 39.48234],
          [-126.44188, 39.49562],
          [-126.43124, 39.5089],
          [-126.4206, 39.52218],
          [-126.39274, 39.52725],
          [-126.3821, 39.54053],
          [-126.37145, 39.5538],
          [-126.34358, 39.55886],
          [-126.33292, 39.57214],
          [-126.32226, 39.58541],
          [-126.3116, 39.59867],
          [-126.30094, 39.61194],
          [-126.29027, 39.62521],
          [-126.29683, 39.64669],
          [-126.30338, 39.66817],
          [-126.29271, 39.68143],
          [-126.28204, 39.69469],
          [-126.27136, 39.70795],
          [-126.26068, 39.7212],
          [-126.25, 39.73446],
          [-126.23931, 39.74771],
          [-126.24586, 39.76918],
          [-126.23517, 39.78244],
          [-126.20724, 39.78747],
          [-126.19654, 39.80072],
          [-126.18584, 39.81396],
          [-126.17514, 39.82721],
          [-126.16444, 39.84045],
          [-126.15373, 39.8537],
          [-126.14302, 39.86694],
          [-126.1323, 39.88018],
          [-126.12159, 39.89341],
          [-126.11087, 39.90665],
          [-126.10015, 39.91989],
          [-126.08943, 39.93312],
          [-126.09596, 39.95457],
          [-126.08523, 39.9678],
          [-126.0745, 39.98103],
          [-126.06377, 39.99426],
          [-126.05303, 40.00749],
          [-126.05956, 40.02894],
          [-126.04882, 40.04216],
          [-126.03808, 40.05538],
          [-126.02733, 40.0686],
          [-126.01658, 40.08182],
          [-126.00583, 40.09504],
          [-125.99508, 40.10825],
          [-125.98432, 40.12147],
          [-125.97356, 40.13468],
          [-125.9628, 40.14789],
          [-125.95204, 40.1611],
          [-125.94127, 40.17431],
          [-125.9305, 40.18752],
          [-125.91972, 40.20072],
          [-125.90895, 40.21393],
          [-125.89817, 40.22713],
          [-125.88739, 40.24033],
          [-125.8939, 40.26176],
          [-125.88311, 40.27496],
          [-125.87232, 40.28815],
          [-125.87884, 40.30958],
          [-125.86804, 40.32277],
          [-125.85725, 40.33596],
          [-125.84645, 40.34915],
          [-125.83565, 40.36234],
          [-125.82485, 40.37553],
          [-125.81404, 40.38872],
          [-125.80323, 40.4019],
          [-125.77511, 40.40685],
          [-125.76429, 40.42003],
          [-125.75347, 40.43321],
          [-125.74265, 40.44639],
          [-125.73183, 40.45956],
          [-125.70368, 40.4645],
          [-125.69285, 40.47767],
          [-125.68202, 40.49084],
          [-125.67118, 40.50401],
          [-125.66034, 40.51718],
          [-125.6495, 40.53035],
          [-125.63865, 40.54351],
          [-125.62781, 40.55667],
          [-125.61696, 40.56984],
          [-125.58878, 40.57475],
          [-125.57792, 40.58791],
          [-125.56706, 40.60107],
          [-125.53887, 40.60597],
          [-125.528, 40.61913],
          [-125.51713, 40.63228],
          [-125.50626, 40.64543],
          [-125.49539, 40.65857],
          [-125.48451, 40.67172],
          [-125.47363, 40.68487],
          [-125.46274, 40.69801],
          [-125.45186, 40.71115],
          [-125.42363, 40.71604],
          [-125.41274, 40.72917],
          [-125.40184, 40.74231],
          [-125.39094, 40.75545],
          [-125.39738, 40.77684],
          [-125.38648, 40.78997],
          [-125.37557, 40.8031],
          [-125.36466, 40.81623],
          [-125.35375, 40.82936],
          [-125.34284, 40.84248],
          [-125.33192, 40.85561],
          [-125.321, 40.86873],
          [-125.31008, 40.88185],
          [-125.29915, 40.89497],
          [-125.28822, 40.90809],
          [-125.29465, 40.92946],
          [-125.28372, 40.94258],
          [-125.27278, 40.95569],
          [-125.26185, 40.96881],
          [-125.25091, 40.98192],
          [-125.23996, 40.99503],
          [-125.22902, 41.00813],
          [-125.23544, 41.0295],
          [-125.22449, 41.0426],
          [-125.21353, 41.05571],
          [-125.20258, 41.06881],
          [-125.19162, 41.08191],
          [-125.18065, 41.09501],
          [-125.16969, 41.1081],
          [-125.17611, 41.12946],
          [-125.16514, 41.14255],
          [-125.15416, 41.15565],
          [-125.14319, 41.16874],
          [-125.13221, 41.18183],
          [-125.13862, 41.20318],
          [-125.12764, 41.21626],
          [-125.11666, 41.22935],
          [-125.10567, 41.24243],
          [-125.09468, 41.25551],
          [-125.08369, 41.26859],
          [-125.07269, 41.28167],
          [-125.06169, 41.29475],
          [-125.05069, 41.30782],
          [-125.03969, 41.3209],
          [-125.02868, 41.33397],
          [-125.03508, 41.3553],
          [-125.02407, 41.36837],
          [-125.01305, 41.38144],
          [-125.00204, 41.39451],
          [-124.99101, 41.40757],
          [-124.99741, 41.4289],
          [-124.98639, 41.44196],
          [-124.97536, 41.45502],
          [-124.96433, 41.46808],
          [-124.9533, 41.48114],
          [-124.94226, 41.49419],
          [-124.93122, 41.50724],
          [-124.92018, 41.5203],
          [-124.90914, 41.53335],
          [-124.89809, 41.54639],
          [-124.88704, 41.55944],
          [-124.87599, 41.57249],
          [-124.86493, 41.58553],
          [-124.87131, 41.60684],
          [-124.86025, 41.61988],
          [-124.84919, 41.63292],
          [-124.85557, 41.65423],
          [-124.8445, 41.66726],
          [-124.83343, 41.6803],
          [-124.82236, 41.69333],
          [-124.81129, 41.70636],
          [-124.81766, 41.72766],
          [-124.80658, 41.74069],
          [-124.7955, 41.75372],
          [-124.78441, 41.76674],
          [-124.77333, 41.77977],
          [-124.7797, 41.80106],
          [-124.76861, 41.81408],
          [-124.75751, 41.8271],
          [-124.76389, 41.84839],
          [-124.75279, 41.8614],
          [-124.74168, 41.87442],
          [-124.73058, 41.88743],
          [-124.71947, 41.90044],
          [-124.70836, 41.91345],
          [-124.69724, 41.92646],
          [-124.68612, 41.93946],
          [-124.675, 41.95247],
          [-124.68137, 41.97374],
          [-124.67024, 41.98675],
          [-124.65912, 41.99975],
          [-124.64799, 42.01274],
          [-124.63685, 42.02574],
          [-124.64321, 42.04701],
          [-124.63208, 42.06],
          [-124.62094, 42.07299],
          [-124.60979, 42.08598],
          [-124.59865, 42.09897],
          [-124.5875, 42.11196],
          [-124.57634, 42.12495],
          [-124.56519, 42.13793],
          [-124.55403, 42.15091],
          [-124.54287, 42.16389],
          [-124.51419, 42.1686],
          [-124.50303, 42.18158],
          [-124.49186, 42.19455],
          [-124.48068, 42.20752],
          [-124.46951, 42.2205],
          [-124.44081, 42.22519],
          [-124.42963, 42.23815],
          [-124.41844, 42.25112],
          [-124.38974, 42.2558],
          [-124.37854, 42.26877],
          [-124.36734, 42.28173],
          [-124.35615, 42.29469],
          [-124.34494, 42.30764],
          [-124.33374, 42.3206],
          [-124.32253, 42.33355],
          [-124.31132, 42.34651],
          [-124.3001, 42.35946],
          [-124.28889, 42.37241],
          [-124.27767, 42.38536],
          [-124.26644, 42.3983],
          [-124.25522, 42.41125],
          [-124.24399, 42.42419],
          [-124.23276, 42.43713],
          [-124.20399, 42.44178],
          [-124.19275, 42.45471],
          [-124.18151, 42.46765],
          [-124.17027, 42.48058],
          [-124.15902, 42.49352],
          [-124.13023, 42.49815],
          [-124.11898, 42.51108],
          [-124.10772, 42.524],
          [-124.07892, 42.52863],
          [-124.06766, 42.54155],
          [-124.05639, 42.55447],
          [-124.04512, 42.56739],
          [-124.03385, 42.58031],
          [-124.00503, 42.58492],
          [-123.99375, 42.59784],
          [-123.98246, 42.61075],
          [-123.97118, 42.62366],
          [-123.95989, 42.63657],
          [-123.9486, 42.64948],
          [-123.9373, 42.66238],
          [-123.90846, 42.66698],
          [-123.89715, 42.67988],
          [-123.88585, 42.69278],
          [-123.85699, 42.69736],
          [-123.84568, 42.71026],
          [-123.83436, 42.72315],
          [-123.80549, 42.72773],
          [-123.79417, 42.74062],
          [-123.78285, 42.75351],
          [-123.77152, 42.7664],
          [-123.76019, 42.77928],
          [-123.7313, 42.78385],
          [-123.71996, 42.79673],
          [-123.70862, 42.80961],
          [-123.67972, 42.81416],
          [-123.66837, 42.82704],
          [-123.65702, 42.83991],
          [-123.64566, 42.85279],
          [-123.63431, 42.86566],
          [-123.60539, 42.8702],
          [-123.59402, 42.88307],
          [-123.58266, 42.89593],
          [-123.57129, 42.90879],
          [-123.55991, 42.92166],
          [-123.53097, 42.92619],
          [-123.51959, 42.93904],
          [-123.50821, 42.9519],
          [-123.49682, 42.96475],
          [-123.48543, 42.97761],
          [-123.47404, 42.99046],
          [-123.46264, 43.00331],
          [-123.45125, 43.01615],
          [-123.43984, 43.029],
          [-123.42844, 43.04184],
          [-123.41703, 43.05469],
          [-123.40562, 43.06753],
          [-123.39421, 43.08037],
          [-123.38279, 43.0932],
          [-123.37137, 43.10604],
          [-123.35995, 43.11887],
          [-123.34853, 43.13171],
          [-123.3371, 43.14454],
          [-123.32567, 43.15736],
          [-123.29665, 43.16185],
          [-123.28521, 43.17468],
          [-123.27377, 43.1875],
          [-123.26233, 43.20032],
          [-123.25088, 43.21314],
          [-123.23943, 43.22596],
          [-123.22798, 43.23877],
          [-123.21652, 43.25159],
          [-123.20506, 43.2644],
          [-123.1936, 43.27721],
          [-123.18214, 43.29002],
          [-123.15307, 43.29448],
          [-123.1416, 43.30728],
          [-123.13012, 43.32009],
          [-123.11865, 43.33289],
          [-123.10716, 43.34569],
          [-123.09568, 43.35849],
          [-123.08419, 43.37128],
          [-123.0727, 43.38408],
          [-123.06121, 43.39687],
          [-123.03211, 43.40131],
          [-123.02061, 43.4141],
          [-123.00911, 43.42689],
          [-122.9976, 43.43967],
          [-122.98609, 43.45246],
          [-122.97458, 43.46524],
          [-122.96306, 43.47802],
          [-122.93393, 43.48244],
          [-122.92241, 43.49521],
          [-122.91088, 43.50799],
          [-122.89936, 43.52076],
          [-122.88782, 43.53353],
          [-122.87629, 43.5463],
          [-122.86475, 43.55907],
          [-122.85321, 43.57184],
          [-122.84167, 43.5846],
          [-122.8125, 43.589],
          [-122.80095, 43.60176],
          [-122.7894, 43.61452],
          [-122.77784, 43.62727],
          [-122.76628, 43.64003],
          [-122.75472, 43.65278],
          [-122.74315, 43.66553],
          [-122.73158, 43.67828],
          [-122.72001, 43.69103],
          [-122.70844, 43.70378],
          [-122.69686, 43.71652],
          [-122.68528, 43.72926],
          [-122.67369, 43.74201],
          [-122.66211, 43.75474],
          [-122.65052, 43.76748],
          [-122.62129, 43.77184],
          [-122.60969, 43.78458],
          [-122.59809, 43.79731],
          [-122.56885, 43.80166],
          [-122.5396, 43.80601],
          [-122.52799, 43.81874],
          [-122.51638, 43.83146],
          [-122.48712, 43.8358],
          [-122.4755, 43.84852],
          [-122.46388, 43.86124],
          [-122.45225, 43.87396],
          [-122.44062, 43.88667],
          [-122.41134, 43.891],
          [-122.3997, 43.90371],
          [-122.38806, 43.91642],
          [-122.35877, 43.92074],
          [-122.34713, 43.93344],
          [-122.33547, 43.94614],
          [-122.32382, 43.95884],
          [-122.31216, 43.97154],
          [-122.3005, 43.98424],
          [-122.28883, 43.99694],
          [-122.25952, 44.00124],
          [-122.24785, 44.01393],
          [-122.23617, 44.02662],
          [-122.2245, 44.03931],
          [-122.21282, 44.05199],
          [-122.18348, 44.05628],
          [-122.17179, 44.06896],
          [-122.1601, 44.08165],
          [-122.14841, 44.09432],
          [-122.13671, 44.107],
          [-122.12501, 44.11968],
          [-122.11331, 44.13235],
          [-122.08394, 44.13662],
          [-122.07223, 44.14929],
          [-122.06052, 44.16196],
          [-122.03114, 44.16622],
          [-122.01942, 44.17888],
          [-122.0077, 44.19154],
          [-121.97831, 44.19579],
          [-121.94893, 44.20004],
          [-121.91954, 44.20428],
          [-121.89014, 44.20852],
          [-121.8784, 44.22117],
          [-121.86665, 44.23382],
          [-121.83725, 44.23805],
          [-121.82549, 44.25069],
          [-121.81373, 44.26334],
          [-121.78432, 44.26756],
          [-121.7549, 44.27177],
          [-121.72548, 44.27598],
          [-121.70783, 44.26755],
          [-121.69019, 44.25912],
          [-121.66077, 44.26332],
          [-121.64313, 44.25488],
          [-121.62549, 44.24644],
          [-121.60786, 44.238],
          [-121.59023, 44.22956],
          [-121.5726, 44.22111],
          [-121.55498, 44.21267],
          [-121.53735, 44.20422],
          [-121.53152, 44.18313],
          [-121.51391, 44.17468],
          [-121.4963, 44.16622],
          [-121.47869, 44.15777],
          [-121.46109, 44.14931],
          [-121.44349, 44.14084],
          [-121.41409, 44.14501],
          [-121.3847, 44.14917],
          [-121.3553, 44.15332],
          [-121.32589, 44.15747],
          [-121.29649, 44.16162],
          [-121.26708, 44.16576],
          [-121.2495, 44.15728],
          [-121.23191, 44.1488],
          [-121.2025, 44.15293],
          [-121.1731, 44.15706],
          [-121.14369, 44.16118],
          [-121.13185, 44.17379],
          [-121.12001, 44.1864],
          [-121.09059, 44.19051],
          [-121.06116, 44.19462],
          [-121.03174, 44.19872],
          [-121.00231, 44.20282],
          [-120.97288, 44.20692],
          [-120.96101, 44.21951],
          [-120.94915, 44.23211],
          [-120.9197, 44.23619],
          [-120.90783, 44.24878],
          [-120.89595, 44.26137],
          [-120.8665, 44.26544],
          [-120.85461, 44.27803],
          [-120.84273, 44.29061],
          [-120.83083, 44.30319],
          [-120.81894, 44.31576],
          [-120.80704, 44.32834],
          [-120.79514, 44.34091],
          [-120.78324, 44.35348],
          [-120.77133, 44.36605],
          [-120.74184, 44.37011],
          [-120.72993, 44.38267],
          [-120.7356, 44.40375],
          [-120.72368, 44.41632],
          [-120.71176, 44.42888],
          [-120.69983, 44.44144],
          [-120.67032, 44.44548],
          [-120.65838, 44.45803],
          [-120.64645, 44.47059],
          [-120.61692, 44.47462],
          [-120.60498, 44.48717],
          [-120.59303, 44.49971],
          [-120.59094, 44.5]
        ]
      }
    },
    {
      "type": "Feature",
      "id": "2026093018_f240_11000_001",
      "properties": {
        "product_id": "winter_storm_levels",
        "source_id": "nbm_snow_level",
        "parameter": "snow_level",
        "definition": "height of the wet-bulb 0.5 degree C surface",
        "level_ft_msl": 11000,
        "label": "11,000 ft MSL",
        "unit": "ft_msl",
        "cycle_time_utc": "2026-09-30T18:00:00Z",
        "valid_time_utc": "2026-10-10T18:00:00Z",
        "lead_hours": 240,
        "segment": 1,
        "length_m": 2198028.5
      },
      "geometry": {
        "type": "LineString",
        "coordinates": [
          [-126.199, 30.1724],
          [-126.20204, 30.18361],
          [-126.19419, 30.19454],
          [-126.18242, 30.21094],
          [-126.18842, 30.23308],
          [-126.18057, 30.24401],
          [-126.16879, 30.26041],
          [-126.16093, 30.27134],
          [-126.14915, 30.28773],
          [-126.15515, 30.30988],
          [-126.16115, 30.33202],
          [-126.16715, 30.35416],
          [-126.17316, 30.3763],
          [-126.17916, 30.39844],
          [-126.18517, 30.42057],
          [-126.19119, 30.44271],
          [-126.1972, 30.46485],
          [-126.20322, 30.48698],
          [-126.22224, 30.49715],
          [-126.23493, 30.50392],
          [-126.24095, 30.52606],
          [-126.24698, 30.54819],
          [-126.23911, 30.55911],
          [-126.22731, 30.57551],
          [-126.23334, 30.59763],
          [-126.23937, 30.61976],
          [-126.2454, 30.64189],
          [-126.25144, 30.66401],
          [-126.25747, 30.68614],
          [-126.2496, 30.69707],
          [-126.23778, 30.71345],
          [-126.24382, 30.73558],
          [-126.23594, 30.7465],
          [-126.22412, 30.76289],
          [-126.21623, 30.77381],
          [-126.19048, 30.779],
          [-126.17777, 30.77222],
          [-126.15871, 30.76205],
          [-126.14687, 30.77843],
          [-126.13898, 30.78935],
          [-126.12714, 30.80573],
          [-126.11924, 30.81664],
          [-126.09348, 30.82181],
          [-126.08163, 30.83819],
          [-126.07373, 30.8491],
          [-126.06187, 30.86547],
          [-126.05396, 30.87638],
          [-126.0421, 30.89275],
          [-126.03419, 30.90366],
          [-126.02233, 30.92003],
          [-126.01441, 30.93094],
          [-126.00254, 30.9473],
          [-125.99462, 30.95821],
          [-125.98274, 30.97458],
          [-125.98874, 30.9967],
          [-125.98082, 31.0076],
          [-125.96894, 31.02396],
          [-125.97494, 31.04608],
          [-125.96701, 31.05699],
          [-125.95512, 31.07335],
          [-125.96112, 31.09546],
          [-125.95319, 31.10637],
          [-125.94129, 31.12272],
          [-125.94729, 31.14484],
          [-125.9533, 31.16696],
          [-125.95931, 31.18907],
          [-125.96531, 31.21118],
          [-125.97133, 31.2333],
          [-125.97734, 31.25541],
          [-125.98336, 31.27752],
          [-125.98937, 31.29963],
          [-125.98143, 31.31053],
          [-125.96952, 31.32688],
          [-125.97553, 31.34899],
          [-125.98155, 31.37109],
          [-125.97361, 31.38199],
          [-125.96168, 31.39834],
          [-125.95373, 31.40923],
          [-125.92783, 31.41437],
          [-125.91589, 31.43071],
          [-125.92191, 31.45282],
          [-125.92792, 31.47492],
          [-125.93394, 31.49702],
          [-125.93996, 31.51912],
          [-125.932, 31.53002],
          [-125.92005, 31.54636],
          [-125.91208, 31.55725],
          [-125.90013, 31.57358],
          [-125.89216, 31.58447],
          [-125.88021, 31.60081],
          [-125.87223, 31.6117],
          [-125.86027, 31.62803],
          [-125.86628, 31.65013],
          [-125.8583, 31.66101],
          [-125.84633, 31.67734],
          [-125.85235, 31.69944],
          [-125.84436, 31.71032],
          [-125.81839, 31.71543],
          [-125.79241, 31.72054],
          [-125.78043, 31.73687],
          [-125.77243, 31.74775],
          [-125.76044, 31.76406],
          [-125.75245, 31.77494],
          [-125.74045, 31.79126],
          [-125.74645, 31.81336],
          [-125.73845, 31.82423],
          [-125.72644, 31.84055],
          [-125.73244, 31.86264],
          [-125.72444, 31.87351],
          [-125.71242, 31.88983],
          [-125.70441, 31.9007],
          [-125.6924, 31.91701],
          [-125.68438, 31.92788],
          [-125.67236, 31.94419],
          [-125.66434, 31.95506],
          [-125.63831, 31.96014],
          [-125.62627, 31.97644],
          [-125.61825, 31.9873],
          [-125.60621, 32.0036],
          [-125.59818, 32.01447],
          [-125.58614, 32.03077],
          [-125.57811, 32.04163],
          [-125.56606, 32.05792],
          [-125.55802, 32.06879],
          [-125.54597, 32.08508],
          [-125.55195, 32.10717],
          [-125.54391, 32.11803],
          [-125.53184, 32.13431],
          [-125.5238, 32.14517],
          [-125.49771, 32.15023],
          [-125.48564, 32.16651],
          [-125.47759, 32.17737],
          [-125.46551, 32.19365],
          [-125.45746, 32.2045],
          [-125.44537, 32.22078],
          [-125.43732, 32.23163],
          [-125.42523, 32.24791],
          [-125.41716, 32.25876],
          [-125.40507, 32.27503],
          [-125.397, 32.28588],
          [-125.3849, 32.30215],
          [-125.37683, 32.313],
          [-125.36473, 32.32927],
          [-125.35665, 32.34012],
          [-125.34454, 32.35638],
          [-125.33646, 32.36723],
          [-125.32434, 32.38349],
          [-125.33029, 32.40557],
          [-125.33625, 32.42765],
          [-125.32816, 32.43849],
          [-125.31604, 32.45475],
          [-125.32199, 32.47683],
          [-125.3139, 32.48767],
          [-125.30177, 32.50393],
          [-125.29367, 32.51476],
          [-125.28153, 32.53102],
          [-125.28748, 32.55309],
          [-125.27939, 32.56393],
          [-125.25319, 32.56894],
          [-125.24104, 32.58519],
          [-125.23294, 32.59602],
          [-125.22078, 32.61227],
          [-125.22672, 32.63434],
          [-125.23267, 32.65641],
          [-125.23861, 32.67849],
          [-125.25791, 32.68872],
          [-125.27078, 32.69555],
          [-125.27674, 32.71761],
          [-125.26863, 32.72844],
          [-125.25646, 32.74469],
          [-125.26242, 32.76675],
          [-125.2543, 32.77758],
          [-125.24213, 32.79382],
          [-125.23401, 32.80465],
          [-125.22183, 32.82089],
          [-125.21371, 32.83171],
          [-125.20153, 32.84795],
          [-125.20748, 32.87001],
          [-125.22681, 32.88025],
          [-125.25307, 32.87524],
          [-125.26596, 32.88206],
          [-125.27193, 32.90412],
          [-125.2779, 32.92618],
          [-125.28386, 32.94823],
          [-125.27574, 32.95905],
          [-125.26355, 32.97529],
          [-125.25542, 32.98611],
          [-125.24322, 33.00235],
          [-125.23509, 33.01317],
          [-125.22289, 33.0294],
          [-125.21475, 33.04022],
          [-125.20255, 33.05645],
          [-125.19441, 33.06726],
          [-125.18219, 33.08349],
          [-125.18815, 33.10554],
          [-125.18001, 33.11635],
          [-125.16779, 33.13257],
          [-125.17374, 33.15462],
          [-125.16559, 33.16543],
          [-125.15337, 33.18165],
          [-125.14521, 33.19247],
          [-125.13298, 33.20868],
          [-125.12482, 33.21949],
          [-125.11258, 33.23571],
          [-125.10442, 33.24651],
          [-125.09217, 33.26272],
          [-125.08401, 33.27353],
          [-125.07176, 33.28974],
          [-125.06359, 33.30054],
          [-125.05133, 33.31675],
          [-125.04316, 33.32755],
          [-125.03089, 33.34375],
          [-125.02272, 33.35456],
          [-125.01045, 33.37076],
          [-125.00227, 33.38155],
          [-124.98999, 33.39775],
          [-124.98181, 33.40855],
          [-124.96953, 33.42474],
          [-124.96134, 33.43554],
          [-124.94905, 33.45173],
          [-124.95498, 33.47377],
          [-124.94679, 33.48456],
          [-124.9345, 33.50075],
          [-124.94043, 33.52278],
          [-124.93223, 33.53357],
          [-124.91993, 33.54976],
          [-124.91173, 33.56055],
          [-124.89942, 33.57673],
          [-124.89121, 33.58752],
          [-124.8789, 33.6037],
          [-124.87069, 33.61449],
          [-124.85837, 33.63066],
          [-124.85015, 33.64145],
          [-124.83783, 33.65762],
          [-124.82961, 33.6684],
          [-124.80314, 33.67333],
          [-124.79081, 33.6895],
          [-124.78258, 33.70028],
          [-124.77024, 33.71644],
          [-124.77615, 33.73847],
          [-124.76792, 33.74924],
          [-124.74143, 33.75416],
          [-124.72908, 33.77032],
          [-124.72084, 33.78109],
          [-124.70848, 33.79725],
          [-124.70024, 33.80802],
          [-124.68788, 33.82418],
          [-124.67963, 33.83495],
          [-124.66726, 33.8511],
          [-124.65901, 33.86187],
          [-124.64664, 33.87802],
          [-124.63839, 33.88878],
          [-124.626, 33.90493],
          [-124.61775, 33.91569],
          [-124.60536, 33.93184],
          [-124.5971, 33.9426],
          [-124.5847, 33.95874],
          [-124.57644, 33.9695],
          [-124.54989, 33.97438],
          [-124.53748, 33.99052],
          [-124.52921, 34.00128],
          [-124.50265, 34.00615],
          [-124.49024, 34.02228],
          [-124.48196, 34.03303],
          [-124.45539, 34.03789],
          [-124.44296, 34.05402],
          [-124.43468, 34.06477],
          [-124.4081, 34.06963],
          [-124.39566, 34.08575],
          [-124.38737, 34.09649],
          [-124.36078, 34.10134],
          [-124.33419, 34.10618],
          [-124.32174, 34.1223],
          [-124.31344, 34.13304],
          [-124.30098, 34.14915],
          [-124.29268, 34.15989],
          [-124.26607, 34.16472],
          [-124.2536, 34.18083],
          [-124.24529, 34.19156],
          [-124.21867, 34.19638],
          [-124.2062, 34.21248],
          [-124.19788, 34.22322],
          [-124.17125, 34.22803],
          [-124.15876, 34.24413],
          [-124.15044, 34.25486],
          [-124.13795, 34.27095],
          [-124.12961, 34.28168],
          [-124.11712, 34.29777],
          [-124.10878, 34.30849],
          [-124.09628, 34.32458],
          [-124.08794, 34.33531],
          [-124.06128, 34.3401],
          [-124.04876, 34.35618],
          [-124.04042, 34.3669],
          [-124.01375, 34.37169],
          [-124.00123, 34.38777],
          [-123.99287, 34.39848],
          [-123.98034, 34.41456],
          [-123.97199, 34.42527],
          [-123.95945, 34.44134],
          [-123.95109, 34.45206],
          [-123.93854, 34.46812],
          [-123.93018, 34.47884],
          [-123.91763, 34.4949],
          [-123.90926, 34.50561],
          [-123.89671, 34.52167],
          [-123.88833, 34.53238],
          [-123.87577, 34.54844],
          [-123.8674, 34.55915],
          [-123.85483, 34.5752],
          [-123.84645, 34.58591],
          [-123.83387, 34.60196],
          [-123.82549, 34.61266],
          [-123.81291, 34.62871],
          [-123.80452, 34.63941],
          [-123.79194, 34.65546],
          [-123.78354, 34.66616],
          [-123.77095, 34.6822],
          [-123.76256, 34.6929],
          [-123.74996, 34.70894],
          [-123.75572, 34.73094],
          [-123.74732, 34.74163],
          [-123.73471, 34.75767],
          [-123.72631, 34.76836],
          [-123.69953, 34.77309],
          [-123.68691, 34.78912],
          [-123.6785, 34.79981],
          [-123.66588, 34.81584],
          [-123.65746, 34.82653],
          [-123.64483, 34.84256],
          [-123.65058, 34.86455],
          [-123.64216, 34.87523],
          [-123.62953, 34.89126],
          [-123.6211, 34.90194],
          [-123.60846, 34.91796],
          [-123.60003, 34.92864],
          [-123.58738, 34.94465],
          [-123.59312, 34.96664],
          [-123.58469, 34.97732],
          [-123.57203, 34.99333],
          [-123.56359, 35.00401],
          [-123.55093, 35.02002],
          [-123.54249, 35.03069],
          [-123.52982, 35.0467],
          [-123.52137, 35.05737],
          [-123.5087, 35.07338],
          [-123.50025, 35.08405],
          [-123.48757, 35.10005],
          [-123.47911, 35.11071],
          [-123.46643, 35.12671],
          [-123.45797, 35.13738],
          [-123.44527, 35.15337],
          [-123.43681, 35.16404],
          [-123.42411, 35.18003],
          [-123.41565, 35.19069],
          [-123.40294, 35.20668],
          [-123.39447, 35.21734],
          [-123.38176, 35.23333],
          [-123.38748, 35.2553],
          [-123.379, 35.26596],
          [-123.36628, 35.28194],
          [-123.3578, 35.2926],
          [-123.34507, 35.30858],
          [-123.33659, 35.31923],
          [-123.32386, 35.33521],
          [-123.31537, 35.34586],
          [-123.30263, 35.36183],
          [-123.29414, 35.37248],
          [-123.2814, 35.38845],
          [-123.2729, 35.3991],
          [-123.26015, 35.41506],
          [-123.25165, 35.42571],
          [-123.23889, 35.44167],
          [-123.24459, 35.46364],
          [-123.23609, 35.47428],
          [-123.22332, 35.49024],
          [-123.21481, 35.50088],
          [-123.20204, 35.51684],
          [-123.20774, 35.5388],
          [-123.19922, 35.54943],
          [-123.18645, 35.56539],
          [-123.19214, 35.58734],
          [-123.18362, 35.59798],
          [-123.17084, 35.61393],
          [-123.17653, 35.63588],
          [-123.18223, 35.65783],
          [-123.1737, 35.66847],
          [-123.1609, 35.68441],
          [-123.15237, 35.69504],
          [-123.12535, 35.69966],
          [-123.11254, 35.7156],
          [-123.11823, 35.73755],
          [-123.10969, 35.74818],
          [-123.09688, 35.76411],
          [-123.08833, 35.77474],
          [-123.07551, 35.79067],
          [-123.06696, 35.80129],
          [-123.05414, 35.81722],
          [-123.04559, 35.82784],
          [-123.03275, 35.84377],
          [-123.0242, 35.85438],
          [-123.01136, 35.87031],
          [-123.0028, 35.88092],
          [-122.98996, 35.89684],
          [-122.98139, 35.90746],
          [-122.9543, 35.91205],
          [-122.94145, 35.92796],
          [-122.93288, 35.93857],
          [-122.92002, 35.95448],
          [-122.91144, 35.96509],
          [-122.89857, 35.981],
          [-122.88999, 35.99161],
          [-122.86288, 35.99618],
          [-122.83577, 36.00075],
          [-122.80865, 36.00532],
          [-122.79555, 35.99837],
          [-122.7759, 35.98794],
          [-122.74879, 35.9925],
          [-122.72167, 35.99705],
          [-122.69455, 36.0016],
          [-122.68146, 35.99464],
          [-122.66182, 35.9842],
          [-122.6347, 35.98874],
          [-122.60758, 35.99327],
          [-122.58046, 35.9978],
          [-122.55333, 36.00232],
          [-122.5262, 36.00684],
          [-122.51328, 36.02272],
          [-122.50465, 36.0333],
          [-122.47752, 36.03782],
          [-122.45038, 36.04232],
          [-122.43744, 36.05819],
          [-122.4288, 36.06877],
          [-122.41586, 36.08464],
          [-122.40722, 36.09521],
          [-122.39426, 36.11108],
          [-122.39983, 36.13302],
          [-122.39119, 36.14359],
          [-122.37823, 36.15945],
          [-122.36958, 36.17002],
          [-122.35661, 36.18588],
          [-122.36217, 36.20781],
          [-122.35352, 36.21838],
          [-122.34054, 36.23423],
          [-122.34611, 36.25617],
          [-122.35167, 36.2781],
          [-122.34301, 36.28866],
          [-122.33002, 36.30451],
          [-122.33559, 36.32644],
          [-122.32692, 36.337],
          [-122.31393, 36.35284],
          [-122.31949, 36.37477],
          [-122.31082, 36.38533],
          [-122.29782, 36.40117],
          [-122.28915, 36.41172],
          [-122.27614, 36.42756],
          [-122.28169, 36.44948],
          [-122.27302, 36.46003],
          [-122.26, 36.47587],
          [-122.26555, 36.49778],
          [-122.25687, 36.50833],
          [-122.24385, 36.52416],
          [-122.23516, 36.53471],
          [-122.22213, 36.55054],
          [-122.22768, 36.57245],
          [-122.21899, 36.58299],
          [-122.20595, 36.59881],
          [-122.2115, 36.62072],
          [-122.2028, 36.63127],
          [-122.18975, 36.64708],
          [-122.18105, 36.65762],
          [-122.16799, 36.67344],
          [-122.17354, 36.69534],
          [-122.16484, 36.70588],
          [-122.15177, 36.72169],
          [-122.14306, 36.73223],
          [-122.12999, 36.74803],
          [-122.12128, 36.75857],
          [-122.1082, 36.77437],
          [-122.09948, 36.7849],
          [-122.0864, 36.8007],
          [-122.07767, 36.81123],
          [-122.06458, 36.82703],
          [-122.07012, 36.84892],
          [-122.06139, 36.85945],
          [-122.04829, 36.87524],
          [-122.03956, 36.88577],
          [-122.02646, 36.90155],
          [-122.01772, 36.91208],
          [-122.00461, 36.92786],
          [-121.99587, 36.93838],
          [-121.98275, 36.95416],
          [-121.98828, 36.97605],
          [-121.97953, 36.98657],
          [-121.9664, 37.00235],
          [-121.95765, 37.01286],
          [-121.94452, 37.02864],
          [-121.95004, 37.05052],
          [-121.94128, 37.06103],
          [-121.92815, 37.0768],
          [-121.93367, 37.09867],
          [-121.93919, 37.12055],
          [-121.94471, 37.14242],
          [-121.93595, 37.15293],
          [-121.9228, 37.16869],
          [-121.92832, 37.19056],
          [-121.91955, 37.20107],
          [-121.90639, 37.21683],
          [-121.89762, 37.22733],
          [-121.87015, 37.23173],
          [-121.85698, 37.24748],
          [-121.8482, 37.25798],
          [-121.83503, 37.27373],
          [-121.82624, 37.28423],
          [-121.81306, 37.29998],
          [-121.81856, 37.32184],
          [-121.80977, 37.33233],
          [-121.79658, 37.34807],
          [-121.78778, 37.35857],
          [-121.77459, 37.37431],
          [-121.78009, 37.39616],
          [-121.7856, 37.41801],
          [-121.79111, 37.43986],
          [-121.7823, 37.45035],
          [-121.76909, 37.46609],
          [-121.7746, 37.48793],
          [-121.76579, 37.49842],
          [-121.75257, 37.51415],
          [-121.75808, 37.53599],
          [-121.74926, 37.54648],
          [-121.73604, 37.5622],
          [-121.72722, 37.57268],
          [-121.71398, 37.5884],
          [-121.70516, 37.59888],
          [-121.69192, 37.6146],
          [-121.69742, 37.63643],
          [-121.68859, 37.64691],
          [-121.67534, 37.66262],
          [-121.66651, 37.6731],
          [-121.65326, 37.6888],
          [-121.64442, 37.69928],
          [-121.63116, 37.71498],
          [-121.62231, 37.72545],
          [-121.60905, 37.74115],
          [-121.6002, 37.75162],
          [-121.57259, 37.75596],
          [-121.55931, 37.77165],
          [-121.56479, 37.79348],
          [-121.55594, 37.80394],
          [-121.54265, 37.81963],
          [-121.53379, 37.83009],
          [-121.5205, 37.84578],
          [-121.51164, 37.85624],
          [-121.49834, 37.87192],
          [-121.48947, 37.88238],
          [-121.47616, 37.89806],
          [-121.46729, 37.90851],
          [-121.45398, 37.92419],
          [-121.45944, 37.94601],
          [-121.45056, 37.95646],
          [-121.43724, 37.97213],
          [-121.44271, 37.99394],
          [-121.43383, 38.00439],
          [-121.4205, 38.02006],
          [-121.42596, 38.04187],
          [-121.43143, 38.06367],
          [-121.42254, 38.07412],
          [-121.4092, 38.08978],
          [-121.41467, 38.11158],
          [-121.42013, 38.13338],
          [-121.41124, 38.14382],
          [-121.39789, 38.15948],
          [-121.40335, 38.18127],
          [-121.40882, 38.20307],
          [-121.39992, 38.2135],
          [-121.38656, 38.22915],
          [-121.39203, 38.25094],
          [-121.38312, 38.26138],
          [-121.36975, 38.27702],
          [-121.37522, 38.29881],
          [-121.38069, 38.32059],
          [-121.38616, 38.34237],
          [-121.37724, 38.3528],
          [-121.36386, 38.36844],
          [-121.36933, 38.39022],
          [-121.36041, 38.40064],
          [-121.34702, 38.41628],
          [-121.33809, 38.4267],
          [-121.32469, 38.44234],
          [-121.33016, 38.46411],
          [-121.32122, 38.47453],
          [-121.30782, 38.49015],
          [-121.31329, 38.51192],
          [-121.30435, 38.52234],
          [-121.29093, 38.53796],
          [-121.28199, 38.54838],
          [-121.26857, 38.564],
          [-121.27403, 38.58576],
          [-121.26508, 38.59617],
          [-121.25165, 38.61178],
          [-121.2427, 38.62219],
          [-121.22926, 38.6378],
          [-121.2203, 38.64821],
          [-121.20686, 38.66382],
          [-121.21231, 38.68557],
          [-121.20335, 38.69598],
          [-121.1899, 38.71158],
          [-121.19535, 38.73333],
          [-121.18638, 38.74373],
          [-121.17292, 38.75933],
          [-121.16395, 38.76973],
          [-121.15048, 38.78532],
          [-121.1415, 38.79572],
          [-121.12803, 38.81131],
          [-121.11905, 38.8217],
          [-121.10557, 38.83729],
          [-121.09658, 38.84768],
          [-121.08309, 38.86326],
          [-121.08853, 38.885],
          [-121.07954, 38.89539],
          [-121.06605, 38.91097],
          [-121.05705, 38.92135],
          [-121.04355, 38.93693],
          [-121.04898, 38.95866],
          [-121.03998, 38.96904],
          [-121.02647, 38.98461],
          [-121.0319, 39.00634],
          [-121.02289, 39.01672],
          [-121.00938, 39.03229],
          [-121.01481, 39.05401],
          [-121.02024, 39.07573],
          [-121.02568, 39.09745],
          [-121.01666, 39.10782],
          [-121.00313, 39.12338],
          [-120.99411, 39.13375],
          [-120.98057, 39.14931],
          [-120.986, 39.17102],
          [-120.99144, 39.19273],
          [-120.98241, 39.20309],
          [-120.96886, 39.21864],
          [-120.9743, 39.24035],
          [-120.97973, 39.26205],
          [-120.9707, 39.27241],
          [-120.95714, 39.28796],
          [-120.96257, 39.30966],
          [-120.96801, 39.33135],
          [-120.95897, 39.34171],
          [-120.9454, 39.35725],
          [-120.95083, 39.37894],
          [-120.95627, 39.40063],
          [-120.96171, 39.42231],
          [-120.95266, 39.43267],
          [-120.93908, 39.4482],
          [-120.94452, 39.46988],
          [-120.94996, 39.49156],
          [-120.95541, 39.51324],
          [-120.96085, 39.53491],
          [-120.95179, 39.54526],
          [-120.93819, 39.56078],
          [-120.94364, 39.58245],
          [-120.94909, 39.60412],
          [-120.95454, 39.62578],
          [-120.95999, 39.64745],
          [-120.95092, 39.65779],
          [-120.93731, 39.6733],
          [-120.94276, 39.69496],
          [-120.94821, 39.71662],
          [-120.95367, 39.73827],
          [-120.95912, 39.75992],
          [-120.95004, 39.77026],
          [-120.93642, 39.78576],
          [-120.94187, 39.80741],
          [-120.93279, 39.81774],
          [-120.91915, 39.83324],
          [-120.91006, 39.84358],
          [-120.89642, 39.85907],
          [-120.88732, 39.8694],
          [-120.85912, 39.87358],
          [-120.84547, 39.88907],
          [-120.83636, 39.8994],
          [-120.8227, 39.91488],
          [-120.81359, 39.92521],
          [-120.79993, 39.94069],
          [-120.79081, 39.95101],
          [-120.76259, 39.95517],
          [-120.74891, 39.97065],
          [-120.73979, 39.98097],
          [-120.72611, 39.99644],
          [-120.71698, 40.00675],
          [-120.68874, 40.0109],
          [-120.67504, 40.02637],
          [-120.66591, 40.03668],
          [-120.65221, 40.05214],
          [-120.64307, 40.06245],
          [-120.61481, 40.06658],
          [-120.58655, 40.07072],
          [-120.57283, 40.08617],
          [-120.56368, 40.09647],
          [-120.53541, 40.1006],
          [-120.52168, 40.11604],
          [-120.51252, 40.12634],
          [-120.48424, 40.13046],
          [-120.4705, 40.1459],
          [-120.46133, 40.15619],
          [-120.43304, 40.1603],
          [-120.40475, 40.1644],
          [-120.37645, 40.1685],
          [-120.34816, 40.17259],
          [-120.31986, 40.17668],
          [-120.29155, 40.18076],
          [-120.26325, 40.18484],
          [-120.23494, 40.18892],
          [-120.20663, 40.19299],
          [-120.17832, 40.19705],
          [-120.15001, 40.20111],
          [-120.1217, 40.20517],
          [-120.09338, 40.20922],
          [-120.06506, 40.21327],
          [-120.05161, 40.20623],
          [-120.03145, 40.19568],
          [-120.00313, 40.19972],
          [-119.97481, 40.20375],
          [-119.94648, 40.20778],
          [-119.91816, 40.2118],
          [-119.90432, 40.22719],
          [-119.89509, 40.23745],
          [-119.86676, 40.24147],
          [-119.83842, 40.24548],
          [-119.82456, 40.26086],
          [-119.81533, 40.27111],
          [-119.78698, 40.27511],
          [-119.75863, 40.27911],
          [-119.74476, 40.29448],
          [-119.73551, 40.30473],
          [-119.70715, 40.30872],
          [-119.69327, 40.32408],
          [-119.68401, 40.33433],
          [-119.65564, 40.33831],
          [-119.62727, 40.34228],
          [-119.61337, 40.35764],
          [-119.6041, 40.36788],
          [-119.59019, 40.38323],
          [-119.58092, 40.39346],
          [-119.55253, 40.39743],
          [-119.52414, 40.40138],
          [-119.49574, 40.40533],
          [-119.46735, 40.40928],
          [-119.45341, 40.42462],
          [-119.44412, 40.43485],
          [-119.41572, 40.43879],
          [-119.40177, 40.45412],
          [-119.39247, 40.46434],
          [-119.36406, 40.46827],
          [-119.3501, 40.4836],
          [-119.3408, 40.49381],
          [-119.31237, 40.49774],
          [-119.28394, 40.50165],
          [-119.25551, 40.50556],
          [-119.24153, 40.52088],
          [-119.23221, 40.53109],
          [-119.20377, 40.53499],
          [-119.17533, 40.53889],
          [-119.16134, 40.5542],
          [-119.152, 40.5644],
          [-119.12355, 40.56829],
          [-119.09509, 40.57217],
          [-119.08109, 40.58747],
          [-119.07174, 40.59767],
          [-119.04328, 40.60155],
          [-119.01481, 40.60542],
          [-119.00078, 40.62071],
          [-118.99143, 40.6309],
          [-118.96295, 40.63476],
          [-118.93447, 40.63862],
          [-118.92043, 40.6539],
          [-118.91107, 40.66408],
          [-118.88258, 40.66793],
          [-118.85408, 40.67178],
          [-118.84003, 40.68705],
          [-118.83065, 40.69723],
          [-118.80215, 40.70106],
          [-118.77364, 40.70489],
          [-118.75957, 40.72015],
          [-118.75018, 40.73033],
          [-118.72167, 40.73415],
          [-118.70758, 40.74941],
          [-118.69819, 40.75957],
          [-118.66966, 40.76339],
          [-118.65556, 40.77864],
          [-118.64616, 40.7888],
          [-118.61763, 40.79261],
          [-118.60352, 40.80785],
          [-118.59411, 40.81801],
          [-118.56556, 40.8218],
          [-118.53702, 40.82559],
          [-118.50847, 40.82938],
          [-118.47992, 40.83316],
          [-118.46578, 40.84839],
          [-118.45635, 40.85854],
          [-118.42779, 40.86231],
          [-118.39923, 40.86608],
          [-118.37066, 40.86985],
          [-118.35651, 40.88506],
          [-118.34707, 40.8952],
          [-118.31849, 40.89896],
          [-118.28991, 40.90271],
          [-118.26133, 40.90645],
          [-118.23275, 40.9102],
          [-118.20417, 40.91393],
          [-118.17558, 40.91766],
          [-118.14699, 40.92139],
          [-118.1328, 40.93658],
          [-118.12333, 40.94671],
          [-118.09473, 40.95043],
          [-118.06613, 40.95414],
          [-118.03753, 40.95785],
          [-118.00892, 40.96156],
          [-117.98032, 40.96526],
          [-117.96609, 40.98043],
          [-117.9566, 40.99055],
          [-117.92798, 40.99424],
          [-117.89937, 40.99793],
          [-117.87075, 41.00161],
          [-117.84212, 41.00529],
          [-117.82787, 41.02045],
          [-117.81836, 41.03056],
          [-117.78973, 41.03422],
          [-117.77546, 41.04938],
          [-117.76595, 41.05949],
          [-117.73731, 41.06314],
          [-117.72303, 41.07829],
          [-117.71351, 41.08839],
          [-117.68486, 41.09204],
          [-117.6562, 41.09569],
          [-117.64191, 41.11083],
          [-117.63237, 41.12092],
          [-117.60371, 41.12456],
          [-117.5894, 41.13969],
          [-117.57986, 41.14978],
          [-117.55119, 41.15341],
          [-117.52251, 41.15703],
          [-117.50819, 41.17216],
          [-117.49864, 41.18224],
          [-117.46995, 41.18585],
          [-117.44126, 41.18946],
          [-117.41257, 41.19307],
          [-117.39823, 41.20818],
          [-117.38866, 41.21826],
          [-117.35996, 41.22185],
          [-117.33126, 41.22544],
          [-117.30255, 41.22903],
          [-117.27385, 41.23261],
          [-117.25948, 41.24771],
          [-117.24989, 41.25778],
          [-117.22118, 41.26135],
          [-117.19246, 41.26492],
          [-117.16374, 41.26848],
          [-117.13502, 41.27204],
          [-117.12062, 41.28712],
          [-117.11102, 41.29718],
          [-117.08229, 41.30073],
          [-117.05355, 41.30427],
          [-117.02482, 41.30781],
          [-116.99608, 41.31135],
          [-116.96734, 41.31488],
          [-116.9386, 41.31841],
          [-116.90985, 41.32193],
          [-116.89541, 41.33699],
          [-116.88579, 41.34703],
          [-116.85703, 41.35055],
          [-116.82828, 41.35406],
          [-116.81382, 41.36911],
          [-116.80418, 41.37914],
          [-116.77542, 41.38264],
          [-116.74665, 41.38614],
          [-116.73218, 41.40118],
          [-116.72253, 41.41121],
          [-116.69375, 41.4147],
          [-116.66497, 41.41818],
          [-116.63619, 41.42165],
          [-116.60741, 41.42513],
          [-116.57862, 41.42859],
          [-116.54983, 41.43206],
          [-116.52104, 41.43551],
          [-116.49225, 41.43897],
          [-116.46346, 41.44241],
          [-116.44894, 41.45743],
          [-116.43925, 41.46744],
          [-116.41045, 41.47088],
          [-116.38165, 41.47432],
          [-116.35284, 41.47775],
          [-116.3383, 41.49275],
          [-116.3286, 41.50275],
          [-116.29978, 41.50618],
          [-116.27096, 41.50959],
          [-116.24214, 41.513],
          [-116.21332, 41.51641],
          [-116.18449, 41.51981],
          [-116.16992, 41.5348],
          [-116.1602, 41.54479],
          [-116.13137, 41.54819],
          [-116.10253, 41.55158],
          [-116.08794, 41.56656],
          [-116.07821, 41.57654],
          [-116.04937, 41.57992],
          [-116.02052, 41.5833],
          [-116.00591, 41.59827],
          [-115.99617, 41.60824],
          [-115.96731, 41.61161],
          [-115.93845, 41.61497],
          [-115.90959, 41.61833],
          [-115.88073, 41.62168],
          [-115.86739, 41.61439],
          [-115.84739, 41.60345],
          [-115.81852, 41.60679],
          [-115.78966, 41.61013],
          [-115.76079, 41.61346],
          [-115.73193, 41.61679],
          [-115.70306, 41.62012],
          [-115.67419, 41.62343],
          [-115.64531, 41.62675],
          [-115.63064, 41.64169],
          [-115.62086, 41.65164],
          [-115.59198, 41.65495],
          [-115.5631, 41.65825],
          [-115.54841, 41.67318],
          [-115.53862, 41.68312],
          [-115.50972, 41.68642],
          [-115.48083, 41.6897],
          [-115.46613, 41.70462],
          [-115.45632, 41.71457],
          [-115.44161, 41.72948],
          [-115.43181, 41.73942],
          [-115.41709, 41.75433],
          [-115.40728, 41.76427],
          [-115.37836, 41.76754],
          [-115.34943, 41.7708],
          [-115.32051, 41.77406],
          [-115.29158, 41.77732],
          [-115.27684, 41.79221],
          [-115.26701, 41.80214],
          [-115.23807, 41.80539],
          [-115.22475, 41.79806],
          [-115.20478, 41.78706],
          [-115.17585, 41.79029],
          [-115.16254, 41.78296],
          [-115.14258, 41.77195],
          [-115.12928, 41.76461],
          [-115.10932, 41.7536],
          [-115.09602, 41.74625],
          [-115.07608, 41.73524],
          [-115.06279, 41.72789],
          [-115.04285, 41.71687],
          [-115.01393, 41.72008],
          [-115.00064, 41.71273],
          [-114.98071, 41.7017],
          [-114.95179, 41.7049],
          [-114.92287, 41.7081],
          [-114.90959, 41.70074],
          [-114.88968, 41.6897],
          [-114.86076, 41.69289],
          [-114.83184, 41.69608],
          [-114.81704, 41.71094],
          [-114.80718, 41.72085],
          [-114.77825, 41.72402],
          [-114.76344, 41.73888],
          [-114.75356, 41.74878],
          [-114.72462, 41.75195],
          [-114.69568, 41.75511],
          [-114.66674, 41.75827],
          [-114.65191, 41.77311],
          [-114.64202, 41.78301],
          [-114.61307, 41.78616],
          [-114.58412, 41.7893],
          [-114.55516, 41.79244],
          [-114.5262, 41.79557],
          [-114.49724, 41.7987],
          [-114.48398, 41.79131],
          [-114.4641, 41.78023],
          [-114.43514, 41.78335],
          [-114.40618, 41.78647],
          [-114.39293, 41.77907],
          [-114.37305, 41.76798],
          [-114.3441, 41.77109],
          [-114.33085, 41.76369],
          [-114.31099, 41.75259],
          [-114.28203, 41.75568],
          [-114.2688, 41.74828],
          [-114.24894, 41.73717],
          [-114.21999, 41.74026],
          [-114.20676, 41.73285],
          [-114.18691, 41.72173],
          [-114.15796, 41.72481],
          [-114.14474, 41.7174],
          [-114.1249, 41.70627],
          [-114.09596, 41.70934],
          [-114.08274, 41.70192],
          [-114.06291, 41.69079],
          [-114.0497, 41.68337],
          [-114.02988, 41.67223],
          [-114.00094, 41.67529],
          [-113.98773, 41.66786],
          [-113.96792, 41.65672],
          [-113.93899, 41.65976],
          [-113.92406, 41.67455],
          [-113.91411, 41.68441],
          [-113.88517, 41.68745],
          [-113.85622, 41.69047],
          [-113.82727, 41.6935],
          [-113.79832, 41.69652],
          [-113.76937, 41.69953],
          [-113.74041, 41.70254],
          [-113.71146, 41.70555],
          [-113.69649, 41.72032],
          [-113.68652, 41.73017],
          [-113.67154, 41.74493],
          [-113.67556, 41.76655],
          [-113.66558, 41.77639],
          [-113.6506, 41.79115],
          [-113.64061, 41.80099],
          [-113.62562, 41.81575],
          [-113.61563, 41.82558],
          [-113.60063, 41.84034],
          [-113.59063, 41.85017],
          [-113.56163, 41.85315],
          [-113.54662, 41.8679],
          [-113.53661, 41.87773],
          [-113.5076, 41.8807],
          [-113.47859, 41.88366],
          [-113.44957, 41.88662],
          [-113.43454, 41.90136],
          [-113.42452, 41.91118],
          [-113.3955, 41.91413],
          [-113.36647, 41.91708],
          [-113.33744, 41.92002],
          [-113.30841, 41.92296],
          [-113.27938, 41.92589],
          [-113.25035, 41.92882],
          [-113.22131, 41.93174],
          [-113.19227, 41.93466],
          [-113.16323, 41.93757],
          [-113.13419, 41.94048],
          [-113.10515, 41.94339],
          [-113.09197, 41.93591],
          [-113.07221, 41.92468],
          [-113.04317, 41.92758],
          [-113.01413, 41.93047],
          [-113.00096, 41.92298],
          [-112.98121, 41.91175],
          [-112.95218, 41.91463],
          [-112.92314, 41.9175],
          [-112.90803, 41.93219],
          [-112.89795, 41.94198],
          [-112.8689, 41.94485],
          [-112.83985, 41.94771],
          [-112.8108, 41.95057],
          [-112.79764, 41.94307],
          [-112.77791, 41.93181],
          [-112.76476, 41.92431],
          [-112.74504, 41.91305],
          [-112.7299, 41.92772],
          [-112.71981, 41.9375],
          [-112.69076, 41.94034],
          [-112.6617, 41.94317],
          [-112.63265, 41.946],
          [-112.60359, 41.94883],
          [-112.59045, 41.94131],
          [-112.57074, 41.93003],
          [-112.54169, 41.93285],
          [-112.51263, 41.93566],
          [-112.4995, 41.92814],
          [-112.4798, 41.91685],
          [-112.45075, 41.91965],
          [-112.43762, 41.91212],
          [-112.41794, 41.90082],
          [-112.38889, 41.90361],
          [-112.37577, 41.89608],
          [-112.3561, 41.88478],
          [-112.32705, 41.88756],
          [-112.298, 41.89033],
          [-112.26895, 41.89311],
          [-112.25584, 41.88556],
          [-112.23618, 41.87425],
          [-112.20713, 41.87701],
          [-112.19403, 41.86946],
          [-112.17438, 41.85814],
          [-112.14534, 41.86089],
          [-112.13224, 41.85333],
          [-112.1126, 41.842],
          [-112.08356, 41.84475],
          [-112.07047, 41.83719],
          [-112.05085, 41.82585],
          [-112.02181, 41.82858],
          [-112, 41.83063]
        ]
      }
    }
  ]
}

