{
  "type": "FeatureCollection",
  "contract_version": "1.0.0",
  "bbox": [-130, 30.01055, -112, 44.5],
  "features": [
    {
      "type": "Feature",
      "id": "2026092418_f138_08000_001",
      "properties": {
        "product_id": "winter_storm_levels",
        "source_id": "nbm_snow_level",
        "parameter": "snow_level",
        "definition": "height of the wet-bulb 0.5 degree C surface",
        "level_ft_msl": 8000,
        "label": "8,000 ft MSL",
        "unit": "ft_msl",
        "cycle_time_utc": "2026-09-24T18:00:00Z",
        "valid_time_utc": "2026-09-30T12:00:00Z",
        "lead_hours": 138,
        "segment": 1,
        "length_m": 351982.2
      },
      "geometry": {
        "type": "LineString",
        "coordinates": [
          [-130, 43.91959],
          [-129.99384, 43.92721],
          [-129.98161, 43.94234],
          [-129.9527, 43.94783],
          [-129.92378, 43.95332],
          [-129.89486, 43.9588],
          [-129.86594, 43.96428],
          [-129.83702, 43.96975],
          [-129.80809, 43.97522],
          [-129.79902, 43.98639],
          [-129.78675, 44.0015],
          [-129.75781, 44.00696],
          [-129.72886, 44.01241],
          [-129.69992, 44.01786],
          [-129.67097, 44.02331],
          [-129.66188, 44.03447],
          [-129.64958, 44.04956],
          [-129.62062, 44.055],
          [-129.59165, 44.06043],
          [-129.56268, 44.06586],
          [-129.53371, 44.07128],
          [-129.5246, 44.08243],
          [-129.51227, 44.09752],
          [-129.48329, 44.10293],
          [-129.4543, 44.10834],
          [-129.42531, 44.11374],
          [-129.39632, 44.11914],
          [-129.36732, 44.12454],
          [-129.35819, 44.13568],
          [-129.34583, 44.15074],
          [-129.31682, 44.15613],
          [-129.28781, 44.16151],
          [-129.25879, 44.16689],
          [-129.22977, 44.17226],
          [-129.20075, 44.17763],
          [-129.17976, 44.16874],
          [-129.16425, 44.16218],
          [-129.13523, 44.16753],
          [-129.1062, 44.17289],
          [-129.08522, 44.16399],
          [-129.06972, 44.15741],
          [-129.04069, 44.16276],
          [-129.01166, 44.1681],
          [-128.99069, 44.15919],
          [-128.9752, 44.1526],
          [-128.94617, 44.15793],
          [-128.91713, 44.16326],
          [-128.8881, 44.16858],
          [-128.86714, 44.15966],
          [-128.85165, 44.15306],
          [-128.82261, 44.15837],
          [-128.79357, 44.16368],
          [-128.77262, 44.15475],
          [-128.75714, 44.14814],
          [-128.7281, 44.15344],
          [-128.69906, 44.15873],
          [-128.67812, 44.14979],
          [-128.66265, 44.14318],
          [-128.6336, 44.14846],
          [-128.60455, 44.15374],
          [-128.5755, 44.15901],
          [-128.54645, 44.16428],
          [-128.51739, 44.16954],
          [-128.48833, 44.1748],
          [-128.46741, 44.16583],
          [-128.45195, 44.15921],
          [-128.42289, 44.16445],
          [-128.39382, 44.1697],
          [-128.36475, 44.17494],
          [-128.33568, 44.18017],
          [-128.30661, 44.1854],
          [-128.27753, 44.19063],
          [-128.24846, 44.19585],
          [-128.21937, 44.20106],
          [-128.19029, 44.20628],
          [-128.1612, 44.21148],
          [-128.13211, 44.21668],
          [-128.10301, 44.22188],
          [-128.08211, 44.21288],
          [-128.06667, 44.20622],
          [-128.03757, 44.21141],
          [-128.00848, 44.21659],
          [-127.97937, 44.22177],
          [-127.95849, 44.21275],
          [-127.94305, 44.20608],
          [-127.91395, 44.21125],
          [-127.88485, 44.21642],
          [-127.86397, 44.20739],
          [-127.84854, 44.20071],
          [-127.81944, 44.20587],
          [-127.79033, 44.21102],
          [-127.76946, 44.20198],
          [-127.75404, 44.1953],
          [-127.72494, 44.20044],
          [-127.71561, 44.21149],
          [-127.70299, 44.22644],
          [-127.67386, 44.23157],
          [-127.64474, 44.2367],
          [-127.6354, 44.24774],
          [-127.62276, 44.26268],
          [-127.59363, 44.2678],
          [-127.56449, 44.27291],
          [-127.53534, 44.27802],
          [-127.51449, 44.26896],
          [-127.49907, 44.26226],
          [-127.46993, 44.26736],
          [-127.44079, 44.27245],
          [-127.41164, 44.27754],
          [-127.38249, 44.28262],
          [-127.35333, 44.2877],
          [-127.34395, 44.29873],
          [-127.33126, 44.31365],
          [-127.3021, 44.31872],
          [-127.29271, 44.32974],
          [-127.28001, 44.34465],
          [-127.25083, 44.34972],
          [-127.24143, 44.36073],
          [-127.22872, 44.37564],
          [-127.19953, 44.38069],
          [-127.17033, 44.38574],
          [-127.14114, 44.39078],
          [-127.13172, 44.40179],
          [-127.11899, 44.41669],
          [-127.08978, 44.42172],
          [-127.06057, 44.42675],
          [-127.03135, 44.43178],
          [-127.00213, 44.4368],
          [-126.97291, 44.44181],
          [-126.94369, 44.44682],
          [-126.91446, 44.45183],
          [-126.89363, 44.44271],
          [-126.87823, 44.43597],
          [-126.8574, 44.42684],
          [-126.84201, 44.42009],
          [-126.82119, 44.41096],
          [-126.8058, 44.40421],
          [-126.77658, 44.4092],
          [-126.74735, 44.41418],
          [-126.71813, 44.41916],
          [-126.6889, 44.42413],
          [-126.65966, 44.4291],
          [-126.63043, 44.43406],
          [-126.60962, 44.42491],
          [-126.60268, 44.40403],
          [-126.59574, 44.38314],
          [-126.58038, 44.37637],
          [-126.55959, 44.36721],
          [-126.54423, 44.36044],
          [-126.51501, 44.36539],
          [-126.50552, 44.37637],
          [-126.49269, 44.39122],
          [-126.46346, 44.39616],
          [-126.45397, 44.40713],
          [-126.44113, 44.42198],
          [-126.41188, 44.42691],
          [-126.38264, 44.43184],
          [-126.37313, 44.4428],
          [-126.36028, 44.45764],
          [-126.33102, 44.46256],
          [-126.30175, 44.46747],
          [-126.27249, 44.47238],
          [-126.24322, 44.47728],
          [-126.21395, 44.48218],
          [-126.18467, 44.48707],
          [-126.15539, 44.49196],
          [-126.12611, 44.49684],
          [-126.10716, 44.5]
        ]
      }
    },
    {
      "type": "Feature",
      "id": "2026092418_f138_09000_001",
      "properties": {
        "product_id": "winter_storm_levels",
        "source_id": "nbm_snow_level",
        "parameter": "snow_level",
        "definition": "height of the wet-bulb 0.5 degree C surface",
        "level_ft_msl": 9000,
        "label": "9,000 ft MSL",
        "unit": "ft_msl",
        "cycle_time_utc": "2026-09-24T18:00:00Z",
        "valid_time_utc": "2026-09-30T12:00:00Z",
        "lead_hours": 138,
        "segment": 1,
        "length_m": 161211.5
      },
      "geometry": {
        "type": "LineString",
        "coordinates": [
          [-112, 43.45341],
          [-112.00261, 43.45097],
          [-112.03213, 43.44827],
          [-112.04437, 43.4368],
          [-112.05791, 43.42413],
          [-112.08741, 43.42142],
          [-112.09965, 43.40994],
          [-112.11317, 43.39727],
          [-112.12541, 43.38579],
          [-112.13892, 43.37311],
          [-112.16841, 43.37038],
          [-112.1979, 43.36765],
          [-112.22739, 43.36491],
          [-112.25687, 43.36217],
          [-112.28635, 43.35943],
          [-112.30382, 43.36924],
          [-112.31962, 43.37811],
          [-112.33709, 43.38792],
          [-112.3529, 43.39679],
          [-112.37038, 43.40659],
          [-112.37418, 43.42801],
          [-112.39, 43.43688],
          [-112.40749, 43.44667],
          [-112.4113, 43.46809],
          [-112.42712, 43.47695],
          [-112.44462, 43.48674],
          [-112.44844, 43.50815],
          [-112.45226, 43.52956],
          [-112.45609, 43.55097],
          [-112.44259, 43.56366],
          [-112.43037, 43.57514],
          [-112.43419, 43.59654],
          [-112.43801, 43.61794],
          [-112.4245, 43.63063],
          [-112.41227, 43.6421],
          [-112.41609, 43.66349],
          [-112.41991, 43.68488],
          [-112.40639, 43.69756],
          [-112.40118, 43.70837],
          [-112.39797, 43.73041],
          [-112.40179, 43.75179],
          [-112.41766, 43.76064],
          [-112.43521, 43.77041],
          [-112.43904, 43.79178],
          [-112.45492, 43.80062],
          [-112.47248, 43.81039],
          [-112.47632, 43.83175],
          [-112.48016, 43.85312],
          [-112.484, 43.87448],
          [-112.48785, 43.89584],
          [-112.4743, 43.9085],
          [-112.46205, 43.91996],
          [-112.46589, 43.94132],
          [-112.46973, 43.96266],
          [-112.47357, 43.98401],
          [-112.46002, 43.99667],
          [-112.44775, 44.00812],
          [-112.45159, 44.02946],
          [-112.43802, 44.04211],
          [-112.42575, 44.05356],
          [-112.42958, 44.07489],
          [-112.41601, 44.08754],
          [-112.40372, 44.09898],
          [-112.39014, 44.11162],
          [-112.36043, 44.11437],
          [-112.33072, 44.11711],
          [-112.31312, 44.10735],
          [-112.2972, 44.09852],
          [-112.2675, 44.10126],
          [-112.23779, 44.10399],
          [-112.20808, 44.10671],
          [-112.17837, 44.10943],
          [-112.14866, 44.11215],
          [-112.11894, 44.11486],
          [-112.10662, 44.12628],
          [-112.09299, 44.13889],
          [-112.06327, 44.1416],
          [-112.05094, 44.15301],
          [-112.0373, 44.16562],
          [-112.02496, 44.17703],
          [-112.01132, 44.18964],
          [-112, 44.19066]
        ]
      }
    },
    {
      "type": "Feature",
      "id": "2026092418_f138_09000_002",
      "properties": {
        "product_id": "winter_storm_levels",
        "source_id": "nbm_snow_level",
        "parameter": "snow_level",
        "definition": "height of the wet-bulb 0.5 degree C surface",
        "level_ft_msl": 9000,
        "label": "9,000 ft MSL",
        "unit": "ft_msl",
        "cycle_time_utc": "2026-09-24T18:00:00Z",
        "valid_time_utc": "2026-09-30T12:00:00Z",
        "lead_hours": 138,
        "segment": 2,
        "length_m": 311936.4
      },
      "geometry": {
        "type": "LineString",
        "coordinates": [
          [-116.84771, 44.5],
          [-116.83532, 44.49363],
          [-116.81893, 44.48521],
          [-116.80082, 44.47589],
          [-116.78444, 44.46747],
          [-116.77963, 44.44629],
          [-116.76153, 44.43697],
          [-116.74516, 44.42853],
          [-116.74036, 44.40735],
          [-116.73557, 44.38616],
          [-116.73077, 44.36497],
          [-116.72598, 44.34377],
          [-116.72119, 44.32257],
          [-116.7164, 44.30137],
          [-116.69834, 44.29204],
          [-116.682, 44.28359],
          [-116.67722, 44.26238],
          [-116.65916, 44.25304],
          [-116.64283, 44.24459],
          [-116.62479, 44.23525],
          [-116.59518, 44.23866],
          [-116.57885, 44.2302],
          [-116.56081, 44.22085],
          [-116.54449, 44.21238],
          [-116.52646, 44.20303],
          [-116.49686, 44.20642],
          [-116.48055, 44.19795],
          [-116.46253, 44.18859],
          [-116.43292, 44.19198],
          [-116.40332, 44.19536],
          [-116.37371, 44.19873],
          [-116.35742, 44.19025],
          [-116.33941, 44.18088],
          [-116.3098, 44.18424],
          [-116.2802, 44.18761],
          [-116.25059, 44.19096],
          [-116.22098, 44.19432],
          [-116.20469, 44.18582],
          [-116.1867, 44.17643],
          [-116.15709, 44.17978],
          [-116.12748, 44.18312],
          [-116.11438, 44.19601],
          [-116.10252, 44.20768],
          [-116.0894, 44.22058],
          [-116.09405, 44.24181],
          [-116.08218, 44.25347],
          [-116.06906, 44.26636],
          [-116.07371, 44.28758],
          [-116.06183, 44.29924],
          [-116.03218, 44.30256],
          [-116.0159, 44.29406],
          [-116.01126, 44.27283],
          [-115.99327, 44.26343],
          [-115.977, 44.25492],
          [-115.97237, 44.23369],
          [-115.95439, 44.22428],
          [-115.92476, 44.22759],
          [-115.89513, 44.23089],
          [-115.8655, 44.23419],
          [-115.85235, 44.24706],
          [-115.84045, 44.25871],
          [-115.8273, 44.27158],
          [-115.81539, 44.28323],
          [-115.78574, 44.28651],
          [-115.77258, 44.29937],
          [-115.76066, 44.31101],
          [-115.731, 44.31429],
          [-115.70133, 44.31756],
          [-115.67167, 44.32082],
          [-115.642, 44.32408],
          [-115.61233, 44.32733],
          [-115.58265, 44.33058],
          [-115.55298, 44.33383],
          [-115.5233, 44.33707],
          [-115.49362, 44.34031],
          [-115.46394, 44.34354],
          [-115.43426, 44.34676],
          [-115.41802, 44.33821],
          [-115.40007, 44.32876],
          [-115.37039, 44.33197],
          [-115.34071, 44.33518],
          [-115.32448, 44.32662],
          [-115.30654, 44.31716],
          [-115.27686, 44.32036],
          [-115.26064, 44.31179],
          [-115.24271, 44.30232],
          [-115.2265, 44.29375],
          [-115.20858, 44.28427],
          [-115.1789, 44.28746],
          [-115.14923, 44.29064],
          [-115.13302, 44.28206],
          [-115.11511, 44.27258],
          [-115.08544, 44.27575],
          [-115.05577, 44.27892],
          [-115.02609, 44.28208],
          [-114.99641, 44.28524],
          [-114.96673, 44.2884],
          [-114.95054, 44.2798],
          [-114.93265, 44.2703],
          [-114.90297, 44.27344],
          [-114.87329, 44.27658],
          [-114.84361, 44.27972],
          [-114.81392, 44.28285],
          [-114.78424, 44.28597],
          [-114.75455, 44.28909],
          [-114.72486, 44.29221],
          [-114.69517, 44.29532],
          [-114.66547, 44.29843],
          [-114.65216, 44.31122],
          [-114.64011, 44.32278],
          [-114.61041, 44.32588],
          [-114.5807, 44.32897],
          [-114.56737, 44.34175],
          [-114.55531, 44.35331],
          [-114.52559, 44.35639],
          [-114.51225, 44.36917],
          [-114.50018, 44.38072],
          [-114.47045, 44.38379],
          [-114.4571, 44.39656],
          [-114.44502, 44.40811],
          [-114.41528, 44.41117],
          [-114.38555, 44.41423],
          [-114.35581, 44.41729],
          [-114.34243, 44.43004],
          [-114.33033, 44.44158],
          [-114.30058, 44.44463],
          [-114.2872, 44.45738],
          [-114.27509, 44.46891],
          [-114.24533, 44.47195],
          [-114.21557, 44.47498],
          [-114.1858, 44.47801],
          [-114.16965, 44.46936],
          [-114.1518, 44.45979],
          [-114.12204, 44.46281],
          [-114.1059, 44.45415],
          [-114.08806, 44.44458],
          [-114.07192, 44.43592],
          [-114.05409, 44.42634],
          [-114.02434, 44.42935],
          [-114.00821, 44.42068],
          [-113.99039, 44.4111],
          [-113.96063, 44.41409],
          [-113.93088, 44.41708],
          [-113.90113, 44.42006],
          [-113.87137, 44.42304],
          [-113.84161, 44.42602],
          [-113.81185, 44.42899],
          [-113.79841, 44.44171],
          [-113.78624, 44.45321],
          [-113.75647, 44.45617],
          [-113.74301, 44.46888],
          [-113.73084, 44.48037],
          [-113.71737, 44.49308],
          [-113.71004, 44.5]
        ]
      }
    },
    {
      "type": "Feature",
      "id": "2026092418_f138_09000_003",
      "properties": {
        "product_id": "winter_storm_levels",
        "source_id": "nbm_snow_level",
        "parameter": "snow_level",
        "definition": "height of the wet-bulb 0.5 degree C surface",
        "level_ft_msl": 9000,
        "label": "9,000 ft MSL",
        "unit": "ft_msl",
        "cycle_time_utc": "2026-09-24T18:00:00Z",
        "valid_time_utc": "2026-09-30T12:00:00Z",
        "lead_hours": 138,
        "segment": 3,
        "length_m": 525207.9
      },
      "geometry": {
        "type": "LineString",
        "coordinates": [
          [-120.61992, 43.27911],
          [-120.61434, 43.25787],
          [-120.60876, 43.23663],
          [-120.59053, 43.22761],
          [-120.56137, 43.23167],
          [-120.54488, 43.2235],
          [-120.52666, 43.21447],
          [-120.4975, 43.21852],
          [-120.48102, 43.21034],
          [-120.4628, 43.20131],
          [-120.43365, 43.20535],
          [-120.41717, 43.19717],
          [-120.39896, 43.18812],
          [-120.36981, 43.19215],
          [-120.35334, 43.18397],
          [-120.33514, 43.17492],
          [-120.30599, 43.17893],
          [-120.28952, 43.17074],
          [-120.27133, 43.16168],
          [-120.24218, 43.16569],
          [-120.22573, 43.15749],
          [-120.20754, 43.14843],
          [-120.1784, 43.15243],
          [-120.16195, 43.14422],
          [-120.14377, 43.13515],
          [-120.12733, 43.12694],
          [-120.10916, 43.11787],
          [-120.09273, 43.10966],
          [-120.07457, 43.10058],
          [-120.04543, 43.10456],
          [-120.029, 43.09634],
          [-120.01084, 43.08725],
          [-119.99442, 43.07903],
          [-119.97627, 43.06994],
          [-119.95986, 43.06171],
          [-119.94172, 43.05262],
          [-119.92531, 43.04439],
          [-119.91989, 43.0231],
          [-119.90683, 43.00284],
          [-119.90143, 42.98155],
          [-119.90366, 42.95921],
          [-119.89825, 42.93791],
          [-119.89285, 42.9166],
          [-119.89436, 42.89436],
          [-119.88895, 42.87305],
          [-119.87665, 42.85267],
          [-119.86363, 42.83239],
          [-119.85317, 42.82224],
          [-119.8368, 42.81399],
          [-119.81872, 42.80487],
          [-119.80236, 42.79661],
          [-119.78428, 42.78749],
          [-119.75522, 42.79143],
          [-119.73887, 42.78317],
          [-119.7208, 42.77404],
          [-119.70445, 42.76577],
          [-119.68639, 42.75663],
          [-119.67004, 42.74837],
          [-119.6647, 42.72703],
          [-119.64665, 42.71789],
          [-119.63032, 42.70961],
          [-119.61227, 42.70047],
          [-119.58323, 42.70438],
          [-119.5669, 42.6961],
          [-119.54886, 42.68695],
          [-119.51982, 42.69085],
          [-119.50351, 42.68257],
          [-119.48687, 42.67901],
          [-119.45644, 42.6773],
          [-119.4274, 42.68119],
          [-119.39835, 42.68508],
          [-119.36931, 42.68896],
          [-119.34164, 42.69845],
          [-119.32778, 42.70608],
          [-119.31523, 42.71299],
          [-119.29708, 42.73222],
          [-119.29143, 42.73821],
          [-119.26569, 42.75555],
          [-119.25874, 42.75936],
          [-119.23989, 42.7727],
          [-119.21148, 42.77927],
          [-119.18348, 42.78752],
          [-119.15439, 42.79137],
          [-119.12554, 42.79614],
          [-119.11859, 42.79995],
          [-119.0997, 42.81328],
          [-119.08757, 42.82607],
          [-119.07711, 42.8437],
          [-119.07084, 42.8503],
          [-119.06151, 42.87355],
          [-119.05708, 42.8846],
          [-119.05472, 42.89647],
          [-119.06122, 42.91763],
          [-119.06779, 42.92832],
          [-119.07719, 42.93755],
          [-119.09699, 42.95696],
          [-119.10601, 42.96155],
          [-119.13777, 42.96838],
          [-119.1669, 42.96454],
          [-119.18199, 42.96777],
          [-119.19866, 42.97135],
          [-119.2278, 42.9675],
          [-119.25957, 42.97431],
          [-119.27466, 42.97754],
          [-119.29134, 42.98111],
          [-119.32047, 42.97725],
          [-119.35225, 42.98404],
          [-119.38138, 42.98016],
          [-119.39648, 42.98338],
          [-119.41456, 42.99254],
          [-119.44495, 42.99372],
          [-119.46005, 42.99693],
          [-119.47814, 43.00608],
          [-119.49451, 43.01435],
          [-119.5126, 43.02349],
          [-119.54174, 43.01959],
          [-119.55811, 43.02786],
          [-119.57621, 43.03699],
          [-119.59259, 43.04525],
          [-119.59794, 43.06655],
          [-119.60329, 43.08784],
          [-119.60864, 43.10913],
          [-119.61399, 43.13042],
          [-119.61935, 43.15171],
          [-119.60803, 43.16367],
          [-119.59552, 43.17689],
          [-119.58421, 43.18885],
          [-119.55502, 43.19275],
          [-119.52583, 43.19665],
          [-119.49664, 43.20054],
          [-119.46745, 43.20442],
          [-119.45491, 43.21763],
          [-119.44357, 43.22958],
          [-119.41437, 43.23346],
          [-119.38516, 43.23733],
          [-119.37261, 43.25053],
          [-119.36126, 43.26247],
          [-119.34871, 43.27567],
          [-119.33734, 43.28761],
          [-119.32478, 43.3008],
          [-119.31342, 43.31274],
          [-119.28418, 43.31659],
          [-119.27161, 43.32978],
          [-119.26024, 43.34171],
          [-119.23099, 43.34556],
          [-119.21841, 43.35874],
          [-119.20702, 43.37066],
          [-119.17777, 43.3745],
          [-119.16518, 43.38767],
          [-119.15378, 43.39959],
          [-119.14118, 43.41277],
          [-119.12978, 43.42468],
          [-119.11717, 43.43785],
          [-119.12244, 43.45911],
          [-119.12771, 43.48036],
          [-119.13297, 43.50161],
          [-119.15112, 43.51076],
          [-119.16755, 43.51904],
          [-119.17283, 43.54028],
          [-119.17811, 43.56152],
          [-119.18339, 43.58276],
          [-119.20156, 43.5919],
          [-119.218, 43.60017],
          [-119.2233, 43.6214],
          [-119.2286, 43.64263],
          [-119.21718, 43.65453],
          [-119.20456, 43.66769],
          [-119.20985, 43.68891],
          [-119.21515, 43.71013],
          [-119.22045, 43.73135],
          [-119.20902, 43.74324],
          [-119.19639, 43.75639],
          [-119.20169, 43.7776],
          [-119.20699, 43.79881],
          [-119.21229, 43.82002],
          [-119.23051, 43.82914],
          [-119.24699, 43.83739],
          [-119.26521, 43.84651],
          [-119.27785, 43.83336],
          [-119.28928, 43.82147],
          [-119.31867, 43.81763],
          [-119.34805, 43.81378],
          [-119.36067, 43.80063],
          [-119.37209, 43.78873],
          [-119.3847, 43.77557],
          [-119.37937, 43.75436],
          [-119.37403, 43.73315],
          [-119.3687, 43.71194],
          [-119.36336, 43.69073],
          [-119.35803, 43.66951],
          [-119.36944, 43.6576],
          [-119.38204, 43.64443],
          [-119.39343, 43.63251],
          [-119.42276, 43.62865],
          [-119.43535, 43.61548],
          [-119.44673, 43.60356],
          [-119.47605, 43.59969],
          [-119.50536, 43.59581],
          [-119.53466, 43.59193],
          [-119.55113, 43.60016],
          [-119.56934, 43.60927],
          [-119.59865, 43.60537],
          [-119.61513, 43.6136],
          [-119.63334, 43.6227],
          [-119.64982, 43.63093],
          [-119.65521, 43.65214],
          [-119.67344, 43.66123],
          [-119.68993, 43.66945],
          [-119.69533, 43.69066],
          [-119.70074, 43.71187],
          [-119.71898, 43.72095],
          [-119.74831, 43.71704],
          [-119.76482, 43.72525],
          [-119.78307, 43.73432],
          [-119.81241, 43.7304],
          [-119.82893, 43.7386],
          [-119.84718, 43.74767],
          [-119.87652, 43.74374],
          [-119.90586, 43.7398],
          [-119.9352, 43.73586],
          [-119.95172, 43.74406],
          [-119.96999, 43.75311],
          [-119.99933, 43.74916],
          [-120.01186, 43.73596],
          [-120.02319, 43.72401],
          [-120.05251, 43.72005],
          [-120.08184, 43.71609],
          [-120.11116, 43.71212],
          [-120.12366, 43.69891],
          [-120.13498, 43.68695],
          [-120.16429, 43.68298],
          [-120.17678, 43.66976],
          [-120.18809, 43.6578],
          [-120.21738, 43.65381],
          [-120.22987, 43.64059],
          [-120.24116, 43.62862],
          [-120.27045, 43.62462],
          [-120.29974, 43.62062],
          [-120.31221, 43.60739],
          [-120.32349, 43.59542],
          [-120.34002, 43.60358],
          [-120.3583, 43.61261],
          [-120.38758, 43.60859],
          [-120.40004, 43.59536],
          [-120.4113, 43.58338],
          [-120.42375, 43.57013],
          [-120.43502, 43.55815],
          [-120.44746, 43.5449],
          [-120.4419, 43.5237],
          [-120.43635, 43.50248],
          [-120.4308, 43.48127],
          [-120.44205, 43.46928],
          [-120.45448, 43.45603],
          [-120.44893, 43.43481],
          [-120.46017, 43.42281],
          [-120.48939, 43.41878],
          [-120.50181, 43.40551],
          [-120.49625, 43.38429],
          [-120.50748, 43.37229],
          [-120.51989, 43.35902],
          [-120.53112, 43.34701],
          [-120.54352, 43.33374],
          [-120.55474, 43.32174],
          [-120.56714, 43.30846],
          [-120.57835, 43.29645],
          [-120.60753, 43.29239],
          [-120.61992, 43.27911]
        ]
      }
    },
    {
      "type": "Feature",
      "id": "2026092418_f138_09000_004",
      "properties": {
        "product_id": "winter_storm_levels",
        "source_id": "nbm_snow_level",
        "parameter": "snow_level",
        "definition": "height of the wet-bulb 0.5 degree C surface",
        "level_ft_msl": 9000,
        "label": "9,000 ft MSL",
        "unit": "ft_msl",
        "cycle_time_utc": "2026-09-24T18:00:00Z",
        "valid_time_utc": "2026-09-30T12:00:00Z",
        "lead_hours": 138,
        "segment": 4,
        "length_m": 140501.1
      },
      "geometry": {
        "type": "LineString",
        "coordinates": [
          [-123.41782, 43.83846],
          [-123.41161, 43.81739],
          [-123.4054, 43.79631],
          [-123.38858, 43.78843],
          [-123.36999, 43.77971],
          [-123.35318, 43.77182],
          [-123.3346, 43.7631],
          [-123.31779, 43.75521],
          [-123.28859, 43.75968],
          [-123.27002, 43.75095],
          [-123.25322, 43.74305],
          [-123.22402, 43.74751],
          [-123.19483, 43.75196],
          [-123.18388, 43.76409],
          [-123.17178, 43.7775],
          [-123.14257, 43.78194],
          [-123.13162, 43.79407],
          [-123.11951, 43.80747],
          [-123.10855, 43.81959],
          [-123.09643, 43.83299],
          [-123.08547, 43.84511],
          [-123.07334, 43.8585],
          [-123.06237, 43.87062],
          [-123.05024, 43.88401],
          [-123.03927, 43.89612],
          [-123.02713, 43.90951],
          [-123.01615, 43.92162],
          [-123.00401, 43.935],
          [-122.99302, 43.94711],
          [-122.98087, 43.96049],
          [-122.96988, 43.97259],
          [-122.95772, 43.98596],
          [-122.92844, 43.99037],
          [-122.91744, 44.00247],
          [-122.90527, 44.01584],
          [-122.89426, 44.02793],
          [-122.90038, 44.04899],
          [-122.8882, 44.06236],
          [-122.87719, 44.07444],
          [-122.8833, 44.0955],
          [-122.88942, 44.11655],
          [-122.89554, 44.1376],
          [-122.91238, 44.14551],
          [-122.93099, 44.15425],
          [-122.94784, 44.16216],
          [-122.97717, 44.15776],
          [-123.0065, 44.15335],
          [-123.03583, 44.14894],
          [-123.06515, 44.14452],
          [-123.09447, 44.1401],
          [-123.12379, 44.13567],
          [-123.13478, 44.12357],
          [-123.14693, 44.1102],
          [-123.15792, 44.0981],
          [-123.17006, 44.08472],
          [-123.18104, 44.07261],
          [-123.17486, 44.05156],
          [-123.187, 44.03818],
          [-123.19797, 44.02607],
          [-123.19179, 44.00502],
          [-123.20392, 43.99163],
          [-123.21489, 43.97951],
          [-123.227, 43.96612],
          [-123.25626, 43.96167],
          [-123.26722, 43.94955],
          [-123.27933, 43.93615],
          [-123.30858, 43.93169],
          [-123.31953, 43.91956],
          [-123.33162, 43.90616],
          [-123.34256, 43.89403],
          [-123.35465, 43.88062],
          [-123.38388, 43.87615],
          [-123.39482, 43.86401],
          [-123.40689, 43.8506],
          [-123.41782, 43.83846]
        ]
      }
    },
    {
      "type": "Feature",
      "id": "2026092418_f138_09000_005",
      "properties": {
        "product_id": "winter_storm_levels",
        "source_id": "nbm_snow_level",
        "parameter": "snow_level",
        "definition": "height of the wet-bulb 0.5 degree C surface",
        "level_ft_msl": 9000,
        "label": "9,000 ft MSL",
        "unit": "ft_msl",
        "cycle_time_utc": "2026-09-24T18:00:00Z",
        "valid_time_utc": "2026-09-30T12:00:00Z",
        "lead_hours": 138,
        "segment": 5,
        "length_m": 1268766.5
      },
      "geometry": {
        "type": "LineString",
        "coordinates": [
          [-130, 42.3237],
          [-129.97903, 42.32384],
          [-129.96374, 42.32148],
          [-129.9475, 42.32071],
          [-129.91465, 42.3139],
          [-129.89936, 42.31154],
          [-129.88312, 42.31076],
          [-129.85028, 42.30394],
          [-129.835, 42.30157],
          [-129.8181, 42.29894],
          [-129.7877, 42.29894],
          [-129.75925, 42.30446],
          [-129.7308, 42.30998],
          [-129.7043, 42.32101],
          [-129.69132, 42.32942],
          [-129.68134, 42.34203],
          [-129.65287, 42.34753],
          [-129.6244, 42.35302],
          [-129.59593, 42.35851],
          [-129.56746, 42.364],
          [-129.53722, 42.36448],
          [-129.50874, 42.36996],
          [-129.49345, 42.36756],
          [-129.47461, 42.35939],
          [-129.44613, 42.36486],
          [-129.42909, 42.35745],
          [-129.41026, 42.34927],
          [-129.38178, 42.35473],
          [-129.36474, 42.34732],
          [-129.34592, 42.33913],
          [-129.31744, 42.34458],
          [-129.30041, 42.33717],
          [-129.28159, 42.32897],
          [-129.25311, 42.33441],
          [-129.22462, 42.33984],
          [-129.2076, 42.33242],
          [-129.18879, 42.32421],
          [-129.16031, 42.32964],
          [-129.14329, 42.32221],
          [-129.12449, 42.31399],
          [-129.096, 42.31941],
          [-129.06751, 42.32482],
          [-129.03902, 42.33022],
          [-129.02202, 42.32278],
          [-129.00322, 42.31456],
          [-128.98622, 42.30711],
          [-128.96744, 42.29888],
          [-128.95044, 42.29143],
          [-128.93166, 42.2832],
          [-128.91467, 42.27575],
          [-128.8959, 42.26751],
          [-128.87891, 42.26005],
          [-128.86015, 42.25181],
          [-128.84317, 42.24435],
          [-128.8244, 42.2361],
          [-128.80743, 42.22863],
          [-128.78867, 42.22038],
          [-128.77171, 42.21291],
          [-128.75295, 42.20465],
          [-128.72448, 42.21001],
          [-128.70752, 42.20254],
          [-128.68877, 42.19428],
          [-128.67182, 42.1868],
          [-128.65308, 42.17853],
          [-128.62461, 42.18387],
          [-128.59613, 42.18921],
          [-128.56765, 42.19455],
          [-128.5507, 42.18706],
          [-128.53197, 42.17878],
          [-128.50349, 42.18411],
          [-128.47501, 42.18943],
          [-128.45807, 42.18193],
          [-128.43935, 42.17364],
          [-128.41087, 42.17895],
          [-128.38238, 42.18426],
          [-128.35389, 42.18956],
          [-128.3254, 42.19486],
          [-128.2969, 42.20015],
          [-128.2684, 42.20544],
          [-128.25148, 42.19793],
          [-128.23277, 42.18962],
          [-128.20427, 42.1949],
          [-128.18735, 42.18737],
          [-128.16866, 42.17905],
          [-128.14016, 42.18432],
          [-128.12324, 42.17679],
          [-128.10455, 42.16847],
          [-128.08764, 42.16093],
          [-128.06896, 42.1526],
          [-128.04046, 42.15786],
          [-128.02356, 42.15032],
          [-128.00488, 42.14198],
          [-127.97638, 42.14723],
          [-127.95949, 42.13968],
          [-127.94082, 42.13134],
          [-127.92393, 42.12379],
          [-127.90526, 42.11544],
          [-127.87677, 42.12067],
          [-127.85989, 42.11311],
          [-127.85284, 42.09197],
          [-127.8458, 42.07083],
          [-127.83876, 42.04968],
          [-127.82012, 42.04132],
          [-127.80326, 42.03376],
          [-127.79623, 42.01261],
          [-127.7776, 42.00424],
          [-127.76074, 41.99667],
          [-127.74211, 41.9883],
          [-127.71364, 41.99351],
          [-127.70238, 42.00735],
          [-127.69218, 42.01987],
          [-127.6637, 42.02507],
          [-127.65242, 42.0389],
          [-127.64221, 42.05142],
          [-127.61372, 42.05661],
          [-127.60243, 42.07044],
          [-127.59221, 42.08295],
          [-127.56371, 42.08814],
          [-127.5352, 42.09332],
          [-127.50669, 42.09849],
          [-127.49538, 42.11231],
          [-127.48515, 42.12481],
          [-127.45663, 42.12998],
          [-127.42811, 42.13514],
          [-127.41678, 42.14895],
          [-127.40653, 42.16144],
          [-127.3952, 42.17525],
          [-127.40216, 42.1964],
          [-127.3919, 42.20889],
          [-127.38056, 42.22269],
          [-127.38752, 42.24384],
          [-127.37725, 42.25632],
          [-127.36591, 42.27012],
          [-127.37286, 42.29126],
          [-127.36259, 42.30374],
          [-127.35124, 42.31754],
          [-127.34097, 42.33001],
          [-127.31238, 42.33515],
          [-127.28379, 42.34028],
          [-127.27242, 42.35407],
          [-127.26214, 42.36654],
          [-127.25076, 42.38032],
          [-127.24047, 42.39279],
          [-127.21186, 42.39791],
          [-127.20048, 42.41169],
          [-127.19017, 42.42415],
          [-127.16155, 42.42926],
          [-127.15016, 42.44303],
          [-127.15708, 42.46416],
          [-127.14677, 42.47661],
          [-127.13536, 42.49038],
          [-127.12504, 42.50284],
          [-127.0964, 42.50793],
          [-127.06775, 42.51303],
          [-127.05633, 42.52679],
          [-127.046, 42.53923],
          [-127.01734, 42.54432],
          [-126.98868, 42.5494],
          [-126.96001, 42.55447],
          [-126.93134, 42.55954],
          [-126.90267, 42.56461],
          [-126.874, 42.56967],
          [-126.84532, 42.57472],
          [-126.81664, 42.57978],
          [-126.80518, 42.59351],
          [-126.79481, 42.60594],
          [-126.76612, 42.61098],
          [-126.73742, 42.61602],
          [-126.72595, 42.62975],
          [-126.71556, 42.64217],
          [-126.68685, 42.6472],
          [-126.65815, 42.65223],
          [-126.62943, 42.65725],
          [-126.61794, 42.67097],
          [-126.60754, 42.68338],
          [-126.57881, 42.68839],
          [-126.55009, 42.6934],
          [-126.53321, 42.68574],
          [-126.5264, 42.66463],
          [-126.5196, 42.6435],
          [-126.50096, 42.63504],
          [-126.4841, 42.62738],
          [-126.46546, 42.61891],
          [-126.4486, 42.61124],
          [-126.42997, 42.60277],
          [-126.41311, 42.5951],
          [-126.39449, 42.58662],
          [-126.37764, 42.57895],
          [-126.35902, 42.57047],
          [-126.33032, 42.57545],
          [-126.30161, 42.58042],
          [-126.2729, 42.58538],
          [-126.24419, 42.59035],
          [-126.22735, 42.58266],
          [-126.20874, 42.57416],
          [-126.18003, 42.57911],
          [-126.15131, 42.58406],
          [-126.1226, 42.58901],
          [-126.10577, 42.58131],
          [-126.08717, 42.5728],
          [-126.05845, 42.57773],
          [-126.02973, 42.58266],
          [-126.00101, 42.58759],
          [-125.97228, 42.59251],
          [-125.94355, 42.59742],
          [-125.91482, 42.60233],
          [-125.88609, 42.60724],
          [-125.85735, 42.61214],
          [-125.84054, 42.60442],
          [-125.82196, 42.59588],
          [-125.79322, 42.60077],
          [-125.78162, 42.61445],
          [-125.77112, 42.62681],
          [-125.74237, 42.6317],
          [-125.73076, 42.64536],
          [-125.73739, 42.66651],
          [-125.72688, 42.67887],
          [-125.71526, 42.69254],
          [-125.70474, 42.70489],
          [-125.69312, 42.71855],
          [-125.68259, 42.73091],
          [-125.65381, 42.73577],
          [-125.62502, 42.74063],
          [-125.59623, 42.74549],
          [-125.58459, 42.75914],
          [-125.57405, 42.77149],
          [-125.54525, 42.77633],
          [-125.51645, 42.78118],
          [-125.48764, 42.78601],
          [-125.47597, 42.79965],
          [-125.46542, 42.81199],
          [-125.45374, 42.82562],
          [-125.44318, 42.83796],
          [-125.41435, 42.84278],
          [-125.40267, 42.85641],
          [-125.3921, 42.86874],
          [-125.36326, 42.87355],
          [-125.35157, 42.88718],
          [-125.34099, 42.8995],
          [-125.31214, 42.90431],
          [-125.28329, 42.90911],
          [-125.25443, 42.91391],
          [-125.24272, 42.92752],
          [-125.23212, 42.93983],
          [-125.20325, 42.94462],
          [-125.17438, 42.94941],
          [-125.16266, 42.96301],
          [-125.15204, 42.97532],
          [-125.12316, 42.9801],
          [-125.11142, 42.99369],
          [-125.1008, 43.00599],
          [-125.07191, 43.01076],
          [-125.04301, 43.01552],
          [-125.03126, 43.02911],
          [-125.02062, 43.04141],
          [-124.99172, 43.04616],
          [-124.96281, 43.05091],
          [-124.9339, 43.05565],
          [-124.90498, 43.06039],
          [-124.87607, 43.06513],
          [-124.84715, 43.06986],
          [-124.81823, 43.07458],
          [-124.80643, 43.08816],
          [-124.79576, 43.10043],
          [-124.76683, 43.10515],
          [-124.73789, 43.10986],
          [-124.72609, 43.12342],
          [-124.7154, 43.13569],
          [-124.70359, 43.14925],
          [-124.6929, 43.16152],
          [-124.66394, 43.16622],
          [-124.65212, 43.17977],
          [-124.64142, 43.19203],
          [-124.62959, 43.20558],
          [-124.61888, 43.21784],
          [-124.5899, 43.22252],
          [-124.57806, 43.23607],
          [-124.56735, 43.24832],
          [-124.53836, 43.253],
          [-124.52651, 43.26653],
          [-124.51578, 43.27878],
          [-124.48678, 43.28345],
          [-124.47492, 43.29698],
          [-124.46418, 43.30922],
          [-124.43517, 43.31388],
          [-124.4233, 43.32741],
          [-124.41256, 43.33964],
          [-124.38353, 43.34429],
          [-124.35451, 43.34894],
          [-124.32548, 43.35358],
          [-124.29645, 43.35822],
          [-124.26742, 43.36285],
          [-124.23838, 43.36747],
          [-124.20935, 43.3721],
          [-124.1803, 43.37671],
          [-124.15126, 43.38133],
          [-124.12221, 43.38593],
          [-124.10541, 43.37809],
          [-124.08684, 43.36943],
          [-124.05779, 43.37402],
          [-124.02874, 43.37862],
          [-123.99969, 43.38321],
          [-123.97064, 43.38779],
          [-123.94158, 43.39237],
          [-123.92963, 43.40586],
          [-123.91881, 43.41806],
          [-123.88975, 43.42263],
          [-123.86067, 43.4272],
          [-123.8316, 43.43176],
          [-123.80253, 43.43631],
          [-123.77345, 43.44087],
          [-123.75666, 43.433],
          [-123.73811, 43.4243],
          [-123.72132, 43.41642],
          [-123.71507, 43.3953],
          [-123.69653, 43.3866],
          [-123.67976, 43.37872],
          [-123.67352, 43.35759],
          [-123.66728, 43.33646],
          [-123.64875, 43.32775],
          [-123.6197, 43.33228],
          [-123.60294, 43.32439],
          [-123.58442, 43.31567],
          [-123.55537, 43.32019],
          [-123.52631, 43.32471],
          [-123.49725, 43.32922],
          [-123.48525, 43.34268],
          [-123.47439, 43.35486],
          [-123.44532, 43.35937],
          [-123.41625, 43.36387],
          [-123.38717, 43.36836],
          [-123.35809, 43.37285],
          [-123.32901, 43.37733],
          [-123.31698, 43.39078],
          [-123.30609, 43.40295],
          [-123.277, 43.40743],
          [-123.24791, 43.4119],
          [-123.21881, 43.41636],
          [-123.18971, 43.42083],
          [-123.17765, 43.43426],
          [-123.16674, 43.44642],
          [-123.13763, 43.45087],
          [-123.12556, 43.4643],
          [-123.11464, 43.47645],
          [-123.08552, 43.4809],
          [-123.0564, 43.48534],
          [-123.04431, 43.49876],
          [-123.03338, 43.5109],
          [-123.00424, 43.51533],
          [-122.99215, 43.52875],
          [-122.98121, 43.54089],
          [-122.95206, 43.54531],
          [-122.93995, 43.55872],
          [-122.929, 43.57085],
          [-122.89984, 43.57526],
          [-122.87068, 43.57967],
          [-122.85856, 43.59307],
          [-122.84759, 43.6052],
          [-122.81842, 43.6096],
          [-122.78925, 43.61399],
          [-122.76007, 43.61838],
          [-122.73089, 43.62276],
          [-122.71874, 43.63615],
          [-122.70775, 43.64827],
          [-122.67856, 43.65264],
          [-122.64937, 43.65701],
          [-122.62017, 43.66138],
          [-122.59097, 43.66574],
          [-122.56177, 43.6701],
          [-122.53257, 43.67445],
          [-122.50336, 43.6788],
          [-122.47415, 43.68314],
          [-122.44494, 43.68748],
          [-122.41572, 43.69181],
          [-122.40353, 43.70517],
          [-122.39249, 43.71726],
          [-122.36326, 43.72159],
          [-122.33404, 43.72591],
          [-122.30481, 43.73022],
          [-122.27557, 43.73453],
          [-122.24634, 43.73884],
          [-122.2171, 43.74314],
          [-122.20487, 43.75649],
          [-122.1938, 43.76856],
          [-122.18157, 43.7819],
          [-122.17049, 43.79397],
          [-122.15825, 43.80731],
          [-122.14717, 43.81938],
          [-122.11791, 43.82366],
          [-122.10565, 43.83699],
          [-122.09456, 43.84906],
          [-122.06529, 43.85333],
          [-122.03601, 43.8576],
          [-122.00672, 43.86186],
          [-121.99, 43.85386],
          [-121.97153, 43.84501],
          [-121.94225, 43.84926],
          [-121.92554, 43.84125],
          [-121.90707, 43.83239],
          [-121.89037, 43.82438],
          [-121.88449, 43.80325],
          [-121.8786, 43.78212],
          [-121.87273, 43.76099],
          [-121.86685, 43.73986],
          [-121.84841, 43.73099],
          [-121.83173, 43.72296],
          [-121.82586, 43.70182],
          [-121.82, 43.68068],
          [-121.81414, 43.65953],
          [-121.79572, 43.65065],
          [-121.77906, 43.64262],
          [-121.77321, 43.62146],
          [-121.7548, 43.61258],
          [-121.73814, 43.60454],
          [-121.71974, 43.59565],
          [-121.70309, 43.5876],
          [-121.69726, 43.56644],
          [-121.69144, 43.54527],
          [-121.67305, 43.53637],
          [-121.65641, 43.52832],
          [-121.63803, 43.51942],
          [-121.6214, 43.51136],
          [-121.60303, 43.50246],
          [-121.5864, 43.4944],
          [-121.56803, 43.48549],
          [-121.55142, 43.47742],
          [-121.53305, 43.46851],
          [-121.50386, 43.4727],
          [-121.47467, 43.4769],
          [-121.44548, 43.48108],
          [-121.43318, 43.4944],
          [-121.42205, 43.50645],
          [-121.40974, 43.51977],
          [-121.3986, 43.53181],
          [-121.38629, 43.54512],
          [-121.39205, 43.5663],
          [-121.3809, 43.57834],
          [-121.36858, 43.59164],
          [-121.37434, 43.61281],
          [-121.36319, 43.62485],
          [-121.35086, 43.63815],
          [-121.3397, 43.65018],
          [-121.32736, 43.66348],
          [-121.3162, 43.67551],
          [-121.30385, 43.6888],
          [-121.29268, 43.70082],
          [-121.26342, 43.70498],
          [-121.23414, 43.70913],
          [-121.22179, 43.72241],
          [-121.2106, 43.73443],
          [-121.19824, 43.74771],
          [-121.20397, 43.76886],
          [-121.19278, 43.78088],
          [-121.1804, 43.79415],
          [-121.16921, 43.80616],
          [-121.1399, 43.81029],
          [-121.12752, 43.82356],
          [-121.11631, 43.83557],
          [-121.10392, 43.84883],
          [-121.09271, 43.86083],
          [-121.08031, 43.8741],
          [-121.06909, 43.88609],
          [-121.05669, 43.89935],
          [-121.04547, 43.91135],
          [-121.01612, 43.91546],
          [-120.98678, 43.91956],
          [-120.95743, 43.92366],
          [-120.92808, 43.92776],
          [-120.89873, 43.93185],
          [-120.86938, 43.93593],
          [-120.84002, 43.94001],
          [-120.81066, 43.94409],
          [-120.7813, 43.94816],
          [-120.75193, 43.95223],
          [-120.72257, 43.95629],
          [-120.6932, 43.96035],
          [-120.66383, 43.9644],
          [-120.63445, 43.96845],
          [-120.60508, 43.97249],
          [-120.5757, 43.97653],
          [-120.54632, 43.98057],
          [-120.51693, 43.9846],
          [-120.48755, 43.98862],
          [-120.45816, 43.99264],
          [-120.42877, 43.99666],
          [-120.39937, 44.00067],
          [-120.38686, 44.01387],
          [-120.37554, 44.02582],
          [-120.34614, 44.02982],
          [-120.31673, 44.03381],
          [-120.30013, 44.02567],
          [-120.28178, 44.01666],
          [-120.25237, 44.02065],
          [-120.22296, 44.02463],
          [-120.19355, 44.02861],
          [-120.16414, 44.03258],
          [-120.13472, 44.03655],
          [-120.11813, 44.02839],
          [-120.0998, 44.01937],
          [-120.08321, 44.0112],
          [-120.06488, 44.00217],
          [-120.03547, 44.00613],
          [-120.00606, 44.01008],
          [-119.97665, 44.01402],
          [-119.94723, 44.01796],
          [-119.91781, 44.02189],
          [-119.88839, 44.02583],
          [-119.85896, 44.02975],
          [-119.82954, 44.03367],
          [-119.80011, 44.03759],
          [-119.77068, 44.0415],
          [-119.74124, 44.04541],
          [-119.71181, 44.04931],
          [-119.68237, 44.05321],
          [-119.65293, 44.0571],
          [-119.63637, 44.0489],
          [-119.61808, 44.03983],
          [-119.58864, 44.04371],
          [-119.57209, 44.0355],
          [-119.55381, 44.02642],
          [-119.52437, 44.0303],
          [-119.49493, 44.03417],
          [-119.46549, 44.03803],
          [-119.43604, 44.04189],
          [-119.40659, 44.04574],
          [-119.37714, 44.04959],
          [-119.36449, 44.06273],
          [-119.35304, 44.07461],
          [-119.34038, 44.08773],
          [-119.34573, 44.10889],
          [-119.35108, 44.13005],
          [-119.35643, 44.15121],
          [-119.36179, 44.17236],
          [-119.36715, 44.19351],
          [-119.35568, 44.20538],
          [-119.34301, 44.2185],
          [-119.33153, 44.23036],
          [-119.31885, 44.24347],
          [-119.30737, 44.25534],
          [-119.29469, 44.26845],
          [-119.2832, 44.2803],
          [-119.27051, 44.29341],
          [-119.25902, 44.30526],
          [-119.22948, 44.30909],
          [-119.21678, 44.32218],
          [-119.20528, 44.33403],
          [-119.17573, 44.33785],
          [-119.16302, 44.35094],
          [-119.15151, 44.36278],
          [-119.12195, 44.36658],
          [-119.10539, 44.35835],
          [-119.08708, 44.34925],
          [-119.07053, 44.34101],
          [-119.05223, 44.33191],
          [-119.02268, 44.3357],
          [-119.00613, 44.32745],
          [-118.98784, 44.31834],
          [-118.9583, 44.32212],
          [-118.94175, 44.31387],
          [-118.92348, 44.30475],
          [-118.89393, 44.30852],
          [-118.86438, 44.31228],
          [-118.83483, 44.31604],
          [-118.80527, 44.31979],
          [-118.77572, 44.32354],
          [-118.76295, 44.33661],
          [-118.75139, 44.34843],
          [-118.72182, 44.35217],
          [-118.69226, 44.3559],
          [-118.66268, 44.35963],
          [-118.64989, 44.37269],
          [-118.63832, 44.3845],
          [-118.60874, 44.38822],
          [-118.57915, 44.39194],
          [-118.54957, 44.39565],
          [-118.51998, 44.39936],
          [-118.50346, 44.39108],
          [-118.48521, 44.38192],
          [-118.45562, 44.38562],
          [-118.42603, 44.38931],
          [-118.39644, 44.393],
          [-118.37993, 44.3847],
          [-118.36169, 44.37553],
          [-118.3321, 44.37921],
          [-118.31561, 44.37091],
          [-118.29738, 44.36174],
          [-118.26779, 44.3654],
          [-118.2513, 44.3571],
          [-118.23308, 44.34791],
          [-118.21659, 44.3396],
          [-118.19838, 44.33041],
          [-118.16879, 44.33407],
          [-118.15232, 44.32575],
          [-118.13411, 44.31656],
          [-118.10453, 44.3202],
          [-118.08806, 44.31188],
          [-118.06986, 44.30267],
          [-118.04029, 44.30631],
          [-118.01071, 44.30994],
          [-117.98112, 44.31356],
          [-117.95154, 44.31718],
          [-117.92195, 44.3208],
          [-117.89236, 44.32441],
          [-117.87947, 44.33742],
          [-117.86781, 44.34919],
          [-117.83821, 44.35279],
          [-117.82531, 44.36579],
          [-117.81363, 44.37755],
          [-117.78402, 44.38114],
          [-117.77111, 44.39414],
          [-117.75943, 44.40589],
          [-117.74651, 44.41889],
          [-117.73482, 44.43064],
          [-117.70519, 44.43422],
          [-117.69226, 44.4472],
          [-117.68056, 44.45895],
          [-117.65092, 44.46252],
          [-117.63798, 44.4755],
          [-117.62627, 44.48724],
          [-117.59662, 44.4908],
          [-117.56696, 44.49436],
          [-117.53731, 44.49791],
          [-117.51982, 44.5]
        ]
      }
    },
    {
      "type": "Feature",
      "id": "2026092418_f138_10000_001",
      "properties": {
        "product_id": "winter_storm_levels",
        "source_id": "nbm_snow_level",
        "parameter": "snow_level",
        "definition": "height of the wet-bulb 0.5 degree C surface",
        "level_ft_msl": 10000,
        "label": "10,000 ft MSL",
        "unit": "ft_msl",
        "cycle_time_utc": "2026-09-24T18:00:00Z",
        "valid_time_utc": "2026-09-30T12:00:00Z",
        "lead_hours": 138,
        "segment": 1,
        "length_m": 162610.5
      },
      "geometry": {
        "type": "LineString",
        "coordinates": [
          [-118.19306, 37.97068],
          [-118.18738, 37.98556],
          [-118.17875, 37.99519],
          [-118.16438, 38.01125],
          [-118.15575, 38.02088],
          [-118.15185, 38.04396],
          [-118.14616, 38.05883],
          [-118.13753, 38.06846],
          [-118.12313, 38.08451],
          [-118.11449, 38.09414],
          [-118.10009, 38.11018],
          [-118.09145, 38.1198],
          [-118.07555, 38.129],
          [-118.0501, 38.14371],
          [-118.04056, 38.14923],
          [-118.02464, 38.15842],
          [-117.99918, 38.17312],
          [-117.98963, 38.17863],
          [-117.97371, 38.18781],
          [-117.95481, 38.18331],
          [-117.94347, 38.18061],
          [-117.91562, 38.18435],
          [-117.88538, 38.17713],
          [-117.87519, 38.17146],
          [-117.85278, 38.15896],
          [-117.8426, 38.15328],
          [-117.82019, 38.14079],
          [-117.81001, 38.1351],
          [-117.79136, 38.11506],
          [-117.78437, 38.10754],
          [-117.77272, 38.09501],
          [-117.75408, 38.07495],
          [-117.74709, 38.06743],
          [-117.73545, 38.0549],
          [-117.71683, 38.03483],
          [-117.70985, 38.02731],
          [-117.69821, 38.01477],
          [-117.69351, 37.99285],
          [-117.68881, 37.97093],
          [-117.67542, 37.95016],
          [-117.67073, 37.92823],
          [-117.65855, 37.9214],
          [-117.64693, 37.90885],
          [-117.63356, 37.88807],
          [-117.62138, 37.88123],
          [-117.60978, 37.86868],
          [-117.59121, 37.84859],
          [-117.58425, 37.84105],
          [-117.57265, 37.82849],
          [-117.57841, 37.81363],
          [-117.58707, 37.80401],
          [-117.60151, 37.78799],
          [-117.6284, 37.78018],
          [-117.65616, 37.77649],
          [-117.68626, 37.78375],
          [-117.70508, 37.78829],
          [-117.71725, 37.79513],
          [-117.74648, 37.79827],
          [-117.76531, 37.8028],
          [-117.77748, 37.80963],
          [-117.80525, 37.80591],
          [-117.83301, 37.80218],
          [-117.85989, 37.79434],
          [-117.88764, 37.7906],
          [-117.89716, 37.78509],
          [-117.91303, 37.77589],
          [-117.94078, 37.77215],
          [-117.96853, 37.7684],
          [-117.99628, 37.76464],
          [-118.02402, 37.76089],
          [-118.03418, 37.76656],
          [-118.03894, 37.7885],
          [-118.04081, 37.81082],
          [-118.04413, 37.83294],
          [-118.05034, 37.85467],
          [-118.06437, 37.87534],
          [-118.07666, 37.89624],
          [-118.08277, 37.89964],
          [-118.1017, 37.91541],
          [-118.11772, 37.92875],
          [-118.1279, 37.93442],
          [-118.15029, 37.94689],
          [-118.16916, 37.95137],
          [-118.18138, 37.95817],
          [-118.19306, 37.97068]
        ]
      }
    },
    {
      "type": "Feature",
      "id": "2026092418_f138_10000_002",
      "properties": {
        "product_id": "winter_storm_levels",
        "source_id": "nbm_snow_level",
        "parameter": "snow_level",
        "definition": "height of the wet-bulb 0.5 degree C surface",
        "level_ft_msl": 10000,
        "label": "10,000 ft MSL",
        "unit": "ft_msl",
        "cycle_time_utc": "2026-09-24T18:00:00Z",
        "valid_time_utc": "2026-09-30T12:00:00Z",
        "lead_hours": 138,
        "segment": 2,
        "length_m": 2464150
      },
      "geometry": {
        "type": "LineString",
        "coordinates": [
          [-130, 35.36524],
          [-129.98845, 35.38141],
          [-129.9811, 35.3917],
          [-129.96885, 35.40885],
          [-129.96149, 35.41914],
          [-129.93485, 35.42486],
          [-129.92259, 35.44201],
          [-129.91523, 35.45229],
          [-129.90296, 35.46943],
          [-129.89559, 35.47971],
          [-129.86893, 35.48543],
          [-129.85665, 35.50256],
          [-129.84928, 35.51284],
          [-129.82261, 35.51855],
          [-129.79594, 35.52425],
          [-129.78364, 35.54137],
          [-129.77626, 35.55165],
          [-129.74958, 35.55734],
          [-129.7229, 35.56303],
          [-129.71058, 35.58015],
          [-129.70319, 35.59042],
          [-129.69087, 35.60753],
          [-129.68348, 35.6178],
          [-129.65678, 35.62348],
          [-129.64445, 35.64059],
          [-129.63705, 35.65086],
          [-129.61034, 35.65652],
          [-129.59799, 35.67363],
          [-129.59059, 35.68389],
          [-129.56387, 35.68955],
          [-129.53714, 35.69521],
          [-129.51041, 35.70086],
          [-129.49805, 35.71795],
          [-129.49063, 35.72821],
          [-129.46389, 35.73385],
          [-129.43715, 35.73949],
          [-129.42477, 35.75658],
          [-129.41734, 35.76683],
          [-129.39059, 35.77246],
          [-129.36384, 35.77808],
          [-129.33708, 35.7837],
          [-129.31032, 35.78932],
          [-129.29791, 35.8064],
          [-129.29047, 35.81664],
          [-129.27806, 35.83371],
          [-129.28498, 35.85542],
          [-129.30605, 35.86548],
          [-129.31869, 35.87151],
          [-129.32562, 35.89321],
          [-129.31817, 35.90346],
          [-129.30575, 35.92053],
          [-129.2983, 35.93077],
          [-129.27151, 35.93637],
          [-129.25908, 35.95344],
          [-129.25162, 35.96368],
          [-129.22481, 35.96927],
          [-129.21238, 35.98633],
          [-129.20492, 35.99657],
          [-129.1781, 36.00216],
          [-129.15127, 36.00775],
          [-129.13882, 36.0248],
          [-129.13135, 36.03503],
          [-129.10452, 36.0406],
          [-129.07768, 36.04618],
          [-129.06521, 36.06322],
          [-129.05773, 36.07345],
          [-129.04526, 36.09049],
          [-129.03777, 36.10071],
          [-129.01092, 36.10627],
          [-128.99843, 36.12331],
          [-128.99094, 36.13353],
          [-128.96408, 36.13908],
          [-128.95158, 36.15611],
          [-128.95845, 36.1778],
          [-128.95095, 36.18802],
          [-128.92408, 36.19357],
          [-128.91157, 36.21059],
          [-128.90406, 36.2208],
          [-128.89155, 36.23782],
          [-128.88403, 36.24803],
          [-128.87151, 36.26505],
          [-128.864, 36.27526],
          [-128.85147, 36.29227],
          [-128.84395, 36.30248],
          [-128.83142, 36.31949],
          [-128.8239, 36.32969],
          [-128.81136, 36.3467],
          [-128.80383, 36.3569],
          [-128.79129, 36.3739],
          [-128.78376, 36.38411],
          [-128.77121, 36.40111],
          [-128.77806, 36.42279],
          [-128.78492, 36.44447],
          [-128.77738, 36.45467],
          [-128.76482, 36.47166],
          [-128.75728, 36.48186],
          [-128.74472, 36.49885],
          [-128.73717, 36.50904],
          [-128.7246, 36.52603],
          [-128.71705, 36.53623],
          [-128.69008, 36.54173],
          [-128.67749, 36.55871],
          [-128.66994, 36.5689],
          [-128.64295, 36.57439],
          [-128.61596, 36.57988],
          [-128.60336, 36.59686],
          [-128.5958, 36.60704],
          [-128.5688, 36.61252],
          [-128.54179, 36.618],
          [-128.51479, 36.62347],
          [-128.50217, 36.64044],
          [-128.49459, 36.65062],
          [-128.46757, 36.65608],
          [-128.44056, 36.66154],
          [-128.41353, 36.667],
          [-128.38651, 36.67245],
          [-128.35948, 36.67789],
          [-128.33245, 36.68334],
          [-128.31979, 36.70028],
          [-128.3122, 36.71045],
          [-128.28516, 36.71588],
          [-128.25811, 36.72131],
          [-128.23107, 36.72674],
          [-128.20402, 36.73216],
          [-128.17697, 36.73758],
          [-128.16428, 36.75451],
          [-128.15667, 36.76467],
          [-128.1296, 36.77007],
          [-128.10254, 36.77548],
          [-128.08984, 36.7924],
          [-128.08221, 36.80255],
          [-128.05514, 36.80795],
          [-128.02806, 36.81334],
          [-128.00098, 36.81873],
          [-127.9739, 36.82411],
          [-127.96117, 36.84102],
          [-127.95353, 36.85117],
          [-127.92643, 36.85654],
          [-127.89934, 36.86191],
          [-127.87224, 36.86727],
          [-127.84514, 36.87263],
          [-127.83238, 36.88953],
          [-127.82473, 36.89967],
          [-127.79762, 36.90502],
          [-127.78485, 36.92192],
          [-127.77719, 36.93205],
          [-127.75007, 36.93739],
          [-127.73729, 36.95428],
          [-127.72962, 36.96441],
          [-127.70249, 36.96975],
          [-127.67535, 36.97508],
          [-127.64821, 36.98041],
          [-127.63541, 36.99728],
          [-127.62773, 37.00741],
          [-127.60058, 37.01272],
          [-127.58777, 37.0296],
          [-127.58009, 37.03972],
          [-127.55293, 37.04503],
          [-127.54011, 37.06189],
          [-127.53241, 37.07201],
          [-127.50524, 37.07731],
          [-127.49241, 37.09417],
          [-127.48471, 37.10429],
          [-127.45753, 37.10958],
          [-127.43035, 37.11487],
          [-127.40316, 37.12015],
          [-127.37597, 37.12543],
          [-127.36312, 37.14228],
          [-127.3554, 37.15239],
          [-127.3282, 37.15766],
          [-127.301, 37.16293],
          [-127.2738, 37.16819],
          [-127.24659, 37.17345],
          [-127.2337, 37.19028],
          [-127.22597, 37.20038],
          [-127.19876, 37.20563],
          [-127.17154, 37.21087],
          [-127.15864, 37.2277],
          [-127.15089, 37.23779],
          [-127.12366, 37.24303],
          [-127.09643, 37.24826],
          [-127.08352, 37.26508],
          [-127.07576, 37.27517],
          [-127.04852, 37.28039],
          [-127.02127, 37.28561],
          [-127.00834, 37.30242],
          [-127.00058, 37.31251],
          [-126.97332, 37.31772],
          [-126.94607, 37.32293],
          [-126.91881, 37.32813],
          [-126.90585, 37.34493],
          [-126.89808, 37.355],
          [-126.87081, 37.3602],
          [-126.85784, 37.37699],
          [-126.85006, 37.38707],
          [-126.82278, 37.39225],
          [-126.8098, 37.40904],
          [-126.80201, 37.41911],
          [-126.78903, 37.43589],
          [-126.78124, 37.44596],
          [-126.75394, 37.45113],
          [-126.74094, 37.46791],
          [-126.73315, 37.47798],
          [-126.70583, 37.48314],
          [-126.69283, 37.49991],
          [-126.68502, 37.50998],
          [-126.6577, 37.51513],
          [-126.64469, 37.5319],
          [-126.63687, 37.54196],
          [-126.62385, 37.55872],
          [-126.61603, 37.56877],
          [-126.603, 37.58553],
          [-126.6095, 37.6072],
          [-126.60168, 37.61725],
          [-126.58864, 37.63401],
          [-126.58081, 37.64406],
          [-126.56777, 37.66081],
          [-126.55994, 37.67086],
          [-126.54689, 37.68761],
          [-126.55338, 37.70927],
          [-126.54554, 37.71931],
          [-126.53248, 37.73606],
          [-126.52465, 37.7461],
          [-126.51158, 37.76284],
          [-126.50374, 37.77288],
          [-126.49067, 37.78962],
          [-126.49715, 37.81127],
          [-126.50364, 37.83292],
          [-126.51012, 37.85457],
          [-126.51661, 37.87622],
          [-126.50877, 37.88625],
          [-126.49568, 37.90298],
          [-126.48783, 37.91302],
          [-126.47473, 37.92974],
          [-126.46688, 37.93978],
          [-126.43944, 37.94489],
          [-126.42633, 37.96161],
          [-126.41847, 37.97164],
          [-126.40536, 37.98835],
          [-126.39749, 37.99838],
          [-126.38437, 38.01509],
          [-126.3765, 38.02512],
          [-126.34903, 38.03022],
          [-126.33591, 38.04692],
          [-126.32803, 38.05695],
          [-126.31489, 38.07365],
          [-126.30701, 38.08367],
          [-126.29387, 38.10037],
          [-126.31509, 38.11071],
          [-126.32782, 38.11691],
          [-126.31994, 38.12693],
          [-126.3068, 38.14363],
          [-126.29891, 38.15364],
          [-126.2714, 38.15873],
          [-126.25867, 38.15252],
          [-126.23744, 38.14217],
          [-126.22471, 38.13596],
          [-126.20349, 38.12561],
          [-126.19077, 38.1194],
          [-126.16955, 38.10904],
          [-126.14206, 38.11411],
          [-126.11455, 38.11916],
          [-126.08705, 38.12422],
          [-126.05954, 38.12926],
          [-126.03203, 38.13431],
          [-126.01884, 38.15098],
          [-126.01093, 38.16099],
          [-125.98341, 38.16602],
          [-125.9702, 38.18269],
          [-125.96228, 38.19269],
          [-125.93475, 38.19772],
          [-125.92154, 38.21438],
          [-125.91361, 38.22437],
          [-125.88607, 38.22939],
          [-125.85852, 38.23441],
          [-125.84529, 38.25106],
          [-125.83735, 38.26105],
          [-125.8098, 38.26606],
          [-125.78224, 38.27106],
          [-125.75468, 38.27605],
          [-125.72712, 38.28104],
          [-125.69956, 38.28603],
          [-125.68684, 38.27979],
          [-125.66565, 38.26938],
          [-125.63808, 38.27435],
          [-125.61051, 38.27933],
          [-125.58294, 38.2843],
          [-125.55537, 38.28926],
          [-125.5278, 38.29422],
          [-125.50022, 38.29917],
          [-125.47264, 38.30413],
          [-125.45934, 38.32074],
          [-125.45136, 38.33071],
          [-125.42377, 38.33566],
          [-125.39618, 38.34059],
          [-125.36858, 38.34553],
          [-125.34099, 38.35046],
          [-125.31338, 38.35538],
          [-125.28578, 38.3603],
          [-125.25818, 38.36522],
          [-125.23057, 38.37013],
          [-125.21722, 38.38672],
          [-125.20921, 38.39668],
          [-125.1816, 38.40158],
          [-125.15397, 38.40648],
          [-125.12635, 38.41137],
          [-125.11298, 38.42795],
          [-125.10496, 38.4379],
          [-125.09159, 38.45449],
          [-125.08356, 38.46443],
          [-125.05592, 38.46931],
          [-125.04254, 38.48589],
          [-125.0345, 38.49583],
          [-125.00685, 38.5007],
          [-124.99346, 38.51727],
          [-124.98542, 38.52721],
          [-124.95775, 38.53208],
          [-124.94434, 38.54864],
          [-124.9363, 38.55857],
          [-124.90862, 38.56343],
          [-124.88095, 38.56828],
          [-124.85327, 38.57313],
          [-124.83984, 38.58968],
          [-124.83178, 38.59961],
          [-124.80409, 38.60444],
          [-124.7764, 38.60928],
          [-124.7637, 38.60297],
          [-124.74253, 38.59246],
          [-124.71484, 38.59729],
          [-124.70214, 38.59098],
          [-124.68099, 38.58046],
          [-124.6533, 38.58528],
          [-124.6406, 38.57896],
          [-124.61945, 38.56844],
          [-124.60599, 38.58497],
          [-124.59791, 38.59489],
          [-124.57021, 38.59969],
          [-124.55673, 38.61622],
          [-124.54864, 38.62613],
          [-124.52093, 38.63092],
          [-124.50745, 38.64745],
          [-124.49935, 38.65736],
          [-124.47163, 38.66214],
          [-124.45813, 38.67866],
          [-124.45003, 38.68856],
          [-124.4223, 38.69334],
          [-124.40879, 38.70985],
          [-124.40068, 38.71975],
          [-124.37294, 38.72452],
          [-124.3452, 38.72928],
          [-124.33167, 38.74578],
          [-124.32355, 38.75568],
          [-124.2958, 38.76043],
          [-124.28225, 38.77693],
          [-124.27413, 38.78682],
          [-124.24637, 38.79157],
          [-124.23281, 38.80805],
          [-124.22468, 38.81794],
          [-124.21112, 38.83443],
          [-124.20298, 38.84432],
          [-124.18942, 38.8608],
          [-124.18128, 38.87069],
          [-124.1677, 38.88716],
          [-124.15956, 38.89705],
          [-124.13176, 38.90177],
          [-124.11818, 38.91824],
          [-124.11002, 38.92812],
          [-124.08222, 38.93284],
          [-124.06862, 38.9493],
          [-124.06046, 38.95918],
          [-124.03264, 38.96389],
          [-124.01904, 38.98034],
          [-124.01087, 38.99022],
          [-123.99725, 39.00667],
          [-123.98908, 39.01654],
          [-123.96125, 39.02124],
          [-123.94762, 39.03769],
          [-123.93944, 39.04755],
          [-123.92581, 39.064],
          [-123.93185, 39.08562],
          [-123.92366, 39.09549],
          [-123.91002, 39.11193],
          [-123.91606, 39.13354],
          [-123.90787, 39.14341],
          [-123.89422, 39.15984],
          [-123.88602, 39.1697],
          [-123.87237, 39.18613],
          [-123.86417, 39.19599],
          [-123.85051, 39.21242],
          [-123.84231, 39.22227],
          [-123.82863, 39.23869],
          [-123.82043, 39.24855],
          [-123.80675, 39.26497],
          [-123.81277, 39.28657],
          [-123.80456, 39.29642],
          [-123.79088, 39.31284],
          [-123.78266, 39.32269],
          [-123.76897, 39.3391],
          [-123.76075, 39.34894],
          [-123.74705, 39.36535],
          [-123.73883, 39.37519],
          [-123.72512, 39.3916],
          [-123.7169, 39.40144],
          [-123.68895, 39.40608],
          [-123.66099, 39.41072],
          [-123.64727, 39.42711],
          [-123.63903, 39.43695],
          [-123.61107, 39.44158],
          [-123.59733, 39.45796],
          [-123.58909, 39.4678],
          [-123.56112, 39.47242],
          [-123.54737, 39.4888],
          [-123.53912, 39.49862],
          [-123.52536, 39.515],
          [-123.51711, 39.52483],
          [-123.50335, 39.5412],
          [-123.49509, 39.55103],
          [-123.48132, 39.5674],
          [-123.47306, 39.57722],
          [-123.45928, 39.59358],
          [-123.45101, 39.6034],
          [-123.423, 39.608],
          [-123.40921, 39.62436],
          [-123.40094, 39.63417],
          [-123.38714, 39.65053],
          [-123.37886, 39.66034],
          [-123.36506, 39.6767],
          [-123.35678, 39.68651],
          [-123.34297, 39.70285],
          [-123.33468, 39.71266],
          [-123.32087, 39.72901],
          [-123.31258, 39.73881],
          [-123.29876, 39.75515],
          [-123.29046, 39.76496],
          [-123.27663, 39.7813],
          [-123.26833, 39.7911],
          [-123.2545, 39.80743],
          [-123.24619, 39.81723],
          [-123.21811, 39.82179],
          [-123.20426, 39.83811],
          [-123.19595, 39.84791],
          [-123.1821, 39.86423],
          [-123.17378, 39.87402],
          [-123.15992, 39.89034],
          [-123.1516, 39.90013],
          [-123.13773, 39.91645],
          [-123.14366, 39.93801],
          [-123.13533, 39.9478],
          [-123.12145, 39.96411],
          [-123.11313, 39.97389],
          [-123.09924, 39.9902],
          [-123.09091, 39.99998],
          [-123.07702, 40.01628],
          [-123.06868, 40.02606],
          [-123.05478, 40.04236],
          [-123.04644, 40.05214],
          [-123.03254, 40.06844],
          [-123.02419, 40.07821],
          [-123.01028, 40.0945],
          [-123.00193, 40.10428],
          [-122.98801, 40.12056],
          [-122.97966, 40.13033],
          [-122.96573, 40.14662],
          [-122.95737, 40.15639],
          [-122.94344, 40.17267],
          [-122.93508, 40.18243],
          [-122.92114, 40.19871],
          [-122.91277, 40.20847],
          [-122.88457, 40.21297],
          [-122.87061, 40.22924],
          [-122.86224, 40.239],
          [-122.84828, 40.25526],
          [-122.8399, 40.26502],
          [-122.82594, 40.28128],
          [-122.81755, 40.29103],
          [-122.80358, 40.30729],
          [-122.79519, 40.31704],
          [-122.76696, 40.32152],
          [-122.73872, 40.32599],
          [-122.72473, 40.34224],
          [-122.71633, 40.35198],
          [-122.68808, 40.35645],
          [-122.65982, 40.3609],
          [-122.64582, 40.37714],
          [-122.63741, 40.38688],
          [-122.60915, 40.39133],
          [-122.58088, 40.39577],
          [-122.56685, 40.412],
          [-122.55844, 40.42174],
          [-122.53016, 40.42618],
          [-122.51612, 40.4424],
          [-122.5077, 40.45213],
          [-122.47941, 40.45656],
          [-122.46536, 40.47277],
          [-122.45693, 40.4825],
          [-122.42863, 40.48692],
          [-122.41457, 40.50313],
          [-122.40613, 40.51285],
          [-122.37782, 40.51726],
          [-122.34951, 40.52167],
          [-122.3212, 40.52607],
          [-122.29288, 40.53046],
          [-122.26457, 40.53485],
          [-122.25047, 40.55104],
          [-122.24201, 40.56076],
          [-122.21369, 40.56514],
          [-122.18536, 40.56952],
          [-122.15702, 40.57389],
          [-122.12869, 40.57826],
          [-122.11457, 40.59443],
          [-122.10609, 40.60414],
          [-122.07774, 40.6085],
          [-122.0494, 40.61285],
          [-122.03526, 40.62902],
          [-122.02677, 40.63872],
          [-122.01263, 40.65489],
          [-122.01836, 40.6764],
          [-122.00987, 40.6861],
          [-121.99571, 40.70226],
          [-121.98722, 40.71196],
          [-121.95884, 40.71629],
          [-121.94467, 40.73245],
          [-121.93617, 40.74214],
          [-121.92199, 40.75829],
          [-121.91349, 40.76797],
          [-121.89931, 40.78412],
          [-121.8908, 40.79381],
          [-121.87661, 40.80995],
          [-121.86809, 40.81963],
          [-121.83968, 40.82395],
          [-121.82548, 40.84008],
          [-121.81695, 40.84976],
          [-121.78853, 40.85407],
          [-121.77432, 40.8702],
          [-121.76579, 40.87987],
          [-121.73735, 40.88417],
          [-121.72312, 40.90029],
          [-121.71459, 40.90996],
          [-121.70179, 40.90351],
          [-121.68047, 40.89275],
          [-121.65202, 40.89704],
          [-121.62358, 40.90132],
          [-121.59513, 40.90559],
          [-121.56668, 40.90986],
          [-121.53822, 40.91413],
          [-121.52544, 40.90766],
          [-121.50413, 40.89689],
          [-121.47568, 40.90114],
          [-121.44723, 40.90539],
          [-121.43295, 40.92149],
          [-121.42439, 40.93115],
          [-121.39592, 40.93539],
          [-121.36745, 40.93963],
          [-121.35316, 40.95572],
          [-121.34459, 40.96537],
          [-121.31611, 40.9696],
          [-121.30181, 40.98568],
          [-121.29322, 40.99532],
          [-121.26473, 40.99955],
          [-121.23624, 41.00376],
          [-121.22192, 41.01983],
          [-121.21333, 41.02947],
          [-121.18483, 41.03368],
          [-121.17049, 41.04975],
          [-121.16189, 41.05938],
          [-121.13338, 41.06358],
          [-121.10487, 41.06778],
          [-121.09052, 41.08383],
          [-121.08191, 41.09346],
          [-121.05338, 41.09765],
          [-121.02485, 41.10183],
          [-120.99632, 41.106],
          [-120.96779, 41.11018],
          [-120.95342, 41.12622],
          [-120.94479, 41.13584],
          [-120.91624, 41.14],
          [-120.8877, 41.14416],
          [-120.85915, 41.14831],
          [-120.8306, 41.15246],
          [-120.80205, 41.1566],
          [-120.78764, 41.17263],
          [-120.779, 41.18224],
          [-120.75043, 41.18637],
          [-120.72187, 41.19051],
          [-120.70744, 41.20652],
          [-120.69878, 41.21613],
          [-120.67021, 41.22025],
          [-120.64163, 41.22436],
          [-120.61305, 41.22848],
          [-120.58447, 41.23258],
          [-120.55589, 41.23669],
          [-120.5273, 41.24079],
          [-120.51284, 41.25678],
          [-120.50416, 41.26637],
          [-120.47556, 41.27046],
          [-120.44696, 41.27455],
          [-120.41836, 41.27863],
          [-120.40387, 41.29461],
          [-120.39518, 41.3042],
          [-120.36657, 41.30827],
          [-120.33795, 41.31234],
          [-120.32345, 41.32831],
          [-120.31474, 41.33789],
          [-120.28612, 41.34195],
          [-120.2716, 41.35791],
          [-120.26289, 41.36749],
          [-120.23426, 41.37154],
          [-120.20562, 41.37559],
          [-120.17698, 41.37963],
          [-120.14834, 41.38366],
          [-120.11969, 41.38769],
          [-120.10694, 41.38114],
          [-120.08569, 41.37022],
          [-120.07294, 41.36367],
          [-120.06758, 41.34218],
          [-120.04634, 41.33125],
          [-120.0336, 41.32469],
          [-120.01236, 41.31376],
          [-119.98373, 41.31778],
          [-119.9551, 41.32178],
          [-119.92647, 41.32578],
          [-119.89783, 41.32978],
          [-119.88326, 41.34571],
          [-119.87451, 41.35527],
          [-119.84586, 41.35926],
          [-119.83127, 41.37519],
          [-119.82252, 41.38475],
          [-119.79386, 41.38872],
          [-119.7652, 41.3927],
          [-119.73654, 41.39667],
          [-119.70788, 41.40063],
          [-119.67921, 41.40459],
          [-119.66648, 41.39801],
          [-119.64527, 41.38705],
          [-119.61661, 41.391],
          [-119.58794, 41.39494],
          [-119.55927, 41.39888],
          [-119.54655, 41.39229],
          [-119.52536, 41.38131],
          [-119.51264, 41.37472],
          [-119.5074, 41.35321],
          [-119.48622, 41.34222],
          [-119.47351, 41.33562],
          [-119.46829, 41.31411],
          [-119.44711, 41.30311],
          [-119.41847, 41.30703],
          [-119.40577, 41.30043],
          [-119.38461, 41.28942],
          [-119.35596, 41.29334],
          [-119.32731, 41.29724],
          [-119.29866, 41.30115],
          [-119.28597, 41.29453],
          [-119.26482, 41.28352],
          [-119.23617, 41.28741],
          [-119.20752, 41.2913],
          [-119.17887, 41.29518],
          [-119.15021, 41.29906],
          [-119.13753, 41.29244],
          [-119.1164, 41.2814],
          [-119.08774, 41.28527],
          [-119.05909, 41.28913],
          [-119.04641, 41.28251],
          [-119.02529, 41.27146],
          [-119.01262, 41.26483],
          [-118.99151, 41.25377],
          [-118.97885, 41.24714],
          [-118.95774, 41.23608],
          [-118.94508, 41.22945],
          [-118.93997, 41.2079],
          [-118.91888, 41.19684],
          [-118.90623, 41.1902],
          [-118.90113, 41.16865],
          [-118.89603, 41.14709],
          [-118.89093, 41.12554],
          [-118.86986, 41.11446],
          [-118.85722, 41.10781],
          [-118.85213, 41.08625],
          [-118.84705, 41.06469],
          [-118.84197, 41.04312],
          [-118.83689, 41.02155],
          [-118.83181, 40.99998],
          [-118.82673, 40.9784],
          [-118.82166, 40.95682],
          [-118.81659, 40.93524],
          [-118.79556, 40.92415],
          [-118.78295, 40.91749],
          [-118.76194, 40.90639],
          [-118.74933, 40.89973],
          [-118.74428, 40.87814],
          [-118.75309, 40.86861],
          [-118.76777, 40.85272],
          [-118.77658, 40.84319],
          [-118.79126, 40.8273],
          [-118.80006, 40.81777],
          [-118.81473, 40.80187],
          [-118.80967, 40.78028],
          [-118.80461, 40.75867],
          [-118.8134, 40.74914],
          [-118.82806, 40.73324],
          [-118.823, 40.71163],
          [-118.83179, 40.70209],
          [-118.84644, 40.68618],
          [-118.85522, 40.67664],
          [-118.86986, 40.66073],
          [-118.8648, 40.63912],
          [-118.87358, 40.62957],
          [-118.88821, 40.61365],
          [-118.89699, 40.6041],
          [-118.91161, 40.58819],
          [-118.92038, 40.57863],
          [-118.935, 40.56271],
          [-118.92992, 40.54109],
          [-118.93869, 40.53153],
          [-118.95329, 40.5156],
          [-118.94822, 40.49398],
          [-118.94314, 40.47235],
          [-118.93807, 40.45071],
          [-118.933, 40.42908],
          [-118.92793, 40.40744],
          [-118.92286, 40.3858],
          [-118.90194, 40.37469],
          [-118.88939, 40.36802],
          [-118.86847, 40.3569],
          [-118.85593, 40.35022],
          [-118.85088, 40.32857],
          [-118.82997, 40.31745],
          [-118.81744, 40.31077],
          [-118.79654, 40.29964],
          [-118.78401, 40.29295],
          [-118.77897, 40.2713],
          [-118.77394, 40.24964],
          [-118.76892, 40.22798],
          [-118.74804, 40.21683],
          [-118.73552, 40.21015],
          [-118.71466, 40.199],
          [-118.70214, 40.19231],
          [-118.68128, 40.18116],
          [-118.66877, 40.17446],
          [-118.64792, 40.16331],
          [-118.63541, 40.15661],
          [-118.61456, 40.14545],
          [-118.60206, 40.13875],
          [-118.58122, 40.12758],
          [-118.56872, 40.12088],
          [-118.54789, 40.10971],
          [-118.5354, 40.103],
          [-118.51457, 40.09182],
          [-118.50208, 40.08512],
          [-118.48127, 40.07393],
          [-118.46878, 40.06722],
          [-118.46382, 40.04553],
          [-118.45887, 40.02384],
          [-118.45392, 40.00214],
          [-118.44897, 39.98045],
          [-118.44403, 39.95875],
          [-118.43908, 39.93704],
          [-118.4183, 39.92584],
          [-118.40584, 39.91912],
          [-118.38506, 39.90792],
          [-118.3726, 39.9012],
          [-118.36768, 39.87949],
          [-118.36275, 39.85777],
          [-118.342, 39.84656],
          [-118.32955, 39.83983],
          [-118.32463, 39.81812],
          [-118.31972, 39.79639],
          [-118.31481, 39.77467],
          [-118.3099, 39.75294],
          [-118.30499, 39.73121],
          [-118.30009, 39.70948],
          [-118.29519, 39.68775],
          [-118.30394, 39.67818],
          [-118.31852, 39.66224],
          [-118.31362, 39.6405],
          [-118.30872, 39.61876],
          [-118.30382, 39.59702],
          [-118.31256, 39.58745],
          [-118.32713, 39.57149],
          [-118.32223, 39.54975],
          [-118.31733, 39.52799],
          [-118.32607, 39.51842],
          [-118.34063, 39.50246],
          [-118.33573, 39.48071],
          [-118.33083, 39.45895],
          [-118.33956, 39.44937],
          [-118.3541, 39.43341],
          [-118.3492, 39.41165],
          [-118.3443, 39.38988],
          [-118.35303, 39.3803],
          [-118.36756, 39.36433],
          [-118.36266, 39.34256],
          [-118.35776, 39.32079],
          [-118.36648, 39.3112],
          [-118.381, 39.29523],
          [-118.3761, 39.27345],
          [-118.38482, 39.26386],
          [-118.39933, 39.24788],
          [-118.39443, 39.2261],
          [-118.40313, 39.21651],
          [-118.40885, 39.20171],
          [-118.41274, 39.17873],
          [-118.40783, 39.15695],
          [-118.40294, 39.13516],
          [-118.39804, 39.11337],
          [-118.39314, 39.09158],
          [-118.38825, 39.06978],
          [-118.38336, 39.04798],
          [-118.37847, 39.02618],
          [-118.36482, 39.00556],
          [-118.353, 38.99312],
          [-118.34591, 38.98566],
          [-118.33577, 38.96456],
          [-118.32213, 38.94393],
          [-118.31032, 38.93148],
          [-118.29798, 38.92472],
          [-118.27742, 38.91346],
          [-118.27034, 38.90598],
          [-118.26022, 38.88488],
          [-118.25537, 38.86305],
          [-118.23482, 38.85178],
          [-118.22249, 38.84501],
          [-118.21765, 38.82318],
          [-118.19711, 38.8119],
          [-118.18479, 38.80513],
          [-118.16426, 38.79384],
          [-118.15195, 38.78707],
          [-118.13143, 38.77577],
          [-118.10342, 38.77953],
          [-118.09111, 38.77275],
          [-118.0706, 38.76145],
          [-118.04259, 38.7652],
          [-118.03029, 38.75842],
          [-118.00978, 38.74711],
          [-117.98178, 38.75085],
          [-117.96948, 38.74406],
          [-117.94899, 38.73274],
          [-117.92098, 38.73647],
          [-117.90869, 38.72968],
          [-117.88821, 38.71835],
          [-117.87592, 38.71156],
          [-117.85544, 38.70023],
          [-117.84316, 38.69343],
          [-117.82269, 38.68209],
          [-117.81041, 38.67529],
          [-117.78994, 38.66395],
          [-117.77767, 38.65715],
          [-117.77292, 38.63529],
          [-117.75247, 38.62395],
          [-117.7402, 38.61714],
          [-117.73546, 38.59528],
          [-117.73073, 38.57341],
          [-117.726, 38.55155],
          [-117.72126, 38.52968],
          [-117.70084, 38.51832],
          [-117.68859, 38.5115],
          [-117.68386, 38.48963],
          [-117.66345, 38.47827],
          [-117.6512, 38.47145],
          [-117.64649, 38.44957],
          [-117.64178, 38.42769],
          [-117.62138, 38.41632],
          [-117.61438, 38.4088],
          [-117.60445, 38.38761],
          [-117.58406, 38.37623],
          [-117.57707, 38.36871],
          [-117.57238, 38.34682],
          [-117.56769, 38.32493],
          [-117.563, 38.30304],
          [-117.55831, 38.28114],
          [-117.55363, 38.25924],
          [-117.535, 38.23918],
          [-117.53033, 38.21727],
          [-117.51869, 38.20473],
          [-117.50649, 38.19789],
          [-117.48615, 38.18649],
          [-117.47917, 38.17896],
          [-117.45274, 38.16414],
          [-117.44142, 38.1614],
          [-117.42109, 38.15],
          [-117.4089, 38.14315],
          [-117.38858, 38.13174],
          [-117.36071, 38.13539],
          [-117.34853, 38.12853],
          [-117.32822, 38.11711],
          [-117.30036, 38.12075],
          [-117.28817, 38.1139],
          [-117.26787, 38.10247],
          [-117.24001, 38.1061],
          [-117.22784, 38.09924],
          [-117.20755, 38.0878],
          [-117.19537, 38.08094],
          [-117.17509, 38.0695],
          [-117.14724, 38.07311],
          [-117.13507, 38.06624],
          [-117.11479, 38.0548],
          [-117.10263, 38.04792],
          [-117.09805, 38.02599],
          [-117.07779, 38.01454],
          [-117.06563, 38.00766],
          [-117.04538, 37.9962],
          [-117.03323, 37.98932],
          [-117.01298, 37.97786],
          [-116.98514, 37.98145],
          [-116.97299, 37.97457],
          [-116.96844, 37.95262],
          [-116.94821, 37.94115],
          [-116.93607, 37.93426],
          [-116.91584, 37.92278],
          [-116.90371, 37.91589],
          [-116.89917, 37.89394],
          [-116.87896, 37.88246],
          [-116.86683, 37.87556],
          [-116.84662, 37.86407],
          [-116.8345, 37.85718],
          [-116.81429, 37.84568],
          [-116.80217, 37.83878],
          [-116.78198, 37.82728],
          [-116.76986, 37.82038],
          [-116.74967, 37.80888],
          [-116.72187, 37.81243],
          [-116.69407, 37.81598],
          [-116.66626, 37.81952],
          [-116.63846, 37.82306],
          [-116.62387, 37.839],
          [-116.61512, 37.84856],
          [-116.58731, 37.85209],
          [-116.57271, 37.86802],
          [-116.56395, 37.87757],
          [-116.53613, 37.88109],
          [-116.5083, 37.88461],
          [-116.48047, 37.88812],
          [-116.45264, 37.89163],
          [-116.44054, 37.88471],
          [-116.42037, 37.87317],
          [-116.39254, 37.87666],
          [-116.38045, 37.86974],
          [-116.36029, 37.85819],
          [-116.33247, 37.86168],
          [-116.32038, 37.85474],
          [-116.30023, 37.84319],
          [-116.2724, 37.84667],
          [-116.26032, 37.83973],
          [-116.24018, 37.82817],
          [-116.21236, 37.83164],
          [-116.20028, 37.8247],
          [-116.18015, 37.81312],
          [-116.16808, 37.80618],
          [-116.14796, 37.7946],
          [-116.13588, 37.78766],
          [-116.11577, 37.77608],
          [-116.1037, 37.76913],
          [-116.09934, 37.74714],
          [-116.07924, 37.73555],
          [-116.06718, 37.7286],
          [-116.04708, 37.71701],
          [-116.03503, 37.71005],
          [-116.01494, 37.69846],
          [-116.00289, 37.6915],
          [-115.9828, 37.6799],
          [-115.97076, 37.67294],
          [-115.95068, 37.66133],
          [-115.92289, 37.66475],
          [-115.8951, 37.66817],
          [-115.86731, 37.67159],
          [-115.83952, 37.675],
          [-115.81172, 37.67841],
          [-115.78392, 37.68181],
          [-115.76923, 37.69768],
          [-115.76042, 37.70721],
          [-115.74572, 37.72307],
          [-115.7369, 37.7326],
          [-115.72219, 37.74846],
          [-115.72648, 37.77046],
          [-115.71765, 37.77997],
          [-115.70293, 37.79584],
          [-115.70722, 37.81783],
          [-115.69839, 37.82734],
          [-115.68366, 37.8432],
          [-115.67483, 37.85271],
          [-115.66009, 37.86856],
          [-115.66437, 37.89055],
          [-115.65553, 37.90006],
          [-115.62767, 37.90343],
          [-115.59981, 37.9068],
          [-115.58776, 37.89982],
          [-115.56768, 37.88818],
          [-115.55564, 37.88119],
          [-115.53557, 37.86955],
          [-115.50772, 37.8729],
          [-115.49568, 37.86591],
          [-115.47562, 37.85426],
          [-115.44776, 37.85761],
          [-115.41991, 37.86095],
          [-115.39205, 37.86428],
          [-115.36419, 37.86761],
          [-115.34941, 37.88344],
          [-115.34054, 37.89293],
          [-115.31268, 37.89626],
          [-115.29789, 37.91207],
          [-115.28901, 37.92156],
          [-115.27421, 37.93738],
          [-115.26533, 37.94687],
          [-115.25053, 37.96268],
          [-115.24164, 37.97216],
          [-115.22683, 37.98797],
          [-115.23102, 38.00996],
          [-115.22213, 38.01944],
          [-115.20731, 38.03524],
          [-115.19842, 38.04472],
          [-115.18359, 38.06052],
          [-115.17469, 38.07],
          [-115.15985, 38.08579],
          [-115.15095, 38.09527],
          [-115.13611, 38.11106],
          [-115.1272, 38.12054],
          [-115.11235, 38.13632],
          [-115.10344, 38.14579],
          [-115.08858, 38.16158],
          [-115.07967, 38.17105],
          [-115.0648, 38.18683],
          [-115.05588, 38.1963],
          [-115.02793, 38.19957],
          [-115.01305, 38.21534],
          [-115.00412, 38.2248],
          [-114.98924, 38.24057],
          [-114.98031, 38.25003],
          [-114.96542, 38.2658],
          [-114.95648, 38.27526],
          [-114.94159, 38.29102],
          [-114.93265, 38.30048],
          [-114.90466, 38.30373],
          [-114.88975, 38.31948],
          [-114.88081, 38.32894],
          [-114.86589, 38.34469],
          [-114.85694, 38.35414],
          [-114.84202, 38.36989],
          [-114.83306, 38.37933],
          [-114.80505, 38.38257],
          [-114.79012, 38.39831],
          [-114.78116, 38.40775],
          [-114.75314, 38.41098],
          [-114.73819, 38.42671],
          [-114.72922, 38.43615],
          [-114.70119, 38.43937],
          [-114.67316, 38.44258],
          [-114.64513, 38.44579],
          [-114.63016, 38.46151],
          [-114.62118, 38.47094],
          [-114.59314, 38.47414],
          [-114.57816, 38.48986],
          [-114.58224, 38.51181],
          [-114.57325, 38.52124],
          [-114.55826, 38.53695],
          [-114.56234, 38.5589],
          [-114.55334, 38.56832],
          [-114.53834, 38.58403],
          [-114.52934, 38.59345],
          [-114.50127, 38.59663],
          [-114.47319, 38.59981],
          [-114.45818, 38.61551],
          [-114.44917, 38.62492],
          [-114.42108, 38.62809],
          [-114.39299, 38.63125],
          [-114.37796, 38.64694],
          [-114.36894, 38.65636],
          [-114.3539, 38.67204],
          [-114.34488, 38.68145],
          [-114.32983, 38.69713],
          [-114.3208, 38.70654],
          [-114.30575, 38.72222],
          [-114.30978, 38.74415],
          [-114.31382, 38.76608],
          [-114.33392, 38.77782],
          [-114.34599, 38.78487],
          [-114.3661, 38.7966],
          [-114.39423, 38.79345],
          [-114.4063, 38.80048],
          [-114.41036, 38.82241],
          [-114.41442, 38.84433],
          [-114.41847, 38.86625],
          [-114.42254, 38.88817],
          [-114.4135, 38.89757],
          [-114.39843, 38.91325],
          [-114.38939, 38.92265],
          [-114.37432, 38.93831],
          [-114.37838, 38.96023],
          [-114.36933, 38.96963],
          [-114.35425, 38.98529],
          [-114.3452, 38.99468],
          [-114.33011, 39.01034],
          [-114.32105, 39.01974],
          [-114.29285, 39.02288],
          [-114.26466, 39.02601],
          [-114.23646, 39.02915],
          [-114.22437, 39.0221],
          [-114.20423, 39.01036],
          [-114.19215, 39.00332],
          [-114.17202, 38.99157],
          [-114.15994, 38.98453],
          [-114.15593, 38.96261],
          [-114.13581, 38.95086],
          [-114.12375, 38.94381],
          [-114.11974, 38.92189],
          [-114.09964, 38.91013],
          [-114.08757, 38.90308],
          [-114.08358, 38.88115],
          [-114.06349, 38.86939],
          [-114.05143, 38.86233],
          [-114.03134, 38.85056],
          [-114.00318, 38.85366],
          [-113.97502, 38.85675],
          [-113.9599, 38.87239],
          [-113.95082, 38.88177],
          [-113.92265, 38.88485],
          [-113.90751, 38.90048],
          [-113.89843, 38.90986],
          [-113.88329, 38.92548],
          [-113.8742, 38.93486],
          [-113.85905, 38.95048],
          [-113.84996, 38.95985],
          [-113.8348, 38.97547],
          [-113.83874, 38.99739],
          [-113.82965, 39.00676],
          [-113.81448, 39.02237],
          [-113.80538, 39.03174],
          [-113.77716, 39.0348],
          [-113.76198, 39.0504],
          [-113.75287, 39.05977],
          [-113.72465, 39.06282],
          [-113.69642, 39.06586],
          [-113.6682, 39.0689],
          [-113.63997, 39.07193],
          [-113.61174, 39.07496],
          [-113.59969, 39.06788],
          [-113.57961, 39.05607],
          [-113.56757, 39.04898],
          [-113.5475, 39.03717],
          [-113.53546, 39.03008],
          [-113.53157, 39.00816],
          [-113.51152, 38.99634],
          [-113.49948, 38.98924],
          [-113.49561, 38.96731],
          [-113.47556, 38.95549],
          [-113.46354, 38.94839],
          [-113.45967, 38.92646],
          [-113.45581, 38.90452],
          [-113.45195, 38.88258],
          [-113.44809, 38.86064],
          [-113.44424, 38.8387],
          [-113.44038, 38.81675],
          [-113.42037, 38.80491],
          [-113.40836, 38.79781],
          [-113.38836, 38.78596],
          [-113.37636, 38.77885],
          [-113.35636, 38.767],
          [-113.34436, 38.75989],
          [-113.32437, 38.74804],
          [-113.29622, 38.75102],
          [-113.28423, 38.7439],
          [-113.26425, 38.73204],
          [-113.2361, 38.73501],
          [-113.20795, 38.73798],
          [-113.17979, 38.74095],
          [-113.16781, 38.73382],
          [-113.14785, 38.72195],
          [-113.1197, 38.7249],
          [-113.09154, 38.72785],
          [-113.07631, 38.74342],
          [-113.06716, 38.75276],
          [-113.05192, 38.76833],
          [-113.04277, 38.77766],
          [-113.02752, 38.79322],
          [-113.01837, 38.80256],
          [-113.00311, 38.81812],
          [-112.99396, 38.82745],
          [-112.97869, 38.843],
          [-112.96953, 38.85233],
          [-112.95426, 38.86788],
          [-112.94509, 38.87721],
          [-112.9169, 38.88013],
          [-112.8887, 38.88305],
          [-112.87341, 38.89859],
          [-112.86423, 38.90791],
          [-112.83602, 38.91081],
          [-112.82072, 38.92635],
          [-112.81154, 38.93567],
          [-112.79623, 38.9512],
          [-112.78705, 38.96051],
          [-112.75882, 38.96341],
          [-112.7306, 38.96629],
          [-112.71862, 38.95915],
          [-112.69866, 38.94723],
          [-112.68669, 38.94008],
          [-112.66674, 38.92816],
          [-112.63852, 38.93103],
          [-112.62655, 38.92388],
          [-112.60661, 38.91195],
          [-112.5784, 38.91482],
          [-112.55018, 38.91768],
          [-112.52196, 38.92053],
          [-112.49374, 38.92338],
          [-112.47839, 38.93888],
          [-112.46917, 38.94818],
          [-112.44094, 38.95103],
          [-112.41271, 38.95386],
          [-112.39734, 38.96936],
          [-112.38812, 38.97865],
          [-112.35988, 38.98148],
          [-112.3445, 38.99697],
          [-112.33527, 39.00626],
          [-112.31988, 39.02174],
          [-112.31065, 39.03103],
          [-112.29525, 39.04651],
          [-112.28601, 39.05579],
          [-112.25775, 39.0586],
          [-112.24234, 39.07407],
          [-112.2331, 39.08336],
          [-112.20482, 39.08616],
          [-112.19287, 39.07898],
          [-112.17295, 39.06701],
          [-112.14468, 39.0698],
          [-112.13273, 39.06262],
          [-112.11282, 39.05064],
          [-112.10088, 39.04345],
          [-112.08097, 39.03147],
          [-112.06903, 39.02428],
          [-112.04914, 39.01229],
          [-112.02088, 39.01507],
          [-112.00894, 39.00787],
          [-112, 39.00248]
        ]
      }
    },
    {
      "type": "Feature",
      "id": "2026092418_f138_11000_001",
      "properties": {
        "product_id": "winter_storm_levels",
        "source_id": "nbm_snow_level",
        "parameter": "snow_level",
        "definition": "height of the wet-bulb 0.5 degree C surface",
        "level_ft_msl": 11000,
        "label": "11,000 ft MSL",
        "unit": "ft_msl",
        "cycle_time_utc": "2026-09-24T18:00:00Z",
        "valid_time_utc": "2026-09-30T12:00:00Z",
        "lead_hours": 138,
        "segment": 1,
        "length_m": 25262.1
      },
      "geometry": {
        "type": "LineString",
        "coordinates": [
          [-112.18524, 30.01055],
          [-112.18374, 30.01223],
          [-112.17749, 30.01922],
          [-112.15143, 30.02209],
          [-112.13493, 30.04054],
          [-112.12867, 30.04753],
          [-112.11217, 30.06597],
          [-112.1059, 30.07296],
          [-112.08939, 30.0914],
          [-112.08313, 30.09839],
          [-112.06661, 30.11683],
          [-112.06034, 30.12382],
          [-112.03425, 30.12667],
          [-112.01772, 30.1451],
          [-112.01145, 30.15209],
          [-112, 30.15333]
        ]
      }
    }
  ]
}

