{
  "type": "FeatureCollection",
  "contract_version": "1.0.0",
  "bbox": [-130, 30.21869, -112, 44.5],
  "features": [
    {
      "type": "Feature",
      "id": "2026092706_f192_09000_001",
      "properties": {
        "product_id": "winter_storm_levels",
        "source_id": "nbm_snow_level",
        "parameter": "snow_level",
        "definition": "height of the wet-bulb 0.5 degree C surface",
        "level_ft_msl": 9000,
        "label": "9,000 ft MSL",
        "unit": "ft_msl",
        "cycle_time_utc": "2026-09-27T06:00:00Z",
        "valid_time_utc": "2026-10-05T06:00:00Z",
        "lead_hours": 192,
        "segment": 1,
        "length_m": 59873.3
      },
      "geometry": {
        "type": "LineString",
        "coordinates": [
          [-130, 44.0489],
          [-129.99296, 44.05759],
          [-129.98976, 44.06154],
          [-129.97165, 44.08388],
          [-129.96845, 44.08783],
          [-129.95033, 44.11016],
          [-129.94713, 44.11411],
          [-129.929, 44.13644],
          [-129.9258, 44.14038],
          [-129.90766, 44.1627],
          [-129.90445, 44.16664],
          [-129.8863, 44.18897],
          [-129.8831, 44.1929],
          [-129.86494, 44.21522],
          [-129.86173, 44.21916],
          [-129.84356, 44.24146],
          [-129.81455, 44.24692],
          [-129.81134, 44.25086],
          [-129.79315, 44.27316],
          [-129.78994, 44.27709],
          [-129.77174, 44.29939],
          [-129.76853, 44.30332],
          [-129.75032, 44.32561],
          [-129.74711, 44.32954],
          [-129.72889, 44.35182],
          [-129.72567, 44.35575],
          [-129.70744, 44.37803],
          [-129.70422, 44.38196],
          [-129.68599, 44.40423],
          [-129.68277, 44.40816],
          [-129.66452, 44.43042],
          [-129.6613, 44.43435],
          [-129.64304, 44.4566],
          [-129.63982, 44.46053],
          [-129.62155, 44.48278],
          [-129.61832, 44.48671],
          [-129.6074, 44.5]
        ]
      }
    },
    {
      "type": "Feature",
      "id": "2026092706_f192_10000_001",
      "properties": {
        "product_id": "winter_storm_levels",
        "source_id": "nbm_snow_level",
        "parameter": "snow_level",
        "definition": "height of the wet-bulb 0.5 degree C surface",
        "level_ft_msl": 10000,
        "label": "10,000 ft MSL",
        "unit": "ft_msl",
        "cycle_time_utc": "2026-09-27T06:00:00Z",
        "valid_time_utc": "2026-10-05T06:00:00Z",
        "lead_hours": 192,
        "segment": 1,
        "length_m": 1281330
      },
      "geometry": {
        "type": "LineString",
        "coordinates": [
          [-130, 36.00753],
          [-129.98711, 36.02543],
          [-129.98218, 36.03228],
          [-129.98925, 36.05394],
          [-129.97446, 36.07447],
          [-129.96953, 36.08132],
          [-129.95473, 36.10184],
          [-129.9498, 36.10869],
          [-129.93499, 36.12921],
          [-129.93005, 36.13605],
          [-129.91524, 36.15657],
          [-129.9103, 36.16341],
          [-129.89548, 36.18393],
          [-129.89053, 36.19077],
          [-129.8757, 36.21128],
          [-129.84887, 36.21697],
          [-129.84392, 36.22381],
          [-129.82908, 36.24431],
          [-129.82413, 36.25115],
          [-129.80928, 36.27165],
          [-129.80433, 36.27849],
          [-129.78947, 36.29898],
          [-129.78452, 36.30582],
          [-129.76965, 36.32631],
          [-129.7647, 36.33314],
          [-129.74982, 36.35363],
          [-129.72294, 36.35931],
          [-129.71798, 36.36613],
          [-129.7031, 36.38662],
          [-129.69814, 36.39345],
          [-129.70517, 36.41509],
          [-129.69028, 36.43557],
          [-129.68531, 36.4424],
          [-129.67041, 36.46287],
          [-129.66544, 36.4697],
          [-129.67248, 36.49134],
          [-129.67952, 36.51297],
          [-129.68656, 36.53461],
          [-129.69505, 36.5386],
          [-129.72053, 36.55058],
          [-129.72903, 36.55457],
          [-129.75452, 36.56654],
          [-129.76158, 36.58817],
          [-129.76864, 36.6098],
          [-129.77571, 36.63142],
          [-129.78421, 36.63541],
          [-129.80972, 36.64737],
          [-129.8168, 36.66899],
          [-129.82388, 36.69061],
          [-129.83239, 36.69459],
          [-129.85792, 36.70654],
          [-129.84301, 36.72701],
          [-129.83805, 36.73383],
          [-129.84513, 36.75545],
          [-129.85222, 36.77705],
          [-129.85932, 36.79866],
          [-129.86641, 36.82027],
          [-129.85149, 36.84073],
          [-129.84652, 36.84755],
          [-129.85362, 36.86915],
          [-129.83869, 36.88961],
          [-129.83371, 36.89643],
          [-129.84081, 36.91802],
          [-129.82587, 36.93848],
          [-129.82089, 36.94529],
          [-129.82799, 36.96689],
          [-129.83509, 36.98848],
          [-129.84219, 37.01007],
          [-129.82724, 37.03051],
          [-129.82226, 37.03733],
          [-129.82936, 37.05891],
          [-129.8144, 37.07935],
          [-129.80941, 37.08617],
          [-129.81652, 37.10775],
          [-129.80155, 37.12818],
          [-129.79656, 37.135],
          [-129.80366, 37.15657],
          [-129.81077, 37.17815],
          [-129.81788, 37.19973],
          [-129.825, 37.2213],
          [-129.83211, 37.24287],
          [-129.81713, 37.26329],
          [-129.81213, 37.2701],
          [-129.81925, 37.29167],
          [-129.80426, 37.31209],
          [-129.77714, 37.31775],
          [-129.77214, 37.32455],
          [-129.75713, 37.34497],
          [-129.75213, 37.35177],
          [-129.73712, 37.37218],
          [-129.73211, 37.37898],
          [-129.73922, 37.40054],
          [-129.72419, 37.42095],
          [-129.71918, 37.42775],
          [-129.70415, 37.44815],
          [-129.69914, 37.45495],
          [-129.6841, 37.47534],
          [-129.67909, 37.48214],
          [-129.66404, 37.50253],
          [-129.65902, 37.50933],
          [-129.66613, 37.53088],
          [-129.65107, 37.55127],
          [-129.64605, 37.55806],
          [-129.65315, 37.57961],
          [-129.63809, 37.59999],
          [-129.63306, 37.60679],
          [-129.64017, 37.62833],
          [-129.62509, 37.64871],
          [-129.62007, 37.6555],
          [-129.62717, 37.67704],
          [-129.61209, 37.69741],
          [-129.60706, 37.7042],
          [-129.61416, 37.72574],
          [-129.62127, 37.74727],
          [-129.60618, 37.76764],
          [-129.60114, 37.77443],
          [-129.60825, 37.79596],
          [-129.61536, 37.81749],
          [-129.60026, 37.83784],
          [-129.59522, 37.84463],
          [-129.60233, 37.86615],
          [-129.60945, 37.88768],
          [-129.59433, 37.90803],
          [-129.58929, 37.91481],
          [-129.59641, 37.93633],
          [-129.60353, 37.95785],
          [-129.61065, 37.97936],
          [-129.59552, 37.9997],
          [-129.59047, 38.00648],
          [-129.57534, 38.02682],
          [-129.57029, 38.0336],
          [-129.55514, 38.05394],
          [-129.52783, 38.05954],
          [-129.52278, 38.06632],
          [-129.50762, 38.08665],
          [-129.50256, 38.09342],
          [-129.48739, 38.11375],
          [-129.48234, 38.12052],
          [-129.48945, 38.14202],
          [-129.47427, 38.16234],
          [-129.46921, 38.16912],
          [-129.45403, 38.18943],
          [-129.44896, 38.1962],
          [-129.43377, 38.21651],
          [-129.40641, 38.22209],
          [-129.40134, 38.22886],
          [-129.38614, 38.24916],
          [-129.38107, 38.25593],
          [-129.36585, 38.27623],
          [-129.33847, 38.2818],
          [-129.3334, 38.28856],
          [-129.31817, 38.30885],
          [-129.29077, 38.31441],
          [-129.2857, 38.32117],
          [-129.27046, 38.34146],
          [-129.26537, 38.34822],
          [-129.25013, 38.3685],
          [-129.22271, 38.37405],
          [-129.21763, 38.3808],
          [-129.20236, 38.40108],
          [-129.17494, 38.40662],
          [-129.14751, 38.41215],
          [-129.14242, 38.4189],
          [-129.12714, 38.43917],
          [-129.0997, 38.44469],
          [-129.09461, 38.45144],
          [-129.07931, 38.4717],
          [-129.05186, 38.47722],
          [-129.04676, 38.48397],
          [-129.03145, 38.50422],
          [-129.02635, 38.51097],
          [-129.01103, 38.53121],
          [-128.98356, 38.53672],
          [-128.97845, 38.54346],
          [-128.96312, 38.5637],
          [-128.95801, 38.57045],
          [-128.94267, 38.59068],
          [-128.91518, 38.59617],
          [-128.91007, 38.60291],
          [-128.89471, 38.62314],
          [-128.86722, 38.62862],
          [-128.8621, 38.63536],
          [-128.84673, 38.65558],
          [-128.81922, 38.66106],
          [-128.8141, 38.6678],
          [-128.79872, 38.68801],
          [-128.7712, 38.69348],
          [-128.74368, 38.69894],
          [-128.73854, 38.70567],
          [-128.72314, 38.72587],
          [-128.69561, 38.73133],
          [-128.69047, 38.73806],
          [-128.67506, 38.75825],
          [-128.64751, 38.7637],
          [-128.61997, 38.76914],
          [-128.59242, 38.77458],
          [-128.56487, 38.78001],
          [-128.53731, 38.78543],
          [-128.50976, 38.79086],
          [-128.48219, 38.79627],
          [-128.45463, 38.80169],
          [-128.42875, 38.78963],
          [-128.42013, 38.78561],
          [-128.39257, 38.79102],
          [-128.3667, 38.77895],
          [-128.35808, 38.77493],
          [-128.33221, 38.76286],
          [-128.3236, 38.75883],
          [-128.29774, 38.74676],
          [-128.28913, 38.74273],
          [-128.26157, 38.74811],
          [-128.23572, 38.73603],
          [-128.22711, 38.732],
          [-128.20128, 38.7199],
          [-128.19267, 38.71587],
          [-128.16511, 38.72124],
          [-128.13928, 38.70914],
          [-128.13068, 38.7051],
          [-128.10312, 38.71046],
          [-128.07556, 38.71582],
          [-128.048, 38.72117],
          [-128.04282, 38.72788],
          [-128.02728, 38.74802],
          [-128.0221, 38.75473],
          [-128.00656, 38.77487],
          [-128.00137, 38.78158],
          [-128.00823, 38.80308],
          [-127.99267, 38.82321],
          [-127.98749, 38.82992],
          [-127.97192, 38.85004],
          [-127.96673, 38.85675],
          [-127.95116, 38.87687],
          [-127.94597, 38.88357],
          [-127.9304, 38.90369],
          [-127.9252, 38.91039],
          [-127.93205, 38.93188],
          [-127.93889, 38.95337],
          [-127.9233, 38.97348],
          [-127.91811, 38.98018],
          [-127.90251, 39.00028],
          [-127.89731, 39.00698],
          [-127.8817, 39.02708],
          [-127.8765, 39.03378],
          [-127.88334, 39.05526],
          [-127.86773, 39.07536],
          [-127.86252, 39.08205],
          [-127.8469, 39.10214],
          [-127.84169, 39.10884],
          [-127.82606, 39.12892],
          [-127.82084, 39.13562],
          [-127.8052, 39.1557],
          [-127.79999, 39.16239],
          [-127.78434, 39.18247],
          [-127.77913, 39.18916],
          [-127.76347, 39.20923],
          [-127.75825, 39.21592],
          [-127.74259, 39.23599],
          [-127.73737, 39.24267],
          [-127.7217, 39.26274],
          [-127.71647, 39.26942],
          [-127.70079, 39.28948],
          [-127.67306, 39.29476],
          [-127.66783, 39.30144],
          [-127.65214, 39.3215],
          [-127.62439, 39.32676],
          [-127.61916, 39.33345],
          [-127.60345, 39.35349],
          [-127.59821, 39.36017],
          [-127.5825, 39.38021],
          [-127.57726, 39.38689],
          [-127.56154, 39.40692],
          [-127.55629, 39.4136],
          [-127.54056, 39.43363],
          [-127.53532, 39.44031],
          [-127.51958, 39.46033],
          [-127.49179, 39.46558],
          [-127.48654, 39.47225],
          [-127.47079, 39.49227],
          [-127.46553, 39.49894],
          [-127.44977, 39.51895],
          [-127.44452, 39.52562],
          [-127.42875, 39.54563],
          [-127.42349, 39.5523],
          [-127.40771, 39.57231],
          [-127.37989, 39.57753],
          [-127.37463, 39.5842],
          [-127.35884, 39.6042],
          [-127.35357, 39.61086],
          [-127.33777, 39.63085],
          [-127.30993, 39.63607],
          [-127.28209, 39.64127],
          [-127.27681, 39.64793],
          [-127.26099, 39.66792],
          [-127.23314, 39.67311],
          [-127.20528, 39.67831],
          [-127.2, 39.68497],
          [-127.18416, 39.70494],
          [-127.15629, 39.71012],
          [-127.15101, 39.71678],
          [-127.13516, 39.73674],
          [-127.10728, 39.74192],
          [-127.10199, 39.74857],
          [-127.08612, 39.76853],
          [-127.05823, 39.7737],
          [-127.05294, 39.78035],
          [-127.03705, 39.8003],
          [-127.00915, 39.80546],
          [-126.98125, 39.81061],
          [-126.95334, 39.81576],
          [-126.94804, 39.82241],
          [-126.93213, 39.84234],
          [-126.90421, 39.84749],
          [-126.87629, 39.85262],
          [-126.84837, 39.85776],
          [-126.84306, 39.8644],
          [-126.82712, 39.88432],
          [-126.79919, 39.88944],
          [-126.77125, 39.89456],
          [-126.76593, 39.9012],
          [-126.74997, 39.92111],
          [-126.74465, 39.92775],
          [-126.75132, 39.94918],
          [-126.73535, 39.96909],
          [-126.73003, 39.97572],
          [-126.71406, 39.99562],
          [-126.70873, 40.00225],
          [-126.69275, 40.02215],
          [-126.68742, 40.02878],
          [-126.67143, 40.04867],
          [-126.66609, 40.0553],
          [-126.67275, 40.07672],
          [-126.65675, 40.09661],
          [-126.65142, 40.10324],
          [-126.65808, 40.12465],
          [-126.64207, 40.14453],
          [-126.63673, 40.15116],
          [-126.62071, 40.17103],
          [-126.61537, 40.17766],
          [-126.62202, 40.19907],
          [-126.60599, 40.21893],
          [-126.60065, 40.22556],
          [-126.60731, 40.24696],
          [-126.61397, 40.26836],
          [-126.59792, 40.28822],
          [-126.59258, 40.29484],
          [-126.59924, 40.31624],
          [-126.58318, 40.33609],
          [-126.57783, 40.34271],
          [-126.58449, 40.3641],
          [-126.56843, 40.38395],
          [-126.56307, 40.39057],
          [-126.547, 40.41041],
          [-126.54164, 40.41703],
          [-126.52556, 40.43687],
          [-126.5202, 40.44348],
          [-126.50411, 40.46331],
          [-126.49875, 40.46992],
          [-126.48265, 40.48975],
          [-126.47729, 40.49636],
          [-126.46118, 40.51619],
          [-126.45581, 40.52279],
          [-126.4397, 40.54261],
          [-126.43433, 40.54922],
          [-126.41821, 40.56904],
          [-126.41283, 40.57564],
          [-126.39671, 40.59545],
          [-126.39133, 40.60206],
          [-126.37519, 40.62186],
          [-126.36981, 40.62846],
          [-126.37645, 40.64983],
          [-126.38308, 40.6712],
          [-126.36693, 40.691],
          [-126.36155, 40.69759],
          [-126.34539, 40.71739],
          [-126.34, 40.72399],
          [-126.34664, 40.74534],
          [-126.33047, 40.76513],
          [-126.32508, 40.77173],
          [-126.33172, 40.79308],
          [-126.33835, 40.81443],
          [-126.32217, 40.83421],
          [-126.31678, 40.8408],
          [-126.32342, 40.86215],
          [-126.30722, 40.88192],
          [-126.30183, 40.88851],
          [-126.28563, 40.90828],
          [-126.28023, 40.91487],
          [-126.26402, 40.93463],
          [-126.25861, 40.94122],
          [-126.26525, 40.96256],
          [-126.24903, 40.98232],
          [-126.24362, 40.9889],
          [-126.25025, 41.01023],
          [-126.23402, 41.02998],
          [-126.22861, 41.03657],
          [-126.21238, 41.05631],
          [-126.20696, 41.06289],
          [-126.19072, 41.08263],
          [-126.1853, 41.08921],
          [-126.16905, 41.10895],
          [-126.16363, 41.11553],
          [-126.14736, 41.13526],
          [-126.14194, 41.14184],
          [-126.14856, 41.16315],
          [-126.13229, 41.18288],
          [-126.12687, 41.18945],
          [-126.11058, 41.20917],
          [-126.08225, 41.21415],
          [-126.07682, 41.22072],
          [-126.06053, 41.24043],
          [-126.05509, 41.247],
          [-126.03879, 41.26671],
          [-126.03335, 41.27328],
          [-126.01704, 41.29298],
          [-125.98868, 41.29794],
          [-125.98324, 41.30451],
          [-125.96691, 41.3242],
          [-125.96147, 41.33077],
          [-125.94513, 41.35046],
          [-125.93969, 41.35702],
          [-125.92334, 41.3767],
          [-125.91789, 41.38326],
          [-125.90154, 41.40295],
          [-125.89609, 41.4095],
          [-125.87973, 41.42918],
          [-125.87427, 41.43574],
          [-125.8579, 41.45541],
          [-125.85244, 41.46196],
          [-125.83607, 41.48163],
          [-125.83061, 41.48818],
          [-125.81422, 41.50785],
          [-125.80876, 41.5144],
          [-125.79236, 41.53405],
          [-125.78689, 41.54061],
          [-125.79347, 41.56189],
          [-125.77706, 41.58154],
          [-125.77159, 41.58809],
          [-125.77816, 41.60937],
          [-125.76175, 41.62901],
          [-125.75627, 41.63556],
          [-125.73985, 41.65519],
          [-125.73437, 41.66174],
          [-125.74094, 41.68301],
          [-125.72451, 41.70264],
          [-125.71903, 41.70919],
          [-125.7256, 41.73045],
          [-125.70915, 41.75008],
          [-125.70367, 41.75662],
          [-125.71024, 41.77788],
          [-125.69378, 41.7975],
          [-125.68829, 41.80404],
          [-125.67183, 41.82365],
          [-125.66634, 41.83018],
          [-125.64986, 41.84979],
          [-125.64437, 41.85633],
          [-125.65094, 41.87758],
          [-125.63445, 41.89718],
          [-125.62895, 41.90371],
          [-125.63552, 41.92496],
          [-125.61902, 41.94455],
          [-125.61352, 41.95108],
          [-125.62009, 41.97233],
          [-125.60358, 41.99191],
          [-125.59808, 41.99844],
          [-125.60464, 42.01968],
          [-125.6112, 42.04091],
          [-125.61777, 42.06214],
          [-125.62434, 42.08337],
          [-125.63092, 42.10459],
          [-125.63749, 42.12581],
          [-125.64407, 42.14703],
          [-125.65066, 42.16825],
          [-125.65724, 42.18946],
          [-125.66383, 42.21067],
          [-125.67042, 42.23187],
          [-125.67701, 42.25308],
          [-125.68361, 42.27428],
          [-125.69021, 42.29548],
          [-125.69902, 42.29956],
          [-125.72547, 42.31179],
          [-125.73208, 42.33298],
          [-125.73869, 42.35417],
          [-125.74531, 42.37536],
          [-125.75193, 42.39654],
          [-125.76075, 42.40061],
          [-125.78723, 42.41283],
          [-125.79606, 42.4169],
          [-125.82475, 42.412],
          [-125.85343, 42.4071],
          [-125.88211, 42.40219],
          [-125.91078, 42.39728],
          [-125.93728, 42.40948],
          [-125.94612, 42.41354],
          [-125.97479, 42.40862],
          [-126.0013, 42.4208],
          [-126.00798, 42.44197],
          [-126.01466, 42.46314],
          [-126.02134, 42.4843],
          [-126.00483, 42.50386],
          [-125.99932, 42.51038],
          [-126.006, 42.53154],
          [-125.98948, 42.5511],
          [-125.98397, 42.55762],
          [-125.96744, 42.57717],
          [-125.96193, 42.58369],
          [-125.96861, 42.60484],
          [-125.97529, 42.62598],
          [-125.95874, 42.64553],
          [-125.95323, 42.65204],
          [-125.95991, 42.67318],
          [-125.96659, 42.69432],
          [-125.95004, 42.71386],
          [-125.94451, 42.72037],
          [-125.92795, 42.7399],
          [-125.90136, 42.72773],
          [-125.8925, 42.72367],
          [-125.86373, 42.72857],
          [-125.83496, 42.73346],
          [-125.80618, 42.73835],
          [-125.7774, 42.74323],
          [-125.74862, 42.74811],
          [-125.71983, 42.75299],
          [-125.69105, 42.75786],
          [-125.66225, 42.76273],
          [-125.63346, 42.76759],
          [-125.60467, 42.77245],
          [-125.59912, 42.77894],
          [-125.58248, 42.79844],
          [-125.57693, 42.80493],
          [-125.56027, 42.82442],
          [-125.55472, 42.83092],
          [-125.53806, 42.8504],
          [-125.50924, 42.85524],
          [-125.50368, 42.86173],
          [-125.51028, 42.88286],
          [-125.4936, 42.90233],
          [-125.48804, 42.90882],
          [-125.49464, 42.92995],
          [-125.47795, 42.94941],
          [-125.47238, 42.9559],
          [-125.47898, 42.97702],
          [-125.46228, 42.99647],
          [-125.45671, 43.00296],
          [-125.44, 43.02241],
          [-125.43443, 43.02889],
          [-125.41772, 43.04834],
          [-125.41214, 43.05482],
          [-125.41873, 43.07593],
          [-125.40201, 43.09537],
          [-125.39643, 43.10185],
          [-125.40302, 43.12295],
          [-125.38628, 43.14239],
          [-125.3807, 43.14886],
          [-125.38729, 43.16996],
          [-125.37054, 43.18939],
          [-125.36496, 43.19586],
          [-125.37155, 43.21695],
          [-125.35479, 43.23637],
          [-125.3492, 43.24284],
          [-125.33243, 43.26226],
          [-125.32683, 43.26873],
          [-125.33342, 43.28981],
          [-125.31664, 43.30922],
          [-125.31105, 43.31568],
          [-125.29426, 43.33509],
          [-125.28866, 43.34155],
          [-125.27186, 43.36095],
          [-125.26626, 43.36741],
          [-125.24945, 43.3868],
          [-125.24384, 43.39327],
          [-125.25042, 43.41434],
          [-125.2336, 43.43372],
          [-125.228, 43.44018],
          [-125.21117, 43.45956],
          [-125.20556, 43.46602],
          [-125.18872, 43.48539],
          [-125.18311, 43.49185],
          [-125.16626, 43.51122],
          [-125.16064, 43.51767],
          [-125.14379, 43.53703],
          [-125.13817, 43.54349],
          [-125.14474, 43.56454],
          [-125.12787, 43.5839],
          [-125.12225, 43.59035],
          [-125.12881, 43.61139],
          [-125.11193, 43.63074],
          [-125.10631, 43.63719],
          [-125.08942, 43.65653],
          [-125.08379, 43.66298],
          [-125.0669, 43.68232],
          [-125.06126, 43.68876],
          [-125.04436, 43.7081],
          [-125.01526, 43.71283],
          [-125.00962, 43.71928],
          [-124.9927, 43.7386],
          [-124.96359, 43.74333],
          [-124.95795, 43.74977],
          [-124.94101, 43.76908],
          [-124.93536, 43.77552],
          [-124.9419, 43.79655],
          [-124.92496, 43.81586],
          [-124.89582, 43.82057],
          [-124.89017, 43.82701],
          [-124.87321, 43.84631],
          [-124.84406, 43.85101],
          [-124.8384, 43.85745],
          [-124.82142, 43.87674],
          [-124.81576, 43.88317],
          [-124.79877, 43.90245],
          [-124.79311, 43.90888],
          [-124.77612, 43.92816],
          [-124.77045, 43.93459],
          [-124.75345, 43.95386],
          [-124.74778, 43.96029],
          [-124.73076, 43.97956],
          [-124.72509, 43.98598],
          [-124.70807, 44.00524],
          [-124.70239, 44.01167],
          [-124.68536, 44.03092],
          [-124.67968, 44.03734],
          [-124.66264, 44.0566],
          [-124.65696, 44.06302],
          [-124.63991, 44.08226],
          [-124.63423, 44.08868],
          [-124.61717, 44.10792],
          [-124.61149, 44.11434],
          [-124.59442, 44.13358],
          [-124.56517, 44.13823],
          [-124.53592, 44.14288],
          [-124.53022, 44.14929],
          [-124.51313, 44.16852],
          [-124.48387, 44.17316],
          [-124.47817, 44.17956],
          [-124.46107, 44.19878],
          [-124.43179, 44.20341],
          [-124.42608, 44.20982],
          [-124.40896, 44.22902],
          [-124.37968, 44.23365],
          [-124.35039, 44.23827],
          [-124.34468, 44.24467],
          [-124.32753, 44.26386],
          [-124.29823, 44.26847],
          [-124.26893, 44.27308],
          [-124.26321, 44.27947],
          [-124.24604, 44.29866],
          [-124.24032, 44.30505],
          [-124.22315, 44.32423],
          [-124.21742, 44.33062],
          [-124.20024, 44.3498],
          [-124.19451, 44.35619],
          [-124.20093, 44.37716],
          [-124.18373, 44.39633],
          [-124.178, 44.40272],
          [-124.1608, 44.42188],
          [-124.15506, 44.42827],
          [-124.13785, 44.44742],
          [-124.13211, 44.45381],
          [-124.11489, 44.47296],
          [-124.08551, 44.47753],
          [-124.07977, 44.48391],
          [-124.06528, 44.5]
        ]
      }
    },
    {
      "type": "Feature",
      "id": "2026092706_f192_11000_001",
      "properties": {
        "product_id": "winter_storm_levels",
        "source_id": "nbm_snow_level",
        "parameter": "snow_level",
        "definition": "height of the wet-bulb 0.5 degree C surface",
        "level_ft_msl": 11000,
        "label": "11,000 ft MSL",
        "unit": "ft_msl",
        "cycle_time_utc": "2026-09-27T06:00:00Z",
        "valid_time_utc": "2026-10-05T06:00:00Z",
        "lead_hours": 192,
        "segment": 1,
        "length_m": 9780.9
      },
      "geometry": {
        "type": "LineString",
        "coordinates": [
          [-114.65612, 40.13367],
          [-114.65196, 40.11189],
          [-114.64053, 40.10538],
          [-114.63202, 40.11412],
          [-114.63617, 40.1359],
          [-114.6476, 40.14241],
          [-114.65612, 40.13367]
        ]
      }
    },
    {
      "type": "Feature",
      "id": "2026092706_f192_11000_002",
      "properties": {
        "product_id": "winter_storm_levels",
        "source_id": "nbm_snow_level",
        "parameter": "snow_level",
        "definition": "height of the wet-bulb 0.5 degree C surface",
        "level_ft_msl": 11000,
        "label": "11,000 ft MSL",
        "unit": "ft_msl",
        "cycle_time_utc": "2026-09-27T06:00:00Z",
        "valid_time_utc": "2026-10-05T06:00:00Z",
        "lead_hours": 192,
        "segment": 2,
        "length_m": 26883.1
      },
      "geometry": {
        "type": "LineString",
        "coordinates": [
          [-122.23617, 34.441],
          [-122.23072, 34.41893],
          [-122.22527, 34.39686],
          [-122.21983, 34.37478],
          [-122.19891, 34.36335],
          [-122.18506, 34.38062],
          [-122.1905, 34.40269],
          [-122.18304, 34.41199],
          [-122.17788, 34.42779],
          [-122.18331, 34.44986],
          [-122.19555, 34.46275],
          [-122.22231, 34.45826],
          [-122.23617, 34.441]
        ]
      }
    },
    {
      "type": "Feature",
      "id": "2026092706_f192_11000_003",
      "properties": {
        "product_id": "winter_storm_levels",
        "source_id": "nbm_snow_level",
        "parameter": "snow_level",
        "definition": "height of the wet-bulb 0.5 degree C surface",
        "level_ft_msl": 11000,
        "label": "11,000 ft MSL",
        "unit": "ft_msl",
        "cycle_time_utc": "2026-09-27T06:00:00Z",
        "valid_time_utc": "2026-10-05T06:00:00Z",
        "lead_hours": 192,
        "segment": 3,
        "length_m": 2248112.7
      },
      "geometry": {
        "type": "LineString",
        "coordinates": [
          [-122.51262, 30.25127],
          [-122.50829, 30.25695],
          [-122.5136, 30.27922],
          [-122.50028, 30.29668],
          [-122.49311, 30.30608],
          [-122.47979, 30.32353],
          [-122.47261, 30.33293],
          [-122.45928, 30.35038],
          [-122.43347, 30.35495],
          [-122.41325, 30.34344],
          [-122.40236, 30.33725],
          [-122.38215, 30.32573],
          [-122.37127, 30.31953],
          [-122.36409, 30.32892],
          [-122.35074, 30.34637],
          [-122.34355, 30.35576],
          [-122.3302, 30.3732],
          [-122.30438, 30.37775],
          [-122.29718, 30.38714],
          [-122.28382, 30.40457],
          [-122.25799, 30.40912],
          [-122.23216, 30.41365],
          [-122.21195, 30.40212],
          [-122.20107, 30.39591],
          [-122.17524, 30.40044],
          [-122.1494, 30.40496],
          [-122.1422, 30.41434],
          [-122.12881, 30.43177],
          [-122.1216, 30.44115],
          [-122.1082, 30.45856],
          [-122.08235, 30.46308],
          [-122.06215, 30.45152],
          [-122.05127, 30.4453],
          [-122.02543, 30.44981],
          [-122.01821, 30.45918],
          [-122.00479, 30.47659],
          [-121.97894, 30.48109],
          [-121.97171, 30.49046],
          [-121.95829, 30.50786],
          [-121.93242, 30.51235],
          [-121.92519, 30.52172],
          [-121.91176, 30.53912],
          [-121.90452, 30.54849],
          [-121.89108, 30.56589],
          [-121.88384, 30.57525],
          [-121.8704, 30.59265],
          [-121.86316, 30.60201],
          [-121.84971, 30.61941],
          [-121.84246, 30.62877],
          [-121.829, 30.64616],
          [-121.82176, 30.65552],
          [-121.80829, 30.67291],
          [-121.80104, 30.68227],
          [-121.78757, 30.69965],
          [-121.78032, 30.70901],
          [-121.76684, 30.7264],
          [-121.74092, 30.73085],
          [-121.73366, 30.74021],
          [-121.72017, 30.75759],
          [-121.69424, 30.76203],
          [-121.68697, 30.77139],
          [-121.67348, 30.78876],
          [-121.64754, 30.7932],
          [-121.6216, 30.79763],
          [-121.61432, 30.80698],
          [-121.60081, 30.82435],
          [-121.59353, 30.8337],
          [-121.58001, 30.85106],
          [-121.57273, 30.86041],
          [-121.55921, 30.87777],
          [-121.55192, 30.88711],
          [-121.53839, 30.90447],
          [-121.5311, 30.91381],
          [-121.51757, 30.93117],
          [-121.51028, 30.94051],
          [-121.49673, 30.95786],
          [-121.47075, 30.96227],
          [-121.46345, 30.97161],
          [-121.4499, 30.98896],
          [-121.4426, 30.9983],
          [-121.42904, 31.01564],
          [-121.42173, 31.02498],
          [-121.42687, 31.04726],
          [-121.4133, 31.0646],
          [-121.40599, 31.07394],
          [-121.39242, 31.09127],
          [-121.38511, 31.10061],
          [-121.39024, 31.12289],
          [-121.37665, 31.14022],
          [-121.36934, 31.14955],
          [-121.35575, 31.16689],
          [-121.34843, 31.17622],
          [-121.33484, 31.19355],
          [-121.32751, 31.20288],
          [-121.31391, 31.22021],
          [-121.30659, 31.22953],
          [-121.31171, 31.25181],
          [-121.2981, 31.26913],
          [-121.29077, 31.27846],
          [-121.27715, 31.29578],
          [-121.26982, 31.30511],
          [-121.2562, 31.32243],
          [-121.23012, 31.32679],
          [-121.22278, 31.33612],
          [-121.20915, 31.35343],
          [-121.20181, 31.36275],
          [-121.18817, 31.38006],
          [-121.18082, 31.38938],
          [-121.16718, 31.40669],
          [-121.15983, 31.41601],
          [-121.14618, 31.43331],
          [-121.13883, 31.44263],
          [-121.12517, 31.45993],
          [-121.11781, 31.46925],
          [-121.10415, 31.48655],
          [-121.09679, 31.49586],
          [-121.08312, 31.51316],
          [-121.07576, 31.52247],
          [-121.06208, 31.53977],
          [-121.03595, 31.5441],
          [-121.02858, 31.55341],
          [-121.01489, 31.5707],
          [-121.00752, 31.58001],
          [-121.0126, 31.60227],
          [-120.9989, 31.61956],
          [-120.97275, 31.62388],
          [-120.96537, 31.63319],
          [-120.95167, 31.65047],
          [-120.94428, 31.65977],
          [-120.93057, 31.67705],
          [-120.92319, 31.68635],
          [-120.90947, 31.70363],
          [-120.90208, 31.71293],
          [-120.88835, 31.7302],
          [-120.86217, 31.7345],
          [-120.85478, 31.7438],
          [-120.84104, 31.76107],
          [-120.81485, 31.76536],
          [-120.80745, 31.77466],
          [-120.79371, 31.79192],
          [-120.76751, 31.79621],
          [-120.7601, 31.8055],
          [-120.74634, 31.82275],
          [-120.73893, 31.83205],
          [-120.72517, 31.8493],
          [-120.71776, 31.85859],
          [-120.70399, 31.87584],
          [-120.69657, 31.88513],
          [-120.68279, 31.90238],
          [-120.67537, 31.91166],
          [-120.6804, 31.93393],
          [-120.66662, 31.95117],
          [-120.65919, 31.96046],
          [-120.66422, 31.98272],
          [-120.65043, 31.99996],
          [-120.643, 32.00924],
          [-120.6292, 32.02648],
          [-120.62177, 32.03576],
          [-120.60796, 32.053],
          [-120.60053, 32.06228],
          [-120.60555, 32.08454],
          [-120.61057, 32.1068],
          [-120.59675, 32.12403],
          [-120.58931, 32.13331],
          [-120.59433, 32.15556],
          [-120.58051, 32.17279],
          [-120.57306, 32.18207],
          [-120.55923, 32.1993],
          [-120.55178, 32.20857],
          [-120.53795, 32.22579],
          [-120.53049, 32.23507],
          [-120.53551, 32.25732],
          [-120.54052, 32.27957],
          [-120.52668, 32.29679],
          [-120.51922, 32.30606],
          [-120.52423, 32.32831],
          [-120.52925, 32.35056],
          [-120.53427, 32.37281],
          [-120.52041, 32.39002],
          [-120.51295, 32.39929],
          [-120.51797, 32.42153],
          [-120.52299, 32.44378],
          [-120.50912, 32.46099],
          [-120.50165, 32.47026],
          [-120.48777, 32.48746],
          [-120.4803, 32.49673],
          [-120.48531, 32.51897],
          [-120.47143, 32.53617],
          [-120.46395, 32.54544],
          [-120.46896, 32.56768],
          [-120.47398, 32.58991],
          [-120.479, 32.61215],
          [-120.4651, 32.62935],
          [-120.45762, 32.63861],
          [-120.46264, 32.66085],
          [-120.46766, 32.68308],
          [-120.47268, 32.70531],
          [-120.48368, 32.71161],
          [-120.50413, 32.72331],
          [-120.50916, 32.74554],
          [-120.49525, 32.76273],
          [-120.48776, 32.77199],
          [-120.49279, 32.79422],
          [-120.49782, 32.81644],
          [-120.50285, 32.83867],
          [-120.50789, 32.86089],
          [-120.51293, 32.88311],
          [-120.52395, 32.8894],
          [-120.54443, 32.90109],
          [-120.54948, 32.92331],
          [-120.53555, 32.9405],
          [-120.52805, 32.94976],
          [-120.5331, 32.97197],
          [-120.53814, 32.99419],
          [-120.54319, 33.0164],
          [-120.54825, 33.03861],
          [-120.5533, 33.06082],
          [-120.55835, 33.08303],
          [-120.5694, 33.08931],
          [-120.58992, 33.10099],
          [-120.59498, 33.1232],
          [-120.60005, 33.1454],
          [-120.60512, 33.1676],
          [-120.61618, 33.17388],
          [-120.63671, 33.18555],
          [-120.64179, 33.20775],
          [-120.65286, 33.21403],
          [-120.6734, 33.22569],
          [-120.68447, 33.23197],
          [-120.70503, 33.24363],
          [-120.71012, 33.26582],
          [-120.72119, 33.2721],
          [-120.74176, 33.28375],
          [-120.75284, 33.29003],
          [-120.77341, 33.30167],
          [-120.78449, 33.30794],
          [-120.80507, 33.31959],
          [-120.81615, 33.32586],
          [-120.83674, 33.3375],
          [-120.84186, 33.35968],
          [-120.85295, 33.36594],
          [-120.87355, 33.37758],
          [-120.87868, 33.39975],
          [-120.88382, 33.42193],
          [-120.89491, 33.42819],
          [-120.91553, 33.43982],
          [-120.92067, 33.46199],
          [-120.92582, 33.48417],
          [-120.93692, 33.49042],
          [-120.95755, 33.50204],
          [-120.96271, 33.52421],
          [-120.97382, 33.53046],
          [-120.99446, 33.54208],
          [-120.99962, 33.56424],
          [-121.01074, 33.57049],
          [-121.03139, 33.5821],
          [-121.03656, 33.60426],
          [-121.04174, 33.62642],
          [-121.04692, 33.64858],
          [-121.05209, 33.67074],
          [-121.06323, 33.67698],
          [-121.0839, 33.68858],
          [-121.08909, 33.71073],
          [-121.09428, 33.73288],
          [-121.09947, 33.75504],
          [-121.10467, 33.77718],
          [-121.10986, 33.79933],
          [-121.11506, 33.82148],
          [-121.12621, 33.82772],
          [-121.14692, 33.8393],
          [-121.15213, 33.86144],
          [-121.15734, 33.88358],
          [-121.16255, 33.90572],
          [-121.1486, 33.92292],
          [-121.14108, 33.93218],
          [-121.14629, 33.95432],
          [-121.1515, 33.97645],
          [-121.15672, 33.99859],
          [-121.16789, 34.00482],
          [-121.18863, 34.01639],
          [-121.19386, 34.03852],
          [-121.19908, 34.06065],
          [-121.18512, 34.07785],
          [-121.1776, 34.08711],
          [-121.18878, 34.09334],
          [-121.20954, 34.1049],
          [-121.21477, 34.12703],
          [-121.22001, 34.14915],
          [-121.20603, 34.16634],
          [-121.19851, 34.1756],
          [-121.20374, 34.19772],
          [-121.20898, 34.21983],
          [-121.21421, 34.24195],
          [-121.21945, 34.26406],
          [-121.22469, 34.28618],
          [-121.22994, 34.30829],
          [-121.23518, 34.3304],
          [-121.22119, 34.34758],
          [-121.21365, 34.35684],
          [-121.2189, 34.37894],
          [-121.22414, 34.40105],
          [-121.22939, 34.42315],
          [-121.23464, 34.44525],
          [-121.23989, 34.46735],
          [-121.24515, 34.48945],
          [-121.25041, 34.51155],
          [-121.25566, 34.53364],
          [-121.26093, 34.55574],
          [-121.24691, 34.57291],
          [-121.23936, 34.58216],
          [-121.24462, 34.60425],
          [-121.24988, 34.62634],
          [-121.25514, 34.64843],
          [-121.26638, 34.65464],
          [-121.28726, 34.66618],
          [-121.29254, 34.68826],
          [-121.29781, 34.71034],
          [-121.30309, 34.73242],
          [-121.30837, 34.7545],
          [-121.31365, 34.77658],
          [-121.31894, 34.79866],
          [-121.3049, 34.81582],
          [-121.29733, 34.82507],
          [-121.30262, 34.84714],
          [-121.3079, 34.86921],
          [-121.31319, 34.89128],
          [-121.31848, 34.91334],
          [-121.32377, 34.93541],
          [-121.32906, 34.95747],
          [-121.33436, 34.97954],
          [-121.33966, 35.0016],
          [-121.34496, 35.02365],
          [-121.35026, 35.04571],
          [-121.35556, 35.06777],
          [-121.3415, 35.08492],
          [-121.33392, 35.09416],
          [-121.33922, 35.11621],
          [-121.34453, 35.13826],
          [-121.34983, 35.16031],
          [-121.35514, 35.18236],
          [-121.34106, 35.19951],
          [-121.33348, 35.20874],
          [-121.33878, 35.23078],
          [-121.3441, 35.25283],
          [-121.33, 35.26997],
          [-121.32241, 35.2792],
          [-121.32772, 35.30124],
          [-121.31362, 35.31838],
          [-121.30602, 35.32761],
          [-121.31133, 35.34965],
          [-121.31664, 35.37168],
          [-121.32196, 35.39371],
          [-121.32727, 35.41574],
          [-121.31315, 35.43288],
          [-121.30555, 35.4421],
          [-121.31087, 35.46413],
          [-121.29674, 35.48126],
          [-121.28913, 35.49048],
          [-121.29445, 35.51251],
          [-121.29976, 35.53453],
          [-121.30508, 35.55655],
          [-121.29094, 35.57368],
          [-121.28332, 35.5829],
          [-121.28864, 35.60491],
          [-121.29396, 35.62693],
          [-121.29928, 35.64894],
          [-121.28513, 35.66606],
          [-121.27751, 35.67528],
          [-121.28283, 35.69729],
          [-121.28815, 35.7193],
          [-121.29347, 35.7413],
          [-121.2988, 35.76331],
          [-121.28463, 35.78042],
          [-121.27701, 35.78963],
          [-121.28233, 35.81164],
          [-121.28766, 35.83364],
          [-121.29299, 35.85564],
          [-121.27881, 35.87274],
          [-121.27117, 35.88195],
          [-121.2765, 35.90395],
          [-121.28183, 35.92594],
          [-121.28716, 35.94793],
          [-121.2925, 35.96992],
          [-121.27831, 35.98702],
          [-121.27066, 35.99622],
          [-121.276, 36.01821],
          [-121.28133, 36.0402],
          [-121.28667, 36.06218],
          [-121.29201, 36.08416],
          [-121.29735, 36.10614],
          [-121.3027, 36.12811],
          [-121.30804, 36.15009],
          [-121.29383, 36.16718],
          [-121.28617, 36.17638],
          [-121.29152, 36.19835],
          [-121.29687, 36.22032],
          [-121.30222, 36.24229],
          [-121.30757, 36.26425],
          [-121.31293, 36.28622],
          [-121.31828, 36.30818],
          [-121.32364, 36.33014],
          [-121.329, 36.3521],
          [-121.33437, 36.37405],
          [-121.33973, 36.39601],
          [-121.3451, 36.41796],
          [-121.35047, 36.43991],
          [-121.35584, 36.46186],
          [-121.36121, 36.4838],
          [-121.36659, 36.50575],
          [-121.37197, 36.52769],
          [-121.35771, 36.54476],
          [-121.35004, 36.55395],
          [-121.35542, 36.57589],
          [-121.36079, 36.59783],
          [-121.36618, 36.61976],
          [-121.37156, 36.64169],
          [-121.37695, 36.66363],
          [-121.38233, 36.68555],
          [-121.38772, 36.70748],
          [-121.39312, 36.72941],
          [-121.37884, 36.74647],
          [-121.37115, 36.75565],
          [-121.37654, 36.77757],
          [-121.38194, 36.79949],
          [-121.38733, 36.82141],
          [-121.37304, 36.83846],
          [-121.36535, 36.84764],
          [-121.37074, 36.86956],
          [-121.37614, 36.89147],
          [-121.38154, 36.91338],
          [-121.38694, 36.93529],
          [-121.39234, 36.95719],
          [-121.37804, 36.97423],
          [-121.37033, 36.98341],
          [-121.37573, 37.00531],
          [-121.38114, 37.02721],
          [-121.38655, 37.04911],
          [-121.39195, 37.07101],
          [-121.39737, 37.0929],
          [-121.40278, 37.11479],
          [-121.4082, 37.13668],
          [-121.41361, 37.15857],
          [-121.39928, 37.1756],
          [-121.39157, 37.18477],
          [-121.39698, 37.20666],
          [-121.4024, 37.22854],
          [-121.40782, 37.25042],
          [-121.41325, 37.2723],
          [-121.41867, 37.29417],
          [-121.4241, 37.31605],
          [-121.42953, 37.33792],
          [-121.43496, 37.35979],
          [-121.4404, 37.38165],
          [-121.44584, 37.40352],
          [-121.45128, 37.42538],
          [-121.45672, 37.44724],
          [-121.46216, 37.4691],
          [-121.46761, 37.49096],
          [-121.47305, 37.51281],
          [-121.4785, 37.53467],
          [-121.48396, 37.55652],
          [-121.48941, 37.57836],
          [-121.49487, 37.60021],
          [-121.48049, 37.61722],
          [-121.47275, 37.62638],
          [-121.4782, 37.64822],
          [-121.48366, 37.67006],
          [-121.48912, 37.6919],
          [-121.49459, 37.71373],
          [-121.50005, 37.73557],
          [-121.50552, 37.7574],
          [-121.51099, 37.77923],
          [-121.51646, 37.80105],
          [-121.50206, 37.81805],
          [-121.4943, 37.8272],
          [-121.49977, 37.84902],
          [-121.50525, 37.87084],
          [-121.51072, 37.89266],
          [-121.5162, 37.91448],
          [-121.52168, 37.93629],
          [-121.52716, 37.95811],
          [-121.53264, 37.97992],
          [-121.53813, 38.00172],
          [-121.52371, 38.01871],
          [-121.51594, 38.02785],
          [-121.52142, 38.04966],
          [-121.52691, 38.07146],
          [-121.51248, 38.08843],
          [-121.5047, 38.09758],
          [-121.51019, 38.11937],
          [-121.51568, 38.14117],
          [-121.50123, 38.15814],
          [-121.49345, 38.16728],
          [-121.49894, 38.18907],
          [-121.50443, 38.21086],
          [-121.48997, 38.22782],
          [-121.48219, 38.23696],
          [-121.48767, 38.25874],
          [-121.47321, 38.2757],
          [-121.46542, 38.28484],
          [-121.4709, 38.30662],
          [-121.45643, 38.32357],
          [-121.44863, 38.3327],
          [-121.45412, 38.35448],
          [-121.43964, 38.37143],
          [-121.43183, 38.38056],
          [-121.43732, 38.40233],
          [-121.44281, 38.4241],
          [-121.42831, 38.44104],
          [-121.42051, 38.45017],
          [-121.42599, 38.47193],
          [-121.41149, 38.48887],
          [-121.40368, 38.49799],
          [-121.38916, 38.51493],
          [-121.38135, 38.52405],
          [-121.38683, 38.54581],
          [-121.37231, 38.56274],
          [-121.36449, 38.57185],
          [-121.34996, 38.58878],
          [-121.34213, 38.59789],
          [-121.34761, 38.61965],
          [-121.33307, 38.63657],
          [-121.32524, 38.64568],
          [-121.3107, 38.6626],
          [-121.30287, 38.67171],
          [-121.28831, 38.68862],
          [-121.28048, 38.69773],
          [-121.28595, 38.71947],
          [-121.27139, 38.73638],
          [-121.26354, 38.74549],
          [-121.26901, 38.76723],
          [-121.25444, 38.78413],
          [-121.24659, 38.79324],
          [-121.25206, 38.81497],
          [-121.25754, 38.83671],
          [-121.24295, 38.85361],
          [-121.2351, 38.86271],
          [-121.24057, 38.88444],
          [-121.24604, 38.90617],
          [-121.23145, 38.92306],
          [-121.22359, 38.93215],
          [-121.22906, 38.95388],
          [-121.21446, 38.97076],
          [-121.20659, 38.97985],
          [-121.21206, 39.00158],
          [-121.21754, 39.02329],
          [-121.20292, 39.04017],
          [-121.19505, 39.04926],
          [-121.20052, 39.07098],
          [-121.1859, 39.08785],
          [-121.17802, 39.09694],
          [-121.1835, 39.11865],
          [-121.18897, 39.14035],
          [-121.19444, 39.16206],
          [-121.17981, 39.17893],
          [-121.17192, 39.18801],
          [-121.1774, 39.20971],
          [-121.18287, 39.23141],
          [-121.18835, 39.2531],
          [-121.19384, 39.2748],
          [-121.17918, 39.29166],
          [-121.17129, 39.30073],
          [-121.17677, 39.32242],
          [-121.18225, 39.34411],
          [-121.16759, 39.36096],
          [-121.15969, 39.37003],
          [-121.16517, 39.39171],
          [-121.17065, 39.41339],
          [-121.17614, 39.43507],
          [-121.16146, 39.45192],
          [-121.15356, 39.46098],
          [-121.13887, 39.47782],
          [-121.13096, 39.48689],
          [-121.13644, 39.50856],
          [-121.12175, 39.5254],
          [-121.11383, 39.53446],
          [-121.11931, 39.55613],
          [-121.10461, 39.57295],
          [-121.09669, 39.58201],
          [-121.10217, 39.60368],
          [-121.08745, 39.6205],
          [-121.07953, 39.62956],
          [-121.08501, 39.65122],
          [-121.07028, 39.66803],
          [-121.06235, 39.67709],
          [-121.04762, 39.6939],
          [-121.03969, 39.70296],
          [-121.02495, 39.71977],
          [-121.01701, 39.72882],
          [-121.00227, 39.74562],
          [-120.99433, 39.75467],
          [-120.97957, 39.77147],
          [-120.97163, 39.78052],
          [-120.95687, 39.79732],
          [-120.92869, 39.80151],
          [-120.92074, 39.81055],
          [-120.90597, 39.82734],
          [-120.89801, 39.83638],
          [-120.88323, 39.85317],
          [-120.85504, 39.85735],
          [-120.84708, 39.86639],
          [-120.83228, 39.88317],
          [-120.82432, 39.8922],
          [-120.80952, 39.90898],
          [-120.78131, 39.91315],
          [-120.77333, 39.92218],
          [-120.75852, 39.93895],
          [-120.7303, 39.9431],
          [-120.72232, 39.95213],
          [-120.7075, 39.96889],
          [-120.69951, 39.97792],
          [-120.68468, 39.99468],
          [-120.67669, 40.0037],
          [-120.66185, 40.02046],
          [-120.65386, 40.02948],
          [-120.63901, 40.04623],
          [-120.63102, 40.05524],
          [-120.61616, 40.07199],
          [-120.60816, 40.08101],
          [-120.5933, 40.09775],
          [-120.58529, 40.10676],
          [-120.57043, 40.1235],
          [-120.56242, 40.13251],
          [-120.54754, 40.14925],
          [-120.51926, 40.15337],
          [-120.51124, 40.16238],
          [-120.49635, 40.1791],
          [-120.48833, 40.18811],
          [-120.47344, 40.20483],
          [-120.44513, 40.20894],
          [-120.43711, 40.21794],
          [-120.4222, 40.23466],
          [-120.41417, 40.24366],
          [-120.39925, 40.26037],
          [-120.39122, 40.26937],
          [-120.37629, 40.28608],
          [-120.36826, 40.29507],
          [-120.37362, 40.31668],
          [-120.35869, 40.33338],
          [-120.35064, 40.34237],
          [-120.35601, 40.36398],
          [-120.36137, 40.38558],
          [-120.34643, 40.40227],
          [-120.33838, 40.41126],
          [-120.34374, 40.43286],
          [-120.32879, 40.44955],
          [-120.32073, 40.45853],
          [-120.30577, 40.47522],
          [-120.29771, 40.4842],
          [-120.30307, 40.50579],
          [-120.2881, 40.52247],
          [-120.28004, 40.53145],
          [-120.26506, 40.54813],
          [-120.25699, 40.55711],
          [-120.242, 40.57378],
          [-120.23393, 40.58276],
          [-120.21894, 40.59942],
          [-120.21086, 40.6084],
          [-120.19586, 40.62506],
          [-120.18778, 40.63403],
          [-120.17277, 40.65069],
          [-120.16468, 40.65966],
          [-120.14967, 40.67632],
          [-120.14158, 40.68528],
          [-120.12655, 40.70193],
          [-120.11846, 40.7109],
          [-120.10343, 40.72755],
          [-120.07497, 40.73158],
          [-120.06687, 40.74054],
          [-120.05182, 40.75718],
          [-120.02335, 40.76121],
          [-119.99488, 40.76524],
          [-119.98677, 40.77419],
          [-119.97171, 40.79082],
          [-119.94322, 40.79484],
          [-119.92126, 40.78343],
          [-119.90944, 40.77728],
          [-119.88096, 40.78129],
          [-119.85901, 40.76987],
          [-119.84719, 40.76372],
          [-119.81871, 40.76771],
          [-119.79022, 40.77171],
          [-119.76829, 40.76028],
          [-119.75648, 40.75412],
          [-119.72799, 40.7581],
          [-119.69951, 40.76208],
          [-119.67102, 40.76605],
          [-119.64253, 40.77002],
          [-119.61404, 40.77398],
          [-119.58555, 40.77794],
          [-119.55705, 40.7819],
          [-119.52855, 40.78584],
          [-119.50005, 40.78979],
          [-119.47814, 40.77832],
          [-119.46635, 40.77215],
          [-119.43785, 40.77608],
          [-119.40935, 40.78002],
          [-119.38084, 40.78394],
          [-119.35234, 40.78786],
          [-119.34417, 40.79679],
          [-119.329, 40.81336],
          [-119.30048, 40.81727],
          [-119.27197, 40.82118],
          [-119.24345, 40.82509],
          [-119.21492, 40.82899],
          [-119.20674, 40.8379],
          [-119.19154, 40.85446],
          [-119.16301, 40.85835],
          [-119.13448, 40.86224],
          [-119.10594, 40.86612],
          [-119.09775, 40.87503],
          [-119.08252, 40.89157],
          [-119.05398, 40.89545],
          [-119.02543, 40.89931],
          [-118.99688, 40.90317],
          [-118.96832, 40.90703],
          [-118.93977, 40.91089],
          [-118.91121, 40.91473],
          [-118.88265, 40.91858],
          [-118.85409, 40.92242],
          [-118.83222, 40.91088],
          [-118.82045, 40.90467],
          [-118.7986, 40.89313],
          [-118.78683, 40.88691],
          [-118.76498, 40.87537],
          [-118.75322, 40.86915],
          [-118.73137, 40.85759],
          [-118.71962, 40.85137],
          [-118.69107, 40.85519],
          [-118.66251, 40.859],
          [-118.63396, 40.8628],
          [-118.60541, 40.8666],
          [-118.58358, 40.85503],
          [-118.57183, 40.8488],
          [-118.54328, 40.85259],
          [-118.52146, 40.84102],
          [-118.50972, 40.83478],
          [-118.48117, 40.83856],
          [-118.45936, 40.82698],
          [-118.44762, 40.82074],
          [-118.41907, 40.82451],
          [-118.39728, 40.81291],
          [-118.38554, 40.80667],
          [-118.35699, 40.81043],
          [-118.33521, 40.79883],
          [-118.32348, 40.79258],
          [-118.3017, 40.78097],
          [-118.28998, 40.77472],
          [-118.26821, 40.7631],
          [-118.25649, 40.75685],
          [-118.23473, 40.74523],
          [-118.22301, 40.73897],
          [-118.20126, 40.72735],
          [-118.18955, 40.72109],
          [-118.16102, 40.72482],
          [-118.13248, 40.72855],
          [-118.11074, 40.71691],
          [-118.09903, 40.71064],
          [-118.0705, 40.71436],
          [-118.04197, 40.71808],
          [-118.02024, 40.70643],
          [-118.00854, 40.70016],
          [-117.98, 40.70386],
          [-117.95147, 40.70756],
          [-117.92975, 40.6959],
          [-117.91806, 40.68962],
          [-117.88953, 40.69331],
          [-117.86099, 40.697],
          [-117.83929, 40.68533],
          [-117.8276, 40.67904],
          [-117.79907, 40.68272],
          [-117.77053, 40.68639],
          [-117.74199, 40.69006],
          [-117.71345, 40.69372],
          [-117.68491, 40.69738],
          [-117.65637, 40.70103],
          [-117.62782, 40.70468],
          [-117.59927, 40.70832],
          [-117.57072, 40.71196],
          [-117.54217, 40.71559],
          [-117.51362, 40.71922],
          [-117.48506, 40.72285],
          [-117.4565, 40.72647],
          [-117.43484, 40.71475],
          [-117.42317, 40.70844],
          [-117.39462, 40.71205],
          [-117.37296, 40.70032],
          [-117.3613, 40.69401],
          [-117.33275, 40.69761],
          [-117.31111, 40.68588],
          [-117.29945, 40.67956],
          [-117.2709, 40.68315],
          [-117.24235, 40.68673],
          [-117.21379, 40.69032],
          [-117.18523, 40.69389],
          [-117.15667, 40.69747],
          [-117.13504, 40.68571],
          [-117.1234, 40.67938],
          [-117.09484, 40.68294],
          [-117.06628, 40.6865],
          [-117.04467, 40.67473],
          [-117.03304, 40.6684],
          [-117.00448, 40.67195],
          [-116.97592, 40.67549],
          [-116.95432, 40.66371],
          [-116.94269, 40.65737],
          [-116.91413, 40.6609],
          [-116.88557, 40.66443],
          [-116.85701, 40.66796],
          [-116.82844, 40.67148],
          [-116.79988, 40.675],
          [-116.77131, 40.67851],
          [-116.74274, 40.68202],
          [-116.73435, 40.69083],
          [-116.71878, 40.70718],
          [-116.6902, 40.71068],
          [-116.68181, 40.71949],
          [-116.66622, 40.73584],
          [-116.63763, 40.73933],
          [-116.62924, 40.74813],
          [-116.61364, 40.76448],
          [-116.58504, 40.76796],
          [-116.57664, 40.77676],
          [-116.56102, 40.79309],
          [-116.53242, 40.79657],
          [-116.5038, 40.80003],
          [-116.49539, 40.80883],
          [-116.47976, 40.82515],
          [-116.45114, 40.82861],
          [-116.44272, 40.8374],
          [-116.42708, 40.85372],
          [-116.39845, 40.85717],
          [-116.36981, 40.86061],
          [-116.36138, 40.8694],
          [-116.34573, 40.88571],
          [-116.31708, 40.88915],
          [-116.30865, 40.89793],
          [-116.29297, 40.91423],
          [-116.26432, 40.91766],
          [-116.23567, 40.92108],
          [-116.20701, 40.92449],
          [-116.17835, 40.92791],
          [-116.14969, 40.93132],
          [-116.12103, 40.93472],
          [-116.11257, 40.94349],
          [-116.09686, 40.95977],
          [-116.0884, 40.96854],
          [-116.07268, 40.98482],
          [-116.05112, 40.97295],
          [-116.03952, 40.96655],
          [-116.01796, 40.95468],
          [-116.01348, 40.93303],
          [-116.00188, 40.92663],
          [-115.98035, 40.91475],
          [-115.97588, 40.89309],
          [-115.96428, 40.88669],
          [-115.94276, 40.8748],
          [-115.93829, 40.85313],
          [-115.92671, 40.84673],
          [-115.89806, 40.8501],
          [-115.87655, 40.8382],
          [-115.86497, 40.83179],
          [-115.84347, 40.81989],
          [-115.83903, 40.79821],
          [-115.83459, 40.77654],
          [-115.82302, 40.77012],
          [-115.80154, 40.75821],
          [-115.79711, 40.73653],
          [-115.79269, 40.71484],
          [-115.78827, 40.69315],
          [-115.77671, 40.68673],
          [-115.75524, 40.67481],
          [-115.74369, 40.66839],
          [-115.72223, 40.65646],
          [-115.71783, 40.63477],
          [-115.70628, 40.62834],
          [-115.68484, 40.6164],
          [-115.67329, 40.60998],
          [-115.64471, 40.61331],
          [-115.62327, 40.60137],
          [-115.61173, 40.59493],
          [-115.58315, 40.59826],
          [-115.57467, 40.60702],
          [-115.55893, 40.62328],
          [-115.55045, 40.63204],
          [-115.5347, 40.6483],
          [-115.52622, 40.65705],
          [-115.51046, 40.67331],
          [-115.50197, 40.68206],
          [-115.4862, 40.69831],
          [-115.45758, 40.70161],
          [-115.42896, 40.70491],
          [-115.42047, 40.71366],
          [-115.40468, 40.7299],
          [-115.38325, 40.71793],
          [-115.37172, 40.71149],
          [-115.34309, 40.71477],
          [-115.32167, 40.7028],
          [-115.31014, 40.69635],
          [-115.28873, 40.68437],
          [-115.28442, 40.66267],
          [-115.27289, 40.65622],
          [-115.25149, 40.64423],
          [-115.24719, 40.62252],
          [-115.23567, 40.61606],
          [-115.21429, 40.60407],
          [-115.20999, 40.58236],
          [-115.19848, 40.5759],
          [-115.17711, 40.5639],
          [-115.17282, 40.54218],
          [-115.16854, 40.52045],
          [-115.15704, 40.51399],
          [-115.13568, 40.50198],
          [-115.12419, 40.49551],
          [-115.10284, 40.4835],
          [-115.09135, 40.47703],
          [-115.07001, 40.46501],
          [-115.06575, 40.44328],
          [-115.05426, 40.4368],
          [-115.0257, 40.44004],
          [-115.00438, 40.42801],
          [-114.9929, 40.42153],
          [-114.96434, 40.42476],
          [-114.93578, 40.42798],
          [-114.90722, 40.4312],
          [-114.87865, 40.43441],
          [-114.85009, 40.43762],
          [-114.82152, 40.44083],
          [-114.80022, 40.42877],
          [-114.78876, 40.42228],
          [-114.76746, 40.41022],
          [-114.756, 40.40373],
          [-114.73471, 40.39167],
          [-114.73053, 40.36992],
          [-114.71907, 40.36342],
          [-114.69052, 40.3666],
          [-114.66925, 40.35453],
          [-114.66508, 40.33277],
          [-114.65363, 40.32627],
          [-114.63238, 40.31419],
          [-114.62821, 40.29243],
          [-114.64405, 40.27622],
          [-114.65258, 40.26749],
          [-114.64842, 40.24572],
          [-114.64426, 40.22395],
          [-114.63282, 40.21744],
          [-114.60431, 40.22062],
          [-114.59578, 40.22935],
          [-114.57994, 40.24556],
          [-114.55142, 40.24872],
          [-114.5229, 40.25188],
          [-114.49437, 40.25503],
          [-114.46584, 40.25818],
          [-114.4573, 40.2669],
          [-114.44143, 40.2831],
          [-114.4129, 40.28624],
          [-114.38436, 40.28938],
          [-114.35582, 40.29251],
          [-114.32728, 40.29563],
          [-114.29874, 40.29876],
          [-114.27019, 40.30187],
          [-114.24898, 40.28975],
          [-114.23757, 40.28321],
          [-114.21637, 40.27108],
          [-114.20495, 40.26455],
          [-114.18376, 40.25241],
          [-114.17235, 40.24587],
          [-114.14382, 40.24897],
          [-114.12263, 40.23683],
          [-114.11123, 40.23029],
          [-114.0827, 40.23337],
          [-114.06153, 40.22122],
          [-114.05013, 40.21467],
          [-114.02897, 40.20251],
          [-114.01757, 40.19597],
          [-113.99642, 40.1838],
          [-113.98503, 40.17725],
          [-113.95651, 40.18032],
          [-113.92798, 40.18339],
          [-113.89946, 40.18644],
          [-113.87093, 40.1895],
          [-113.86235, 40.1982],
          [-113.8464, 40.21434],
          [-113.81786, 40.21739],
          [-113.79672, 40.2052],
          [-113.78534, 40.19864],
          [-113.76422, 40.18645],
          [-113.76024, 40.16465],
          [-113.74887, 40.15808],
          [-113.72775, 40.14589],
          [-113.72379, 40.12408],
          [-113.71242, 40.11751],
          [-113.69132, 40.10531],
          [-113.68736, 40.0835],
          [-113.676, 40.07693],
          [-113.65491, 40.06472],
          [-113.65097, 40.0429],
          [-113.63961, 40.03633],
          [-113.61854, 40.02411],
          [-113.60719, 40.01753],
          [-113.58612, 40.0053],
          [-113.58219, 39.98348],
          [-113.57085, 39.9769],
          [-113.54979, 39.96467],
          [-113.53845, 39.95808],
          [-113.5174, 39.94584],
          [-113.51348, 39.92402],
          [-113.50215, 39.91742],
          [-113.47369, 39.92042],
          [-113.44523, 39.92341],
          [-113.41676, 39.9264],
          [-113.38829, 39.92938],
          [-113.35982, 39.93236],
          [-113.33135, 39.93533],
          [-113.30287, 39.9383],
          [-113.2744, 39.94126],
          [-113.24592, 39.94422],
          [-113.21744, 39.94717],
          [-113.18896, 39.95012],
          [-113.16796, 39.93784],
          [-113.15665, 39.93123],
          [-113.12817, 39.93417],
          [-113.09969, 39.93711],
          [-113.07869, 39.92482],
          [-113.06739, 39.9182],
          [-113.05876, 39.92687],
          [-113.04273, 39.94296],
          [-113.02174, 39.93067],
          [-113.01044, 39.92404],
          [-112.98196, 39.92696],
          [-112.95348, 39.92987],
          [-112.92499, 39.93278],
          [-112.91635, 39.94144],
          [-112.90029, 39.95752],
          [-112.8718, 39.96042],
          [-112.84331, 39.96331],
          [-112.81481, 39.9662],
          [-112.80616, 39.97486],
          [-112.79008, 39.99092],
          [-112.76157, 39.9938],
          [-112.73307, 39.99668],
          [-112.70456, 39.99955],
          [-112.69589, 40.0082],
          [-112.67979, 40.02425],
          [-112.65128, 40.02712],
          [-112.62276, 40.02997],
          [-112.59424, 40.03282],
          [-112.58556, 40.04146],
          [-112.56943, 40.05751],
          [-112.54091, 40.06035],
          [-112.51238, 40.06319],
          [-112.48385, 40.06602],
          [-112.47515, 40.07466],
          [-112.45901, 40.09069],
          [-112.43047, 40.09351],
          [-112.40193, 40.09633],
          [-112.37338, 40.09915],
          [-112.36468, 40.10778],
          [-112.34851, 40.12379],
          [-112.31996, 40.1266],
          [-112.31125, 40.13522],
          [-112.29507, 40.15123],
          [-112.2665, 40.15403],
          [-112.25779, 40.16265],
          [-112.24159, 40.17865],
          [-112.23287, 40.18727],
          [-112.21667, 40.20327],
          [-112.20795, 40.21188],
          [-112.19174, 40.22788],
          [-112.18301, 40.23649],
          [-112.16679, 40.25248],
          [-112.15806, 40.26109],
          [-112.14183, 40.27708],
          [-112.13309, 40.28569],
          [-112.11686, 40.30167],
          [-112.10812, 40.31027],
          [-112.11175, 40.33209],
          [-112.11538, 40.3539],
          [-112.09914, 40.36988],
          [-112.09039, 40.37848],
          [-112.09402, 40.40029],
          [-112.07776, 40.41626],
          [-112.04912, 40.41901],
          [-112.04036, 40.42761],
          [-112.02409, 40.44357],
          [-112, 40.44589]
        ]
      }
    },
    {
      "type": "Feature",
      "id": "2026092706_f192_12000_001",
      "properties": {
        "product_id": "winter_storm_levels",
        "source_id": "nbm_snow_level",
        "parameter": "snow_level",
        "definition": "height of the wet-bulb 0.5 degree C surface",
        "level_ft_msl": 12000,
        "label": "12,000 ft MSL",
        "unit": "ft_msl",
        "cycle_time_utc": "2026-09-27T06:00:00Z",
        "valid_time_utc": "2026-10-05T06:00:00Z",
        "lead_hours": 192,
        "segment": 1,
        "length_m": 16412.3
      },
      "geometry": {
        "type": "LineString",
        "coordinates": [
          [-117.37058, 32.9174],
          [-117.36616, 32.89509],
          [-117.34911, 32.88486],
          [-117.33693, 32.89918],
          [-117.32696, 32.91089],
          [-117.31477, 32.9252],
          [-117.33182, 32.93543],
          [-117.3584, 32.93172],
          [-117.37058, 32.9174]
        ]
      }
    },
    {
      "type": "Feature",
      "id": "2026092706_f192_12000_002",
      "properties": {
        "product_id": "winter_storm_levels",
        "source_id": "nbm_snow_level",
        "parameter": "snow_level",
        "definition": "height of the wet-bulb 0.5 degree C surface",
        "level_ft_msl": 12000,
        "label": "12,000 ft MSL",
        "unit": "ft_msl",
        "cycle_time_utc": "2026-09-27T06:00:00Z",
        "valid_time_utc": "2026-10-05T06:00:00Z",
        "lead_hours": 192,
        "segment": 2,
        "length_m": 1748031.4
      },
      "geometry": {
        "type": "LineString",
        "coordinates": [
          [-117.46287, 30.21869],
          [-117.46623, 30.23607],
          [-117.47057, 30.2585],
          [-117.47492, 30.28093],
          [-117.47927, 30.30336],
          [-117.49291, 30.31176],
          [-117.5096, 30.32203],
          [-117.51395, 30.34446],
          [-117.51831, 30.36688],
          [-117.52266, 30.38931],
          [-117.52702, 30.41173],
          [-117.53138, 30.43415],
          [-117.53575, 30.45657],
          [-117.54011, 30.47899],
          [-117.54448, 30.50141],
          [-117.54885, 30.52383],
          [-117.55322, 30.54625],
          [-117.55759, 30.56867],
          [-117.56196, 30.59108],
          [-117.56634, 30.6135],
          [-117.55442, 30.62789],
          [-117.54466, 30.63967],
          [-117.54904, 30.66209],
          [-117.55341, 30.6845],
          [-117.55779, 30.70691],
          [-117.56216, 30.72932],
          [-117.56654, 30.75173],
          [-117.57093, 30.77414],
          [-117.58464, 30.78252],
          [-117.60139, 30.79277],
          [-117.60578, 30.81518],
          [-117.61017, 30.83758],
          [-117.61457, 30.85999],
          [-117.60263, 30.87438],
          [-117.59286, 30.88616],
          [-117.59725, 30.90856],
          [-117.60164, 30.93096],
          [-117.60604, 30.95336],
          [-117.59409, 30.96775],
          [-117.58431, 30.97953],
          [-117.58871, 31.00193],
          [-117.60244, 31.01031],
          [-117.61924, 31.02055],
          [-117.62364, 31.04295],
          [-117.62804, 31.06534],
          [-117.63245, 31.08774],
          [-117.63685, 31.11013],
          [-117.64126, 31.13252],
          [-117.64567, 31.15491],
          [-117.65008, 31.1773],
          [-117.6545, 31.19969],
          [-117.64253, 31.21408],
          [-117.63274, 31.22585],
          [-117.63715, 31.24823],
          [-117.65092, 31.25661],
          [-117.66775, 31.26684],
          [-117.67217, 31.28923],
          [-117.67659, 31.31161],
          [-117.68102, 31.33399],
          [-117.68544, 31.35637],
          [-117.68987, 31.37875],
          [-117.6943, 31.40113],
          [-117.69873, 31.4235],
          [-117.70316, 31.44588],
          [-117.7076, 31.46825],
          [-117.71203, 31.49063],
          [-117.71647, 31.513],
          [-117.73028, 31.52136],
          [-117.74716, 31.53158],
          [-117.7516, 31.55395],
          [-117.75605, 31.57632],
          [-117.7605, 31.59869],
          [-117.76495, 31.62105],
          [-117.7694, 31.64342],
          [-117.77386, 31.66578],
          [-117.77831, 31.68814],
          [-117.76631, 31.70253],
          [-117.75649, 31.7143],
          [-117.76094, 31.73666],
          [-117.7654, 31.75902],
          [-117.76986, 31.78137],
          [-117.77432, 31.80373],
          [-117.7623, 31.81811],
          [-117.75247, 31.82988],
          [-117.75693, 31.85223],
          [-117.76139, 31.87458],
          [-117.76585, 31.89694],
          [-117.77031, 31.91929],
          [-117.77478, 31.94164],
          [-117.76275, 31.95601],
          [-117.7529, 31.96778],
          [-117.75737, 31.99012],
          [-117.76183, 32.01247],
          [-117.7663, 32.03482],
          [-117.75426, 32.04919],
          [-117.74441, 32.06095],
          [-117.74887, 32.08329],
          [-117.73682, 32.09766],
          [-117.72696, 32.10942],
          [-117.73143, 32.13176],
          [-117.73589, 32.1541],
          [-117.72384, 32.16847],
          [-117.71397, 32.18022],
          [-117.71843, 32.20256],
          [-117.70637, 32.21692],
          [-117.69649, 32.22867],
          [-117.70096, 32.25101],
          [-117.68889, 32.26537],
          [-117.67901, 32.27712],
          [-117.68347, 32.29945],
          [-117.68793, 32.32179],
          [-117.67585, 32.33615],
          [-117.66596, 32.34789],
          [-117.65388, 32.36225],
          [-117.62744, 32.36601],
          [-117.61754, 32.37775],
          [-117.60545, 32.3921],
          [-117.59555, 32.40384],
          [-117.58345, 32.41819],
          [-117.55699, 32.42194],
          [-117.54709, 32.43368],
          [-117.53498, 32.44802],
          [-117.52506, 32.45976],
          [-117.5295, 32.48209],
          [-117.51738, 32.49643],
          [-117.50747, 32.50816],
          [-117.49534, 32.52249],
          [-117.48542, 32.53422],
          [-117.47329, 32.54856],
          [-117.46337, 32.56029],
          [-117.45123, 32.57462],
          [-117.4413, 32.58634],
          [-117.42916, 32.60067],
          [-117.41923, 32.6124],
          [-117.42365, 32.63472],
          [-117.42808, 32.65704],
          [-117.41593, 32.67137],
          [-117.40598, 32.68309],
          [-117.41041, 32.70541],
          [-117.41483, 32.72773],
          [-117.40268, 32.74205],
          [-117.39273, 32.75377],
          [-117.39715, 32.77609],
          [-117.38498, 32.79041],
          [-117.35844, 32.79413],
          [-117.33189, 32.79784],
          [-117.30534, 32.80155],
          [-117.27879, 32.80525],
          [-117.25223, 32.80895],
          [-117.23521, 32.7987],
          [-117.22128, 32.79032],
          [-117.19473, 32.79401],
          [-117.16818, 32.7977],
          [-117.15116, 32.78744],
          [-117.13725, 32.77905],
          [-117.11069, 32.78273],
          [-117.08414, 32.7864],
          [-117.05758, 32.79007],
          [-117.04058, 32.7798],
          [-117.02667, 32.7714],
          [-117.01668, 32.7831],
          [-117.00447, 32.79739],
          [-116.97791, 32.80104],
          [-116.96791, 32.81273],
          [-116.95568, 32.82702],
          [-116.92911, 32.83066],
          [-116.91911, 32.84235],
          [-116.90687, 32.85663],
          [-116.8803, 32.86027],
          [-116.85372, 32.8639],
          [-116.82714, 32.86753],
          [-116.80055, 32.87115],
          [-116.77397, 32.87477],
          [-116.74738, 32.87839],
          [-116.72079, 32.882],
          [-116.70381, 32.8717],
          [-116.68991, 32.86327],
          [-116.67293, 32.85297],
          [-116.66865, 32.83064],
          [-116.65476, 32.82221],
          [-116.63779, 32.8119],
          [-116.63351, 32.78957],
          [-116.62924, 32.76723],
          [-116.61536, 32.75879],
          [-116.5984, 32.74848],
          [-116.59414, 32.72614],
          [-116.58987, 32.7038],
          [-116.58561, 32.68146],
          [-116.58135, 32.65911],
          [-116.57709, 32.63677],
          [-116.57283, 32.61442],
          [-116.56857, 32.59207],
          [-116.55472, 32.58363],
          [-116.53779, 32.57331],
          [-116.53354, 32.55095],
          [-116.5197, 32.54251],
          [-116.50278, 32.53218],
          [-116.48895, 32.52373],
          [-116.47203, 32.5134],
          [-116.4678, 32.49104],
          [-116.45397, 32.48259],
          [-116.42746, 32.48615],
          [-116.41056, 32.47581],
          [-116.39674, 32.46735],
          [-116.38671, 32.47902],
          [-116.37445, 32.49327],
          [-116.34794, 32.49682],
          [-116.32143, 32.50037],
          [-116.29491, 32.50391],
          [-116.27802, 32.49356],
          [-116.26421, 32.48509],
          [-116.23769, 32.48863],
          [-116.21118, 32.49216],
          [-116.18467, 32.49568],
          [-116.15815, 32.4992],
          [-116.14127, 32.48884],
          [-116.12746, 32.48035],
          [-116.10095, 32.48386],
          [-116.08408, 32.47349],
          [-116.07028, 32.465],
          [-116.04377, 32.46851],
          [-116.0269, 32.45813],
          [-116.01311, 32.44963],
          [-115.99625, 32.43925],
          [-115.98246, 32.43076],
          [-115.96561, 32.42037],
          [-115.96148, 32.39799],
          [-115.9477, 32.38949],
          [-115.93085, 32.3791],
          [-115.91707, 32.3706],
          [-115.90024, 32.36021],
          [-115.88646, 32.3517],
          [-115.86963, 32.3413],
          [-115.86552, 32.31892],
          [-115.85176, 32.31041],
          [-115.83494, 32.30001],
          [-115.83083, 32.27762],
          [-115.81708, 32.26911],
          [-115.80026, 32.2587],
          [-115.79617, 32.23631],
          [-115.79208, 32.21393],
          [-115.78799, 32.19154],
          [-115.77424, 32.18302],
          [-115.75745, 32.1726],
          [-115.75337, 32.15021],
          [-115.74929, 32.12782],
          [-115.73555, 32.11929],
          [-115.71877, 32.10887],
          [-115.7147, 32.08648],
          [-115.71063, 32.06408],
          [-115.70656, 32.04168],
          [-115.69284, 32.03315],
          [-115.67607, 32.02272],
          [-115.67201, 32.00032],
          [-115.66795, 31.97792],
          [-115.66389, 31.95551],
          [-115.65984, 31.93311],
          [-115.64613, 31.92457],
          [-115.62939, 31.91414],
          [-115.62534, 31.89173],
          [-115.62129, 31.86932],
          [-115.6076, 31.86078],
          [-115.59086, 31.85034],
          [-115.58683, 31.82793],
          [-115.58279, 31.80552],
          [-115.56911, 31.79697],
          [-115.55239, 31.78653],
          [-115.54836, 31.76411],
          [-115.53468, 31.75556],
          [-115.51797, 31.74511],
          [-115.51395, 31.72269],
          [-115.50028, 31.71414],
          [-115.48358, 31.70369],
          [-115.47957, 31.68127],
          [-115.4659, 31.67271],
          [-115.44921, 31.66225],
          [-115.43555, 31.6537],
          [-115.41886, 31.64323],
          [-115.40521, 31.63467],
          [-115.38853, 31.62421],
          [-115.38454, 31.60178],
          [-115.37089, 31.59322],
          [-115.35422, 31.58275],
          [-115.34058, 31.57418],
          [-115.32391, 31.5637],
          [-115.31993, 31.54127],
          [-115.3063, 31.5327],
          [-115.28964, 31.52222],
          [-115.27601, 31.51365],
          [-115.25936, 31.50317],
          [-115.24574, 31.49459],
          [-115.22909, 31.4841],
          [-115.21547, 31.47552],
          [-115.19883, 31.46504],
          [-115.18521, 31.45645],
          [-115.16857, 31.44596],
          [-115.15496, 31.43738],
          [-115.13833, 31.42688],
          [-115.12472, 31.41829],
          [-115.1081, 31.40779],
          [-115.0945, 31.3992],
          [-115.0682, 31.40255],
          [-115.05158, 31.39204],
          [-115.03798, 31.38345],
          [-115.02137, 31.37294],
          [-115.00778, 31.36434],
          [-114.99117, 31.35383],
          [-114.98727, 31.33137],
          [-114.97368, 31.32277],
          [-114.95708, 31.31225],
          [-114.94351, 31.30365],
          [-114.92691, 31.29313],
          [-114.91334, 31.28452],
          [-114.89675, 31.27399],
          [-114.89287, 31.25154],
          [-114.8793, 31.24292],
          [-114.86272, 31.2324],
          [-114.85884, 31.20994],
          [-114.85497, 31.18748],
          [-114.84141, 31.17886],
          [-114.82485, 31.16832],
          [-114.8113, 31.1597],
          [-114.79473, 31.14917],
          [-114.79088, 31.1267],
          [-114.78702, 31.10424],
          [-114.78316, 31.08177],
          [-114.77931, 31.0593],
          [-114.76577, 31.05068],
          [-114.74923, 31.04013],
          [-114.74538, 31.01766],
          [-114.73185, 31.00903],
          [-114.71532, 30.99848],
          [-114.71148, 30.97601],
          [-114.70764, 30.95354],
          [-114.70381, 30.93106],
          [-114.69029, 30.92243],
          [-114.67378, 30.91187],
          [-114.66995, 30.8894],
          [-114.65644, 30.88076],
          [-114.63993, 30.8702],
          [-114.62643, 30.86156],
          [-114.60993, 30.85099],
          [-114.59643, 30.84235],
          [-114.57993, 30.83179],
          [-114.56644, 30.82314],
          [-114.54995, 30.81257],
          [-114.53645, 30.80392],
          [-114.51028, 30.80718],
          [-114.49379, 30.7966],
          [-114.48031, 30.78795],
          [-114.45413, 30.7912],
          [-114.44405, 30.80278],
          [-114.44783, 30.82527],
          [-114.43551, 30.83942],
          [-114.42543, 30.851],
          [-114.42921, 30.87349],
          [-114.4427, 30.88214],
          [-114.45919, 30.89272],
          [-114.46297, 30.91521],
          [-114.46676, 30.93769],
          [-114.48026, 30.94634],
          [-114.49677, 30.95691],
          [-114.50056, 30.97939],
          [-114.50436, 31.00187],
          [-114.50816, 31.02435],
          [-114.51196, 31.04682],
          [-114.51577, 31.0693],
          [-114.51957, 31.09177],
          [-114.53309, 31.10042],
          [-114.54962, 31.11098],
          [-114.55344, 31.13346],
          [-114.55725, 31.15593],
          [-114.56106, 31.17839],
          [-114.56488, 31.20086],
          [-114.5687, 31.22333],
          [-114.57252, 31.2458],
          [-114.57634, 31.26826],
          [-114.58016, 31.29072],
          [-114.58398, 31.31319],
          [-114.58781, 31.33565],
          [-114.59164, 31.35811],
          [-114.57927, 31.37226],
          [-114.56916, 31.38383],
          [-114.57298, 31.40629],
          [-114.57681, 31.42875],
          [-114.58064, 31.45121],
          [-114.56826, 31.46535],
          [-114.55814, 31.47693],
          [-114.54576, 31.49107],
          [-114.51942, 31.49433],
          [-114.50929, 31.5059],
          [-114.4969, 31.52004],
          [-114.48676, 31.5316],
          [-114.47437, 31.54574],
          [-114.46423, 31.55731],
          [-114.45183, 31.57144],
          [-114.44168, 31.583],
          [-114.42928, 31.59714],
          [-114.41912, 31.6087],
          [-114.40671, 31.62283],
          [-114.38035, 31.62606],
          [-114.37019, 31.63762],
          [-114.35777, 31.65174],
          [-114.3476, 31.6633],
          [-114.33518, 31.67742],
          [-114.32501, 31.68897],
          [-114.31258, 31.70309],
          [-114.30241, 31.71464],
          [-114.28997, 31.72876],
          [-114.2798, 31.74031],
          [-114.26735, 31.75442],
          [-114.25717, 31.76597],
          [-114.24473, 31.78008],
          [-114.21832, 31.78329],
          [-114.20813, 31.79483],
          [-114.19567, 31.80894],
          [-114.16926, 31.81214],
          [-114.15906, 31.82368],
          [-114.14659, 31.83778],
          [-114.12017, 31.84097],
          [-114.09374, 31.84415],
          [-114.06732, 31.84733],
          [-114.05711, 31.85887],
          [-114.04463, 31.87296],
          [-114.01819, 31.87613],
          [-114.00797, 31.88766],
          [-113.99548, 31.90175],
          [-113.98526, 31.91327],
          [-113.97276, 31.92736],
          [-113.96254, 31.93888],
          [-113.96626, 31.96133],
          [-113.96999, 31.98378],
          [-113.97372, 32.00622],
          [-113.97745, 32.02866],
          [-113.98118, 32.05111],
          [-113.96866, 32.06519],
          [-113.95843, 32.07671],
          [-113.96215, 32.09915],
          [-113.96588, 32.12159],
          [-113.95336, 32.13566],
          [-113.94312, 32.14718],
          [-113.93059, 32.16126],
          [-113.92034, 32.17277],
          [-113.9078, 32.18685],
          [-113.89755, 32.19836],
          [-113.90127, 32.22079],
          [-113.88873, 32.23486],
          [-113.87847, 32.24637],
          [-113.88218, 32.26881],
          [-113.86964, 32.28287],
          [-113.85937, 32.29438],
          [-113.84682, 32.30845],
          [-113.83654, 32.31995],
          [-113.84025, 32.34238],
          [-113.82769, 32.35645],
          [-113.81741, 32.36795],
          [-113.82112, 32.39038],
          [-113.80856, 32.40444],
          [-113.79827, 32.41594],
          [-113.7857, 32.42999],
          [-113.77541, 32.44149],
          [-113.76283, 32.45554],
          [-113.75253, 32.46704],
          [-113.75623, 32.48946],
          [-113.74365, 32.50351],
          [-113.73334, 32.51501],
          [-113.72075, 32.52906],
          [-113.71045, 32.54055],
          [-113.69785, 32.55459],
          [-113.68754, 32.56608],
          [-113.69123, 32.5885],
          [-113.67862, 32.60254],
          [-113.66831, 32.61403],
          [-113.67199, 32.63645],
          [-113.65938, 32.65049],
          [-113.64906, 32.66197],
          [-113.65275, 32.68439],
          [-113.65643, 32.7068],
          [-113.66012, 32.72922],
          [-113.6475, 32.74325],
          [-113.63717, 32.75473],
          [-113.64085, 32.77715],
          [-113.64454, 32.79956],
          [-113.64823, 32.82197],
          [-113.63559, 32.836],
          [-113.62525, 32.84747],
          [-113.61261, 32.8615],
          [-113.60226, 32.87298],
          [-113.60595, 32.89538],
          [-113.5933, 32.90941],
          [-113.58294, 32.92088],
          [-113.57029, 32.9349],
          [-113.54359, 32.93799],
          [-113.53323, 32.94946],
          [-113.52057, 32.96347],
          [-113.5102, 32.97494],
          [-113.49753, 32.98895],
          [-113.47082, 32.99203],
          [-113.44411, 32.9951],
          [-113.43373, 33.00656],
          [-113.42105, 33.02056],
          [-113.39433, 33.02362],
          [-113.36761, 33.02668],
          [-113.34089, 33.02973],
          [-113.31417, 33.03278],
          [-113.28744, 33.03582],
          [-113.27075, 33.02517],
          [-113.25709, 33.01645],
          [-113.23037, 33.01949],
          [-113.20365, 33.02252],
          [-113.18697, 33.01186],
          [-113.17332, 33.00313],
          [-113.1466, 33.00615],
          [-113.12992, 32.99549],
          [-113.11628, 32.98676],
          [-113.08956, 32.98977],
          [-113.06284, 32.99277],
          [-113.04618, 32.9821],
          [-113.03255, 32.97336],
          [-113.00583, 32.97636],
          [-112.97911, 32.97935],
          [-112.96245, 32.96867],
          [-112.94883, 32.95992],
          [-112.92211, 32.96291],
          [-112.89539, 32.96589],
          [-112.86867, 32.96886],
          [-112.84195, 32.97183],
          [-112.81523, 32.9748],
          [-112.80479, 32.98622],
          [-112.79203, 33.00017],
          [-112.78159, 33.01159],
          [-112.76883, 33.02555],
          [-112.75838, 33.03696],
          [-112.7619, 33.05938],
          [-112.76543, 33.08179],
          [-112.77905, 33.09055],
          [-112.79571, 33.10125],
          [-112.79924, 33.12366],
          [-112.81287, 33.13241],
          [-112.82954, 33.14311],
          [-112.83308, 33.16552],
          [-112.84672, 33.17427],
          [-112.86339, 33.18496],
          [-112.87704, 33.1937],
          [-112.89372, 33.20439],
          [-112.90737, 33.21313],
          [-112.92405, 33.22382],
          [-112.93771, 33.23255],
          [-112.9544, 33.24323],
          [-112.96806, 33.25197],
          [-112.98476, 33.26265],
          [-112.99842, 33.27138],
          [-113.01512, 33.28205],
          [-113.02879, 33.29078],
          [-113.0455, 33.30145],
          [-113.05917, 33.31018],
          [-113.07589, 33.32085],
          [-113.08956, 33.32957],
          [-113.10628, 33.34023],
          [-113.11997, 33.34895],
          [-113.13669, 33.35961],
          [-113.15038, 33.36833],
          [-113.17719, 33.36531],
          [-113.19392, 33.37596],
          [-113.20761, 33.38468],
          [-113.22435, 33.39532],
          [-113.23805, 33.40403],
          [-113.25479, 33.41468],
          [-113.2685, 33.42339],
          [-113.28525, 33.43403],
          [-113.29896, 33.44273],
          [-113.31571, 33.45337],
          [-113.32942, 33.46207],
          [-113.34619, 33.4727],
          [-113.3599, 33.4814],
          [-113.38673, 33.47835],
          [-113.4035, 33.48897],
          [-113.41722, 33.49767],
          [-113.434, 33.50829],
          [-113.44773, 33.51698],
          [-113.46451, 33.5276],
          [-113.47824, 33.53629],
          [-113.50508, 33.53322],
          [-113.52187, 33.54383],
          [-113.53561, 33.55251],
          [-113.5524, 33.56312],
          [-113.56615, 33.5718],
          [-113.58295, 33.5824],
          [-113.59669, 33.59108],
          [-113.62354, 33.58799],
          [-113.64035, 33.59859],
          [-113.65411, 33.60726],
          [-113.67092, 33.61785],
          [-113.68468, 33.62652],
          [-113.7015, 33.63711],
          [-113.71526, 33.64578],
          [-113.74212, 33.64267],
          [-113.75895, 33.65325],
          [-113.77272, 33.66191],
          [-113.78955, 33.67249],
          [-113.80333, 33.68115],
          [-113.83019, 33.67803],
          [-113.84703, 33.6886],
          [-113.86081, 33.69725],
          [-113.88768, 33.69412],
          [-113.90453, 33.70469],
          [-113.91832, 33.71333],
          [-113.94518, 33.71019],
          [-113.96204, 33.72076],
          [-113.97583, 33.7294],
          [-113.9927, 33.73995],
          [-114.0065, 33.74859],
          [-114.02336, 33.75915],
          [-114.03717, 33.76778],
          [-114.06405, 33.76462],
          [-114.08092, 33.77517],
          [-114.09473, 33.7838],
          [-114.11161, 33.79434],
          [-114.12543, 33.80297],
          [-114.14232, 33.81351],
          [-114.14614, 33.83585],
          [-114.15996, 33.84447],
          [-114.17686, 33.855],
          [-114.19068, 33.86362],
          [-114.20759, 33.87415],
          [-114.21143, 33.89649],
          [-114.21526, 33.91882],
          [-114.2291, 33.92743],
          [-114.24602, 33.93796],
          [-114.24987, 33.96028],
          [-114.25371, 33.98261],
          [-114.26756, 33.99122],
          [-114.28449, 34.00174],
          [-114.28835, 34.02406],
          [-114.30221, 34.03267],
          [-114.31914, 34.04318],
          [-114.32301, 34.0655],
          [-114.32688, 34.08782],
          [-114.34074, 34.09642],
          [-114.3577, 34.10693],
          [-114.36157, 34.12924],
          [-114.36545, 34.15155],
          [-114.36933, 34.17387],
          [-114.37321, 34.19617],
          [-114.38709, 34.20477],
          [-114.40406, 34.21527],
          [-114.40795, 34.23758],
          [-114.41184, 34.25988],
          [-114.41573, 34.28218],
          [-114.41962, 34.30448],
          [-114.43353, 34.31307],
          [-114.45052, 34.32356],
          [-114.45442, 34.34586],
          [-114.45832, 34.36816],
          [-114.47224, 34.37674],
          [-114.48924, 34.38722],
          [-114.49315, 34.40952],
          [-114.49707, 34.43181],
          [-114.50098, 34.4541],
          [-114.5049, 34.47638],
          [-114.50881, 34.49867],
          [-114.51273, 34.52095],
          [-114.51665, 34.54324],
          [-114.50393, 34.55727],
          [-114.49352, 34.56875],
          [-114.49744, 34.59102],
          [-114.50136, 34.6133],
          [-114.50528, 34.63558],
          [-114.5092, 34.65785],
          [-114.51312, 34.68013],
          [-114.51705, 34.7024],
          [-114.52098, 34.72467],
          [-114.52491, 34.74694],
          [-114.52884, 34.7692],
          [-114.53277, 34.79147],
          [-114.52002, 34.80549],
          [-114.50959, 34.81696],
          [-114.51352, 34.83922],
          [-114.50076, 34.85324],
          [-114.49032, 34.86471],
          [-114.47756, 34.87872],
          [-114.46711, 34.89019],
          [-114.45435, 34.9042],
          [-114.4439, 34.91566],
          [-114.43112, 34.92967],
          [-114.42067, 34.94113],
          [-114.40789, 34.95514],
          [-114.38073, 34.95834],
          [-114.37027, 34.9698],
          [-114.35748, 34.9838],
          [-114.34701, 34.99525],
          [-114.33422, 35.00925],
          [-114.32374, 35.0207],
          [-114.31094, 35.0347],
          [-114.30047, 35.04615],
          [-114.28766, 35.06014],
          [-114.27718, 35.07158],
          [-114.26436, 35.08557],
          [-114.25388, 35.09702],
          [-114.25777, 35.11926],
          [-114.24494, 35.13325],
          [-114.23445, 35.14469],
          [-114.22162, 35.15867],
          [-114.21113, 35.17011],
          [-114.21501, 35.19236],
          [-114.21889, 35.2146],
          [-114.22278, 35.23684],
          [-114.20994, 35.25081],
          [-114.19943, 35.26225],
          [-114.20332, 35.28449],
          [-114.19047, 35.29846],
          [-114.17995, 35.30989],
          [-114.1671, 35.32386],
          [-114.15658, 35.33529],
          [-114.14372, 35.34926],
          [-114.11646, 35.35242],
          [-114.10594, 35.36384],
          [-114.09307, 35.3778],
          [-114.0658, 35.38095],
          [-114.03853, 35.3841],
          [-114.02799, 35.39552],
          [-114.01511, 35.40947],
          [-114.00457, 35.42089],
          [-113.99168, 35.43484],
          [-113.98113, 35.44625],
          [-113.96824, 35.4602],
          [-113.94095, 35.46333],
          [-113.93039, 35.47474],
          [-113.91749, 35.48868],
          [-113.89019, 35.4918],
          [-113.86288, 35.49492],
          [-113.83558, 35.49803],
          [-113.82501, 35.50943],
          [-113.81209, 35.52336],
          [-113.78478, 35.52646],
          [-113.75746, 35.52956],
          [-113.73015, 35.53265],
          [-113.70283, 35.53574],
          [-113.67552, 35.53883],
          [-113.6482, 35.54191],
          [-113.62088, 35.54498],
          [-113.59355, 35.54805],
          [-113.56623, 35.55112],
          [-113.5389, 35.55418],
          [-113.51158, 35.55724],
          [-113.49448, 35.54669],
          [-113.4805, 35.53805],
          [-113.45318, 35.5411],
          [-113.42585, 35.54414],
          [-113.39852, 35.54718],
          [-113.37119, 35.55022],
          [-113.34386, 35.55325],
          [-113.31653, 35.55627],
          [-113.2892, 35.55929],
          [-113.26186, 35.56231],
          [-113.23453, 35.56532],
          [-113.22389, 35.57668],
          [-113.21088, 35.59056],
          [-113.18354, 35.59357],
          [-113.15619, 35.59656],
          [-113.12884, 35.59956],
          [-113.10149, 35.60255],
          [-113.07414, 35.60553],
          [-113.04679, 35.60851],
          [-113.01944, 35.61149],
          [-112.99208, 35.61446],
          [-112.96472, 35.61742],
          [-112.93737, 35.62039],
          [-112.91001, 35.62334],
          [-112.88265, 35.6263],
          [-112.85528, 35.62925],
          [-112.82792, 35.63219],
          [-112.81088, 35.62157],
          [-112.79694, 35.61289],
          [-112.76958, 35.61582],
          [-112.75255, 35.6052],
          [-112.73861, 35.59651],
          [-112.71126, 35.59943],
          [-112.69423, 35.5888],
          [-112.68031, 35.5801],
          [-112.66329, 35.56947],
          [-112.64937, 35.56077],
          [-112.63236, 35.55013],
          [-112.61844, 35.54143],
          [-112.59109, 35.54434],
          [-112.57409, 35.53369],
          [-112.56018, 35.52498],
          [-112.54948, 35.5363],
          [-112.53639, 35.55013],
          [-112.50904, 35.55303],
          [-112.48168, 35.55591],
          [-112.46469, 35.54526],
          [-112.46115, 35.523],
          [-112.44725, 35.51428],
          [-112.43653, 35.5256],
          [-112.44007, 35.54785],
          [-112.42697, 35.56168],
          [-112.41625, 35.57299],
          [-112.40314, 35.58681],
          [-112.39242, 35.59811],
          [-112.39595, 35.62036],
          [-112.40986, 35.62909],
          [-112.42686, 35.63974],
          [-112.44077, 35.64846],
          [-112.45778, 35.65911],
          [-112.4717, 35.66783],
          [-112.48871, 35.67847],
          [-112.49227, 35.70072],
          [-112.49582, 35.72296],
          [-112.49938, 35.7452],
          [-112.48626, 35.75902],
          [-112.47553, 35.77033],
          [-112.47908, 35.79256],
          [-112.46595, 35.80638],
          [-112.45521, 35.81768],
          [-112.44208, 35.83149],
          [-112.41466, 35.83437],
          [-112.38723, 35.83724],
          [-112.3598, 35.8401],
          [-112.34278, 35.82944],
          [-112.32885, 35.82072],
          [-112.31183, 35.81006],
          [-112.2979, 35.80134],
          [-112.28089, 35.79068],
          [-112.26697, 35.78195],
          [-112.23955, 35.7848],
          [-112.22255, 35.77413],
          [-112.20863, 35.7654],
          [-112.18122, 35.76823],
          [-112.16422, 35.75755],
          [-112.15032, 35.74882],
          [-112.1229, 35.75164],
          [-112.10591, 35.74096],
          [-112.09202, 35.73222],
          [-112.06461, 35.73504],
          [-112.04762, 35.72435],
          [-112.03373, 35.7156],
          [-112.00633, 35.71841],
          [-112, 35.71905]
        ]
      }
    }
  ]
}

