{
  "type": "FeatureCollection",
  "contract_version": "1.0.0",
  "bbox": [-129.99399, 30.0987, -112, 43.9257],
  "features": [
    {
      "type": "Feature",
      "id": "2026092712_f168_10000_001",
      "properties": {
        "product_id": "winter_storm_levels",
        "source_id": "nbm_snow_level",
        "parameter": "snow_level",
        "definition": "height of the wet-bulb 0.5 degree C surface",
        "level_ft_msl": 10000,
        "label": "10,000 ft MSL",
        "unit": "ft_msl",
        "cycle_time_utc": "2026-09-27T12:00:00Z",
        "valid_time_utc": "2026-10-04T12:00:00Z",
        "lead_hours": 168,
        "segment": 1,
        "length_m": 17103.4
      },
      "geometry": {
        "type": "LineString",
        "coordinates": [
          [-116.78788, 42.19001],
          [-116.77808, 42.21324],
          [-116.74907, 42.21672],
          [-116.71538, 42.19871],
          [-116.73969, 42.17375],
          [-116.76868, 42.17027],
          [-116.78788, 42.19001]
        ]
      }
    },
    {
      "type": "Feature",
      "id": "2026092712_f168_10000_002",
      "properties": {
        "product_id": "winter_storm_levels",
        "source_id": "nbm_snow_level",
        "parameter": "snow_level",
        "definition": "height of the wet-bulb 0.5 degree C surface",
        "level_ft_msl": 10000,
        "label": "10,000 ft MSL",
        "unit": "ft_msl",
        "cycle_time_utc": "2026-09-27T12:00:00Z",
        "valid_time_utc": "2026-10-04T12:00:00Z",
        "lead_hours": 168,
        "segment": 2,
        "length_m": 382306.6
      },
      "geometry": {
        "type": "LineString",
        "coordinates": [
          [-127.47278, 38.47229],
          [-127.46606, 38.45074],
          [-127.45934, 38.42918],
          [-127.45262, 38.40762],
          [-127.44591, 38.38606],
          [-127.4392, 38.3645],
          [-127.40499, 38.34819],
          [-127.39829, 38.32662],
          [-127.3916, 38.30505],
          [-127.35742, 38.28873],
          [-127.32325, 38.2724],
          [-127.28909, 38.25607],
          [-127.25494, 38.23972],
          [-127.2208, 38.22337],
          [-127.18667, 38.20701],
          [-127.15256, 38.19064],
          [-127.11845, 38.17426],
          [-127.08436, 38.15788],
          [-127.05689, 38.16309],
          [-127.02281, 38.14669],
          [-126.99534, 38.15189],
          [-126.96787, 38.15708],
          [-126.9338, 38.14066],
          [-126.90633, 38.14585],
          [-126.87886, 38.15102],
          [-126.85138, 38.1562],
          [-126.83048, 38.18297],
          [-126.80299, 38.18814],
          [-126.7755, 38.1933],
          [-126.74801, 38.19846],
          [-126.72707, 38.22521],
          [-126.69957, 38.23036],
          [-126.67861, 38.25711],
          [-126.65764, 38.28385],
          [-126.63666, 38.31059],
          [-126.61567, 38.33732],
          [-126.59467, 38.36404],
          [-126.57366, 38.39076],
          [-126.55264, 38.41748],
          [-126.5316, 38.44418],
          [-126.51056, 38.47089],
          [-126.51709, 38.49247],
          [-126.48951, 38.49758],
          [-126.46844, 38.52427],
          [-126.44737, 38.55096],
          [-126.42628, 38.57764],
          [-126.4328, 38.59922],
          [-126.43932, 38.6208],
          [-126.44585, 38.64237],
          [-126.45237, 38.66395],
          [-126.48653, 38.68042],
          [-126.49307, 38.70199],
          [-126.49961, 38.72356],
          [-126.50615, 38.74512],
          [-126.51269, 38.76668],
          [-126.51924, 38.78824],
          [-126.52579, 38.8098],
          [-126.53234, 38.83135],
          [-126.5389, 38.8529],
          [-126.54546, 38.87445],
          [-126.55202, 38.896],
          [-126.55858, 38.91755],
          [-126.56515, 38.93909],
          [-126.57171, 38.96063],
          [-126.57829, 38.98217],
          [-126.58486, 39.0037],
          [-126.59144, 39.02524],
          [-126.59802, 39.04677],
          [-126.6046, 39.06829],
          [-126.63891, 39.08471],
          [-126.64551, 39.10623],
          [-126.67984, 39.12263],
          [-126.71418, 39.13902],
          [-126.74854, 39.15541],
          [-126.75516, 39.17692],
          [-126.78953, 39.19329],
          [-126.82392, 39.20966],
          [-126.85832, 39.22602],
          [-126.89272, 39.24237],
          [-126.92714, 39.25871],
          [-126.9549, 39.25355],
          [-126.98933, 39.26988],
          [-127.02377, 39.2862],
          [-127.05153, 39.28102],
          [-127.08599, 39.29733],
          [-127.12045, 39.31363],
          [-127.15493, 39.32992],
          [-127.18942, 39.3462],
          [-127.22391, 39.36248],
          [-127.25842, 39.37875],
          [-127.2862, 39.37354],
          [-127.31397, 39.36832],
          [-127.34174, 39.3631],
          [-127.36275, 39.33641],
          [-127.356, 39.31494],
          [-127.34925, 39.29346],
          [-127.37024, 39.26676],
          [-127.36349, 39.24528],
          [-127.35674, 39.2238],
          [-127.37772, 39.19709],
          [-127.37097, 39.1756],
          [-127.39194, 39.14888],
          [-127.38519, 39.12739],
          [-127.40614, 39.10066],
          [-127.39939, 39.07917],
          [-127.42033, 39.05243],
          [-127.41358, 39.03094],
          [-127.40684, 39.00943],
          [-127.4001, 38.98793],
          [-127.39336, 38.96643],
          [-127.38662, 38.94492],
          [-127.37989, 38.92341],
          [-127.37316, 38.90189],
          [-127.36643, 38.88038],
          [-127.33207, 38.86409],
          [-127.32535, 38.84257],
          [-127.31863, 38.82105],
          [-127.33954, 38.79429],
          [-127.33283, 38.77276],
          [-127.32611, 38.75124],
          [-127.34701, 38.72447],
          [-127.34029, 38.70293],
          [-127.36117, 38.67616],
          [-127.35446, 38.65462],
          [-127.37533, 38.62784],
          [-127.39618, 38.60105],
          [-127.41703, 38.57426],
          [-127.43786, 38.54746],
          [-127.45869, 38.52065],
          [-127.45197, 38.4991],
          [-127.47278, 38.47229]
        ]
      }
    },
    {
      "type": "Feature",
      "id": "2026092712_f168_10000_003",
      "properties": {
        "product_id": "winter_storm_levels",
        "source_id": "nbm_snow_level",
        "parameter": "snow_level",
        "definition": "height of the wet-bulb 0.5 degree C surface",
        "level_ft_msl": 10000,
        "label": "10,000 ft MSL",
        "unit": "ft_msl",
        "cycle_time_utc": "2026-09-27T12:00:00Z",
        "valid_time_utc": "2026-10-04T12:00:00Z",
        "lead_hours": 168,
        "segment": 3,
        "length_m": 3013004.7
      },
      "geometry": {
        "type": "LineString",
        "coordinates": [
          [-129.99399, 32.60496],
          [-129.97487, 32.63262],
          [-129.94888, 32.6384],
          [-129.92974, 32.66605],
          [-129.91059, 32.6937],
          [-129.88458, 32.69946],
          [-129.86542, 32.7271],
          [-129.8394, 32.73285],
          [-129.81339, 32.7386],
          [-129.7942, 32.76623],
          [-129.775, 32.79385],
          [-129.74896, 32.79959],
          [-129.72975, 32.82721],
          [-129.7037, 32.83294],
          [-129.68447, 32.86055],
          [-129.66523, 32.88816],
          [-129.63917, 32.89387],
          [-129.61991, 32.92147],
          [-129.60064, 32.94907],
          [-129.57456, 32.95477],
          [-129.55528, 32.98236],
          [-129.53598, 33.00994],
          [-129.50989, 33.01564],
          [-129.49057, 33.04321],
          [-129.46447, 33.0489],
          [-129.44514, 33.07646],
          [-129.4258, 33.10403],
          [-129.39968, 33.1097],
          [-129.38033, 33.13726],
          [-129.3542, 33.14293],
          [-129.32806, 33.14859],
          [-129.30868, 33.17613],
          [-129.2893, 33.20367],
          [-129.26314, 33.20933],
          [-129.23699, 33.21497],
          [-129.21758, 33.2425],
          [-129.19141, 33.24814],
          [-129.17198, 33.27566],
          [-129.15255, 33.30318],
          [-129.12636, 33.30881],
          [-129.10691, 33.33631],
          [-129.08072, 33.34194],
          [-129.06125, 33.36943],
          [-129.03505, 33.37505],
          [-129.00884, 33.38066],
          [-128.98263, 33.38626],
          [-128.95643, 33.39186],
          [-128.93021, 33.39746],
          [-128.904, 33.40305],
          [-128.88447, 33.43053],
          [-128.86494, 33.458],
          [-128.8454, 33.48546],
          [-128.82584, 33.51292],
          [-128.7996, 33.5185],
          [-128.78003, 33.54595],
          [-128.75377, 33.55151],
          [-128.73418, 33.57896],
          [-128.74086, 33.60084],
          [-128.72126, 33.62828],
          [-128.72794, 33.65016],
          [-128.73461, 33.67204],
          [-128.74129, 33.69391],
          [-128.74798, 33.71579],
          [-128.72836, 33.74322],
          [-128.70873, 33.77064],
          [-128.6891, 33.79807],
          [-128.66945, 33.82548],
          [-128.67613, 33.84735],
          [-128.68281, 33.86922],
          [-128.68949, 33.89109],
          [-128.66983, 33.9185],
          [-128.67651, 33.94036],
          [-128.65684, 33.96777],
          [-128.63716, 33.99517],
          [-128.64384, 34.01703],
          [-128.65052, 34.03888],
          [-128.65721, 34.06074],
          [-128.6639, 34.0826],
          [-128.6442, 34.10999],
          [-128.65089, 34.13184],
          [-128.65758, 34.15369],
          [-128.63786, 34.18108],
          [-128.61814, 34.20846],
          [-128.59172, 34.21399],
          [-128.57198, 34.24136],
          [-128.55222, 34.26873],
          [-128.5589, 34.29058],
          [-128.53914, 34.31794],
          [-128.51937, 34.3453],
          [-128.52605, 34.36714],
          [-128.50626, 34.39449],
          [-128.48647, 34.42184],
          [-128.46666, 34.44919],
          [-128.44685, 34.47652],
          [-128.42702, 34.50386],
          [-128.40719, 34.53119],
          [-128.38068, 34.53668],
          [-128.36083, 34.564],
          [-128.33432, 34.56948],
          [-128.31445, 34.5968],
          [-128.29457, 34.6241],
          [-128.26804, 34.62957],
          [-128.2415, 34.63504],
          [-128.2216, 34.66234],
          [-128.20169, 34.68963],
          [-128.17513, 34.69508],
          [-128.1552, 34.72237],
          [-128.13527, 34.74964],
          [-128.10869, 34.75509],
          [-128.08212, 34.76052],
          [-128.05554, 34.76596],
          [-128.02896, 34.77139],
          [-128.00238, 34.77681],
          [-127.9692, 34.7604],
          [-127.94262, 34.76581],
          [-127.90945, 34.74938],
          [-127.87629, 34.73295],
          [-127.84971, 34.73835],
          [-127.82313, 34.74375],
          [-127.80311, 34.77098],
          [-127.78307, 34.79821],
          [-127.75647, 34.8036],
          [-127.73642, 34.83082],
          [-127.74297, 34.85266],
          [-127.72291, 34.87988],
          [-127.72947, 34.90172],
          [-127.73602, 34.92355],
          [-127.71595, 34.95076],
          [-127.69586, 34.97797],
          [-127.67576, 35.00517],
          [-127.65565, 35.03237],
          [-127.6622, 35.0542],
          [-127.64208, 35.08139],
          [-127.61541, 35.08674],
          [-127.59527, 35.11393],
          [-127.57513, 35.1411],
          [-127.54843, 35.14645],
          [-127.55497, 35.16827],
          [-127.5348, 35.19544],
          [-127.51463, 35.2226],
          [-127.48791, 35.22794],
          [-127.46772, 35.25509],
          [-127.44099, 35.26042],
          [-127.42078, 35.28756],
          [-127.39404, 35.29288],
          [-127.37382, 35.32002],
          [-127.34707, 35.32533],
          [-127.32032, 35.33063],
          [-127.28708, 35.31411],
          [-127.25384, 35.29758],
          [-127.23358, 35.3247],
          [-127.20683, 35.32998],
          [-127.18654, 35.35709],
          [-127.15978, 35.36237],
          [-127.16625, 35.3842],
          [-127.14595, 35.4113],
          [-127.12564, 35.43839],
          [-127.10532, 35.46548],
          [-127.07853, 35.47075],
          [-127.05173, 35.47601],
          [-127.02493, 35.48126],
          [-127.00458, 35.50834],
          [-126.97777, 35.51358],
          [-126.9574, 35.54065],
          [-126.93702, 35.56771],
          [-126.91019, 35.57295],
          [-126.88979, 35.6],
          [-126.86295, 35.60522],
          [-126.84254, 35.63227],
          [-126.81569, 35.63749],
          [-126.82211, 35.6593],
          [-126.80167, 35.68634],
          [-126.80809, 35.70815],
          [-126.78765, 35.73518],
          [-126.76719, 35.7622],
          [-126.74672, 35.78922],
          [-126.75313, 35.81103],
          [-126.73265, 35.83804],
          [-126.71216, 35.86504],
          [-126.69166, 35.89204],
          [-126.66474, 35.89723],
          [-126.63782, 35.90242],
          [-126.61729, 35.9294],
          [-126.59036, 35.93458],
          [-126.56982, 35.96156],
          [-126.54288, 35.96673],
          [-126.54926, 35.98853],
          [-126.5287, 36.0155],
          [-126.53508, 36.0373],
          [-126.51451, 36.06426],
          [-126.49392, 36.09122],
          [-126.46694, 36.09637],
          [-126.44634, 36.12332],
          [-126.41935, 36.12847],
          [-126.39873, 36.15541],
          [-126.37173, 36.16054],
          [-126.35109, 36.18747],
          [-126.33044, 36.2144],
          [-126.30978, 36.24132],
          [-126.28911, 36.26823],
          [-126.26843, 36.29514],
          [-126.24773, 36.32204],
          [-126.22703, 36.34894],
          [-126.23338, 36.37073],
          [-126.23972, 36.39251],
          [-126.24607, 36.41429],
          [-126.25242, 36.43607],
          [-126.25878, 36.45785],
          [-126.26514, 36.47963],
          [-126.2715, 36.5014],
          [-126.27786, 36.52317],
          [-126.28422, 36.54494],
          [-126.29059, 36.56671],
          [-126.26985, 36.59359],
          [-126.27622, 36.61536],
          [-126.28259, 36.63712],
          [-126.26184, 36.66399],
          [-126.24107, 36.69086],
          [-126.2203, 36.71772],
          [-126.22666, 36.73947],
          [-126.23303, 36.76123],
          [-126.2394, 36.78298],
          [-126.21861, 36.80983],
          [-126.22498, 36.83158],
          [-126.20417, 36.85842],
          [-126.18336, 36.88526],
          [-126.18972, 36.907],
          [-126.1689, 36.93384],
          [-126.17526, 36.95558],
          [-126.18163, 36.97731],
          [-126.16079, 37.00414],
          [-126.16716, 37.02587],
          [-126.1463, 37.05269],
          [-126.15267, 37.07442],
          [-126.1318, 37.10123],
          [-126.13817, 37.12295],
          [-126.14454, 37.14468],
          [-126.12366, 37.17148],
          [-126.13003, 37.1932],
          [-126.1364, 37.21492],
          [-126.1155, 37.24171],
          [-126.12188, 37.26343],
          [-126.12826, 37.28514],
          [-126.10734, 37.31193],
          [-126.11372, 37.33364],
          [-126.09279, 37.36041],
          [-126.07185, 37.38719],
          [-126.07822, 37.40889],
          [-126.05727, 37.43565],
          [-126.03631, 37.46241],
          [-126.01533, 37.48917],
          [-125.98798, 37.49422],
          [-125.96699, 37.52096],
          [-125.94599, 37.5477],
          [-125.91862, 37.55274],
          [-125.89126, 37.55777],
          [-125.87023, 37.5845],
          [-125.84919, 37.61122],
          [-125.85553, 37.63291],
          [-125.86188, 37.6546],
          [-125.84082, 37.68131],
          [-125.84717, 37.703],
          [-125.8261, 37.7297],
          [-125.83244, 37.75138],
          [-125.81136, 37.77808],
          [-125.81771, 37.79976],
          [-125.82405, 37.82144],
          [-125.80296, 37.84812],
          [-125.80931, 37.8698],
          [-125.7882, 37.89648],
          [-125.76707, 37.92315],
          [-125.77342, 37.94482],
          [-125.75229, 37.97149],
          [-125.75863, 37.99315],
          [-125.76498, 38.01481],
          [-125.77133, 38.03647],
          [-125.77768, 38.05813],
          [-125.78403, 38.07978],
          [-125.79039, 38.10144],
          [-125.79675, 38.12309],
          [-125.77559, 38.14974],
          [-125.78195, 38.17138],
          [-125.78831, 38.19302],
          [-125.76713, 38.21967],
          [-125.74594, 38.2463],
          [-125.7523, 38.26794],
          [-125.78622, 38.28458],
          [-125.82016, 38.30121],
          [-125.82653, 38.32284],
          [-125.83291, 38.34447],
          [-125.8393, 38.36609],
          [-125.84568, 38.38772],
          [-125.85207, 38.40934],
          [-125.85846, 38.43096],
          [-125.86486, 38.45257],
          [-125.89886, 38.46917],
          [-125.90526, 38.49079],
          [-125.91167, 38.51239],
          [-125.91808, 38.534],
          [-125.92449, 38.55561],
          [-125.9309, 38.57721],
          [-125.93732, 38.59881],
          [-125.94374, 38.6204],
          [-125.95016, 38.642],
          [-125.95658, 38.66359],
          [-125.96301, 38.68518],
          [-125.96944, 38.70677],
          [-125.97587, 38.72835],
          [-125.98231, 38.74994],
          [-126.01642, 38.7665],
          [-126.05055, 38.78305],
          [-126.07823, 38.77801],
          [-126.1059, 38.77298],
          [-126.13357, 38.76794],
          [-126.16772, 38.78446],
          [-126.1742, 38.80603],
          [-126.18068, 38.8276],
          [-126.18716, 38.84917],
          [-126.22134, 38.86568],
          [-126.25553, 38.88218],
          [-126.28973, 38.89867],
          [-126.29624, 38.92023],
          [-126.33046, 38.93671],
          [-126.33698, 38.95826],
          [-126.3435, 38.97981],
          [-126.35003, 39.00135],
          [-126.35656, 39.0229],
          [-126.36309, 39.04443],
          [-126.34188, 39.07104],
          [-126.34841, 39.09258],
          [-126.32719, 39.11918],
          [-126.30597, 39.14578],
          [-126.2782, 39.15084],
          [-126.25695, 39.17742],
          [-126.26347, 39.19895],
          [-126.27, 39.22047],
          [-126.24873, 39.24705],
          [-126.25526, 39.26857],
          [-126.23398, 39.29514],
          [-126.21269, 39.3217],
          [-126.21921, 39.34322],
          [-126.19791, 39.36977],
          [-126.17659, 39.39632],
          [-126.14876, 39.40135],
          [-126.12743, 39.42789],
          [-126.10609, 39.45442],
          [-126.08473, 39.48095],
          [-126.05687, 39.48596],
          [-126.029, 39.49098],
          [-126.00762, 39.51749],
          [-125.97975, 39.52249],
          [-125.98623, 39.54399],
          [-125.96483, 39.57049],
          [-125.94342, 39.59699],
          [-125.9499, 39.61848],
          [-125.92847, 39.64497],
          [-125.90704, 39.67145],
          [-125.88559, 39.69792],
          [-125.85766, 39.7029],
          [-125.83619, 39.72937],
          [-125.81471, 39.75583],
          [-125.79322, 39.78228],
          [-125.79969, 39.80376],
          [-125.77818, 39.8302],
          [-125.78464, 39.85168],
          [-125.76313, 39.87812],
          [-125.76959, 39.89959],
          [-125.77606, 39.92106],
          [-125.75452, 39.94749],
          [-125.76099, 39.96895],
          [-125.76745, 39.99041],
          [-125.77392, 40.01188],
          [-125.7804, 40.03333],
          [-125.75884, 40.05974],
          [-125.76531, 40.0812],
          [-125.77179, 40.10265],
          [-125.75022, 40.12905],
          [-125.75669, 40.1505],
          [-125.73511, 40.17689],
          [-125.74158, 40.19833],
          [-125.71998, 40.22472],
          [-125.69837, 40.25109],
          [-125.70485, 40.27253],
          [-125.68322, 40.2989],
          [-125.68969, 40.32033],
          [-125.66805, 40.34669],
          [-125.67453, 40.36812],
          [-125.65287, 40.39447],
          [-125.63121, 40.42082],
          [-125.63768, 40.44223],
          [-125.64415, 40.46365],
          [-125.62247, 40.48999],
          [-125.62894, 40.5114],
          [-125.63542, 40.53281],
          [-125.61372, 40.55913],
          [-125.62019, 40.58054],
          [-125.59848, 40.60686],
          [-125.60496, 40.62825],
          [-125.61143, 40.64965],
          [-125.61791, 40.67104],
          [-125.62439, 40.69244],
          [-125.63088, 40.71382],
          [-125.60914, 40.74012],
          [-125.5874, 40.76642],
          [-125.59388, 40.7878],
          [-125.60036, 40.80918],
          [-125.60685, 40.83056],
          [-125.61334, 40.85193],
          [-125.59157, 40.87821],
          [-125.56979, 40.90448],
          [-125.57627, 40.92585],
          [-125.58276, 40.94721],
          [-125.56096, 40.97347],
          [-125.56745, 40.99483],
          [-125.57395, 41.01619],
          [-125.55213, 41.04244],
          [-125.55862, 41.06379],
          [-125.56512, 41.08514],
          [-125.54328, 41.11138],
          [-125.54978, 41.13272],
          [-125.52793, 41.15895],
          [-125.53443, 41.18029],
          [-125.54092, 41.20163],
          [-125.54742, 41.22296],
          [-125.55392, 41.24429],
          [-125.56043, 41.26562],
          [-125.56694, 41.28694],
          [-125.57345, 41.30827],
          [-125.55157, 41.33447],
          [-125.55808, 41.35579],
          [-125.56459, 41.37711],
          [-125.57111, 41.39842],
          [-125.57763, 41.41973],
          [-125.58415, 41.44103],
          [-125.59067, 41.46234],
          [-125.56876, 41.48852],
          [-125.54685, 41.51471],
          [-125.55337, 41.536],
          [-125.53144, 41.56218],
          [-125.53796, 41.58347],
          [-125.54448, 41.60475],
          [-125.52253, 41.63092],
          [-125.50057, 41.65707],
          [-125.50709, 41.67835],
          [-125.51361, 41.69963],
          [-125.49163, 41.72577],
          [-125.49816, 41.74705],
          [-125.47617, 41.77318],
          [-125.48269, 41.79445],
          [-125.46068, 41.82058],
          [-125.4672, 41.84184],
          [-125.44518, 41.86796],
          [-125.45171, 41.88921],
          [-125.45823, 41.91047],
          [-125.46476, 41.93172],
          [-125.44272, 41.95782],
          [-125.42066, 41.98392],
          [-125.42719, 42.00516],
          [-125.43372, 42.0264],
          [-125.41165, 42.05249],
          [-125.41817, 42.07372],
          [-125.4247, 42.09496],
          [-125.40262, 42.12103],
          [-125.40915, 42.14226],
          [-125.38704, 42.16832],
          [-125.39357, 42.18955],
          [-125.40011, 42.21076],
          [-125.37799, 42.23682],
          [-125.38452, 42.25803],
          [-125.36239, 42.28408],
          [-125.34024, 42.31011],
          [-125.34677, 42.33132],
          [-125.32461, 42.35735],
          [-125.30244, 42.38337],
          [-125.28026, 42.40939],
          [-125.25806, 42.43539],
          [-125.22934, 42.4402],
          [-125.23586, 42.4614],
          [-125.21364, 42.48739],
          [-125.19141, 42.51338],
          [-125.16917, 42.53936],
          [-125.14042, 42.54415],
          [-125.11816, 42.57012],
          [-125.0894, 42.5749],
          [-125.06712, 42.60086],
          [-125.04482, 42.62682],
          [-125.05131, 42.64799],
          [-125.029, 42.67394],
          [-125.03549, 42.69511],
          [-125.01317, 42.72104],
          [-125.01966, 42.74221],
          [-124.99732, 42.76813],
          [-124.97497, 42.79405],
          [-124.94614, 42.7988],
          [-124.92377, 42.82471],
          [-124.90139, 42.85061],
          [-124.87253, 42.85535],
          [-124.879, 42.8765],
          [-124.8566, 42.90239],
          [-124.86306, 42.92354],
          [-124.84064, 42.94941],
          [-124.81821, 42.97528],
          [-124.82467, 42.99642],
          [-124.80223, 43.02228],
          [-124.77977, 43.04814],
          [-124.75731, 43.07399],
          [-124.73483, 43.09983],
          [-124.71234, 43.12566],
          [-124.68983, 43.15149],
          [-124.66732, 43.17731],
          [-124.64479, 43.20312],
          [-124.62226, 43.22892],
          [-124.59971, 43.25472],
          [-124.57072, 43.2594],
          [-124.54815, 43.28519],
          [-124.52557, 43.31097],
          [-124.49656, 43.31564],
          [-124.47396, 43.34141],
          [-124.45134, 43.36717],
          [-124.42231, 43.37183],
          [-124.39968, 43.39758],
          [-124.37064, 43.40223],
          [-124.3416, 43.40687],
          [-124.31893, 43.4326],
          [-124.28988, 43.43724],
          [-124.26082, 43.44186],
          [-124.23176, 43.44649],
          [-124.20906, 43.4722],
          [-124.17999, 43.47682],
          [-124.15092, 43.48143],
          [-124.12819, 43.50713],
          [-124.10545, 43.53282],
          [-124.07635, 43.53742],
          [-124.05359, 43.5631],
          [-124.02448, 43.56769],
          [-123.99538, 43.57227],
          [-123.96627, 43.57685],
          [-123.93715, 43.58142],
          [-123.90174, 43.5649],
          [-123.87262, 43.56946],
          [-123.84351, 43.57402],
          [-123.81439, 43.57858],
          [-123.77899, 43.56203],
          [-123.74988, 43.56657],
          [-123.72076, 43.57111],
          [-123.69789, 43.59675],
          [-123.66876, 43.60128],
          [-123.63963, 43.6058],
          [-123.61049, 43.61033],
          [-123.58135, 43.61484],
          [-123.55844, 43.64045],
          [-123.52929, 43.64496],
          [-123.50014, 43.64946],
          [-123.4772, 43.67506],
          [-123.44803, 43.67955],
          [-123.41887, 43.68404],
          [-123.3959, 43.70962],
          [-123.36672, 43.7141],
          [-123.34373, 43.73967],
          [-123.31454, 43.74414],
          [-123.29153, 43.76969],
          [-123.26233, 43.77416],
          [-123.23312, 43.77861],
          [-123.21008, 43.80415],
          [-123.18087, 43.8086],
          [-123.15781, 43.83413],
          [-123.12858, 43.83857],
          [-123.09935, 43.84301],
          [-123.07012, 43.84744],
          [-123.04089, 43.85186],
          [-123.01165, 43.85628],
          [-122.98241, 43.8607],
          [-122.95317, 43.86511],
          [-122.92392, 43.86952],
          [-122.89467, 43.87392],
          [-122.86542, 43.87832],
          [-122.83617, 43.88272],
          [-122.813, 43.90819],
          [-122.78374, 43.91257],
          [-122.75447, 43.91695],
          [-122.7252, 43.92133],
          [-122.69593, 43.9257],
          [-122.6606, 43.90898],
          [-122.63132, 43.91334],
          [-122.59601, 43.89661],
          [-122.5607, 43.87986],
          [-122.53144, 43.88421],
          [-122.49615, 43.86745],
          [-122.46087, 43.85069],
          [-122.42561, 43.83392],
          [-122.39035, 43.81714],
          [-122.35511, 43.80035],
          [-122.31988, 43.78355],
          [-122.28467, 43.76674],
          [-122.24946, 43.74993],
          [-122.24351, 43.72881],
          [-122.20832, 43.71198],
          [-122.20238, 43.69085],
          [-122.19643, 43.66971],
          [-122.19049, 43.64858],
          [-122.18456, 43.62744],
          [-122.17862, 43.6063],
          [-122.17269, 43.58515],
          [-122.16676, 43.564],
          [-122.16083, 43.54285],
          [-122.15491, 43.52169],
          [-122.14899, 43.50054],
          [-122.14307, 43.47937],
          [-122.13715, 43.45821],
          [-122.13123, 43.43704],
          [-122.12532, 43.41587],
          [-122.11941, 43.3947],
          [-122.11351, 43.37352],
          [-122.1076, 43.35234],
          [-122.1017, 43.33116],
          [-122.0958, 43.30998],
          [-122.0899, 43.28879],
          [-122.0549, 43.27188],
          [-122.04902, 43.25069],
          [-122.04313, 43.22949],
          [-122.00816, 43.21257],
          [-122.00229, 43.19137],
          [-121.99642, 43.17016],
          [-121.99055, 43.14895],
          [-121.98469, 43.12774],
          [-121.94976, 43.1108],
          [-121.94391, 43.08958],
          [-121.93806, 43.06836],
          [-121.93221, 43.04713],
          [-121.92636, 43.0259],
          [-121.92052, 43.00467],
          [-121.91468, 42.98344],
          [-121.90884, 42.9622],
          [-121.90301, 42.94096],
          [-121.89717, 42.91972],
          [-121.92034, 42.8942],
          [-121.91451, 42.87295],
          [-121.90868, 42.8517],
          [-121.93183, 42.82616],
          [-121.926, 42.80491],
          [-121.92017, 42.78365],
          [-121.91434, 42.76238],
          [-121.93747, 42.73684],
          [-121.90269, 42.71985],
          [-121.89687, 42.69858],
          [-121.89105, 42.6773],
          [-121.88524, 42.65602],
          [-121.87942, 42.63474],
          [-121.87361, 42.61346],
          [-121.84469, 42.61773],
          [-121.81576, 42.622],
          [-121.78683, 42.62626],
          [-121.7579, 42.63052],
          [-121.72897, 42.63478],
          [-121.70581, 42.66031],
          [-121.67686, 42.66456],
          [-121.65368, 42.69008],
          [-121.63049, 42.7156],
          [-121.60152, 42.71983],
          [-121.57831, 42.74534],
          [-121.55509, 42.77084],
          [-121.53185, 42.79633],
          [-121.5086, 42.82182],
          [-121.48534, 42.8473],
          [-121.49108, 42.86856],
          [-121.4678, 42.89403],
          [-121.47354, 42.91529],
          [-121.45025, 42.94075],
          [-121.42695, 42.96621],
          [-121.40363, 42.99165],
          [-121.3803, 43.01709],
          [-121.35124, 43.02128],
          [-121.32217, 43.02546],
          [-121.29311, 43.02963],
          [-121.26974, 43.05505],
          [-121.24066, 43.05922],
          [-121.21158, 43.06338],
          [-121.1825, 43.06754],
          [-121.15341, 43.07169],
          [-121.11865, 43.05459],
          [-121.08957, 43.05873],
          [-121.06048, 43.06287],
          [-121.02574, 43.04575],
          [-120.99665, 43.04988],
          [-120.9732, 43.07526],
          [-120.94411, 43.07938],
          [-120.92064, 43.10475],
          [-120.89153, 43.10886],
          [-120.86242, 43.11296],
          [-120.83893, 43.13831],
          [-120.80981, 43.14241],
          [-120.78068, 43.1465],
          [-120.75156, 43.15059],
          [-120.72243, 43.15468],
          [-120.6933, 43.15875],
          [-120.66417, 43.16283],
          [-120.63503, 43.1669],
          [-120.60589, 43.17096],
          [-120.57675, 43.17502],
          [-120.54761, 43.17908],
          [-120.52402, 43.20438],
          [-120.49487, 43.20842],
          [-120.46571, 43.21247],
          [-120.43655, 43.2165],
          [-120.40739, 43.22053],
          [-120.37823, 43.22456],
          [-120.35458, 43.24984],
          [-120.32541, 43.25385],
          [-120.29623, 43.25787],
          [-120.26706, 43.26188],
          [-120.23787, 43.26588],
          [-120.20869, 43.26988],
          [-120.17402, 43.25262],
          [-120.13937, 43.23536],
          [-120.10472, 43.21809],
          [-120.07555, 43.22207],
          [-120.04092, 43.20478],
          [-120.03547, 43.18351],
          [-120.05918, 43.15827],
          [-120.08288, 43.13302],
          [-120.10657, 43.10777],
          [-120.13025, 43.0825],
          [-120.12478, 43.06122],
          [-120.14844, 43.03595],
          [-120.14298, 43.01467],
          [-120.13752, 42.99338],
          [-120.13206, 42.97209],
          [-120.09751, 42.95478],
          [-120.09206, 42.93349],
          [-120.05753, 42.91617],
          [-120.02302, 42.89885],
          [-119.99393, 42.90283],
          [-119.96485, 42.9068],
          [-119.94117, 42.93207],
          [-119.91207, 42.93603],
          [-119.87757, 42.91868],
          [-119.84848, 42.92263],
          [-119.81938, 42.92658],
          [-119.79028, 42.93052],
          [-119.76118, 42.93446],
          [-119.73207, 42.93839],
          [-119.70297, 42.94232],
          [-119.67922, 42.96755],
          [-119.6501, 42.97147],
          [-119.62098, 42.97539],
          [-119.59186, 42.9793],
          [-119.5574, 42.96189],
          [-119.52828, 42.96579],
          [-119.49916, 42.96969],
          [-119.47003, 42.97358],
          [-119.4409, 42.97747],
          [-119.41177, 42.98135],
          [-119.38264, 42.98523],
          [-119.3588, 43.01041],
          [-119.33494, 43.03558],
          [-119.31108, 43.06075],
          [-119.2872, 43.08592],
          [-119.29248, 43.10722],
          [-119.32694, 43.12465],
          [-119.33224, 43.14595],
          [-119.36142, 43.14208],
          [-119.3906, 43.13821],
          [-119.41977, 43.13434],
          [-119.44895, 43.13046],
          [-119.47812, 43.12657],
          [-119.50729, 43.12268],
          [-119.5418, 43.14008],
          [-119.57097, 43.13618],
          [-119.60014, 43.13228],
          [-119.63466, 43.14965],
          [-119.61084, 43.17484],
          [-119.58701, 43.20003],
          [-119.55783, 43.20392],
          [-119.53397, 43.2291],
          [-119.51011, 43.25426],
          [-119.4809, 43.25815],
          [-119.45702, 43.2833],
          [-119.43312, 43.30844],
          [-119.4039, 43.31232],
          [-119.37467, 43.31618],
          [-119.34543, 43.32005],
          [-119.3109, 43.30264],
          [-119.28167, 43.30649],
          [-119.25244, 43.31034],
          [-119.2232, 43.31418],
          [-119.19396, 43.31802],
          [-119.16472, 43.32186],
          [-119.13022, 43.30441],
          [-119.10098, 43.30824],
          [-119.0665, 43.29078],
          [-119.03202, 43.27331],
          [-119.00279, 43.27712],
          [-118.96833, 43.25964],
          [-118.93388, 43.24216],
          [-118.92867, 43.22086],
          [-118.89424, 43.20336],
          [-118.85983, 43.18586],
          [-118.82543, 43.16834],
          [-118.79104, 43.15081],
          [-118.78586, 43.12951],
          [-118.7515, 43.11197],
          [-118.71714, 43.09443],
          [-118.71198, 43.07311],
          [-118.67764, 43.05555],
          [-118.64846, 43.05931],
          [-118.61414, 43.04174],
          [-118.58496, 43.04549],
          [-118.55578, 43.04924],
          [-118.52659, 43.05298],
          [-118.4923, 43.03539],
          [-118.46311, 43.03912],
          [-118.42883, 43.02151],
          [-118.39965, 43.02523],
          [-118.36539, 43.00762],
          [-118.33114, 42.98999],
          [-118.32607, 42.96865],
          [-118.29184, 42.95101],
          [-118.28678, 42.92966],
          [-118.25257, 42.91201],
          [-118.21837, 42.89435],
          [-118.18418, 42.87668],
          [-118.15001, 42.85901],
          [-118.11584, 42.84133],
          [-118.08169, 42.82363],
          [-118.05256, 42.82731],
          [-118.02342, 42.83097],
          [-117.98929, 42.81326],
          [-117.96015, 42.81692],
          [-117.92604, 42.7992],
          [-117.8969, 42.80284],
          [-117.86777, 42.80649],
          [-117.83367, 42.78875],
          [-117.80454, 42.79238],
          [-117.77046, 42.77463],
          [-117.74133, 42.77825],
          [-117.70726, 42.76048],
          [-117.67813, 42.76409],
          [-117.649, 42.7677],
          [-117.61496, 42.74992],
          [-117.58583, 42.75352],
          [-117.5518, 42.73572],
          [-117.52267, 42.73931],
          [-117.48866, 42.7215],
          [-117.45466, 42.70368],
          [-117.42554, 42.70725],
          [-117.39156, 42.68942],
          [-117.35759, 42.67158],
          [-117.35274, 42.65017],
          [-117.3188, 42.63231],
          [-117.28969, 42.63587],
          [-117.25576, 42.618],
          [-117.22665, 42.62155],
          [-117.19754, 42.62509],
          [-117.16843, 42.62863],
          [-117.13932, 42.63216],
          [-117.1102, 42.63569],
          [-117.08109, 42.63921],
          [-117.05197, 42.64272],
          [-117.02285, 42.64624],
          [-116.99373, 42.64975],
          [-116.9646, 42.65325],
          [-116.93547, 42.65675],
          [-116.90635, 42.66024],
          [-116.87722, 42.66373],
          [-116.84335, 42.64579],
          [-116.81422, 42.64927],
          [-116.78509, 42.65275],
          [-116.75124, 42.63479],
          [-116.72211, 42.63826],
          [-116.68828, 42.62029],
          [-116.65915, 42.62374],
          [-116.62534, 42.60576],
          [-116.59621, 42.60921],
          [-116.56242, 42.59121],
          [-116.53329, 42.59465],
          [-116.50417, 42.59808],
          [-116.47039, 42.58006],
          [-116.44127, 42.58349],
          [-116.40751, 42.56546],
          [-116.37839, 42.56887],
          [-116.34926, 42.57228],
          [-116.31552, 42.55423],
          [-116.2864, 42.55763],
          [-116.25728, 42.56102],
          [-116.22356, 42.54296],
          [-116.19444, 42.54634],
          [-116.16532, 42.54972],
          [-116.13162, 42.53164],
          [-116.1025, 42.53501],
          [-116.06881, 42.51692],
          [-116.03969, 42.52028],
          [-116.01057, 42.52363],
          [-115.97691, 42.50552],
          [-115.94326, 42.4874],
          [-115.91414, 42.49074],
          [-115.88503, 42.49407],
          [-115.85591, 42.49741],
          [-115.82679, 42.50073],
          [-115.79767, 42.50405],
          [-115.76855, 42.50737],
          [-115.73942, 42.51068],
          [-115.7103, 42.51399],
          [-115.68117, 42.5173],
          [-115.65204, 42.52059],
          [-115.62737, 42.54536],
          [-115.59823, 42.54865],
          [-115.57355, 42.5734],
          [-115.5444, 42.57668],
          [-115.51969, 42.60142],
          [-115.49053, 42.60469],
          [-115.46137, 42.60796],
          [-115.4322, 42.61122],
          [-115.40304, 42.61448],
          [-115.37387, 42.61773],
          [-115.3447, 42.62098],
          [-115.31993, 42.64569],
          [-115.29075, 42.64893],
          [-115.26157, 42.65216],
          [-115.23239, 42.65539],
          [-115.2032, 42.65861],
          [-115.17839, 42.6833],
          [-115.14919, 42.68651],
          [-115.12, 42.68972],
          [-115.0908, 42.69293],
          [-115.0616, 42.69613],
          [-115.03239, 42.69933],
          [-115.00319, 42.70252],
          [-114.97398, 42.70571],
          [-114.94477, 42.70889],
          [-114.91989, 42.73353],
          [-114.89067, 42.73671],
          [-114.86145, 42.73987],
          [-114.83222, 42.74304],
          [-114.7987, 42.72474],
          [-114.76948, 42.72789],
          [-114.73598, 42.70957],
          [-114.70248, 42.69125],
          [-114.669, 42.67292],
          [-114.63553, 42.65457],
          [-114.60207, 42.63623],
          [-114.56863, 42.61787],
          [-114.53943, 42.62099],
          [-114.50601, 42.60262],
          [-114.50178, 42.58113],
          [-114.46837, 42.56275],
          [-114.46415, 42.54125],
          [-114.43076, 42.52286],
          [-114.40159, 42.52596],
          [-114.36822, 42.50755],
          [-114.33905, 42.51064],
          [-114.30988, 42.51373],
          [-114.28071, 42.51681],
          [-114.25153, 42.51989],
          [-114.21819, 42.50145],
          [-114.18902, 42.50452],
          [-114.15569, 42.48608],
          [-114.12652, 42.48913],
          [-114.09322, 42.47067],
          [-114.05992, 42.4522],
          [-114.03076, 42.45525],
          [-113.99748, 42.43677],
          [-113.96832, 42.4398],
          [-113.93916, 42.44283],
          [-113.90999, 42.44585],
          [-113.88491, 42.47039],
          [-113.85574, 42.47341],
          [-113.82657, 42.47642],
          [-113.79739, 42.47942],
          [-113.77228, 42.50394],
          [-113.74715, 42.52845],
          [-113.72201, 42.55296],
          [-113.72607, 42.57447],
          [-113.70092, 42.59896],
          [-113.67575, 42.62345],
          [-113.67981, 42.64495],
          [-113.65462, 42.66943],
          [-113.65867, 42.69093],
          [-113.63347, 42.7154],
          [-113.60826, 42.73986],
          [-113.57496, 42.72133],
          [-113.54168, 42.7028],
          [-113.53766, 42.6813],
          [-113.53363, 42.6598],
          [-113.50038, 42.64125],
          [-113.46714, 42.6227],
          [-113.46313, 42.60119],
          [-113.42991, 42.58262],
          [-113.42591, 42.5611],
          [-113.39271, 42.54252],
          [-113.38873, 42.521],
          [-113.35554, 42.50241],
          [-113.35157, 42.48089],
          [-113.31841, 42.46229],
          [-113.31444, 42.44075],
          [-113.31047, 42.41922],
          [-113.30651, 42.39768],
          [-113.27338, 42.37906],
          [-113.24027, 42.36043],
          [-113.21111, 42.36335],
          [-113.18195, 42.36626],
          [-113.15278, 42.36916],
          [-113.12362, 42.37206],
          [-113.09445, 42.37496],
          [-113.06919, 42.39939],
          [-113.04002, 42.40228],
          [-113.01474, 42.42671],
          [-112.98555, 42.42958],
          [-112.96025, 42.454],
          [-112.93106, 42.45687],
          [-112.90574, 42.48127],
          [-112.88041, 42.50567],
          [-112.85119, 42.50852],
          [-112.82584, 42.53291],
          [-112.80048, 42.55728],
          [-112.77125, 42.56012],
          [-112.74586, 42.58449],
          [-112.71662, 42.58732],
          [-112.69122, 42.61168],
          [-112.6658, 42.63602],
          [-112.63654, 42.63884],
          [-112.61111, 42.66318],
          [-112.58184, 42.66599],
          [-112.55638, 42.69031],
          [-112.53091, 42.71463],
          [-112.50543, 42.73894],
          [-112.47994, 42.76324],
          [-112.45443, 42.78754],
          [-112.42891, 42.81183],
          [-112.39959, 42.81461],
          [-112.37405, 42.83888],
          [-112.3485, 42.86315],
          [-112.31917, 42.86592],
          [-112.2936, 42.89018],
          [-112.26801, 42.91443],
          [-112.27177, 42.93592],
          [-112.24617, 42.96016],
          [-112.2168, 42.96291],
          [-112.19118, 42.98714],
          [-112.19493, 43.00862],
          [-112.16929, 43.03284],
          [-112.14363, 43.05706],
          [-112.11797, 43.08126],
          [-112.08857, 43.08399],
          [-112.06288, 43.10818],
          [-112.03718, 43.13237],
          [-112.00776, 43.13508],
          [-112, 43.13579]
        ]
      }
    },
    {
      "type": "Feature",
      "id": "2026092712_f168_11000_001",
      "properties": {
        "product_id": "winter_storm_levels",
        "source_id": "nbm_snow_level",
        "parameter": "snow_level",
        "definition": "height of the wet-bulb 0.5 degree C surface",
        "level_ft_msl": 11000,
        "label": "11,000 ft MSL",
        "unit": "ft_msl",
        "cycle_time_utc": "2026-09-27T12:00:00Z",
        "valid_time_utc": "2026-10-04T12:00:00Z",
        "lead_hours": 168,
        "segment": 1,
        "length_m": 2022732.1
      },
      "geometry": {
        "type": "LineString",
        "coordinates": [
          [-119.77806, 30.2538],
          [-119.7781, 30.254],
          [-119.78288, 30.27636],
          [-119.78767, 30.29872],
          [-119.79246, 30.32108],
          [-119.79725, 30.34344],
          [-119.80204, 30.3658],
          [-119.78303, 30.38964],
          [-119.78092, 30.39229],
          [-119.7619, 30.41613],
          [-119.75979, 30.41878],
          [-119.76458, 30.44114],
          [-119.76937, 30.46349],
          [-119.77416, 30.48585],
          [-119.77896, 30.5082],
          [-119.78375, 30.53056],
          [-119.78855, 30.55291],
          [-119.79335, 30.57526],
          [-119.79815, 30.59761],
          [-119.80296, 30.61996],
          [-119.80776, 30.64231],
          [-119.81257, 30.66465],
          [-119.81738, 30.687],
          [-119.82219, 30.70935],
          [-119.827, 30.73169],
          [-119.83008, 30.73351],
          [-119.85782, 30.74989],
          [-119.86264, 30.77223],
          [-119.86746, 30.79457],
          [-119.87054, 30.79639],
          [-119.8983, 30.81276],
          [-119.90313, 30.8351],
          [-119.90621, 30.83692],
          [-119.93223, 30.83277],
          [-119.96, 30.84913],
          [-119.96308, 30.85095],
          [-119.99086, 30.8673],
          [-119.99571, 30.88963],
          [-120.00057, 30.91196],
          [-119.98151, 30.93581],
          [-119.97939, 30.93846],
          [-119.98424, 30.96079],
          [-119.9891, 30.98312],
          [-119.99395, 31.00544],
          [-119.99704, 31.00726],
          [-120.02486, 31.02361],
          [-120.02973, 31.04593],
          [-120.0346, 31.06825],
          [-120.03947, 31.09058],
          [-120.02038, 31.11442],
          [-120.01826, 31.11707],
          [-120.02313, 31.13939],
          [-120.028, 31.16171],
          [-120.03287, 31.18403],
          [-120.03775, 31.20634],
          [-120.04262, 31.22866],
          [-120.02352, 31.2525],
          [-120.0214, 31.25514],
          [-120.02627, 31.27746],
          [-120.00716, 31.30129],
          [-120.00503, 31.30394],
          [-119.98591, 31.32776],
          [-119.98378, 31.33041],
          [-119.98865, 31.35272],
          [-119.99352, 31.37504],
          [-119.9984, 31.39735],
          [-120.00327, 31.41966],
          [-119.98413, 31.44348],
          [-119.982, 31.44612],
          [-119.98688, 31.46843],
          [-119.96772, 31.49225],
          [-119.9656, 31.4949],
          [-119.97047, 31.5172],
          [-119.97535, 31.53951],
          [-119.98022, 31.56181],
          [-119.96105, 31.58562],
          [-119.95892, 31.58827],
          [-119.9638, 31.61057],
          [-119.96868, 31.63287],
          [-119.97355, 31.65517],
          [-119.97844, 31.67747],
          [-119.98332, 31.69976],
          [-119.98821, 31.72206],
          [-119.99309, 31.74435],
          [-119.99798, 31.76665],
          [-120.00287, 31.78894],
          [-119.98367, 31.81274],
          [-119.98154, 31.81539],
          [-119.98643, 31.83768],
          [-119.99132, 31.85997],
          [-119.99621, 31.88226],
          [-120.00111, 31.90454],
          [-120.00601, 31.92683],
          [-120.01091, 31.94911],
          [-120.01581, 31.9714],
          [-120.02071, 31.99368],
          [-120.02562, 32.01596],
          [-120.03052, 32.03824],
          [-120.03364, 32.04005],
          [-120.06172, 32.05635],
          [-120.06663, 32.07863],
          [-120.07155, 32.1009],
          [-120.07647, 32.12318],
          [-120.08139, 32.14545],
          [-120.08632, 32.16772],
          [-120.09124, 32.18999],
          [-120.09617, 32.21226],
          [-120.09929, 32.21407],
          [-120.12742, 32.23035],
          [-120.13236, 32.25262],
          [-120.1373, 32.27488],
          [-120.14042, 32.27669],
          [-120.16857, 32.29297],
          [-120.17352, 32.31523],
          [-120.17665, 32.31704],
          [-120.20481, 32.3333],
          [-120.20977, 32.35556],
          [-120.2129, 32.35737],
          [-120.24108, 32.37363],
          [-120.24604, 32.39588],
          [-120.25101, 32.41813],
          [-120.25597, 32.44039],
          [-120.26094, 32.46264],
          [-120.26592, 32.48489],
          [-120.26905, 32.48669],
          [-120.29727, 32.50294],
          [-120.30225, 32.52518],
          [-120.30723, 32.54743],
          [-120.31037, 32.54923],
          [-120.33861, 32.56547],
          [-120.3436, 32.58771],
          [-120.3486, 32.60995],
          [-120.32933, 32.63375],
          [-120.32719, 32.63639],
          [-120.33218, 32.65863],
          [-120.33717, 32.68087],
          [-120.34217, 32.7031],
          [-120.34717, 32.72534],
          [-120.35217, 32.74757],
          [-120.35531, 32.74937],
          [-120.38361, 32.76559],
          [-120.38862, 32.78782],
          [-120.39363, 32.81005],
          [-120.39864, 32.83227],
          [-120.40366, 32.8545],
          [-120.40867, 32.87672],
          [-120.41369, 32.89894],
          [-120.41871, 32.92117],
          [-120.42374, 32.94339],
          [-120.42876, 32.9656],
          [-120.43379, 32.98782],
          [-120.43882, 33.01004],
          [-120.44385, 33.03225],
          [-120.44888, 33.05446],
          [-120.45392, 33.07667],
          [-120.45895, 33.09888],
          [-120.46399, 33.12109],
          [-120.46715, 33.12289],
          [-120.49555, 33.13907],
          [-120.5006, 33.16128],
          [-120.50565, 33.18348],
          [-120.5107, 33.20568],
          [-120.51575, 33.22788],
          [-120.51891, 33.22968],
          [-120.54735, 33.24585],
          [-120.55242, 33.26805],
          [-120.55748, 33.29024],
          [-120.56255, 33.31244],
          [-120.56571, 33.31423],
          [-120.59418, 33.33039],
          [-120.59925, 33.35258],
          [-120.60433, 33.37477],
          [-120.60749, 33.37657],
          [-120.63598, 33.39272],
          [-120.64107, 33.4149],
          [-120.64424, 33.4167],
          [-120.67274, 33.43284],
          [-120.67784, 33.45502],
          [-120.68293, 33.4772],
          [-120.6861, 33.47899],
          [-120.71463, 33.49512],
          [-120.71973, 33.5173],
          [-120.72484, 33.53947],
          [-120.72801, 33.54127],
          [-120.75656, 33.55739],
          [-120.76168, 33.57956],
          [-120.76485, 33.58135],
          [-120.79341, 33.59746],
          [-120.79854, 33.61963],
          [-120.80367, 33.6418],
          [-120.80685, 33.64359],
          [-120.83543, 33.65969],
          [-120.84057, 33.68185],
          [-120.84571, 33.70401],
          [-120.85085, 33.72617],
          [-120.85403, 33.72796],
          [-120.88264, 33.74405],
          [-120.88779, 33.76621],
          [-120.89294, 33.78836],
          [-120.87359, 33.81216],
          [-120.87144, 33.8148],
          [-120.87462, 33.81659],
          [-120.90326, 33.83267],
          [-120.90842, 33.85482],
          [-120.91358, 33.87697],
          [-120.91874, 33.89912],
          [-120.9239, 33.92126],
          [-120.92907, 33.94341],
          [-120.93424, 33.96555],
          [-120.93743, 33.96733],
          [-120.96611, 33.9834],
          [-120.97129, 34.00554],
          [-120.97647, 34.02767],
          [-120.98165, 34.04981],
          [-120.98684, 34.07194],
          [-120.99202, 34.09408],
          [-120.99721, 34.11621],
          [-121.0024, 34.13834],
          [-121.0076, 34.16046],
          [-121.01279, 34.18259],
          [-121.01799, 34.20471],
          [-121.02319, 34.22684],
          [-121.02638, 34.22862],
          [-121.05515, 34.24466],
          [-121.06035, 34.26678],
          [-121.06556, 34.28889],
          [-121.07078, 34.31101],
          [-121.07599, 34.33312],
          [-121.08121, 34.35524],
          [-121.08643, 34.37735],
          [-121.09165, 34.39946],
          [-121.09687, 34.42156],
          [-121.10209, 34.44367],
          [-121.10732, 34.46578],
          [-121.11255, 34.48788],
          [-121.11778, 34.50998],
          [-121.12301, 34.53208],
          [-121.12825, 34.55418],
          [-121.13348, 34.57627],
          [-121.11404, 34.60004],
          [-121.11188, 34.60268],
          [-121.11712, 34.62477],
          [-121.12235, 34.64686],
          [-121.12759, 34.66895],
          [-121.10813, 34.69271],
          [-121.10597, 34.69535],
          [-121.11121, 34.71744],
          [-121.09174, 34.74119],
          [-121.08958, 34.74383],
          [-121.09481, 34.76591],
          [-121.07533, 34.78966],
          [-121.07317, 34.7923],
          [-121.0784, 34.81438],
          [-121.08364, 34.83646],
          [-121.06414, 34.8602],
          [-121.06198, 34.86284],
          [-121.06722, 34.88491],
          [-121.04771, 34.90865],
          [-121.04554, 34.91129],
          [-121.05077, 34.93336],
          [-121.03125, 34.95709],
          [-121.02908, 34.95972],
          [-121.03432, 34.9818],
          [-121.01479, 35.00552],
          [-121.01261, 35.00815],
          [-121.01785, 35.03022],
          [-120.9983, 35.05394],
          [-120.99613, 35.05658],
          [-121.00137, 35.07864],
          [-120.98181, 35.10235],
          [-120.97963, 35.10499],
          [-120.98487, 35.12705],
          [-120.9901, 35.14911],
          [-120.97053, 35.17282],
          [-120.96835, 35.17545],
          [-120.97359, 35.19751],
          [-120.97883, 35.21956],
          [-120.98406, 35.24162],
          [-120.9893, 35.26367],
          [-120.99455, 35.28572],
          [-120.99979, 35.30777],
          [-120.98019, 35.33146],
          [-120.97801, 35.3341],
          [-120.98326, 35.35614],
          [-120.9885, 35.37819],
          [-120.99375, 35.40023],
          [-120.999, 35.42227],
          [-121.00425, 35.44431],
          [-121.00951, 35.46634],
          [-121.01476, 35.48838],
          [-120.99514, 35.51206],
          [-120.99296, 35.51469],
          [-120.99821, 35.53672],
          [-121.00347, 35.55875],
          [-121.00873, 35.58078],
          [-121.01399, 35.60281],
          [-120.99434, 35.62648],
          [-120.99216, 35.62911],
          [-120.99742, 35.65113],
          [-120.97776, 35.6748],
          [-120.97557, 35.67743],
          [-120.98083, 35.69945],
          [-120.98609, 35.72147],
          [-120.99136, 35.74348],
          [-120.9946, 35.74526],
          [-121.02375, 35.76122],
          [-121.02903, 35.78323],
          [-121.0343, 35.80525],
          [-121.03958, 35.82725],
          [-121.0199, 35.85091],
          [-121.01771, 35.85354],
          [-121.02299, 35.87554],
          [-121.02826, 35.89755],
          [-121.03354, 35.91955],
          [-121.03679, 35.92132],
          [-121.066, 35.93727],
          [-121.07129, 35.95927],
          [-121.07658, 35.98126],
          [-121.08188, 36.00326],
          [-121.08717, 36.02525],
          [-121.09247, 36.04724],
          [-121.09777, 36.06922],
          [-121.10307, 36.09121],
          [-121.10838, 36.11319],
          [-121.11369, 36.13518],
          [-121.119, 36.15716],
          [-121.12431, 36.17914],
          [-121.12962, 36.20111],
          [-121.13494, 36.22309],
          [-121.14025, 36.24506],
          [-121.14557, 36.26703],
          [-121.14883, 36.2688],
          [-121.17815, 36.28471],
          [-121.18348, 36.30667],
          [-121.18881, 36.32864],
          [-121.19414, 36.3506],
          [-121.19948, 36.37256],
          [-121.20482, 36.39452],
          [-121.21016, 36.41647],
          [-121.21342, 36.41824],
          [-121.24279, 36.43413],
          [-121.24814, 36.45608],
          [-121.25349, 36.47803],
          [-121.25885, 36.49998],
          [-121.2642, 36.52192],
          [-121.26956, 36.54387],
          [-121.27492, 36.56581],
          [-121.28028, 36.58775],
          [-121.28565, 36.60969],
          [-121.26588, 36.63331],
          [-121.26368, 36.63593],
          [-121.26904, 36.65787],
          [-121.27441, 36.6798],
          [-121.25462, 36.70341],
          [-121.25243, 36.70603],
          [-121.25779, 36.72796],
          [-121.26316, 36.74989],
          [-121.26853, 36.77181],
          [-121.24872, 36.79542],
          [-121.24652, 36.79804],
          [-121.22671, 36.82163],
          [-121.22451, 36.82426],
          [-121.22987, 36.84618],
          [-121.23524, 36.86809],
          [-121.21541, 36.89168],
          [-121.21321, 36.8943],
          [-121.21857, 36.91622],
          [-121.22394, 36.93813],
          [-121.2041, 36.96171],
          [-121.20189, 36.96433],
          [-121.20726, 36.98624],
          [-121.21263, 37.00815],
          [-121.19277, 37.03172],
          [-121.19056, 37.03434],
          [-121.19593, 37.05624],
          [-121.2013, 37.07814],
          [-121.18143, 37.10171],
          [-121.17922, 37.10433],
          [-121.18459, 37.12623],
          [-121.1647, 37.14979],
          [-121.16249, 37.1524],
          [-121.16786, 37.1743],
          [-121.17323, 37.19619],
          [-121.17861, 37.21808],
          [-121.1587, 37.24163],
          [-121.15649, 37.24424],
          [-121.16186, 37.26613],
          [-121.16724, 37.28801],
          [-121.17261, 37.3099],
          [-121.15269, 37.33344],
          [-121.15048, 37.33605],
          [-121.15585, 37.35793],
          [-121.13592, 37.38146],
          [-121.1337, 37.38408],
          [-121.13907, 37.40595],
          [-121.14445, 37.42783],
          [-121.1245, 37.45135],
          [-121.12228, 37.45397],
          [-121.12766, 37.47583],
          [-121.10769, 37.49935],
          [-121.10548, 37.50197],
          [-121.11085, 37.52383],
          [-121.09087, 37.54734],
          [-121.08865, 37.54996],
          [-121.09403, 37.57182],
          [-121.0994, 37.59368],
          [-121.07941, 37.61718],
          [-121.07719, 37.61979],
          [-121.08256, 37.64165],
          [-121.06256, 37.66515],
          [-121.06034, 37.66776],
          [-121.06571, 37.68961],
          [-121.04569, 37.7131],
          [-121.04347, 37.71571],
          [-121.04884, 37.73756],
          [-121.05422, 37.7594],
          [-121.03418, 37.78289],
          [-121.03196, 37.78549],
          [-121.03733, 37.80734],
          [-121.04271, 37.82918],
          [-121.04809, 37.85101],
          [-121.05347, 37.87285],
          [-121.03341, 37.89632],
          [-121.03118, 37.89893],
          [-121.03656, 37.92076],
          [-121.04194, 37.94259],
          [-121.04733, 37.96441],
          [-121.05272, 37.98624],
          [-121.0581, 38.00806],
          [-121.06349, 38.02988],
          [-121.04341, 38.05334],
          [-121.04118, 38.05594],
          [-121.04657, 38.07776],
          [-121.05196, 38.09957],
          [-121.05736, 38.12139],
          [-121.06275, 38.1432],
          [-121.06815, 38.165],
          [-121.07355, 38.18681],
          [-121.07895, 38.20861],
          [-121.08436, 38.23041],
          [-121.08977, 38.25221],
          [-121.09518, 38.27401],
          [-121.07506, 38.29744],
          [-121.07282, 38.30005],
          [-121.07823, 38.32184],
          [-121.08364, 38.34363],
          [-121.08696, 38.34538],
          [-121.11684, 38.36117],
          [-121.12226, 38.38295],
          [-121.12768, 38.40474],
          [-121.13311, 38.42652],
          [-121.13853, 38.44829],
          [-121.14396, 38.47007],
          [-121.14939, 38.49184],
          [-121.15483, 38.51361],
          [-121.13468, 38.53703],
          [-121.13244, 38.53963],
          [-121.13787, 38.5614],
          [-121.1433, 38.58317],
          [-121.12314, 38.60658],
          [-121.12089, 38.60918],
          [-121.10071, 38.63258],
          [-121.09847, 38.63518],
          [-121.1039, 38.65694],
          [-121.10934, 38.6787],
          [-121.08914, 38.70209],
          [-121.0869, 38.70469],
          [-121.06669, 38.72808],
          [-121.06445, 38.73068],
          [-121.06988, 38.75243],
          [-121.04966, 38.77581],
          [-121.04741, 38.77841],
          [-121.02718, 38.80179],
          [-121.02494, 38.80439],
          [-121.03036, 38.82613],
          [-121.03579, 38.84787],
          [-121.04122, 38.86961],
          [-121.04665, 38.89135],
          [-121.05208, 38.91308],
          [-121.05752, 38.93482],
          [-121.06295, 38.95655],
          [-121.06839, 38.97828],
          [-121.07384, 39],
          [-121.07928, 39.02172],
          [-121.05901, 39.04508],
          [-121.05676, 39.04767],
          [-121.06221, 39.06939],
          [-121.06765, 39.09111],
          [-121.0731, 39.11282],
          [-121.07855, 39.13454],
          [-121.084, 39.15624],
          [-121.06371, 39.17959],
          [-121.06145, 39.18218],
          [-121.06691, 39.20388],
          [-121.07236, 39.22559],
          [-121.07782, 39.24729],
          [-121.08327, 39.26899],
          [-121.06296, 39.29231],
          [-121.0607, 39.29491],
          [-121.06616, 39.3166],
          [-121.04583, 39.33992],
          [-121.04357, 39.34251],
          [-121.02324, 39.36583],
          [-121.02098, 39.36842],
          [-121.02643, 39.3901],
          [-121.03188, 39.41179],
          [-121.01153, 39.4351],
          [-121.00927, 39.43769],
          [-120.98891, 39.46099],
          [-120.98664, 39.46358],
          [-120.96627, 39.48687],
          [-120.96401, 39.48946],
          [-120.94362, 39.51275],
          [-120.94136, 39.51534],
          [-120.92096, 39.53862],
          [-120.9187, 39.54121],
          [-120.92414, 39.56288],
          [-120.90373, 39.58616],
          [-120.90146, 39.58874],
          [-120.9069, 39.61041],
          [-120.88648, 39.63368],
          [-120.88421, 39.63627],
          [-120.86378, 39.65953],
          [-120.86151, 39.66212],
          [-120.86695, 39.68378],
          [-120.84651, 39.70703],
          [-120.84423, 39.70962],
          [-120.82378, 39.73287],
          [-120.82151, 39.73545],
          [-120.80105, 39.7587],
          [-120.79877, 39.76128],
          [-120.7783, 39.78452],
          [-120.75012, 39.78868],
          [-120.74784, 39.79127],
          [-120.72735, 39.8145],
          [-120.72508, 39.81708],
          [-120.70458, 39.8403],
          [-120.67638, 39.84446],
          [-120.64818, 39.8486],
          [-120.61998, 39.85275],
          [-120.59178, 39.85688],
          [-120.56358, 39.86102],
          [-120.53537, 39.86515],
          [-120.53309, 39.86772],
          [-120.51253, 39.89092],
          [-120.48432, 39.89504],
          [-120.4561, 39.89916],
          [-120.42788, 39.90327],
          [-120.39965, 39.90738],
          [-120.37143, 39.91148],
          [-120.36914, 39.91405],
          [-120.34854, 39.93723],
          [-120.32031, 39.94132],
          [-120.31801, 39.94389],
          [-120.2974, 39.96706],
          [-120.26915, 39.97114],
          [-120.26686, 39.97371],
          [-120.24623, 39.99687],
          [-120.21797, 40.00094],
          [-120.21568, 40.00351],
          [-120.19503, 40.02666],
          [-120.16676, 40.03073],
          [-120.13849, 40.03479],
          [-120.11022, 40.03885],
          [-120.10792, 40.04142],
          [-120.08724, 40.06454],
          [-120.05896, 40.06859],
          [-120.03068, 40.07264],
          [-120.02838, 40.0752],
          [-120.00767, 40.09832],
          [-119.97938, 40.10235],
          [-119.95108, 40.10639],
          [-119.94878, 40.10895],
          [-119.92805, 40.13205],
          [-119.89974, 40.13608],
          [-119.87143, 40.14009],
          [-119.84313, 40.14411],
          [-119.81481, 40.14811],
          [-119.7865, 40.15212],
          [-119.75818, 40.15612],
          [-119.72986, 40.16011],
          [-119.70154, 40.1641],
          [-119.67322, 40.16809],
          [-119.64304, 40.15219],
          [-119.63969, 40.15042],
          [-119.61137, 40.1544],
          [-119.58121, 40.13849],
          [-119.57785, 40.13672],
          [-119.5477, 40.1208],
          [-119.54435, 40.11904],
          [-119.51603, 40.123],
          [-119.48589, 40.10707],
          [-119.48255, 40.1053],
          [-119.45241, 40.08936],
          [-119.44907, 40.08759],
          [-119.41895, 40.07165],
          [-119.4156, 40.06988],
          [-119.38549, 40.05393],
          [-119.38215, 40.05216],
          [-119.35384, 40.05609],
          [-119.32554, 40.06002],
          [-119.29723, 40.06395],
          [-119.26714, 40.04798],
          [-119.26379, 40.04621],
          [-119.23549, 40.05012],
          [-119.20718, 40.05404],
          [-119.17887, 40.05795],
          [-119.15055, 40.06185],
          [-119.12224, 40.06575],
          [-119.09217, 40.04975],
          [-119.08883, 40.04797],
          [-119.06052, 40.05186],
          [-119.0322, 40.05575],
          [-119.00389, 40.05963],
          [-118.97556, 40.0635],
          [-118.94552, 40.04748],
          [-118.94219, 40.0457],
          [-118.91387, 40.04956],
          [-118.88384, 40.03353],
          [-118.88051, 40.03174],
          [-118.85219, 40.0356],
          [-118.82218, 40.01955],
          [-118.81884, 40.01777],
          [-118.79052, 40.02162],
          [-118.76221, 40.02546],
          [-118.73389, 40.0293],
          [-118.70556, 40.03313],
          [-118.67724, 40.03696],
          [-118.64891, 40.04078],
          [-118.62058, 40.0446],
          [-118.59225, 40.04842],
          [-118.56392, 40.05223],
          [-118.56159, 40.05478],
          [-118.54056, 40.07772],
          [-118.51221, 40.08152],
          [-118.48387, 40.08532],
          [-118.45552, 40.08911],
          [-118.42717, 40.0929],
          [-118.39721, 40.07679],
          [-118.39388, 40.07499],
          [-118.36553, 40.07877],
          [-118.33718, 40.08255],
          [-118.30883, 40.08632],
          [-118.28048, 40.09008],
          [-118.25212, 40.09384],
          [-118.22377, 40.09759],
          [-118.19541, 40.10134],
          [-118.16705, 40.10509],
          [-118.13868, 40.10883],
          [-118.11032, 40.11257],
          [-118.08195, 40.1163],
          [-118.05358, 40.12003],
          [-118.02366, 40.10385],
          [-118.02034, 40.10205],
          [-117.99197, 40.10577],
          [-117.9636, 40.10949],
          [-117.93371, 40.09329],
          [-117.93039, 40.09149],
          [-117.90202, 40.0952],
          [-117.87365, 40.0989],
          [-117.84377, 40.08269],
          [-117.84045, 40.08089],
          [-117.81208, 40.08458],
          [-117.78371, 40.08826],
          [-117.75534, 40.09194],
          [-117.72696, 40.09562],
          [-117.69858, 40.09929],
          [-117.67021, 40.10295],
          [-117.64182, 40.10662],
          [-117.61344, 40.11027],
          [-117.58506, 40.11393],
          [-117.55667, 40.11757],
          [-117.52683, 40.10131],
          [-117.52352, 40.09951],
          [-117.49514, 40.10314],
          [-117.46675, 40.10678],
          [-117.43836, 40.11041],
          [-117.40997, 40.11403],
          [-117.38158, 40.11765],
          [-117.35318, 40.12127],
          [-117.32338, 40.10497],
          [-117.32007, 40.10316],
          [-117.29167, 40.10677],
          [-117.26328, 40.11037],
          [-117.23488, 40.11397],
          [-117.20648, 40.11756],
          [-117.17808, 40.12114],
          [-117.1483, 40.10482],
          [-117.145, 40.10301],
          [-117.1166, 40.10658],
          [-117.08819, 40.11016],
          [-117.05979, 40.11373],
          [-117.03139, 40.11729],
          [-117.00298, 40.12085],
          [-116.97457, 40.1244],
          [-116.94616, 40.12795],
          [-116.91775, 40.1315],
          [-116.88933, 40.13504],
          [-116.86092, 40.13858],
          [-116.8325, 40.14211],
          [-116.80408, 40.14563],
          [-116.77435, 40.12925],
          [-116.77105, 40.12743],
          [-116.74263, 40.13095],
          [-116.71421, 40.13446],
          [-116.6845, 40.11806],
          [-116.6812, 40.11624],
          [-116.65278, 40.11974],
          [-116.62309, 40.10333],
          [-116.61979, 40.1015],
          [-116.59138, 40.105],
          [-116.56296, 40.10849],
          [-116.53328, 40.09206],
          [-116.52999, 40.09023],
          [-116.50157, 40.09371],
          [-116.47191, 40.07727],
          [-116.46861, 40.07545],
          [-116.4402, 40.07892],
          [-116.41055, 40.06246],
          [-116.40726, 40.06064],
          [-116.37762, 40.04418],
          [-116.37433, 40.04235],
          [-116.34592, 40.0458],
          [-116.31629, 40.02934],
          [-116.313, 40.02751],
          [-116.2846, 40.03095],
          [-116.25499, 40.01447],
          [-116.2517, 40.01264],
          [-116.22329, 40.01607],
          [-116.1937, 39.99958],
          [-116.19041, 39.99775],
          [-116.16201, 40.00118],
          [-116.13243, 39.98467],
          [-116.12914, 39.98284],
          [-116.10074, 39.98626],
          [-116.07234, 39.98967],
          [-116.04393, 39.99307],
          [-116.01553, 39.99648],
          [-115.98712, 39.99988],
          [-115.95871, 40.00327],
          [-115.9303, 40.00666],
          [-115.90188, 40.01004],
          [-115.87347, 40.01342],
          [-115.84505, 40.0168],
          [-115.81552, 40.00024],
          [-115.81223, 39.9984],
          [-115.78382, 40.00177],
          [-115.7543, 39.9852],
          [-115.75102, 39.98336],
          [-115.7226, 39.98672],
          [-115.69419, 39.99007],
          [-115.66469, 39.97349],
          [-115.66141, 39.97164],
          [-115.633, 39.97499],
          [-115.60351, 39.95839],
          [-115.60023, 39.95655],
          [-115.57075, 39.93995],
          [-115.56748, 39.9381],
          [-115.53801, 39.92149],
          [-115.53473, 39.91965],
          [-115.50528, 39.90303],
          [-115.502, 39.90119],
          [-115.47255, 39.88456],
          [-115.46928, 39.88272],
          [-115.43985, 39.86609],
          [-115.43658, 39.86424],
          [-115.40819, 39.86755],
          [-115.37979, 39.87085],
          [-115.35037, 39.8542],
          [-115.34711, 39.85236],
          [-115.31871, 39.85565],
          [-115.29032, 39.85894],
          [-115.26193, 39.86222],
          [-115.25952, 39.86473],
          [-115.2378, 39.8873],
          [-115.2094, 39.89057],
          [-115.20699, 39.89308],
          [-115.18526, 39.91563],
          [-115.15684, 39.9189],
          [-115.12843, 39.92216],
          [-115.10001, 39.92542],
          [-115.0716, 39.92867],
          [-115.04221, 39.91198],
          [-115.03895, 39.91013],
          [-115.01053, 39.91337],
          [-114.98211, 39.91661],
          [-114.95274, 39.8999],
          [-114.94948, 39.89804],
          [-114.92107, 39.90127],
          [-114.89265, 39.9045],
          [-114.86423, 39.90771],
          [-114.83581, 39.91093],
          [-114.80739, 39.91414],
          [-114.77896, 39.91735],
          [-114.75054, 39.92055],
          [-114.72121, 39.9038],
          [-114.71795, 39.90194],
          [-114.68952, 39.90513],
          [-114.6611, 39.90832],
          [-114.63178, 39.89156],
          [-114.62853, 39.88969],
          [-114.60011, 39.89287],
          [-114.57168, 39.89604],
          [-114.54325, 39.89921],
          [-114.51396, 39.88243],
          [-114.51071, 39.88057],
          [-114.48228, 39.88372],
          [-114.453, 39.86693],
          [-114.44975, 39.86507],
          [-114.42048, 39.84827],
          [-114.41723, 39.8464],
          [-114.38881, 39.84954],
          [-114.35956, 39.83273],
          [-114.35631, 39.83086],
          [-114.3279, 39.834],
          [-114.29948, 39.83713],
          [-114.27024, 39.8203],
          [-114.26699, 39.81843],
          [-114.23858, 39.82155],
          [-114.21016, 39.82467],
          [-114.18095, 39.80782],
          [-114.1777, 39.80595],
          [-114.14929, 39.80906],
          [-114.12087, 39.81216],
          [-114.09245, 39.81525],
          [-114.06404, 39.81835],
          [-114.03562, 39.82143],
          [-114.00719, 39.82452],
          [-113.97877, 39.8276],
          [-113.94959, 39.81071],
          [-113.94635, 39.80884],
          [-113.91718, 39.79195],
          [-113.91393, 39.79007],
          [-113.88477, 39.77318],
          [-113.88153, 39.7713],
          [-113.85312, 39.77436],
          [-113.82398, 39.75745],
          [-113.82074, 39.75557],
          [-113.79233, 39.75862],
          [-113.76392, 39.76167],
          [-113.73479, 39.74475],
          [-113.73155, 39.74287],
          [-113.70243, 39.72594],
          [-113.6992, 39.72406],
          [-113.67009, 39.70712],
          [-113.66686, 39.70524],
          [-113.63776, 39.6883],
          [-113.63453, 39.68641],
          [-113.60544, 39.66946],
          [-113.60221, 39.66758],
          [-113.57313, 39.65062],
          [-113.5699, 39.64874],
          [-113.54151, 39.65175],
          [-113.51245, 39.63478],
          [-113.50922, 39.63289],
          [-113.48017, 39.61592],
          [-113.47695, 39.61403],
          [-113.4479, 39.59705],
          [-113.44468, 39.59516],
          [-113.41565, 39.57818],
          [-113.41242, 39.57629],
          [-113.3834, 39.55929],
          [-113.38018, 39.5574],
          [-113.35117, 39.5404],
          [-113.34731, 39.51853],
          [-113.34409, 39.51664],
          [-113.31509, 39.49963],
          [-113.31187, 39.49773],
          [-113.28289, 39.48072],
          [-113.27967, 39.47882],
          [-113.2507, 39.4618],
          [-113.24748, 39.45991],
          [-113.21852, 39.44288],
          [-113.2153, 39.44098],
          [-113.18635, 39.42394],
          [-113.18314, 39.42205],
          [-113.1542, 39.405],
          [-113.15098, 39.40311],
          [-113.12205, 39.38606],
          [-113.11884, 39.38416],
          [-113.08992, 39.3671],
          [-113.08671, 39.36521],
          [-113.05838, 39.36814],
          [-113.02948, 39.35107],
          [-113.02627, 39.34917],
          [-112.99737, 39.3321],
          [-112.99416, 39.3302],
          [-112.96584, 39.33312],
          [-112.93752, 39.33604],
          [-112.90865, 39.31895],
          [-112.90544, 39.31705],
          [-112.90299, 39.31953],
          [-112.88088, 39.34186],
          [-112.85256, 39.34476],
          [-112.82423, 39.34766],
          [-112.7959, 39.35056],
          [-112.76757, 39.35345],
          [-112.73924, 39.35633],
          [-112.71091, 39.35921],
          [-112.70845, 39.36169],
          [-112.68629, 39.38399],
          [-112.65795, 39.38687],
          [-112.65549, 39.38934],
          [-112.63332, 39.41164],
          [-112.60497, 39.4145],
          [-112.6025, 39.41698],
          [-112.58031, 39.43926],
          [-112.55195, 39.44211],
          [-112.54948, 39.44459],
          [-112.52728, 39.46686],
          [-112.52481, 39.46934],
          [-112.50259, 39.49161],
          [-112.47422, 39.49445],
          [-112.47175, 39.49692],
          [-112.44951, 39.51918],
          [-112.44704, 39.52165],
          [-112.4248, 39.54391],
          [-112.39641, 39.54673],
          [-112.36801, 39.54956],
          [-112.36554, 39.55203],
          [-112.34327, 39.57427],
          [-112.31487, 39.57708],
          [-112.31239, 39.57955],
          [-112.29011, 39.60178],
          [-112.28763, 39.60425],
          [-112.26533, 39.62647],
          [-112.23691, 39.62927],
          [-112.23443, 39.63174],
          [-112.21212, 39.65396],
          [-112.18369, 39.65675],
          [-112.18121, 39.65922],
          [-112.15888, 39.68142],
          [-112.13045, 39.6842],
          [-112.12796, 39.68667],
          [-112.10562, 39.70886],
          [-112.07717, 39.71164],
          [-112.07469, 39.7141],
          [-112.05232, 39.73629],
          [-112.04983, 39.73875],
          [-112.02746, 39.76093],
          [-112.02497, 39.7634],
          [-112.00259, 39.78557],
          [-112, 39.78582]
        ]
      }
    },
    {
      "type": "Feature",
      "id": "2026092712_f168_12000_001",
      "properties": {
        "product_id": "winter_storm_levels",
        "source_id": "nbm_snow_level",
        "parameter": "snow_level",
        "definition": "height of the wet-bulb 0.5 degree C surface",
        "level_ft_msl": 12000,
        "label": "12,000 ft MSL",
        "unit": "ft_msl",
        "cycle_time_utc": "2026-09-27T12:00:00Z",
        "valid_time_utc": "2026-10-04T12:00:00Z",
        "lead_hours": 168,
        "segment": 1,
        "length_m": 827302.8
      },
      "geometry": {
        "type": "LineString",
        "coordinates": [
          [-112, 32.49247],
          [-112.00764, 32.48416],
          [-112.03427, 32.48133],
          [-112.03892, 32.47627],
          [-112.05753, 32.45603],
          [-112.08415, 32.45318],
          [-112.11077, 32.45033],
          [-112.13739, 32.44748],
          [-112.14203, 32.44242],
          [-112.16062, 32.42216],
          [-112.18723, 32.4193],
          [-112.19187, 32.41424],
          [-112.21044, 32.39397],
          [-112.23704, 32.39111],
          [-112.24168, 32.38604],
          [-112.26024, 32.36577],
          [-112.26488, 32.3607],
          [-112.28342, 32.34043],
          [-112.28806, 32.33536],
          [-112.3066, 32.31508],
          [-112.31123, 32.31001],
          [-112.32976, 32.28973],
          [-112.3344, 32.28466],
          [-112.35292, 32.26437],
          [-112.35755, 32.2593],
          [-112.37606, 32.23901],
          [-112.38069, 32.23394],
          [-112.3992, 32.21365],
          [-112.42575, 32.21074],
          [-112.43038, 32.20567],
          [-112.44887, 32.18537],
          [-112.45349, 32.18029],
          [-112.47198, 32.15999],
          [-112.49852, 32.15708],
          [-112.50314, 32.152],
          [-112.52161, 32.13169],
          [-112.54815, 32.12877],
          [-112.55276, 32.12369],
          [-112.57122, 32.10337],
          [-112.59775, 32.10044],
          [-112.62427, 32.0975],
          [-112.65079, 32.09456],
          [-112.6554, 32.08948],
          [-112.67384, 32.06915],
          [-112.70035, 32.0662],
          [-112.72687, 32.06325],
          [-112.75338, 32.06029],
          [-112.77989, 32.05733],
          [-112.8064, 32.05436],
          [-112.83291, 32.05139],
          [-112.85942, 32.04842],
          [-112.88344, 32.06401],
          [-112.88944, 32.06791],
          [-112.91595, 32.06492],
          [-112.94246, 32.06193],
          [-112.96649, 32.07751],
          [-112.9725, 32.08141],
          [-112.99901, 32.07841],
          [-113.02306, 32.09398],
          [-113.02907, 32.09787],
          [-113.05312, 32.11343],
          [-113.05913, 32.11732],
          [-113.08565, 32.11431],
          [-113.10971, 32.12986],
          [-113.11573, 32.13375],
          [-113.14225, 32.13073],
          [-113.16632, 32.14627],
          [-113.17234, 32.15016],
          [-113.19642, 32.1657],
          [-113.20244, 32.16958],
          [-113.22653, 32.18512],
          [-113.23256, 32.189],
          [-113.25666, 32.20453],
          [-113.26268, 32.20841],
          [-113.28679, 32.22393],
          [-113.29039, 32.24638],
          [-113.29642, 32.25026],
          [-113.32054, 32.26578],
          [-113.32657, 32.26966],
          [-113.3507, 32.28517],
          [-113.35673, 32.28905],
          [-113.38087, 32.30455],
          [-113.3869, 32.30843],
          [-113.41345, 32.30537],
          [-113.4376, 32.32086],
          [-113.44364, 32.32474],
          [-113.46779, 32.34023],
          [-113.47383, 32.3441],
          [-113.498, 32.35959],
          [-113.50404, 32.36346],
          [-113.5306, 32.36038],
          [-113.55478, 32.37585],
          [-113.56082, 32.37972],
          [-113.585, 32.3952],
          [-113.59105, 32.39906],
          [-113.61524, 32.41453],
          [-113.62129, 32.4184],
          [-113.64549, 32.43386],
          [-113.65154, 32.43772],
          [-113.67575, 32.45318],
          [-113.6818, 32.45704],
          [-113.70602, 32.4725],
          [-113.71207, 32.47636],
          [-113.73629, 32.49181],
          [-113.74235, 32.49567],
          [-113.76658, 32.51111],
          [-113.77264, 32.51497],
          [-113.79688, 32.5304],
          [-113.80059, 32.55282],
          [-113.80666, 32.55668],
          [-113.83091, 32.57211],
          [-113.83463, 32.59453],
          [-113.83835, 32.61694],
          [-113.84442, 32.6208],
          [-113.86869, 32.63622],
          [-113.87242, 32.65863],
          [-113.87615, 32.68105],
          [-113.87988, 32.70346],
          [-113.88361, 32.72586],
          [-113.88735, 32.74827],
          [-113.89109, 32.77068],
          [-113.89482, 32.79308],
          [-113.89856, 32.81549],
          [-113.88023, 32.83592],
          [-113.87564, 32.84103],
          [-113.87938, 32.86343],
          [-113.88312, 32.88583],
          [-113.86477, 32.90626],
          [-113.86018, 32.91137],
          [-113.86391, 32.93377],
          [-113.86765, 32.95616],
          [-113.87139, 32.97856],
          [-113.85302, 32.99898],
          [-113.84843, 33.00409],
          [-113.85217, 33.02648],
          [-113.85591, 33.04887],
          [-113.85965, 33.07126],
          [-113.84126, 33.09168],
          [-113.83666, 33.09679],
          [-113.8404, 33.11917],
          [-113.84414, 33.14156],
          [-113.84788, 33.16395],
          [-113.82948, 33.18436],
          [-113.82488, 33.18946],
          [-113.82862, 33.21184],
          [-113.83236, 33.23422],
          [-113.8361, 33.2566],
          [-113.83984, 33.27898],
          [-113.84359, 33.30136],
          [-113.82516, 33.32176],
          [-113.82056, 33.32686],
          [-113.8243, 33.34924],
          [-113.82804, 33.37161],
          [-113.83179, 33.39398],
          [-113.81334, 33.41438],
          [-113.80873, 33.41948],
          [-113.79028, 33.43987],
          [-113.78567, 33.44497],
          [-113.78941, 33.46734],
          [-113.77095, 33.48773],
          [-113.76633, 33.49283],
          [-113.74786, 33.51321],
          [-113.72103, 33.51632],
          [-113.71641, 33.52142],
          [-113.69793, 33.54179],
          [-113.69331, 33.54689],
          [-113.69703, 33.56925],
          [-113.67854, 33.58962],
          [-113.67391, 33.59472],
          [-113.67763, 33.61708],
          [-113.68136, 33.63944],
          [-113.68508, 33.6618],
          [-113.68881, 33.68416],
          [-113.67029, 33.70452],
          [-113.66566, 33.70961],
          [-113.66939, 33.73197],
          [-113.67311, 33.75432],
          [-113.67684, 33.77667],
          [-113.68057, 33.79902],
          [-113.6843, 33.82137],
          [-113.68803, 33.84372],
          [-113.69416, 33.84757],
          [-113.71867, 33.86296],
          [-113.72241, 33.88531],
          [-113.72616, 33.90765],
          [-113.7299, 33.92999],
          [-113.73603, 33.93384],
          [-113.76057, 33.94922],
          [-113.76671, 33.95307],
          [-113.79126, 33.96845],
          [-113.79502, 33.99078],
          [-113.80116, 33.99463],
          [-113.82572, 34.01],
          [-113.82948, 34.03233],
          [-113.83563, 34.03617],
          [-113.8602, 34.05154],
          [-113.84166, 34.0719],
          [-113.83702, 34.07699],
          [-113.84317, 34.08083],
          [-113.86775, 34.09619],
          [-113.87153, 34.11852],
          [-113.87531, 34.14084],
          [-113.87909, 34.16317],
          [-113.88287, 34.18549],
          [-113.88666, 34.20781],
          [-113.89281, 34.21165],
          [-113.91743, 34.22699],
          [-113.92122, 34.24931],
          [-113.92502, 34.27162],
          [-113.92881, 34.29394],
          [-113.93261, 34.31625],
          [-113.93641, 34.33856],
          [-113.94257, 34.34239],
          [-113.96723, 34.35773],
          [-113.97103, 34.38003],
          [-113.97484, 34.40234],
          [-113.98101, 34.40617],
          [-114.00569, 34.4215],
          [-114.0095, 34.4438],
          [-114.01567, 34.44763],
          [-114.04037, 34.46295],
          [-114.04419, 34.48525],
          [-114.04802, 34.50754],
          [-114.05184, 34.52984],
          [-114.05567, 34.55213],
          [-114.0595, 34.57442],
          [-114.06333, 34.59671],
          [-114.06717, 34.619],
          [-114.071, 34.64128],
          [-114.07484, 34.66357],
          [-114.07868, 34.68585],
          [-114.08486, 34.68968],
          [-114.10962, 34.70497],
          [-114.11347, 34.72725],
          [-114.11731, 34.74953],
          [-114.12116, 34.77181],
          [-114.12501, 34.79408],
          [-114.12887, 34.81635],
          [-114.13272, 34.83862],
          [-114.13658, 34.86089],
          [-114.14043, 34.88316],
          [-114.14429, 34.90543],
          [-114.14815, 34.92769],
          [-114.15201, 34.94996],
          [-114.13337, 34.9703],
          [-114.12871, 34.97538],
          [-114.13257, 34.99764],
          [-114.13643, 35.0199],
          [-114.14029, 35.04215],
          [-114.14416, 35.06441],
          [-114.14802, 35.08666],
          [-114.15189, 35.10891],
          [-114.15576, 35.13116],
          [-114.15963, 35.15341],
          [-114.1635, 35.17566],
          [-114.16738, 35.1979],
          [-114.17125, 35.22015],
          [-114.17747, 35.22396],
          [-114.20236, 35.23922],
          [-114.20624, 35.26146],
          [-114.21247, 35.26527],
          [-114.23737, 35.28052],
          [-114.24126, 35.30275],
          [-114.24515, 35.32499],
          [-114.24905, 35.34722],
          [-114.23036, 35.36754],
          [-114.22568, 35.37263],
          [-114.22958, 35.39485],
          [-114.21087, 35.41517],
          [-114.1836, 35.41834],
          [-114.17892, 35.42342],
          [-114.16021, 35.44373],
          [-114.15553, 35.44881],
          [-114.1368, 35.46912],
          [-114.13212, 35.47419],
          [-114.11338, 35.4945],
          [-114.1087, 35.49957],
          [-114.08996, 35.51987],
          [-114.08527, 35.52495],
          [-114.08914, 35.54717],
          [-114.07039, 35.56746],
          [-114.0657, 35.57253],
          [-114.06956, 35.59475],
          [-114.0508, 35.61504],
          [-114.04611, 35.62011],
          [-114.04997, 35.64232],
          [-114.03119, 35.66261],
          [-114.0265, 35.66768],
          [-114.00771, 35.68795],
          [-114.00302, 35.69302],
          [-113.98422, 35.7133],
          [-113.97952, 35.71836],
          [-113.96072, 35.73863],
          [-113.93336, 35.74176],
          [-113.92865, 35.74682],
          [-113.90984, 35.76708],
          [-113.88247, 35.7702],
          [-113.8575, 35.75492],
          [-113.85127, 35.7511],
          [-113.8239, 35.75421],
          [-113.79895, 35.73892],
          [-113.79271, 35.7351],
          [-113.76777, 35.71981],
          [-113.76154, 35.71598],
          [-113.73417, 35.71907],
          [-113.70924, 35.70377],
          [-113.70301, 35.69994],
          [-113.67565, 35.70303],
          [-113.65074, 35.68772],
          [-113.64451, 35.68389],
          [-113.6196, 35.66857],
          [-113.61337, 35.66474],
          [-113.58847, 35.64942],
          [-113.58225, 35.64558],
          [-113.5549, 35.64865],
          [-113.52755, 35.65171],
          [-113.50266, 35.63637],
          [-113.49644, 35.63253],
          [-113.46909, 35.63558],
          [-113.44175, 35.63863],
          [-113.41687, 35.62328],
          [-113.41066, 35.61944],
          [-113.38331, 35.62247],
          [-113.35596, 35.6255],
          [-113.33111, 35.61014],
          [-113.32489, 35.6063],
          [-113.29755, 35.60932],
          [-113.2727, 35.59395],
          [-113.26649, 35.5901],
          [-113.24166, 35.57472],
          [-113.23545, 35.57088],
          [-113.21062, 35.55549],
          [-113.20442, 35.55165],
          [-113.1796, 35.53626],
          [-113.1734, 35.53241],
          [-113.14859, 35.51701],
          [-113.14238, 35.51316],
          [-113.11758, 35.49776],
          [-113.11138, 35.49391],
          [-113.08659, 35.4785],
          [-113.08293, 35.45626],
          [-113.07673, 35.4524],
          [-113.05195, 35.43699],
          [-113.04829, 35.41474],
          [-113.0421, 35.41088],
          [-113.01734, 35.39546],
          [-113.01369, 35.3732],
          [-113.01004, 35.35095],
          [-113.00385, 35.34709],
          [-112.97911, 35.33166],
          [-112.97293, 35.3278],
          [-112.94819, 35.31236],
          [-112.94201, 35.3085],
          [-112.91728, 35.29306],
          [-112.9111, 35.2892],
          [-112.88638, 35.27375],
          [-112.8802, 35.26989],
          [-112.85293, 35.27284],
          [-112.82822, 35.25738],
          [-112.82204, 35.25352],
          [-112.79477, 35.25646],
          [-112.77008, 35.241],
          [-112.7639, 35.23713],
          [-112.73663, 35.24006],
          [-112.70936, 35.24299],
          [-112.68209, 35.24591],
          [-112.65482, 35.24883],
          [-112.65008, 35.25387],
          [-112.63111, 35.27402],
          [-112.60383, 35.27693],
          [-112.57654, 35.27984],
          [-112.54926, 35.28274],
          [-112.52197, 35.28564],
          [-112.51722, 35.29067],
          [-112.49823, 35.3108],
          [-112.47093, 35.31369],
          [-112.44364, 35.31658],
          [-112.41634, 35.31945],
          [-112.38904, 35.32233],
          [-112.36174, 35.3252],
          [-112.33444, 35.32807],
          [-112.30713, 35.33093],
          [-112.28249, 35.31539],
          [-112.27633, 35.31151],
          [-112.24903, 35.31436],
          [-112.2244, 35.29882],
          [-112.21824, 35.29493],
          [-112.19094, 35.29777],
          [-112.16364, 35.30061],
          [-112.13634, 35.30344],
          [-112.10904, 35.30627],
          [-112.08174, 35.3091],
          [-112.07697, 35.31412],
          [-112.05789, 35.3342],
          [-112.03057, 35.33701],
          [-112.00326, 35.33983],
          [-112, 35.34325]
        ]
      }
    },
    {
      "type": "Feature",
      "id": "2026092712_f168_12000_002",
      "properties": {
        "product_id": "winter_storm_levels",
        "source_id": "nbm_snow_level",
        "parameter": "snow_level",
        "definition": "height of the wet-bulb 0.5 degree C surface",
        "level_ft_msl": 12000,
        "label": "12,000 ft MSL",
        "unit": "ft_msl",
        "cycle_time_utc": "2026-09-27T12:00:00Z",
        "valid_time_utc": "2026-10-04T12:00:00Z",
        "lead_hours": 168,
        "segment": 2,
        "length_m": 250996.4
      },
      "geometry": {
        "type": "LineString",
        "coordinates": [
          [-113.92043, 30.0987],
          [-113.9146, 30.10539],
          [-113.88856, 30.10855],
          [-113.88408, 30.11369],
          [-113.86616, 30.13423],
          [-113.86168, 30.13937],
          [-113.84376, 30.15991],
          [-113.83928, 30.16505],
          [-113.82135, 30.18559],
          [-113.81686, 30.19072],
          [-113.79892, 30.21126],
          [-113.79444, 30.21639],
          [-113.77649, 30.23693],
          [-113.772, 30.24206],
          [-113.75405, 30.26259],
          [-113.72797, 30.26572],
          [-113.72348, 30.27085],
          [-113.70551, 30.29138],
          [-113.67942, 30.2945],
          [-113.67493, 30.29963],
          [-113.65695, 30.32015],
          [-113.63085, 30.32327],
          [-113.62636, 30.32839],
          [-113.60836, 30.3489],
          [-113.60386, 30.35403],
          [-113.58586, 30.37454],
          [-113.55975, 30.37764],
          [-113.53364, 30.38074],
          [-113.50753, 30.38384],
          [-113.50303, 30.38896],
          [-113.485, 30.40946],
          [-113.45888, 30.41255],
          [-113.45437, 30.41767],
          [-113.43634, 30.43816],
          [-113.41021, 30.44124],
          [-113.4057, 30.44636],
          [-113.38765, 30.46684],
          [-113.36151, 30.46991],
          [-113.357, 30.47503],
          [-113.33893, 30.4955],
          [-113.33442, 30.50062],
          [-113.31635, 30.52109],
          [-113.2902, 30.52415],
          [-113.28568, 30.52927],
          [-113.26759, 30.54973],
          [-113.26307, 30.55485],
          [-113.26662, 30.57737],
          [-113.24852, 30.59783],
          [-113.244, 30.60294],
          [-113.22589, 30.6234],
          [-113.22137, 30.62851],
          [-113.20326, 30.64897],
          [-113.17708, 30.65201],
          [-113.17255, 30.65712],
          [-113.15442, 30.67757],
          [-113.14989, 30.68268],
          [-113.13176, 30.70312],
          [-113.12722, 30.70823],
          [-113.13075, 30.73075],
          [-113.11261, 30.75119],
          [-113.10807, 30.7563],
          [-113.08992, 30.77673],
          [-113.08538, 30.78184],
          [-113.0889, 30.80436],
          [-113.07074, 30.82479],
          [-113.06619, 30.8299],
          [-113.06971, 30.85242],
          [-113.05154, 30.87285],
          [-113.04699, 30.87795],
          [-113.02881, 30.89838],
          [-113.02427, 30.90348],
          [-113.00608, 30.9239],
          [-113.00153, 30.92901],
          [-113.00504, 30.95152],
          [-112.98684, 30.97194],
          [-112.98229, 30.97704],
          [-112.96408, 30.99745],
          [-112.95953, 31.00256],
          [-112.94131, 31.02296],
          [-112.93676, 31.02807],
          [-112.91853, 31.04847],
          [-112.91397, 31.05357],
          [-112.89574, 31.07397],
          [-112.86946, 31.07696],
          [-112.84317, 31.07994],
          [-112.83861, 31.08504],
          [-112.82036, 31.10543],
          [-112.79407, 31.10841],
          [-112.76778, 31.11138],
          [-112.74148, 31.11434],
          [-112.71518, 31.1173],
          [-112.68889, 31.12026],
          [-112.66259, 31.12321],
          [-112.63629, 31.12616],
          [-112.6125, 31.1105],
          [-112.60655, 31.10659],
          [-112.58025, 31.10952],
          [-112.57568, 31.11462],
          [-112.55738, 31.13498],
          [-112.53107, 31.13791],
          [-112.50476, 31.14083],
          [-112.47845, 31.14375],
          [-112.45214, 31.14667],
          [-112.42583, 31.14958],
          [-112.39952, 31.15249],
          [-112.37321, 31.15539],
          [-112.34689, 31.15829],
          [-112.32057, 31.16119],
          [-112.31599, 31.16627],
          [-112.29763, 31.1866],
          [-112.27131, 31.18949],
          [-112.24498, 31.19237],
          [-112.21866, 31.19525],
          [-112.21406, 31.20033],
          [-112.19568, 31.22064],
          [-112.17193, 31.20492],
          [-112.166, 31.20099],
          [-112.13967, 31.20385],
          [-112.11333, 31.20671],
          [-112.087, 31.20957],
          [-112.06067, 31.21242],
          [-112.03433, 31.21527],
          [-112.00799, 31.21811],
          [-112, 31.21897]
        ]
      }
    }
  ]
}

