{
  "type": "FeatureCollection",
  "contract_version": "1.0.0",
  "bbox": [-130, 30.12741, -112, 44.5],
  "features": [
    {
      "type": "Feature",
      "id": "2026091512_f240_09000_001",
      "properties": {
        "product_id": "winter_storm_levels",
        "source_id": "nbm_snow_level",
        "parameter": "snow_level",
        "definition": "height of the wet-bulb 0.5 degree C surface",
        "level_ft_msl": 9000,
        "label": "9,000 ft MSL",
        "unit": "ft_msl",
        "cycle_time_utc": "2026-09-15T12:00:00Z",
        "valid_time_utc": "2026-09-25T12:00:00Z",
        "lead_hours": 240,
        "segment": 1,
        "length_m": 1039460.2
      },
      "geometry": {
        "type": "LineString",
        "coordinates": [
          [-130, 41.17412],
          [-129.99602, 41.17491],
          [-129.9679, 41.1805],
          [-129.95703, 41.19454],
          [-129.9472, 41.20724],
          [-129.91906, 41.21282],
          [-129.89093, 41.21839],
          [-129.86279, 41.22396],
          [-129.83465, 41.22953],
          [-129.8065, 41.23509],
          [-129.77836, 41.24064],
          [-129.7502, 41.24619],
          [-129.73333, 41.23877],
          [-129.71468, 41.23057],
          [-129.68653, 41.23611],
          [-129.65837, 41.24164],
          [-129.63022, 41.24717],
          [-129.60206, 41.2527],
          [-129.57389, 41.25822],
          [-129.54572, 41.26374],
          [-129.51755, 41.26925],
          [-129.50661, 41.28326],
          [-129.49671, 41.29593],
          [-129.46853, 41.30144],
          [-129.44034, 41.30694],
          [-129.41216, 41.31243],
          [-129.4012, 41.32643],
          [-129.39128, 41.3391],
          [-129.38031, 41.35309],
          [-129.37038, 41.36575],
          [-129.34218, 41.37123],
          [-129.31396, 41.37671],
          [-129.30298, 41.3907],
          [-129.29304, 41.40335],
          [-129.26482, 41.40882],
          [-129.2366, 41.41429],
          [-129.20837, 41.41975],
          [-129.18014, 41.4252],
          [-129.1519, 41.43065],
          [-129.12367, 41.4361],
          [-129.09543, 41.44154],
          [-129.06718, 41.44698],
          [-129.03894, 41.45241],
          [-129.01069, 41.45784],
          [-128.98243, 41.46326],
          [-128.96558, 41.45578],
          [-128.94695, 41.44751],
          [-128.9187, 41.45292],
          [-128.89044, 41.45833],
          [-128.86218, 41.46374],
          [-128.83392, 41.46914],
          [-128.80566, 41.47453],
          [-128.77739, 41.47992],
          [-128.74912, 41.48531],
          [-128.72085, 41.49069],
          [-128.69257, 41.49607],
          [-128.66429, 41.50144],
          [-128.63601, 41.50681],
          [-128.60772, 41.51217],
          [-128.57943, 41.51753],
          [-128.55114, 41.52288],
          [-128.52284, 41.52823],
          [-128.49455, 41.53358],
          [-128.46625, 41.53892],
          [-128.43794, 41.54426],
          [-128.40964, 41.54959],
          [-128.38133, 41.55491],
          [-128.35301, 41.56024],
          [-128.34188, 41.57415],
          [-128.3318, 41.58674],
          [-128.30348, 41.59205],
          [-128.27515, 41.59736],
          [-128.24682, 41.60267],
          [-128.23567, 41.61657],
          [-128.22558, 41.62915],
          [-128.19723, 41.63445],
          [-128.16889, 41.63974],
          [-128.15772, 41.65363],
          [-128.14761, 41.66621],
          [-128.11926, 41.67149],
          [-128.0909, 41.67677],
          [-128.06254, 41.68204],
          [-128.05135, 41.69593],
          [-128.04123, 41.70849],
          [-128.01285, 41.71375],
          [-127.98448, 41.71901],
          [-127.97327, 41.73289],
          [-127.96314, 41.74545],
          [-127.93475, 41.7507],
          [-127.92354, 41.76458],
          [-127.91339, 41.77713],
          [-127.88499, 41.78237],
          [-127.85659, 41.78761],
          [-127.82818, 41.79284],
          [-127.79977, 41.79807],
          [-127.77136, 41.80329],
          [-127.75454, 41.79571],
          [-127.73595, 41.78733],
          [-127.70754, 41.79255],
          [-127.67913, 41.79776],
          [-127.66231, 41.79017],
          [-127.64373, 41.78177],
          [-127.62692, 41.77418],
          [-127.60835, 41.76579],
          [-127.57994, 41.77098],
          [-127.56313, 41.76338],
          [-127.54456, 41.75498],
          [-127.51615, 41.76016],
          [-127.48774, 41.76534],
          [-127.45932, 41.77052],
          [-127.4309, 41.77569],
          [-127.40248, 41.78086],
          [-127.37405, 41.78602],
          [-127.34562, 41.79118],
          [-127.31719, 41.79633],
          [-127.28875, 41.80148],
          [-127.27745, 41.81531],
          [-127.26721, 41.82782],
          [-127.23877, 41.83296],
          [-127.21032, 41.8381],
          [-127.18186, 41.84323],
          [-127.15341, 41.84836],
          [-127.12495, 41.85348],
          [-127.09649, 41.85859],
          [-127.06803, 41.86371],
          [-127.03956, 41.86881],
          [-127.02278, 41.86117],
          [-127.00424, 41.85272],
          [-126.98747, 41.84507],
          [-126.96893, 41.83661],
          [-126.95216, 41.82896],
          [-126.94533, 41.80775],
          [-126.9385, 41.78653],
          [-126.93167, 41.76532],
          [-126.91316, 41.75685],
          [-126.89641, 41.74919],
          [-126.88959, 41.72797],
          [-126.89986, 41.71547],
          [-126.91121, 41.70166],
          [-126.92147, 41.68916],
          [-126.93281, 41.67534],
          [-126.92599, 41.65411],
          [-126.93625, 41.64161],
          [-126.94758, 41.62778],
          [-126.94076, 41.60655],
          [-126.93395, 41.58531],
          [-126.9442, 41.5728],
          [-126.95552, 41.55898],
          [-126.94871, 41.53773],
          [-126.95895, 41.52522],
          [-126.97027, 41.51139],
          [-126.9805, 41.49887],
          [-126.99181, 41.48503],
          [-127.00205, 41.47251],
          [-127.01335, 41.45867],
          [-127.02358, 41.44615],
          [-127.03488, 41.43231],
          [-127.02805, 41.41105],
          [-127.03827, 41.39853],
          [-127.04957, 41.38468],
          [-127.05978, 41.37215],
          [-127.07107, 41.3583],
          [-127.08128, 41.34576],
          [-127.09256, 41.33191],
          [-127.10276, 41.31937],
          [-127.13107, 41.31424],
          [-127.14234, 41.30038],
          [-127.1355, 41.27911],
          [-127.1457, 41.26657],
          [-127.15696, 41.25271],
          [-127.15012, 41.23144],
          [-127.14329, 41.21016],
          [-127.15347, 41.19762],
          [-127.16473, 41.18375],
          [-127.1579, 41.16247],
          [-127.16807, 41.14992],
          [-127.17932, 41.13604],
          [-127.17249, 41.11476],
          [-127.18266, 41.1022],
          [-127.1939, 41.08832],
          [-127.20407, 41.07577],
          [-127.2153, 41.06188],
          [-127.20846, 41.04059],
          [-127.20163, 41.0193],
          [-127.1948, 40.998],
          [-127.18797, 40.97671],
          [-127.18115, 40.95541],
          [-127.17432, 40.9341],
          [-127.1675, 40.9128],
          [-127.16069, 40.89149],
          [-127.17084, 40.87892],
          [-127.18205, 40.86502],
          [-127.17524, 40.84371],
          [-127.16842, 40.82239],
          [-127.15006, 40.8139],
          [-127.13345, 40.80622],
          [-127.11509, 40.79773],
          [-127.09848, 40.79005],
          [-127.08013, 40.78155],
          [-127.06352, 40.77387],
          [-127.04518, 40.76537],
          [-127.01701, 40.7705],
          [-126.98885, 40.77563],
          [-126.97225, 40.76794],
          [-126.95391, 40.75943],
          [-126.92575, 40.76455],
          [-126.90916, 40.75684],
          [-126.89083, 40.74833],
          [-126.87425, 40.74062],
          [-126.85592, 40.7321],
          [-126.82776, 40.73721],
          [-126.79959, 40.74231],
          [-126.77142, 40.74741],
          [-126.74325, 40.7525],
          [-126.73199, 40.76638],
          [-126.72179, 40.77893],
          [-126.69361, 40.78401],
          [-126.66543, 40.78909],
          [-126.63724, 40.79417],
          [-126.62595, 40.80803],
          [-126.61574, 40.82058],
          [-126.58754, 40.82564],
          [-126.55934, 40.83071],
          [-126.54804, 40.84456],
          [-126.53782, 40.8571],
          [-126.50961, 40.86215],
          [-126.4983, 40.87601],
          [-126.50498, 40.89734],
          [-126.49474, 40.90987],
          [-126.48343, 40.92372],
          [-126.4901, 40.94505],
          [-126.49679, 40.96638],
          [-126.48654, 40.97891],
          [-126.47522, 40.99275],
          [-126.4819, 41.01407],
          [-126.47165, 41.0266],
          [-126.46032, 41.04044],
          [-126.467, 41.06175],
          [-126.45674, 41.07427],
          [-126.4454, 41.08811],
          [-126.43514, 41.10062],
          [-126.4238, 41.11445],
          [-126.41353, 41.12696],
          [-126.38524, 41.13199],
          [-126.37388, 41.14581],
          [-126.36361, 41.15832],
          [-126.35225, 41.17214],
          [-126.34197, 41.18465],
          [-126.31365, 41.18966],
          [-126.30228, 41.20348],
          [-126.29199, 41.21598],
          [-126.28061, 41.22979],
          [-126.27032, 41.24229],
          [-126.25894, 41.25609],
          [-126.24863, 41.26859],
          [-126.22029, 41.27358],
          [-126.19195, 41.27858],
          [-126.18055, 41.29238],
          [-126.17024, 41.30486],
          [-126.14188, 41.30985],
          [-126.11353, 41.31482],
          [-126.10211, 41.32862],
          [-126.09179, 41.3411],
          [-126.08037, 41.35489],
          [-126.07003, 41.36736],
          [-126.05861, 41.38115],
          [-126.04827, 41.39362],
          [-126.03684, 41.40741],
          [-126.0265, 41.41988],
          [-126.01506, 41.43366],
          [-126.00471, 41.44613],
          [-125.99327, 41.4599],
          [-125.98292, 41.47237],
          [-125.95451, 41.47732],
          [-125.94306, 41.49109],
          [-125.93269, 41.50355],
          [-125.92123, 41.51731],
          [-125.91086, 41.52977],
          [-125.8994, 41.54353],
          [-125.88903, 41.55599],
          [-125.87756, 41.56975],
          [-125.86718, 41.5822],
          [-125.8557, 41.59596],
          [-125.86229, 41.61723],
          [-125.85191, 41.62968],
          [-125.84042, 41.64343],
          [-125.83003, 41.65587],
          [-125.81854, 41.66962],
          [-125.82513, 41.69089],
          [-125.81473, 41.70333],
          [-125.80323, 41.71707],
          [-125.80982, 41.73834],
          [-125.79942, 41.75077],
          [-125.78791, 41.76451],
          [-125.7775, 41.77694],
          [-125.749, 41.78185],
          [-125.72049, 41.78675],
          [-125.69197, 41.79165],
          [-125.66346, 41.79654],
          [-125.65193, 41.81027],
          [-125.6415, 41.82269],
          [-125.62997, 41.83642],
          [-125.63653, 41.85767],
          [-125.62609, 41.87009],
          [-125.61455, 41.88381],
          [-125.6041, 41.89622],
          [-125.59255, 41.90994],
          [-125.5821, 41.92235],
          [-125.55355, 41.92722],
          [-125.54199, 41.94093],
          [-125.53153, 41.95333],
          [-125.50296, 41.9582],
          [-125.49139, 41.9719],
          [-125.48093, 41.9843],
          [-125.45235, 41.98916],
          [-125.44077, 42.00286],
          [-125.43029, 42.01525],
          [-125.4017, 42.0201],
          [-125.39011, 42.03379],
          [-125.37962, 42.04618],
          [-125.36803, 42.05987],
          [-125.35753, 42.07226],
          [-125.32892, 42.07709],
          [-125.31732, 42.09078],
          [-125.30682, 42.10316],
          [-125.29521, 42.11684],
          [-125.2847, 42.12922],
          [-125.27308, 42.14289],
          [-125.26257, 42.15527],
          [-125.25094, 42.16894],
          [-125.24042, 42.18131],
          [-125.2288, 42.19498],
          [-125.21827, 42.20735],
          [-125.18962, 42.21216],
          [-125.17798, 42.22583],
          [-125.18446, 42.24705],
          [-125.17393, 42.25941],
          [-125.14526, 42.26421],
          [-125.1336, 42.27787],
          [-125.12306, 42.29022],
          [-125.09438, 42.29501],
          [-125.08271, 42.30867],
          [-125.07216, 42.32102],
          [-125.04346, 42.3258],
          [-125.01477, 42.33058],
          [-124.98607, 42.33535],
          [-124.97438, 42.34899],
          [-124.96381, 42.36134],
          [-124.9351, 42.3661],
          [-124.92341, 42.37974],
          [-124.91283, 42.39207],
          [-124.90113, 42.40571],
          [-124.89054, 42.41804],
          [-124.86181, 42.42279],
          [-124.83308, 42.42754],
          [-124.80434, 42.43228],
          [-124.79262, 42.4459],
          [-124.78202, 42.45823],
          [-124.77029, 42.47185],
          [-124.75968, 42.48417],
          [-124.73093, 42.4889],
          [-124.71919, 42.50251],
          [-124.70857, 42.51483],
          [-124.69683, 42.52844],
          [-124.68621, 42.54075],
          [-124.65743, 42.54546],
          [-124.64568, 42.55907],
          [-124.63504, 42.57138],
          [-124.62329, 42.58498],
          [-124.61265, 42.59728],
          [-124.60088, 42.61088],
          [-124.59024, 42.62318],
          [-124.57847, 42.63677],
          [-124.56782, 42.64907],
          [-124.539, 42.65376],
          [-124.52722, 42.66735],
          [-124.51656, 42.67964],
          [-124.48774, 42.68433],
          [-124.47595, 42.69791],
          [-124.46528, 42.7102],
          [-124.45348, 42.72378],
          [-124.44281, 42.73606],
          [-124.41396, 42.74073],
          [-124.40215, 42.75431],
          [-124.39147, 42.76659],
          [-124.37965, 42.78016],
          [-124.36896, 42.79243],
          [-124.3401, 42.79709],
          [-124.32828, 42.81065],
          [-124.31757, 42.82292],
          [-124.30574, 42.83648],
          [-124.29504, 42.84875],
          [-124.26615, 42.8534],
          [-124.25431, 42.86695],
          [-124.2436, 42.87921],
          [-124.23175, 42.89276],
          [-124.22103, 42.90502],
          [-124.20918, 42.91857],
          [-124.19845, 42.93082],
          [-124.16954, 42.93545],
          [-124.15767, 42.94899],
          [-124.14694, 42.96124],
          [-124.11801, 42.96586],
          [-124.08909, 42.97048],
          [-124.07721, 42.98401],
          [-124.06646, 42.99625],
          [-124.05457, 43.00978],
          [-124.04381, 43.02202],
          [-124.01487, 43.02662],
          [-124.00297, 43.04015],
          [-123.99221, 43.05238],
          [-123.9803, 43.0659],
          [-123.96953, 43.07813],
          [-123.95763, 43.09165],
          [-123.94685, 43.10387],
          [-123.93493, 43.11739],
          [-123.92415, 43.12961],
          [-123.91223, 43.14312],
          [-123.90144, 43.15534],
          [-123.87245, 43.15992],
          [-123.86052, 43.17342],
          [-123.84972, 43.18563],
          [-123.83778, 43.19913],
          [-123.82698, 43.21135],
          [-123.81504, 43.22484],
          [-123.8213, 43.24598],
          [-123.81049, 43.25819],
          [-123.78146, 43.26275],
          [-123.76951, 43.27624],
          [-123.75869, 43.28844],
          [-123.74672, 43.30193],
          [-123.7359, 43.31412],
          [-123.70685, 43.31867],
          [-123.69488, 43.33215],
          [-123.70112, 43.35328],
          [-123.69028, 43.36547],
          [-123.6783, 43.37895],
          [-123.68455, 43.40007],
          [-123.6737, 43.41226],
          [-123.66171, 43.42573],
          [-123.65086, 43.43791],
          [-123.63887, 43.45138],
          [-123.62801, 43.46356],
          [-123.61601, 43.47702],
          [-123.60515, 43.4892],
          [-123.59314, 43.50266],
          [-123.58227, 43.51483],
          [-123.57026, 43.52828],
          [-123.55939, 43.54046],
          [-123.54737, 43.55391],
          [-123.53649, 43.56607],
          [-123.52446, 43.57952],
          [-123.53068, 43.60062],
          [-123.5198, 43.61279],
          [-123.50776, 43.62623],
          [-123.51399, 43.64733],
          [-123.50309, 43.65948],
          [-123.49105, 43.67292],
          [-123.49727, 43.69401],
          [-123.48637, 43.70617],
          [-123.47432, 43.7196],
          [-123.46341, 43.73175],
          [-123.45136, 43.74518],
          [-123.44045, 43.75732],
          [-123.42838, 43.77075],
          [-123.41747, 43.78289],
          [-123.4054, 43.79631],
          [-123.39447, 43.80845],
          [-123.3824, 43.82187],
          [-123.3886, 43.84294],
          [-123.37767, 43.85508],
          [-123.36559, 43.86849],
          [-123.35465, 43.88062],
          [-123.34256, 43.89403],
          [-123.33162, 43.90616],
          [-123.31953, 43.91956],
          [-123.32573, 43.94063],
          [-123.31478, 43.95275],
          [-123.30267, 43.96615],
          [-123.29172, 43.97827],
          [-123.26245, 43.98273],
          [-123.25034, 43.99612],
          [-123.23937, 44.00824],
          [-123.22725, 44.02163],
          [-123.21628, 44.03374],
          [-123.20415, 44.04712],
          [-123.19318, 44.05923],
          [-123.18104, 44.07261],
          [-123.17006, 44.08472],
          [-123.14076, 44.08915],
          [-123.12861, 44.10253],
          [-123.11762, 44.11463],
          [-123.10547, 44.128],
          [-123.09447, 44.1401],
          [-123.06515, 44.14452],
          [-123.05299, 44.15789],
          [-123.04198, 44.16998],
          [-123.01265, 44.17439],
          [-123.00047, 44.18775],
          [-122.98946, 44.19984],
          [-122.97728, 44.21319],
          [-122.96625, 44.22527],
          [-122.9369, 44.22967],
          [-122.92471, 44.24302],
          [-122.91368, 44.2551],
          [-122.88431, 44.25949],
          [-122.87211, 44.27283],
          [-122.86107, 44.2849],
          [-122.83169, 44.28929],
          [-122.81948, 44.30262],
          [-122.80842, 44.31469],
          [-122.77904, 44.31906],
          [-122.76681, 44.33239],
          [-122.75575, 44.34445],
          [-122.72635, 44.34882],
          [-122.71412, 44.36214],
          [-122.70304, 44.3742],
          [-122.67363, 44.37855],
          [-122.66139, 44.39187],
          [-122.66748, 44.41289],
          [-122.65639, 44.42494],
          [-122.64414, 44.43825],
          [-122.63305, 44.4503],
          [-122.62079, 44.46361],
          [-122.60969, 44.47565],
          [-122.58025, 44.47998],
          [-122.56797, 44.49329],
          [-122.56178, 44.5]
        ]
      }
    },
    {
      "type": "Feature",
      "id": "2026091512_f240_10000_001",
      "properties": {
        "product_id": "winter_storm_levels",
        "source_id": "nbm_snow_level",
        "parameter": "snow_level",
        "definition": "height of the wet-bulb 0.5 degree C surface",
        "level_ft_msl": 10000,
        "label": "10,000 ft MSL",
        "unit": "ft_msl",
        "cycle_time_utc": "2026-09-15T12:00:00Z",
        "valid_time_utc": "2026-09-25T12:00:00Z",
        "lead_hours": 240,
        "segment": 1,
        "length_m": 2022806.2
      },
      "geometry": {
        "type": "LineString",
        "coordinates": [
          [-120.84449, 30.25848],
          [-120.83848, 30.26616],
          [-120.84347, 30.28848],
          [-120.83564, 30.29847],
          [-120.8226, 30.31512],
          [-120.82758, 30.33745],
          [-120.81975, 30.34744],
          [-120.8067, 30.36408],
          [-120.81168, 30.38641],
          [-120.80385, 30.39639],
          [-120.79079, 30.41303],
          [-120.78295, 30.42302],
          [-120.76988, 30.43966],
          [-120.77486, 30.46198],
          [-120.76702, 30.47196],
          [-120.75394, 30.4886],
          [-120.75892, 30.51092],
          [-120.75108, 30.5209],
          [-120.73799, 30.53754],
          [-120.73014, 30.54752],
          [-120.71705, 30.56415],
          [-120.72203, 30.58647],
          [-120.71417, 30.59645],
          [-120.70107, 30.61308],
          [-120.69321, 30.62305],
          [-120.68011, 30.63968],
          [-120.67225, 30.64965],
          [-120.65914, 30.66628],
          [-120.65127, 30.67625],
          [-120.63815, 30.69287],
          [-120.63028, 30.70284],
          [-120.61716, 30.71946],
          [-120.60929, 30.72943],
          [-120.59616, 30.74604],
          [-120.60112, 30.76836],
          [-120.59324, 30.77833],
          [-120.58011, 30.79494],
          [-120.58507, 30.81726],
          [-120.57718, 30.82723],
          [-120.56404, 30.84384],
          [-120.55615, 30.8538],
          [-120.543, 30.87041],
          [-120.54796, 30.89273],
          [-120.54007, 30.90269],
          [-120.52691, 30.91929],
          [-120.51902, 30.92926],
          [-120.50585, 30.94586],
          [-120.51081, 30.96817],
          [-120.50291, 30.97813],
          [-120.48974, 30.99473],
          [-120.48183, 31.00469],
          [-120.46865, 31.02128],
          [-120.47361, 31.0436],
          [-120.4657, 31.05355],
          [-120.45251, 31.07015],
          [-120.45746, 31.09246],
          [-120.44955, 31.10241],
          [-120.43635, 31.119],
          [-120.42844, 31.12896],
          [-120.41524, 31.14554],
          [-120.42018, 31.16785],
          [-120.41226, 31.1778],
          [-120.39905, 31.19439],
          [-120.39113, 31.20434],
          [-120.37792, 31.22092],
          [-120.38286, 31.24323],
          [-120.37493, 31.25318],
          [-120.36171, 31.26975],
          [-120.35377, 31.2797],
          [-120.34055, 31.29628],
          [-120.33261, 31.30622],
          [-120.31938, 31.3228],
          [-120.31144, 31.33274],
          [-120.2982, 31.34931],
          [-120.29025, 31.35926],
          [-120.27701, 31.37583],
          [-120.28194, 31.39813],
          [-120.27399, 31.40807],
          [-120.26073, 31.42463],
          [-120.25278, 31.43457],
          [-120.23952, 31.45114],
          [-120.24445, 31.47344],
          [-120.23649, 31.48337],
          [-120.22322, 31.49993],
          [-120.21526, 31.50987],
          [-120.20199, 31.52643],
          [-120.19402, 31.53636],
          [-120.18074, 31.55292],
          [-120.17277, 31.56285],
          [-120.15949, 31.5794],
          [-120.15152, 31.58933],
          [-120.13822, 31.60588],
          [-120.13025, 31.61581],
          [-120.11695, 31.63236],
          [-120.10897, 31.64228],
          [-120.09567, 31.65883],
          [-120.08768, 31.66875],
          [-120.07437, 31.6853],
          [-120.06639, 31.69522],
          [-120.04018, 31.69939],
          [-120.02687, 31.71592],
          [-120.01887, 31.72585],
          [-120.00555, 31.74238],
          [-119.99755, 31.7523],
          [-119.98422, 31.76883],
          [-119.97622, 31.77875],
          [-119.96288, 31.79528],
          [-119.95487, 31.80519],
          [-119.94153, 31.82172],
          [-119.94641, 31.84401],
          [-119.9384, 31.85392],
          [-119.92505, 31.87045],
          [-119.91704, 31.88036],
          [-119.90368, 31.89688],
          [-119.89566, 31.90679],
          [-119.8823, 31.92331],
          [-119.88717, 31.9456],
          [-119.87915, 31.95551],
          [-119.86578, 31.97202],
          [-119.85775, 31.98193],
          [-119.84438, 31.99844],
          [-119.84925, 32.02072],
          [-119.84122, 32.03063],
          [-119.82783, 32.04714],
          [-119.8327, 32.06942],
          [-119.82467, 32.07933],
          [-119.81127, 32.09583],
          [-119.81614, 32.11811],
          [-119.8081, 32.12801],
          [-119.7947, 32.14452],
          [-119.79957, 32.1668],
          [-119.79152, 32.1767],
          [-119.77811, 32.19319],
          [-119.78298, 32.21547],
          [-119.77493, 32.22537],
          [-119.76151, 32.24187],
          [-119.76637, 32.26414],
          [-119.77124, 32.28642],
          [-119.76319, 32.29631],
          [-119.74976, 32.3128],
          [-119.75462, 32.33508],
          [-119.75949, 32.35735],
          [-119.76436, 32.37962],
          [-119.7563, 32.38951],
          [-119.74286, 32.406],
          [-119.74773, 32.42827],
          [-119.7526, 32.45053],
          [-119.75747, 32.4728],
          [-119.76235, 32.49506],
          [-119.76722, 32.51733],
          [-119.7721, 32.53959],
          [-119.77698, 32.56185],
          [-119.78186, 32.58411],
          [-119.80143, 32.59545],
          [-119.81317, 32.60225],
          [-119.81806, 32.6245],
          [-119.82295, 32.64676],
          [-119.82785, 32.66901],
          [-119.83274, 32.69126],
          [-119.83764, 32.71351],
          [-119.84254, 32.73576],
          [-119.84744, 32.75801],
          [-119.85235, 32.78025],
          [-119.85726, 32.8025],
          [-119.86216, 32.82474],
          [-119.86707, 32.84698],
          [-119.87199, 32.86922],
          [-119.8769, 32.89146],
          [-119.88182, 32.9137],
          [-119.88673, 32.93594],
          [-119.89165, 32.95817],
          [-119.89657, 32.98041],
          [-119.91622, 32.99172],
          [-119.92801, 32.99851],
          [-119.93294, 33.02074],
          [-119.93787, 33.04297],
          [-119.95753, 33.05427],
          [-119.96932, 33.06106],
          [-119.97427, 33.08328],
          [-119.97921, 33.1055],
          [-119.98415, 33.12773],
          [-120.00383, 33.13903],
          [-120.01564, 33.1458],
          [-120.02059, 33.16802],
          [-120.02555, 33.19024],
          [-120.04524, 33.20153],
          [-120.05706, 33.20831],
          [-120.07676, 33.21959],
          [-120.08858, 33.22636],
          [-120.09355, 33.24858],
          [-120.11326, 33.25986],
          [-120.12509, 33.26663],
          [-120.14481, 33.2779],
          [-120.15664, 33.28467],
          [-120.17636, 33.29594],
          [-120.18819, 33.3027],
          [-120.19319, 33.32491],
          [-120.21292, 33.33617],
          [-120.22476, 33.34293],
          [-120.22977, 33.36514],
          [-120.23477, 33.38733],
          [-120.25452, 33.3986],
          [-120.26637, 33.40535],
          [-120.27139, 33.42755],
          [-120.29114, 33.4388],
          [-120.303, 33.44555],
          [-120.30802, 33.46775],
          [-120.31305, 33.48994],
          [-120.33282, 33.50118],
          [-120.34469, 33.50793],
          [-120.34972, 33.53012],
          [-120.35476, 33.55231],
          [-120.37455, 33.56355],
          [-120.38642, 33.57029],
          [-120.39147, 33.59247],
          [-120.41127, 33.60371],
          [-120.42315, 33.61045],
          [-120.4282, 33.63263],
          [-120.43326, 33.6548],
          [-120.45308, 33.66603],
          [-120.46497, 33.67277],
          [-120.47003, 33.69494],
          [-120.4751, 33.71711],
          [-120.49493, 33.72833],
          [-120.50683, 33.73506],
          [-120.5119, 33.75723],
          [-120.51698, 33.7794],
          [-120.53683, 33.79061],
          [-120.54874, 33.79734],
          [-120.55382, 33.81951],
          [-120.55891, 33.84167],
          [-120.57877, 33.85287],
          [-120.59069, 33.8596],
          [-120.59579, 33.88176],
          [-120.61566, 33.89296],
          [-120.62758, 33.89968],
          [-120.63269, 33.92183],
          [-120.65257, 33.93303],
          [-120.6645, 33.93974],
          [-120.68439, 33.95093],
          [-120.69633, 33.95765],
          [-120.70145, 33.9798],
          [-120.72135, 33.99098],
          [-120.73329, 33.99769],
          [-120.73842, 34.01984],
          [-120.75833, 34.03101],
          [-120.77028, 34.03772],
          [-120.77542, 34.05986],
          [-120.79534, 34.07104],
          [-120.80729, 34.07774],
          [-120.81245, 34.09988],
          [-120.83238, 34.11104],
          [-120.84434, 34.11774],
          [-120.8495, 34.13988],
          [-120.85466, 34.16201],
          [-120.87461, 34.17317],
          [-120.88657, 34.17987],
          [-120.89175, 34.20199],
          [-120.89692, 34.22412],
          [-120.91688, 34.23527],
          [-120.92886, 34.24197],
          [-120.93404, 34.26409],
          [-120.95401, 34.27524],
          [-120.966, 34.28192],
          [-120.97119, 34.30404],
          [-120.97639, 34.32616],
          [-120.99637, 34.3373],
          [-121.00837, 34.34398],
          [-121.01357, 34.3661],
          [-121.01878, 34.38821],
          [-121.02398, 34.41032],
          [-121.04399, 34.42145],
          [-121.056, 34.42813],
          [-121.06121, 34.45024],
          [-121.08123, 34.46136],
          [-121.09324, 34.46804],
          [-121.11327, 34.47916],
          [-121.12528, 34.48583],
          [-121.13052, 34.50793],
          [-121.15055, 34.51905],
          [-121.16258, 34.52571],
          [-121.18262, 34.53683],
          [-121.19464, 34.54349],
          [-121.19989, 34.56559],
          [-121.21995, 34.57669],
          [-121.23198, 34.58335],
          [-121.23724, 34.60544],
          [-121.2425, 34.62753],
          [-121.26257, 34.63863],
          [-121.27461, 34.64529],
          [-121.27988, 34.66737],
          [-121.28515, 34.68946],
          [-121.29043, 34.71154],
          [-121.2957, 34.73362],
          [-121.30098, 34.7557],
          [-121.30626, 34.77777],
          [-121.32636, 34.78886],
          [-121.33842, 34.79551],
          [-121.34371, 34.81758],
          [-121.34901, 34.83965],
          [-121.3543, 34.86172],
          [-121.3462, 34.87163],
          [-121.33269, 34.88813],
          [-121.32459, 34.89803],
          [-121.31108, 34.91454],
          [-121.30297, 34.92444],
          [-121.27606, 34.92877],
          [-121.24914, 34.9331],
          [-121.22222, 34.93743],
          [-121.20869, 34.95392],
          [-121.20057, 34.96381],
          [-121.18703, 34.9803],
          [-121.1923, 35.00237],
          [-121.18418, 35.01226],
          [-121.17063, 35.02874],
          [-121.1759, 35.05081],
          [-121.18117, 35.07287],
          [-121.18644, 35.09493],
          [-121.19171, 35.11698],
          [-121.19699, 35.13904],
          [-121.20227, 35.16109],
          [-121.20755, 35.18314],
          [-121.21283, 35.20519],
          [-121.233, 35.21627],
          [-121.2451, 35.22292],
          [-121.2504, 35.24496],
          [-121.27058, 35.25604],
          [-121.28269, 35.26268],
          [-121.28799, 35.28472],
          [-121.29329, 35.30676],
          [-121.31349, 35.31783],
          [-121.32561, 35.32447],
          [-121.33092, 35.34651],
          [-121.35113, 35.35757],
          [-121.36325, 35.3642],
          [-121.38346, 35.37526],
          [-121.39559, 35.38189],
          [-121.41581, 35.39294],
          [-121.42795, 35.39957],
          [-121.43328, 35.4216],
          [-121.45352, 35.43265],
          [-121.46566, 35.43927],
          [-121.48589, 35.45031],
          [-121.49804, 35.45694],
          [-121.51828, 35.46797],
          [-121.53043, 35.4746],
          [-121.55068, 35.48563],
          [-121.56283, 35.49225],
          [-121.58309, 35.50327],
          [-121.59525, 35.50989],
          [-121.60062, 35.5319],
          [-121.62089, 35.54292],
          [-121.63305, 35.54954],
          [-121.65333, 35.56055],
          [-121.66549, 35.56716],
          [-121.67088, 35.58917],
          [-121.69117, 35.60018],
          [-121.70334, 35.60678],
          [-121.70874, 35.62879],
          [-121.72904, 35.63979],
          [-121.74122, 35.64639],
          [-121.74663, 35.66839],
          [-121.76694, 35.67939],
          [-121.77913, 35.68599],
          [-121.78455, 35.70798],
          [-121.80486, 35.71897],
          [-121.81706, 35.72557],
          [-121.82249, 35.74756],
          [-121.82792, 35.76955],
          [-121.84825, 35.78053],
          [-121.86046, 35.78712],
          [-121.8659, 35.8091],
          [-121.88624, 35.82008],
          [-121.89845, 35.82667],
          [-121.90391, 35.84865],
          [-121.92426, 35.85962],
          [-121.93648, 35.8662],
          [-121.94194, 35.88818],
          [-121.9474, 35.91015],
          [-121.95287, 35.93212],
          [-121.97324, 35.94308],
          [-121.98547, 35.94966],
          [-121.99095, 35.97163],
          [-121.99642, 35.99359],
          [-122.0019, 36.01556],
          [-122.0223, 36.02651],
          [-122.03454, 36.03308],
          [-122.04003, 36.05504],
          [-122.04552, 36.077],
          [-122.05102, 36.09895],
          [-122.05651, 36.1209],
          [-122.06201, 36.14286],
          [-122.06751, 36.16481],
          [-122.07301, 36.18675],
          [-122.06488, 36.19665],
          [-122.05132, 36.21314],
          [-122.05682, 36.23508],
          [-122.06232, 36.25702],
          [-122.05418, 36.26692],
          [-122.04061, 36.2834],
          [-122.03247, 36.29329],
          [-122.01889, 36.30977],
          [-122.01074, 36.31966],
          [-121.99716, 36.33614],
          [-122.00266, 36.35807],
          [-121.9945, 36.36796],
          [-121.98091, 36.38443],
          [-121.97276, 36.39432],
          [-121.94551, 36.39874],
          [-121.9319, 36.41521],
          [-121.92374, 36.42509],
          [-121.91013, 36.44155],
          [-121.90196, 36.45143],
          [-121.88835, 36.46789],
          [-121.88018, 36.47777],
          [-121.86655, 36.49422],
          [-121.85838, 36.5041],
          [-121.84475, 36.52055],
          [-121.83657, 36.53043],
          [-121.82293, 36.54688],
          [-121.82841, 36.5688],
          [-121.83388, 36.59072],
          [-121.8257, 36.60059],
          [-121.81205, 36.61704],
          [-121.81752, 36.63896],
          [-121.823, 36.66087],
          [-121.82848, 36.68279],
          [-121.82028, 36.69265],
          [-121.80663, 36.70909],
          [-121.8121, 36.731],
          [-121.81758, 36.75291],
          [-121.82306, 36.77482],
          [-121.81486, 36.78468],
          [-121.80119, 36.80112],
          [-121.80667, 36.82302],
          [-121.81216, 36.84492],
          [-121.81764, 36.86682],
          [-121.82313, 36.88872],
          [-121.81492, 36.89858],
          [-121.80123, 36.915],
          [-121.80672, 36.9369],
          [-121.81221, 36.95879],
          [-121.8177, 36.98068],
          [-121.80948, 36.99053],
          [-121.79579, 37.00695],
          [-121.80128, 37.02884],
          [-121.80677, 37.05072],
          [-121.79854, 37.06057],
          [-121.78484, 37.07699],
          [-121.79033, 37.09887],
          [-121.79582, 37.12075],
          [-121.78759, 37.13059],
          [-121.77387, 37.147],
          [-121.77937, 37.16888],
          [-121.78486, 37.19075],
          [-121.79036, 37.21262],
          [-121.78212, 37.22247],
          [-121.76839, 37.23887],
          [-121.77389, 37.26074],
          [-121.76564, 37.27058],
          [-121.7519, 37.28697],
          [-121.7574, 37.30884],
          [-121.7629, 37.3307],
          [-121.75465, 37.34054],
          [-121.7409, 37.35693],
          [-121.74639, 37.37879],
          [-121.75189, 37.40064],
          [-121.7574, 37.4225],
          [-121.7629, 37.44435],
          [-121.7684, 37.4662],
          [-121.77391, 37.48804],
          [-121.77942, 37.50989],
          [-121.78493, 37.53173],
          [-121.77667, 37.54156],
          [-121.7629, 37.55794],
          [-121.76841, 37.57978],
          [-121.76014, 37.58961],
          [-121.74636, 37.60598],
          [-121.75187, 37.62782],
          [-121.75739, 37.64965],
          [-121.74911, 37.65948],
          [-121.73532, 37.67585],
          [-121.74083, 37.69768],
          [-121.74635, 37.7195],
          [-121.75186, 37.74133],
          [-121.75738, 37.76315],
          [-121.7491, 37.77297],
          [-121.73529, 37.78933],
          [-121.74081, 37.81115],
          [-121.74633, 37.83297],
          [-121.75185, 37.85478],
          [-121.77257, 37.86569],
          [-121.78501, 37.87223],
          [-121.79054, 37.89404],
          [-121.79608, 37.91585],
          [-121.80161, 37.93766],
          [-121.80715, 37.95946],
          [-121.81269, 37.98126],
          [-121.81824, 38.00306],
          [-121.83899, 38.01395],
          [-121.85145, 38.02048],
          [-121.857, 38.04228],
          [-121.86256, 38.06407],
          [-121.85426, 38.07388],
          [-121.84043, 38.09023],
          [-121.84599, 38.11202],
          [-121.83769, 38.12183],
          [-121.82385, 38.13817],
          [-121.8294, 38.15996],
          [-121.82109, 38.16976],
          [-121.80725, 38.1861],
          [-121.8128, 38.20788],
          [-121.80449, 38.21769],
          [-121.79063, 38.23402],
          [-121.79619, 38.2558],
          [-121.80174, 38.27757],
          [-121.82255, 38.28845],
          [-121.83504, 38.29498],
          [-121.8406, 38.31675],
          [-121.83228, 38.32655],
          [-121.81842, 38.34288],
          [-121.82398, 38.36464],
          [-121.82955, 38.38641],
          [-121.85038, 38.39728],
          [-121.86288, 38.4038],
          [-121.86846, 38.42556],
          [-121.87403, 38.44731],
          [-121.87961, 38.46906],
          [-121.8852, 38.49081],
          [-121.89078, 38.51256],
          [-121.89637, 38.53431],
          [-121.90196, 38.55605],
          [-121.90755, 38.57779],
          [-121.91314, 38.59953],
          [-121.91874, 38.62127],
          [-121.92434, 38.643],
          [-121.92994, 38.66473],
          [-121.93554, 38.68646],
          [-121.94115, 38.70819],
          [-121.94676, 38.72991],
          [-121.95237, 38.75164],
          [-121.94403, 38.76142],
          [-121.93012, 38.77773],
          [-121.92177, 38.78752],
          [-121.90786, 38.80382],
          [-121.91347, 38.82554],
          [-121.90512, 38.83532],
          [-121.8912, 38.85162],
          [-121.88284, 38.8614],
          [-121.86891, 38.87769],
          [-121.86055, 38.88747],
          [-121.84662, 38.90376],
          [-121.85222, 38.92547],
          [-121.84385, 38.93524],
          [-121.82991, 38.95153],
          [-121.82154, 38.9613],
          [-121.80759, 38.97758],
          [-121.79922, 38.98735],
          [-121.78526, 39.00363],
          [-121.77688, 39.0134],
          [-121.76292, 39.02968],
          [-121.76851, 39.05137],
          [-121.76012, 39.06114],
          [-121.74615, 39.07741],
          [-121.75174, 39.0991],
          [-121.74335, 39.10886],
          [-121.71539, 39.1132],
          [-121.70141, 39.12946],
          [-121.69301, 39.13922],
          [-121.67902, 39.15548],
          [-121.67062, 39.16523],
          [-121.65662, 39.18149],
          [-121.64821, 39.19124],
          [-121.62023, 39.19556],
          [-121.60622, 39.21181],
          [-121.59781, 39.22156],
          [-121.58379, 39.2378],
          [-121.57537, 39.24755],
          [-121.56135, 39.26379],
          [-121.55293, 39.27353],
          [-121.5389, 39.28977],
          [-121.53047, 39.29951],
          [-121.51643, 39.31575],
          [-121.52198, 39.33743],
          [-121.51356, 39.34716],
          [-121.49951, 39.36339],
          [-121.50506, 39.38507],
          [-121.49663, 39.3948],
          [-121.48257, 39.41103],
          [-121.47413, 39.42076],
          [-121.46006, 39.43698],
          [-121.45162, 39.44671],
          [-121.43755, 39.46293],
          [-121.44309, 39.48459],
          [-121.43465, 39.49432],
          [-121.42056, 39.51053],
          [-121.41211, 39.52026],
          [-121.39802, 39.53647],
          [-121.38957, 39.54619],
          [-121.37547, 39.56239],
          [-121.36701, 39.57212],
          [-121.35291, 39.58832],
          [-121.34445, 39.59803],
          [-121.33034, 39.61423],
          [-121.32187, 39.62395],
          [-121.30775, 39.64014],
          [-121.29928, 39.64985],
          [-121.28516, 39.66604],
          [-121.27668, 39.67575],
          [-121.24855, 39.68],
          [-121.23442, 39.69618],
          [-121.22593, 39.70589],
          [-121.19779, 39.71013],
          [-121.16965, 39.71436],
          [-121.14151, 39.71859],
          [-121.11337, 39.72282],
          [-121.0992, 39.73898],
          [-121.0907, 39.74868],
          [-121.06255, 39.7529],
          [-121.03439, 39.75711],
          [-121.00623, 39.76132],
          [-120.99205, 39.77747],
          [-120.98353, 39.78717],
          [-120.96934, 39.80332],
          [-120.96083, 39.81301],
          [-120.94663, 39.82916],
          [-120.93811, 39.83884],
          [-120.90992, 39.84303],
          [-120.89571, 39.85918],
          [-120.88718, 39.86886],
          [-120.85899, 39.87304],
          [-120.84476, 39.88918],
          [-120.83623, 39.89886],
          [-120.822, 39.91499],
          [-120.81346, 39.92467],
          [-120.79922, 39.94079],
          [-120.79068, 39.95047],
          [-120.76246, 39.95463],
          [-120.74821, 39.97075],
          [-120.73966, 39.98042],
          [-120.7254, 39.99654],
          [-120.71685, 40.00621],
          [-120.70258, 40.02232],
          [-120.69402, 40.03199],
          [-120.67975, 40.0481],
          [-120.67119, 40.05776],
          [-120.65691, 40.07387],
          [-120.64834, 40.08353],
          [-120.63406, 40.09963],
          [-120.62549, 40.10929],
          [-120.59722, 40.11343],
          [-120.56894, 40.11756],
          [-120.54067, 40.12168],
          [-120.51239, 40.1258],
          [-120.48411, 40.12992],
          [-120.45582, 40.13403],
          [-120.42754, 40.13813],
          [-120.39925, 40.14224],
          [-120.37096, 40.14633],
          [-120.35663, 40.16241],
          [-120.34802, 40.17205],
          [-120.31972, 40.17614],
          [-120.30538, 40.19221],
          [-120.29676, 40.20184],
          [-120.26845, 40.20592],
          [-120.25409, 40.22198],
          [-120.24548, 40.23162],
          [-120.21716, 40.23569],
          [-120.20278, 40.25174],
          [-120.19416, 40.26138],
          [-120.17978, 40.27743],
          [-120.17115, 40.28706],
          [-120.15676, 40.3031],
          [-120.14813, 40.31273],
          [-120.13374, 40.32877],
          [-120.1251, 40.33839],
          [-120.1107, 40.35443],
          [-120.10206, 40.36405],
          [-120.08765, 40.38009],
          [-120.079, 40.38971],
          [-120.06459, 40.40574],
          [-120.06989, 40.42734],
          [-120.06124, 40.43696],
          [-120.04682, 40.45298],
          [-120.03816, 40.4626],
          [-120.02373, 40.47862],
          [-120.02903, 40.50022],
          [-120.02037, 40.50983],
          [-120.00593, 40.52584],
          [-120.01123, 40.54744],
          [-120.00256, 40.55704],
          [-119.98811, 40.57305],
          [-119.99341, 40.59464],
          [-119.99871, 40.61623],
          [-119.99004, 40.62583],
          [-119.97558, 40.64183],
          [-119.98088, 40.66341],
          [-119.9722, 40.67301],
          [-119.95773, 40.68901],
          [-119.96302, 40.71059],
          [-119.95434, 40.72018],
          [-119.93986, 40.73618],
          [-119.93117, 40.74577],
          [-119.91668, 40.76176],
          [-119.90798, 40.77135],
          [-119.89349, 40.78734],
          [-119.88479, 40.79692],
          [-119.87029, 40.8129],
          [-119.87558, 40.83447],
          [-119.86687, 40.84406],
          [-119.85236, 40.86003],
          [-119.84365, 40.86961],
          [-119.82913, 40.88558],
          [-119.82042, 40.89517],
          [-119.80589, 40.91113],
          [-119.79717, 40.92071],
          [-119.78264, 40.93667],
          [-119.77392, 40.94625],
          [-119.74538, 40.95023],
          [-119.73084, 40.96619],
          [-119.7361, 40.98774],
          [-119.72737, 40.99731],
          [-119.71282, 41.01326],
          [-119.71808, 41.03481],
          [-119.70934, 41.04437],
          [-119.69478, 41.06032],
          [-119.68604, 41.06988],
          [-119.67147, 41.08583],
          [-119.67673, 41.10736],
          [-119.66798, 41.11693],
          [-119.6534, 41.13286],
          [-119.65866, 41.15439],
          [-119.6499, 41.16395],
          [-119.63531, 41.17988],
          [-119.62655, 41.18944],
          [-119.61196, 41.20537],
          [-119.61721, 41.22689],
          [-119.60845, 41.23644],
          [-119.59384, 41.25236],
          [-119.58507, 41.26192],
          [-119.57046, 41.27783],
          [-119.56169, 41.28738],
          [-119.54706, 41.30329],
          [-119.53829, 41.31284],
          [-119.50964, 41.31677],
          [-119.495, 41.33268],
          [-119.48622, 41.34222],
          [-119.45756, 41.34615],
          [-119.4289, 41.35007],
          [-119.40024, 41.35398],
          [-119.37158, 41.3579],
          [-119.35691, 41.37379],
          [-119.34812, 41.38332],
          [-119.31944, 41.38722],
          [-119.29076, 41.39112],
          [-119.27608, 41.407],
          [-119.26727, 41.41653],
          [-119.25259, 41.43241],
          [-119.24377, 41.44193],
          [-119.22908, 41.4578],
          [-119.22026, 41.46733],
          [-119.20556, 41.48319],
          [-119.19673, 41.49271],
          [-119.18202, 41.50858],
          [-119.1732, 41.5181],
          [-119.14448, 41.52197],
          [-119.12976, 41.53783],
          [-119.12092, 41.54734],
          [-119.10619, 41.56319],
          [-119.09735, 41.5727],
          [-119.06861, 41.57656],
          [-119.05387, 41.59241],
          [-119.04503, 41.60191],
          [-119.01628, 41.60577],
          [-118.98753, 41.60961],
          [-118.95877, 41.61345],
          [-118.93002, 41.61729],
          [-118.90126, 41.62112],
          [-118.8725, 41.62495],
          [-118.84374, 41.62877],
          [-118.81498, 41.63259],
          [-118.78621, 41.6364],
          [-118.77142, 41.65222],
          [-118.76254, 41.66171],
          [-118.74774, 41.67753],
          [-118.73886, 41.68701],
          [-118.71007, 41.69081],
          [-118.69526, 41.70662],
          [-118.68637, 41.7161],
          [-118.67155, 41.7319],
          [-118.67663, 41.75339],
          [-118.66773, 41.76287],
          [-118.6529, 41.77867],
          [-118.644, 41.78815],
          [-118.62916, 41.80394],
          [-118.62025, 41.81341],
          [-118.60541, 41.8292],
          [-118.61048, 41.85068],
          [-118.60157, 41.86015],
          [-118.58671, 41.87594],
          [-118.5778, 41.8854],
          [-118.56293, 41.90118],
          [-118.55401, 41.91065],
          [-118.53914, 41.92642],
          [-118.54421, 41.94789],
          [-118.53528, 41.95735],
          [-118.5204, 41.97312],
          [-118.52546, 41.99459],
          [-118.51653, 42.00405],
          [-118.50164, 42.01981],
          [-118.5067, 42.04127],
          [-118.49776, 42.05072],
          [-118.48286, 42.06648],
          [-118.48792, 42.08793],
          [-118.47897, 42.09739],
          [-118.46406, 42.11314],
          [-118.46912, 42.13458],
          [-118.46017, 42.14403],
          [-118.44525, 42.15978],
          [-118.4503, 42.18122],
          [-118.44135, 42.19067],
          [-118.42642, 42.20641],
          [-118.43147, 42.22784],
          [-118.43653, 42.24928],
          [-118.42756, 42.25872],
          [-118.41262, 42.27445],
          [-118.41767, 42.29588],
          [-118.42273, 42.31731],
          [-118.41376, 42.32674],
          [-118.3988, 42.34247],
          [-118.40386, 42.36389],
          [-118.39488, 42.37332],
          [-118.37992, 42.38904],
          [-118.38497, 42.41045],
          [-118.37599, 42.41988],
          [-118.36101, 42.4356],
          [-118.3823, 42.44665],
          [-118.39508, 42.45328],
          [-118.40014, 42.47468],
          [-118.42144, 42.48573],
          [-118.45046, 42.48199],
          [-118.47948, 42.47825],
          [-118.5085, 42.4745],
          [-118.53752, 42.47075],
          [-118.56653, 42.467],
          [-118.57933, 42.47361],
          [-118.60065, 42.48464],
          [-118.61344, 42.49125],
          [-118.63477, 42.50227],
          [-118.64757, 42.50888],
          [-118.65269, 42.53027],
          [-118.67403, 42.54128],
          [-118.68684, 42.54789],
          [-118.69197, 42.56927],
          [-118.69709, 42.59066],
          [-118.70222, 42.61204],
          [-118.70736, 42.63342],
          [-118.71249, 42.65479],
          [-118.71763, 42.67616],
          [-118.72277, 42.69753],
          [-118.72791, 42.7189],
          [-118.71893, 42.72833],
          [-118.70396, 42.74404],
          [-118.7091, 42.7654],
          [-118.71424, 42.78676],
          [-118.71939, 42.80812],
          [-118.7104, 42.81754],
          [-118.69542, 42.83324],
          [-118.70056, 42.85459],
          [-118.69157, 42.86401],
          [-118.67658, 42.8797],
          [-118.68172, 42.90105],
          [-118.67272, 42.91046],
          [-118.65772, 42.92615],
          [-118.64872, 42.93557],
          [-118.63371, 42.95125],
          [-118.6247, 42.96066],
          [-118.60968, 42.97634],
          [-118.60067, 42.98575],
          [-118.58565, 43.00143],
          [-118.59077, 43.02276],
          [-118.58176, 43.03216],
          [-118.56672, 43.04783],
          [-118.5577, 43.05724],
          [-118.54266, 43.0729],
          [-118.53363, 43.0823],
          [-118.51858, 43.09796],
          [-118.50955, 43.10736],
          [-118.48035, 43.11109],
          [-118.46528, 43.12675],
          [-118.45624, 43.13614],
          [-118.44117, 43.15179],
          [-118.43213, 43.16118],
          [-118.40291, 43.1649],
          [-118.38783, 43.18054],
          [-118.37877, 43.18993],
          [-118.34954, 43.19364],
          [-118.33444, 43.20927],
          [-118.32539, 43.21865],
          [-118.29614, 43.22235],
          [-118.28103, 43.23798],
          [-118.27197, 43.24736],
          [-118.25685, 43.26298],
          [-118.24778, 43.27236],
          [-118.23265, 43.28798],
          [-118.23772, 43.30928],
          [-118.22864, 43.31865],
          [-118.21351, 43.33426],
          [-118.20443, 43.34363],
          [-118.18929, 43.35924],
          [-118.1802, 43.36861],
          [-118.16505, 43.38421],
          [-118.15596, 43.39357],
          [-118.1408, 43.40917],
          [-118.1317, 43.41853],
          [-118.10239, 43.4222],
          [-118.08722, 43.43779],
          [-118.07812, 43.44715],
          [-118.06294, 43.46274],
          [-118.05383, 43.47209],
          [-118.02451, 43.47574],
          [-118.00932, 43.49132],
          [-118.0002, 43.50067],
          [-117.985, 43.51625],
          [-117.97588, 43.52559],
          [-117.96067, 43.54117],
          [-117.95155, 43.55051],
          [-117.92219, 43.55414],
          [-117.90697, 43.56971],
          [-117.89784, 43.57905],
          [-117.88261, 43.59461],
          [-117.87348, 43.60395],
          [-117.85824, 43.6195],
          [-117.8491, 43.62884],
          [-117.83386, 43.64439],
          [-117.82471, 43.65372],
          [-117.80946, 43.66927],
          [-117.80031, 43.67859],
          [-117.78505, 43.69414],
          [-117.77589, 43.70346],
          [-117.76063, 43.719],
          [-117.75147, 43.72832],
          [-117.7362, 43.74386],
          [-117.72703, 43.75318],
          [-117.71175, 43.76871],
          [-117.70258, 43.77802],
          [-117.67315, 43.78161],
          [-117.64371, 43.7852],
          [-117.61427, 43.78878],
          [-117.59897, 43.8043],
          [-117.58978, 43.81361],
          [-117.56033, 43.81718],
          [-117.53088, 43.82074],
          [-117.50143, 43.82431],
          [-117.47198, 43.82786],
          [-117.45664, 43.84337],
          [-117.44744, 43.85267],
          [-117.41798, 43.85621],
          [-117.40263, 43.87171],
          [-117.39342, 43.881],
          [-117.36395, 43.88454],
          [-117.34859, 43.90003],
          [-117.33937, 43.90932],
          [-117.324, 43.9248],
          [-117.31478, 43.93409],
          [-117.28529, 43.93762],
          [-117.26991, 43.95309],
          [-117.26068, 43.96238],
          [-117.24529, 43.97785],
          [-117.23606, 43.98713],
          [-117.22066, 44.00259],
          [-117.21142, 44.01187],
          [-117.1819, 44.01538],
          [-117.16649, 44.03084],
          [-117.15724, 44.04011],
          [-117.14183, 44.05557],
          [-117.13258, 44.06484],
          [-117.10304, 44.06833],
          [-117.07349, 44.07182],
          [-117.05806, 44.08727],
          [-117.0488, 44.09653],
          [-117.01924, 44.10001],
          [-117.00379, 44.11545],
          [-116.99452, 44.12471],
          [-116.97907, 44.14014],
          [-116.96979, 44.1494],
          [-116.95433, 44.16483],
          [-116.94505, 44.17408],
          [-116.92958, 44.18951],
          [-116.92029, 44.19876],
          [-116.90482, 44.21418],
          [-116.89553, 44.22343],
          [-116.88004, 44.23884],
          [-116.88486, 44.26005],
          [-116.87556, 44.2693],
          [-116.86007, 44.2847],
          [-116.86489, 44.3059],
          [-116.85558, 44.31515],
          [-116.84008, 44.33055],
          [-116.83077, 44.33979],
          [-116.81525, 44.35518],
          [-116.80594, 44.36442],
          [-116.7763, 44.36786],
          [-116.76077, 44.38325],
          [-116.75145, 44.39248],
          [-116.73591, 44.40786],
          [-116.72659, 44.41709],
          [-116.71105, 44.43247],
          [-116.71584, 44.45366],
          [-116.72063, 44.47484],
          [-116.72543, 44.49601],
          [-116.72139, 44.5]
        ]
      }
    },
    {
      "type": "Feature",
      "id": "2026091512_f240_11000_001",
      "properties": {
        "product_id": "winter_storm_levels",
        "source_id": "nbm_snow_level",
        "parameter": "snow_level",
        "definition": "height of the wet-bulb 0.5 degree C surface",
        "level_ft_msl": 11000,
        "label": "11,000 ft MSL",
        "unit": "ft_msl",
        "cycle_time_utc": "2026-09-15T12:00:00Z",
        "valid_time_utc": "2026-09-25T12:00:00Z",
        "lead_hours": 240,
        "segment": 1,
        "length_m": 1662827.4
      },
      "geometry": {
        "type": "LineString",
        "coordinates": [
          [-117.08625, 30.20975],
          [-117.08652, 30.22131],
          [-117.08213, 30.24498],
          [-117.08092, 30.25149],
          [-117.07774, 30.26865],
          [-117.07335, 30.29232],
          [-117.06895, 30.31598],
          [-117.06774, 30.32249],
          [-117.06456, 30.33965],
          [-117.06016, 30.36332],
          [-117.05576, 30.38698],
          [-117.05455, 30.39349],
          [-117.05136, 30.41065],
          [-117.04695, 30.43431],
          [-117.04255, 30.45797],
          [-117.04134, 30.46448],
          [-117.03971, 30.48141],
          [-117.04241, 30.50406],
          [-117.038, 30.52772],
          [-117.03479, 30.55121],
          [-117.03238, 30.55789],
          [-117.02918, 30.57504],
          [-117.03345, 30.59747],
          [-117.02904, 30.62112],
          [-117.02582, 30.64461],
          [-117.03009, 30.66703],
          [-117.03437, 30.68946],
          [-117.03864, 30.71188],
          [-117.04292, 30.73431],
          [-117.0472, 30.75673],
          [-117.05148, 30.77915],
          [-117.04907, 30.78583],
          [-117.04587, 30.80297],
          [-117.047, 30.82583],
          [-117.05128, 30.84825],
          [-117.05557, 30.87067],
          [-117.05986, 30.89309],
          [-117.06415, 30.9155],
          [-117.06844, 30.93792],
          [-117.07273, 30.96033],
          [-117.07702, 30.98275],
          [-117.08132, 31.00516],
          [-117.08562, 31.02757],
          [-117.08992, 31.04998],
          [-117.09422, 31.07239],
          [-117.10682, 31.0873],
          [-117.1116, 31.09295],
          [-117.11591, 31.11536],
          [-117.12022, 31.13776],
          [-117.12453, 31.16017],
          [-117.12884, 31.18257],
          [-117.13315, 31.20497],
          [-117.14107, 31.22687],
          [-117.14539, 31.24927],
          [-117.14971, 31.27166],
          [-117.16353, 31.29272],
          [-117.16785, 31.31512],
          [-117.17218, 31.33751],
          [-117.1765, 31.35991],
          [-117.18915, 31.3748],
          [-117.19395, 31.38045],
          [-117.19828, 31.40284],
          [-117.20262, 31.42523],
          [-117.20695, 31.44762],
          [-117.21129, 31.47001],
          [-117.21563, 31.4924],
          [-117.21997, 31.51478],
          [-117.22432, 31.53717],
          [-117.2219, 31.54383],
          [-117.20601, 31.56274],
          [-117.21035, 31.58513],
          [-117.21469, 31.60751],
          [-117.21904, 31.62989],
          [-117.22339, 31.65227],
          [-117.22773, 31.67465],
          [-117.23209, 31.69702],
          [-117.23644, 31.7194],
          [-117.24079, 31.74177],
          [-117.24515, 31.76415],
          [-117.23911, 31.77132],
          [-117.22319, 31.79022],
          [-117.22754, 31.81259],
          [-117.2319, 31.83496],
          [-117.23625, 31.85733],
          [-117.24061, 31.8797],
          [-117.24498, 31.90207],
          [-117.24934, 31.92443],
          [-117.24329, 31.9316],
          [-117.22735, 31.9505],
          [-117.23171, 31.97286],
          [-117.23607, 31.99522],
          [-117.24043, 32.01759],
          [-117.2448, 32.03995],
          [-117.24917, 32.0623],
          [-117.25354, 32.08466],
          [-117.24748, 32.09183],
          [-117.23152, 32.11072],
          [-117.23589, 32.13307],
          [-117.24026, 32.15543],
          [-117.24463, 32.17778],
          [-117.249, 32.20013],
          [-117.24294, 32.2073],
          [-117.22696, 32.22618],
          [-117.23133, 32.24853],
          [-117.2357, 32.27088],
          [-117.24008, 32.29323],
          [-117.24445, 32.31558],
          [-117.23839, 32.32274],
          [-117.22238, 32.34162],
          [-117.22676, 32.36396],
          [-117.23114, 32.38631],
          [-117.23552, 32.40865],
          [-117.22944, 32.41581],
          [-117.21343, 32.43468],
          [-117.2178, 32.45702],
          [-117.22218, 32.47936],
          [-117.22656, 32.5017],
          [-117.23095, 32.52403],
          [-117.23533, 32.54637],
          [-117.22925, 32.55352],
          [-117.21321, 32.57239],
          [-117.2176, 32.59473],
          [-117.21151, 32.60188],
          [-117.19547, 32.62075],
          [-117.19985, 32.64308],
          [-117.19376, 32.65023],
          [-117.17771, 32.66909],
          [-117.18209, 32.69142],
          [-117.18647, 32.71375],
          [-117.19085, 32.73607],
          [-117.18476, 32.74323],
          [-117.16869, 32.76208],
          [-117.17307, 32.78441],
          [-117.17745, 32.80673],
          [-117.18184, 32.82905],
          [-117.17574, 32.8362],
          [-117.15965, 32.85505],
          [-117.16404, 32.87737],
          [-117.16842, 32.89968],
          [-117.16232, 32.90683],
          [-117.14622, 32.92568],
          [-117.15061, 32.94799],
          [-117.15499, 32.97031],
          [-117.15938, 32.99262],
          [-117.16376, 33.01493],
          [-117.16815, 33.03724],
          [-117.17255, 33.05955],
          [-117.17694, 33.08185],
          [-117.17083, 33.089],
          [-117.15471, 33.10784],
          [-117.1591, 33.13014],
          [-117.16349, 33.15244],
          [-117.16789, 33.17475],
          [-117.17228, 33.19704],
          [-117.17668, 33.21934],
          [-117.18108, 33.24164],
          [-117.18548, 33.26394],
          [-117.18989, 33.28623],
          [-117.18376, 33.29337],
          [-117.16762, 33.3122],
          [-117.17202, 33.33449],
          [-117.17642, 33.35678],
          [-117.18083, 33.37907],
          [-117.18523, 33.40136],
          [-117.18964, 33.42365],
          [-117.19405, 33.44593],
          [-117.19847, 33.46821],
          [-117.20288, 33.4905],
          [-117.2073, 33.51278],
          [-117.21171, 33.53505],
          [-117.20558, 33.54219],
          [-117.1894, 33.56101],
          [-117.19382, 33.58329],
          [-117.19823, 33.60556],
          [-117.20265, 33.62784],
          [-117.20707, 33.65011],
          [-117.2115, 33.67238],
          [-117.21592, 33.69465],
          [-117.22035, 33.71691],
          [-117.22478, 33.73918],
          [-117.22921, 33.76144],
          [-117.23364, 33.78371],
          [-117.22749, 33.79084],
          [-117.21128, 33.80965],
          [-117.21571, 33.83191],
          [-117.22014, 33.85417],
          [-117.21399, 33.8613],
          [-117.19777, 33.88011],
          [-117.2022, 33.90236],
          [-117.20663, 33.92462],
          [-117.20047, 33.93175],
          [-117.18424, 33.95055],
          [-117.18867, 33.9728],
          [-117.1931, 33.99505],
          [-117.19753, 34.0173],
          [-117.20197, 34.03954],
          [-117.2064, 34.06179],
          [-117.20024, 34.06892],
          [-117.18399, 34.08771],
          [-117.18842, 34.10995],
          [-117.19286, 34.13219],
          [-117.1973, 34.15444],
          [-117.20174, 34.17667],
          [-117.19557, 34.1838],
          [-117.17929, 34.20258],
          [-117.18373, 34.22482],
          [-117.18817, 34.24705],
          [-117.19262, 34.26929],
          [-117.19706, 34.29152],
          [-117.19088, 34.29864],
          [-117.17459, 34.31742],
          [-117.17904, 34.33965],
          [-117.18348, 34.36187],
          [-117.18793, 34.3841],
          [-117.18174, 34.39122],
          [-117.16544, 34.40999],
          [-117.16988, 34.43221],
          [-117.1637, 34.43933],
          [-117.14738, 34.4581],
          [-117.15183, 34.48032],
          [-117.14563, 34.48744],
          [-117.12931, 34.5062],
          [-117.13375, 34.52842],
          [-117.12756, 34.53553],
          [-117.11122, 34.55429],
          [-117.11566, 34.5765],
          [-117.1201, 34.59872],
          [-117.12454, 34.62093],
          [-117.11834, 34.62804],
          [-117.10199, 34.64679],
          [-117.10644, 34.669],
          [-117.10023, 34.67611],
          [-117.08387, 34.69486],
          [-117.08831, 34.71706],
          [-117.09275, 34.73927],
          [-117.0972, 34.76147],
          [-117.10164, 34.78367],
          [-117.09543, 34.79078],
          [-117.07905, 34.80952],
          [-117.0835, 34.83171],
          [-117.08794, 34.85391],
          [-117.09239, 34.8761],
          [-117.09684, 34.8983],
          [-117.09062, 34.9054],
          [-117.07422, 34.92413],
          [-117.07867, 34.94632],
          [-117.08312, 34.96851],
          [-117.08757, 34.9907],
          [-117.09202, 35.01288],
          [-117.09647, 35.03507],
          [-117.10093, 35.05725],
          [-117.10539, 35.07943],
          [-117.10985, 35.1016],
          [-117.11431, 35.12378],
          [-117.11877, 35.14595],
          [-117.12324, 35.16813],
          [-117.1277, 35.1903],
          [-117.13217, 35.21247],
          [-117.13664, 35.23463],
          [-117.14111, 35.2568],
          [-117.14559, 35.27896],
          [-117.15006, 35.30112],
          [-117.15454, 35.32328],
          [-117.1483, 35.33038],
          [-117.13185, 35.34909],
          [-117.13633, 35.37125],
          [-117.14081, 35.39341],
          [-117.14528, 35.41556],
          [-117.14977, 35.43771],
          [-117.15425, 35.45986],
          [-117.15873, 35.48201],
          [-117.16322, 35.50416],
          [-117.15697, 35.51125],
          [-117.1405, 35.52995],
          [-117.14498, 35.5521],
          [-117.14947, 35.57424],
          [-117.15396, 35.59638],
          [-117.15845, 35.61852],
          [-117.16294, 35.64065],
          [-117.16743, 35.66279],
          [-117.17193, 35.68492],
          [-117.17643, 35.70705],
          [-117.18092, 35.72918],
          [-117.18543, 35.75131],
          [-117.18993, 35.77343],
          [-117.19443, 35.79556],
          [-117.19894, 35.81768],
          [-117.20345, 35.8398],
          [-117.20796, 35.86192],
          [-117.23102, 35.8753],
          [-117.23976, 35.88037],
          [-117.24428, 35.90249],
          [-117.2488, 35.9246],
          [-117.25333, 35.94671],
          [-117.25785, 35.96882],
          [-117.26238, 35.99092],
          [-117.28547, 36.00429],
          [-117.29423, 36.00936],
          [-117.29876, 36.03147],
          [-117.3033, 36.05357],
          [-117.30784, 36.07566],
          [-117.31238, 36.09776],
          [-117.31692, 36.11986],
          [-117.32147, 36.14195],
          [-117.32601, 36.16404],
          [-117.33056, 36.18613],
          [-117.33511, 36.20822],
          [-117.33966, 36.2303],
          [-117.34422, 36.25239],
          [-117.34877, 36.27447],
          [-117.35333, 36.29655],
          [-117.34705, 36.30363],
          [-117.33049, 36.3223],
          [-117.33504, 36.34437],
          [-117.3396, 36.36645],
          [-117.34416, 36.38852],
          [-117.34872, 36.41059],
          [-117.35328, 36.43266],
          [-117.35785, 36.45472],
          [-117.36242, 36.47679],
          [-117.35613, 36.48387],
          [-117.33954, 36.50252],
          [-117.3441, 36.52458],
          [-117.34867, 36.54664],
          [-117.35324, 36.5687],
          [-117.34694, 36.57578],
          [-117.33034, 36.59442],
          [-117.33491, 36.61648],
          [-117.33948, 36.63853],
          [-117.34405, 36.66058],
          [-117.33774, 36.66765],
          [-117.32113, 36.68629],
          [-117.32569, 36.70834],
          [-117.31939, 36.71541],
          [-117.30276, 36.73405],
          [-117.30733, 36.75609],
          [-117.3119, 36.77813],
          [-117.30559, 36.7852],
          [-117.28894, 36.80383],
          [-117.29351, 36.82587],
          [-117.29808, 36.8479],
          [-117.30265, 36.86993],
          [-117.30722, 36.89197],
          [-117.3118, 36.914],
          [-117.31638, 36.93602],
          [-117.32095, 36.95805],
          [-117.31463, 36.96511],
          [-117.29797, 36.98373],
          [-117.30254, 37.00575],
          [-117.29622, 37.01281],
          [-117.27954, 37.03142],
          [-117.28411, 37.05344],
          [-117.27779, 37.0605],
          [-117.2611, 37.07911],
          [-117.25477, 37.08617],
          [-117.22717, 37.08981],
          [-117.21047, 37.10841],
          [-117.20413, 37.11546],
          [-117.18742, 37.13406],
          [-117.19198, 37.15607],
          [-117.18564, 37.16312],
          [-117.16892, 37.18172],
          [-117.16257, 37.18877],
          [-117.14585, 37.20735],
          [-117.1504, 37.22936],
          [-117.15496, 37.25136],
          [-117.14861, 37.25841],
          [-117.13187, 37.27699],
          [-117.12552, 37.28404],
          [-117.10877, 37.30262],
          [-117.11332, 37.32461],
          [-117.10696, 37.33166],
          [-117.0902, 37.35023],
          [-117.09475, 37.37222],
          [-117.08839, 37.37927],
          [-117.07162, 37.39783],
          [-117.07617, 37.41982],
          [-117.06981, 37.42686],
          [-117.05302, 37.44542],
          [-117.05757, 37.46741],
          [-117.0512, 37.47445],
          [-117.03441, 37.49301],
          [-117.03895, 37.51499],
          [-117.0435, 37.53697],
          [-117.03713, 37.54401],
          [-117.02032, 37.56255],
          [-117.02487, 37.58453],
          [-117.01849, 37.59157],
          [-117.00167, 37.61011],
          [-117.00622, 37.63208],
          [-116.99984, 37.63911],
          [-116.98301, 37.65765],
          [-116.98755, 37.67962],
          [-116.98117, 37.68665],
          [-116.96433, 37.70518],
          [-116.96887, 37.72715],
          [-116.96248, 37.73418],
          [-116.94563, 37.7527],
          [-116.93924, 37.75973],
          [-116.92238, 37.77825],
          [-116.92692, 37.80021],
          [-116.93145, 37.82217],
          [-116.93599, 37.84413],
          [-116.94053, 37.86608],
          [-116.94507, 37.88803],
          [-116.93867, 37.89506],
          [-116.92179, 37.91357],
          [-116.92633, 37.93551],
          [-116.93087, 37.95746],
          [-116.92447, 37.96448],
          [-116.90758, 37.98298],
          [-116.91211, 38.00493],
          [-116.91666, 38.02687],
          [-116.9212, 38.0488],
          [-116.92574, 38.07074],
          [-116.93029, 38.09267],
          [-116.93484, 38.11461],
          [-116.93939, 38.13653],
          [-116.94394, 38.15846],
          [-116.9485, 38.18039],
          [-116.95305, 38.20231],
          [-116.95761, 38.22423],
          [-116.96217, 38.24615],
          [-116.96673, 38.26806],
          [-116.96031, 38.27507],
          [-116.94338, 38.29356],
          [-116.94794, 38.31547],
          [-116.9525, 38.33738],
          [-116.97606, 38.35067],
          [-116.985, 38.3557],
          [-116.98957, 38.37761],
          [-116.99414, 38.39951],
          [-116.99872, 38.42141],
          [-117.00329, 38.44331],
          [-117.00787, 38.46521],
          [-117.00144, 38.47221],
          [-116.98448, 38.49068],
          [-116.97805, 38.49769],
          [-116.96108, 38.51615],
          [-116.95464, 38.52316],
          [-116.93767, 38.54162],
          [-116.93123, 38.54862],
          [-116.90324, 38.55219],
          [-116.88625, 38.57065],
          [-116.87981, 38.57765],
          [-116.86281, 38.5961],
          [-116.85636, 38.60309],
          [-116.83936, 38.62154],
          [-116.83291, 38.62853],
          [-116.81589, 38.64697],
          [-116.80944, 38.65397],
          [-116.78142, 38.65752],
          [-116.76439, 38.67595],
          [-116.76893, 38.69783],
          [-116.76247, 38.70482],
          [-116.74544, 38.72325],
          [-116.73897, 38.73024],
          [-116.72193, 38.74866],
          [-116.71546, 38.75565],
          [-116.69841, 38.77407],
          [-116.69194, 38.78105],
          [-116.67487, 38.79947],
          [-116.6684, 38.80645],
          [-116.65133, 38.82486],
          [-116.65585, 38.84673],
          [-116.64938, 38.85371],
          [-116.63229, 38.87211],
          [-116.62581, 38.87909],
          [-116.60872, 38.89749],
          [-116.61324, 38.91936],
          [-116.60676, 38.92633],
          [-116.58966, 38.94473],
          [-116.59417, 38.96658],
          [-116.58768, 38.97356],
          [-116.57057, 38.99195],
          [-116.56408, 38.99892],
          [-116.54696, 39.01731],
          [-116.55147, 39.03916],
          [-116.54497, 39.04613],
          [-116.52784, 39.06451],
          [-116.53235, 39.08635],
          [-116.52585, 39.09332],
          [-116.50871, 39.11169],
          [-116.5022, 39.11866],
          [-116.48505, 39.13703],
          [-116.48956, 39.15887],
          [-116.48305, 39.16583],
          [-116.46589, 39.18419],
          [-116.47039, 39.20603],
          [-116.46388, 39.21299],
          [-116.4467, 39.23135],
          [-116.4512, 39.25318],
          [-116.44468, 39.26014],
          [-116.4275, 39.27849],
          [-116.42098, 39.28545],
          [-116.40379, 39.30379],
          [-116.40828, 39.32562],
          [-116.40176, 39.33258],
          [-116.38456, 39.35091],
          [-116.38905, 39.37273],
          [-116.38252, 39.37969],
          [-116.36531, 39.39802],
          [-116.36979, 39.41984],
          [-116.37428, 39.44165],
          [-116.36775, 39.4486],
          [-116.35052, 39.46693],
          [-116.35501, 39.48874],
          [-116.34847, 39.49569],
          [-116.33124, 39.51401],
          [-116.32469, 39.52095],
          [-116.30745, 39.53927],
          [-116.31193, 39.56107],
          [-116.30539, 39.56802],
          [-116.2771, 39.57147],
          [-116.25984, 39.58977],
          [-116.26431, 39.61157],
          [-116.25776, 39.61852],
          [-116.24049, 39.63681],
          [-116.24496, 39.65861],
          [-116.23841, 39.66555],
          [-116.22112, 39.68384],
          [-116.21456, 39.69078],
          [-116.19727, 39.70907],
          [-116.19071, 39.716],
          [-116.1734, 39.73429],
          [-116.17787, 39.75607],
          [-116.1713, 39.76301],
          [-116.15399, 39.78129],
          [-116.15845, 39.80307],
          [-116.15188, 39.81],
          [-116.13455, 39.82827],
          [-116.13901, 39.85005],
          [-116.14347, 39.87182],
          [-116.14793, 39.89359],
          [-116.15239, 39.91536],
          [-116.15686, 39.93713],
          [-116.15028, 39.94405],
          [-116.13293, 39.96231],
          [-116.1374, 39.98407],
          [-116.13081, 39.991],
          [-116.11345, 40.00925],
          [-116.10687, 40.01617],
          [-116.0895, 40.03442],
          [-116.08291, 40.04134],
          [-116.06554, 40.05959],
          [-116.06999, 40.08134],
          [-116.0634, 40.08826],
          [-116.04601, 40.1065],
          [-116.05046, 40.12824],
          [-116.04386, 40.13516],
          [-116.02646, 40.15339],
          [-116.01986, 40.16031],
          [-116.00246, 40.17853],
          [-115.99585, 40.18545],
          [-115.97844, 40.20367],
          [-115.97183, 40.21058],
          [-115.94336, 40.21397],
          [-115.92593, 40.23218],
          [-115.91932, 40.23909],
          [-115.89084, 40.24247],
          [-115.86236, 40.24584],
          [-115.84492, 40.26405],
          [-115.8383, 40.27095],
          [-115.80981, 40.27431],
          [-115.79234, 40.29251],
          [-115.78572, 40.29941],
          [-115.75722, 40.30277],
          [-115.73974, 40.32096],
          [-115.73311, 40.32785],
          [-115.71563, 40.34604],
          [-115.70899, 40.35293],
          [-115.6915, 40.37111],
          [-115.68486, 40.378],
          [-115.66736, 40.39618],
          [-115.66072, 40.40307],
          [-115.64321, 40.42124],
          [-115.64759, 40.44296],
          [-115.64094, 40.44985],
          [-115.62342, 40.46802],
          [-115.6278, 40.48973],
          [-115.62115, 40.49662],
          [-115.60362, 40.51478],
          [-115.59696, 40.52166],
          [-115.57942, 40.53981],
          [-115.57277, 40.5467],
          [-115.55522, 40.56485],
          [-115.54856, 40.57173],
          [-115.531, 40.58987],
          [-115.52434, 40.59675],
          [-115.50677, 40.61489],
          [-115.5001, 40.62177],
          [-115.47151, 40.62507],
          [-115.45392, 40.6432],
          [-115.44725, 40.65008],
          [-115.41865, 40.65337],
          [-115.39004, 40.65666],
          [-115.36143, 40.65995],
          [-115.33282, 40.66323],
          [-115.3042, 40.66651],
          [-115.27559, 40.66978],
          [-115.24697, 40.67305],
          [-115.21835, 40.67631],
          [-115.2093, 40.67124],
          [-115.18543, 40.65787],
          [-115.15682, 40.66112],
          [-115.14777, 40.65604],
          [-115.12392, 40.64266],
          [-115.0953, 40.6459],
          [-115.06669, 40.64914],
          [-115.05764, 40.64406],
          [-115.03381, 40.63066],
          [-115.00519, 40.63389],
          [-114.97658, 40.63712],
          [-114.95891, 40.6552],
          [-114.9522, 40.66205],
          [-114.92358, 40.66527],
          [-114.89495, 40.66848],
          [-114.87726, 40.68655],
          [-114.87055, 40.6934],
          [-114.84191, 40.69661],
          [-114.8242, 40.71467],
          [-114.81749, 40.72152],
          [-114.78884, 40.72471],
          [-114.77112, 40.74276],
          [-114.7644, 40.74961],
          [-114.74667, 40.76766],
          [-114.73995, 40.7745],
          [-114.71128, 40.77768],
          [-114.69354, 40.79572],
          [-114.68681, 40.80256],
          [-114.66906, 40.8206],
          [-114.66232, 40.82744],
          [-114.63364, 40.8306],
          [-114.61588, 40.84863],
          [-114.60914, 40.85547],
          [-114.59137, 40.87349],
          [-114.58462, 40.88033],
          [-114.56684, 40.89834],
          [-114.56009, 40.90518],
          [-114.53139, 40.90833],
          [-114.51359, 40.92633],
          [-114.50684, 40.93316],
          [-114.47812, 40.93631],
          [-114.46031, 40.95431],
          [-114.45356, 40.96113],
          [-114.43574, 40.97913],
          [-114.42898, 40.98595],
          [-114.41115, 41.00395],
          [-114.40439, 41.01077],
          [-114.37565, 41.01389],
          [-114.3578, 41.03188],
          [-114.35103, 41.0387],
          [-114.32229, 41.04181],
          [-114.30443, 41.05979],
          [-114.29765, 41.0666],
          [-114.2689, 41.06971],
          [-114.25102, 41.08768],
          [-114.24424, 41.09449],
          [-114.21548, 41.09759],
          [-114.19759, 41.11554],
          [-114.19081, 41.12236],
          [-114.16203, 41.12544],
          [-114.13325, 41.12853],
          [-114.10447, 41.1316],
          [-114.07568, 41.13468],
          [-114.0469, 41.13774],
          [-114.01811, 41.14081],
          [-113.98932, 41.14387],
          [-113.98029, 41.13874],
          [-113.95648, 41.12524],
          [-113.9277, 41.12829],
          [-113.91867, 41.12316],
          [-113.89487, 41.10965],
          [-113.86609, 41.11269],
          [-113.85706, 41.10756],
          [-113.83328, 41.09404],
          [-113.82426, 41.0889],
          [-113.80048, 41.07537],
          [-113.7717, 41.0784],
          [-113.76269, 41.07327],
          [-113.73892, 41.05973],
          [-113.72991, 41.05459],
          [-113.70615, 41.04104],
          [-113.69714, 41.03591],
          [-113.67339, 41.02236],
          [-113.66439, 41.01721],
          [-113.64065, 41.00366],
          [-113.61189, 41.00666],
          [-113.58313, 41.00966],
          [-113.55436, 41.01265],
          [-113.53638, 41.03055],
          [-113.52955, 41.03734],
          [-113.50078, 41.04032],
          [-113.48278, 41.05821],
          [-113.47595, 41.065],
          [-113.44717, 41.06797],
          [-113.42915, 41.08586],
          [-113.43309, 41.10756],
          [-113.42625, 41.11434],
          [-113.40823, 41.13222],
          [-113.43197, 41.1458],
          [-113.44097, 41.15095],
          [-113.44492, 41.17264],
          [-113.44886, 41.19432],
          [-113.44202, 41.2011],
          [-113.4132, 41.20407],
          [-113.38437, 41.20703],
          [-113.35555, 41.20999],
          [-113.32672, 41.21294],
          [-113.30866, 41.2308],
          [-113.31258, 41.25248],
          [-113.30573, 41.25925],
          [-113.27688, 41.2622],
          [-113.2588, 41.28005],
          [-113.25195, 41.28682],
          [-113.23386, 41.30466],
          [-113.227, 41.31143],
          [-113.2089, 41.32927],
          [-113.20203, 41.33603],
          [-113.18393, 41.35387],
          [-113.17706, 41.36063],
          [-113.14819, 41.36355],
          [-113.13007, 41.38138],
          [-113.12319, 41.38814],
          [-113.09431, 41.39105],
          [-113.07617, 41.40887],
          [-113.06929, 41.41563],
          [-113.0404, 41.41853],
          [-113.0115, 41.42143],
          [-112.99335, 41.43924],
          [-112.98646, 41.44599],
          [-112.95756, 41.44888],
          [-112.92865, 41.45176],
          [-112.91048, 41.46956],
          [-112.90358, 41.47631],
          [-112.87467, 41.47918],
          [-112.85648, 41.49697],
          [-112.84958, 41.50372],
          [-112.82066, 41.50658],
          [-112.80245, 41.52436],
          [-112.79555, 41.53111],
          [-112.77734, 41.54888],
          [-112.77043, 41.55562],
          [-112.75221, 41.57339],
          [-112.7453, 41.58013],
          [-112.71635, 41.58298],
          [-112.69811, 41.60074],
          [-112.69119, 41.60748],
          [-112.66223, 41.61032],
          [-112.64399, 41.62807],
          [-112.63706, 41.6348],
          [-112.61881, 41.65255],
          [-112.61188, 41.65928],
          [-112.59361, 41.67703],
          [-112.5974, 41.69867],
          [-112.59046, 41.7054],
          [-112.57219, 41.72314],
          [-112.56525, 41.72986],
          [-112.54697, 41.74759],
          [-112.54003, 41.75432],
          [-112.52173, 41.77205],
          [-112.51479, 41.77877],
          [-112.48578, 41.78158],
          [-112.46747, 41.79929],
          [-112.46052, 41.80601],
          [-112.4422, 41.82373],
          [-112.43525, 41.83045],
          [-112.40622, 41.83324],
          [-112.37719, 41.83603],
          [-112.34815, 41.83882],
          [-112.31912, 41.8416],
          [-112.29008, 41.84437],
          [-112.27173, 41.86207],
          [-112.26476, 41.86878],
          [-112.23572, 41.87154],
          [-112.20667, 41.8743],
          [-112.17762, 41.87706],
          [-112.16861, 41.87187],
          [-112.14488, 41.85818],
          [-112.11583, 41.86093],
          [-112.10683, 41.85574],
          [-112.0831, 41.84204],
          [-112.05406, 41.84478],
          [-112.04506, 41.83958],
          [-112.02135, 41.82587],
          [-112, 41.82788]
        ]
      }
    },
    {
      "type": "Feature",
      "id": "2026091512_f240_12000_001",
      "properties": {
        "product_id": "winter_storm_levels",
        "source_id": "nbm_snow_level",
        "parameter": "snow_level",
        "definition": "height of the wet-bulb 0.5 degree C surface",
        "level_ft_msl": 12000,
        "label": "12,000 ft MSL",
        "unit": "ft_msl",
        "cycle_time_utc": "2026-09-15T12:00:00Z",
        "valid_time_utc": "2026-09-25T12:00:00Z",
        "lead_hours": 240,
        "segment": 1,
        "length_m": 1096873.6
      },
      "geometry": {
        "type": "LineString",
        "coordinates": [
          [-114.58699, 30.12741],
          [-114.58935, 30.14144],
          [-114.59314, 30.16395],
          [-114.61775, 30.17981],
          [-114.62297, 30.18317],
          [-114.62676, 30.20568],
          [-114.63056, 30.22819],
          [-114.62667, 30.2327],
          [-114.60831, 30.25397],
          [-114.6121, 30.27647],
          [-114.6159, 30.29898],
          [-114.6197, 30.32148],
          [-114.6158, 30.32599],
          [-114.59742, 30.34726],
          [-114.60122, 30.36976],
          [-114.60502, 30.39226],
          [-114.60882, 30.41476],
          [-114.61262, 30.43726],
          [-114.60872, 30.44177],
          [-114.59032, 30.46303],
          [-114.59412, 30.48553],
          [-114.59792, 30.50802],
          [-114.59401, 30.51253],
          [-114.5756, 30.53379],
          [-114.5794, 30.55628],
          [-114.5832, 30.57878],
          [-114.587, 30.60127],
          [-114.5831, 30.60578],
          [-114.56467, 30.62703],
          [-114.56847, 30.64952],
          [-114.56456, 30.65403],
          [-114.54612, 30.67528],
          [-114.54992, 30.69777],
          [-114.54601, 30.70228],
          [-114.52756, 30.72352],
          [-114.52364, 30.72803],
          [-114.50519, 30.74927],
          [-114.50898, 30.77176],
          [-114.51277, 30.79424],
          [-114.51657, 30.81673],
          [-114.51265, 30.82123],
          [-114.49417, 30.84247],
          [-114.49797, 30.86495],
          [-114.50176, 30.88744],
          [-114.50556, 30.90992],
          [-114.50935, 30.9324],
          [-114.51315, 30.95488],
          [-114.53791, 30.97073],
          [-114.56413, 30.96747],
          [-114.56938, 30.97083],
          [-114.57319, 30.99331],
          [-114.57701, 31.01578],
          [-114.58082, 31.03826],
          [-114.58464, 31.06073],
          [-114.58845, 31.0832],
          [-114.59227, 31.10568],
          [-114.58835, 31.11018],
          [-114.56984, 31.13142],
          [-114.56592, 31.13592],
          [-114.5474, 31.15715],
          [-114.55122, 31.17962],
          [-114.55503, 31.20209],
          [-114.5511, 31.20659],
          [-114.53257, 31.22782],
          [-114.52864, 31.23232],
          [-114.51011, 31.25354],
          [-114.50617, 31.25804],
          [-114.48763, 31.27926],
          [-114.48369, 31.28376],
          [-114.46514, 31.30498],
          [-114.48997, 31.32083],
          [-114.49524, 31.32419],
          [-114.49905, 31.34665],
          [-114.49511, 31.35115],
          [-114.47655, 31.37237],
          [-114.48036, 31.39483],
          [-114.48417, 31.41729],
          [-114.48798, 31.43975],
          [-114.48404, 31.44425],
          [-114.46546, 31.46545],
          [-114.46927, 31.48791],
          [-114.46532, 31.49241],
          [-114.43899, 31.49565],
          [-114.41265, 31.49889],
          [-114.39405, 31.52009],
          [-114.39784, 31.54255],
          [-114.40164, 31.565],
          [-114.39769, 31.5695],
          [-114.37908, 31.59069],
          [-114.37513, 31.59519],
          [-114.34877, 31.59842],
          [-114.33014, 31.6196],
          [-114.33393, 31.64205],
          [-114.32997, 31.64655],
          [-114.31133, 31.66773],
          [-114.30738, 31.67222],
          [-114.28873, 31.6934],
          [-114.29251, 31.71585],
          [-114.28856, 31.72034],
          [-114.2699, 31.74151],
          [-114.27367, 31.76396],
          [-114.26972, 31.76845],
          [-114.25105, 31.78962],
          [-114.24708, 31.79411],
          [-114.22841, 31.81528],
          [-114.22444, 31.81977],
          [-114.20576, 31.84093],
          [-114.20179, 31.84542],
          [-114.17537, 31.84861],
          [-114.15667, 31.86977],
          [-114.16043, 31.89221],
          [-114.15646, 31.8967],
          [-114.13775, 31.91785],
          [-114.13378, 31.92234],
          [-114.11506, 31.94348],
          [-114.11881, 31.96592],
          [-114.12257, 31.98837],
          [-114.12633, 32.01081],
          [-114.12235, 32.01529],
          [-114.10362, 32.03643],
          [-114.10737, 32.05887],
          [-114.11113, 32.08131],
          [-114.11489, 32.10374],
          [-114.11865, 32.12618],
          [-114.12241, 32.14861],
          [-114.11843, 32.1531],
          [-114.09967, 32.17423],
          [-114.09569, 32.17871],
          [-114.07692, 32.19984],
          [-114.07294, 32.20432],
          [-114.05416, 32.22545],
          [-114.05018, 32.22993],
          [-114.02366, 32.2331],
          [-114.00487, 32.25422],
          [-114.00088, 32.2587],
          [-113.97436, 32.26186],
          [-113.95555, 32.28297],
          [-113.95157, 32.28745],
          [-113.94627, 32.28407],
          [-113.9213, 32.26817],
          [-113.90249, 32.28927],
          [-113.8985, 32.29375],
          [-113.87967, 32.31485],
          [-113.87568, 32.31933],
          [-113.85685, 32.34042],
          [-113.85285, 32.3449],
          [-113.83401, 32.36599],
          [-113.83772, 32.38842],
          [-113.84144, 32.41084],
          [-113.84516, 32.43327],
          [-113.84116, 32.43774],
          [-113.8223, 32.45883],
          [-113.84729, 32.47474],
          [-113.85259, 32.47812],
          [-113.87759, 32.49402],
          [-113.8829, 32.4974],
          [-113.8789, 32.50187],
          [-113.86004, 32.52296],
          [-113.86376, 32.54538],
          [-113.86749, 32.5678],
          [-113.87121, 32.59021],
          [-113.87494, 32.61263],
          [-113.87094, 32.6171],
          [-113.85205, 32.63818],
          [-113.85578, 32.6606],
          [-113.85951, 32.68301],
          [-113.8555, 32.68748],
          [-113.8366, 32.70855],
          [-113.84033, 32.73096],
          [-113.83632, 32.73543],
          [-113.81741, 32.7565],
          [-113.8134, 32.76097],
          [-113.79448, 32.78204],
          [-113.79047, 32.78651],
          [-113.77154, 32.80757],
          [-113.77526, 32.82998],
          [-113.77124, 32.83445],
          [-113.75231, 32.8555],
          [-113.75602, 32.87791],
          [-113.752, 32.88237],
          [-113.73305, 32.90343],
          [-113.73677, 32.92583],
          [-113.74048, 32.94823],
          [-113.73646, 32.95269],
          [-113.71749, 32.97374],
          [-113.7212, 32.99614],
          [-113.72492, 33.01853],
          [-113.75002, 33.03444],
          [-113.75534, 33.03781],
          [-113.75132, 33.04228],
          [-113.73234, 33.06332],
          [-113.73606, 33.08572],
          [-113.73978, 33.10811],
          [-113.7435, 33.1305],
          [-113.73947, 33.13496],
          [-113.72048, 33.156],
          [-113.71645, 33.16046],
          [-113.69745, 33.18149],
          [-113.70116, 33.20388],
          [-113.7263, 33.21978],
          [-113.73163, 33.22315],
          [-113.7276, 33.22762],
          [-113.70859, 33.24865],
          [-113.71231, 33.27103],
          [-113.71603, 33.29341],
          [-113.71975, 33.31579],
          [-113.71571, 33.32025],
          [-113.69668, 33.34128],
          [-113.7004, 33.36365],
          [-113.70412, 33.38603],
          [-113.70784, 33.4084],
          [-113.71157, 33.43077],
          [-113.70753, 33.43523],
          [-113.68848, 33.45625],
          [-113.6922, 33.47862],
          [-113.69592, 33.50099],
          [-113.69188, 33.50545],
          [-113.67281, 33.52646],
          [-113.67653, 33.54883],
          [-113.68026, 33.57119],
          [-113.68398, 33.59355],
          [-113.67993, 33.59801],
          [-113.66085, 33.61902],
          [-113.66457, 33.64138],
          [-113.66829, 33.66374],
          [-113.66424, 33.66819],
          [-113.63738, 33.67129],
          [-113.61828, 33.69228],
          [-113.61422, 33.69674],
          [-113.59511, 33.71773],
          [-113.59106, 33.72218],
          [-113.57194, 33.74317],
          [-113.56788, 33.74762],
          [-113.54875, 33.7686],
          [-113.55246, 33.79096],
          [-113.5484, 33.79541],
          [-113.52926, 33.81639],
          [-113.53296, 33.83874],
          [-113.5289, 33.84319],
          [-113.50975, 33.86416],
          [-113.51345, 33.88651],
          [-113.51715, 33.90886],
          [-113.52085, 33.9312],
          [-113.52455, 33.95355],
          [-113.52825, 33.97589],
          [-113.53196, 33.99823],
          [-113.53567, 34.02057],
          [-113.5316, 34.02502],
          [-113.51242, 34.04598],
          [-113.51612, 34.06832],
          [-113.51983, 34.09065],
          [-113.52354, 34.11299],
          [-113.52725, 34.13532],
          [-113.53096, 34.15765],
          [-113.52688, 34.1621],
          [-113.50768, 34.18305],
          [-113.51139, 34.20538],
          [-113.53672, 34.22127],
          [-113.5421, 34.22464],
          [-113.54582, 34.24696],
          [-113.54953, 34.26928],
          [-113.54546, 34.27373],
          [-113.52624, 34.29468],
          [-113.52995, 34.317],
          [-113.53367, 34.33932],
          [-113.53739, 34.36164],
          [-113.54111, 34.38395],
          [-113.54483, 34.40627],
          [-113.54855, 34.42858],
          [-113.55228, 34.45089],
          [-113.55601, 34.4732],
          [-113.55973, 34.49551],
          [-113.56346, 34.51781],
          [-113.56719, 34.54012],
          [-113.57093, 34.56242],
          [-113.57466, 34.58472],
          [-113.5784, 34.60702],
          [-113.57431, 34.61146],
          [-113.55503, 34.63239],
          [-113.55877, 34.65469],
          [-113.5625, 34.67699],
          [-113.56624, 34.69928],
          [-113.56998, 34.72157],
          [-113.57371, 34.74386],
          [-113.56962, 34.7483],
          [-113.55032, 34.76922],
          [-113.55406, 34.79151],
          [-113.54996, 34.79595],
          [-113.53065, 34.81686],
          [-113.53439, 34.83915],
          [-113.53812, 34.86143],
          [-113.53402, 34.86587],
          [-113.5147, 34.88678],
          [-113.51843, 34.90906],
          [-113.51433, 34.91349],
          [-113.49499, 34.9344],
          [-113.49872, 34.95667],
          [-113.50246, 34.97895],
          [-113.49835, 34.98338],
          [-113.479, 35.00428],
          [-113.47489, 35.00871],
          [-113.4477, 35.01177],
          [-113.42833, 35.03266],
          [-113.42422, 35.03709],
          [-113.40485, 35.05797],
          [-113.40073, 35.0624],
          [-113.37352, 35.06544],
          [-113.35413, 35.08632],
          [-113.35002, 35.09075],
          [-113.3228, 35.09378],
          [-113.3034, 35.11465],
          [-113.29928, 35.11907],
          [-113.27986, 35.13994],
          [-113.27575, 35.14436],
          [-113.25632, 35.16523],
          [-113.2522, 35.16965],
          [-113.23277, 35.19051],
          [-113.23646, 35.21277],
          [-113.23233, 35.21719],
          [-113.21289, 35.23804],
          [-113.20876, 35.24247],
          [-113.18931, 35.26331],
          [-113.18518, 35.26773],
          [-113.15792, 35.27074],
          [-113.13845, 35.29157],
          [-113.13432, 35.29599],
          [-113.11484, 35.31683],
          [-113.11071, 35.32125],
          [-113.09122, 35.34208],
          [-113.08709, 35.34649],
          [-113.0676, 35.36732],
          [-113.06346, 35.37174],
          [-113.04396, 35.39256],
          [-113.03982, 35.39697],
          [-113.02031, 35.41779],
          [-113.01617, 35.4222],
          [-112.99665, 35.44301],
          [-113.00029, 35.46527],
          [-113.00394, 35.48751],
          [-112.9998, 35.49193],
          [-112.98026, 35.51273],
          [-112.98391, 35.53498],
          [-112.98756, 35.55722],
          [-112.99121, 35.57947],
          [-112.99486, 35.60171],
          [-112.99851, 35.62395],
          [-113.00217, 35.64618],
          [-113.00582, 35.66842],
          [-113.00948, 35.69065],
          [-113.01314, 35.71289],
          [-113.0168, 35.73512],
          [-113.02046, 35.75734],
          [-113.02412, 35.77957],
          [-113.02779, 35.8018],
          [-113.03145, 35.82402],
          [-113.0273, 35.82843],
          [-113.00771, 35.84921],
          [-113.01137, 35.87143],
          [-113.00721, 35.87584],
          [-112.98761, 35.89662],
          [-112.99127, 35.91883],
          [-112.98711, 35.92324],
          [-112.9675, 35.94401],
          [-112.97116, 35.96622],
          [-112.96699, 35.97063],
          [-112.94737, 35.9914],
          [-112.9432, 35.9958],
          [-112.91575, 35.99876],
          [-112.89611, 36.01951],
          [-112.89194, 36.02392],
          [-112.86448, 36.02686],
          [-112.84482, 36.04761],
          [-112.84065, 36.05201],
          [-112.82098, 36.07276],
          [-112.81681, 36.07716],
          [-112.79713, 36.0979],
          [-112.80076, 36.1201],
          [-112.79659, 36.1245],
          [-112.7691, 36.12743],
          [-112.74941, 36.14816],
          [-112.74523, 36.15256],
          [-112.72552, 36.17328],
          [-112.72134, 36.17768],
          [-112.69384, 36.1806],
          [-112.67412, 36.20132],
          [-112.67773, 36.22351],
          [-112.67355, 36.22791],
          [-112.65382, 36.24862],
          [-112.64963, 36.25301],
          [-112.62989, 36.27372],
          [-112.6257, 36.27811],
          [-112.60596, 36.29882],
          [-112.60177, 36.30321],
          [-112.58201, 36.32391],
          [-112.57782, 36.3283],
          [-112.55805, 36.34899],
          [-112.56164, 36.37118],
          [-112.55745, 36.37557],
          [-112.53767, 36.39625],
          [-112.54125, 36.41844],
          [-112.53706, 36.42283],
          [-112.51727, 36.44351],
          [-112.52085, 36.46569],
          [-112.52444, 36.48787],
          [-112.52024, 36.49226],
          [-112.50043, 36.51293],
          [-112.49623, 36.51732],
          [-112.47641, 36.53799],
          [-112.47221, 36.54237],
          [-112.45238, 36.56304],
          [-112.44818, 36.56742],
          [-112.42834, 36.58808],
          [-112.42413, 36.59246],
          [-112.40429, 36.61312],
          [-112.40008, 36.6175],
          [-112.38023, 36.63815],
          [-112.37602, 36.64253],
          [-112.35615, 36.66317],
          [-112.35971, 36.68534],
          [-112.3555, 36.68972],
          [-112.33562, 36.71036],
          [-112.33918, 36.73252],
          [-112.33496, 36.7369],
          [-112.31508, 36.75753],
          [-112.31863, 36.77969],
          [-112.31441, 36.78407],
          [-112.29451, 36.8047],
          [-112.29806, 36.82685],
          [-112.30161, 36.84901],
          [-112.29739, 36.85338],
          [-112.27747, 36.874],
          [-112.28102, 36.89615],
          [-112.28457, 36.9183],
          [-112.28813, 36.94045],
          [-112.29168, 36.9626],
          [-112.29523, 36.98474],
          [-112.29879, 37.00688],
          [-112.3246, 37.0228],
          [-112.33008, 37.02618],
          [-112.3559, 37.04209],
          [-112.38363, 37.03924],
          [-112.38911, 37.04261],
          [-112.41494, 37.05852],
          [-112.44268, 37.05566],
          [-112.44816, 37.05903],
          [-112.47401, 37.07492],
          [-112.47949, 37.07829],
          [-112.50535, 37.09418],
          [-112.53309, 37.09131],
          [-112.53857, 37.09468],
          [-112.56444, 37.11055],
          [-112.59219, 37.10767],
          [-112.59768, 37.11104],
          [-112.6013, 37.13316],
          [-112.62718, 37.14903],
          [-112.63268, 37.15239],
          [-112.63631, 37.17451],
          [-112.66221, 37.19037],
          [-112.6677, 37.19373],
          [-112.67134, 37.21585],
          [-112.67498, 37.23796],
          [-112.67863, 37.26007],
          [-112.70456, 37.27592],
          [-112.71006, 37.27928],
          [-112.71371, 37.30139],
          [-112.71736, 37.32349],
          [-112.74331, 37.33933],
          [-112.74881, 37.34269],
          [-112.75248, 37.36479],
          [-112.77844, 37.38061],
          [-112.78395, 37.38397],
          [-112.78762, 37.40607],
          [-112.8136, 37.42189],
          [-112.81911, 37.42524],
          [-112.82279, 37.44733],
          [-112.82647, 37.46942],
          [-112.85247, 37.48523],
          [-112.85798, 37.48859],
          [-112.86167, 37.51067],
          [-112.86536, 37.53276],
          [-112.86905, 37.55484],
          [-112.87275, 37.57691],
          [-112.86852, 37.58129],
          [-112.84858, 37.60192],
          [-112.84435, 37.60629],
          [-112.8244, 37.62691],
          [-112.82017, 37.63129],
          [-112.81464, 37.62793],
          [-112.78861, 37.61213],
          [-112.76074, 37.61504],
          [-112.75523, 37.61168],
          [-112.72921, 37.59587],
          [-112.70134, 37.59877],
          [-112.69582, 37.59541],
          [-112.66982, 37.57959],
          [-112.66431, 37.57623],
          [-112.63831, 37.56039],
          [-112.6328, 37.55703],
          [-112.60681, 37.5412],
          [-112.6013, 37.53784],
          [-112.57533, 37.52199],
          [-112.56982, 37.51863],
          [-112.54385, 37.50278],
          [-112.516, 37.50565],
          [-112.5105, 37.50229],
          [-112.48454, 37.48642],
          [-112.4567, 37.48929],
          [-112.45119, 37.48592],
          [-112.42525, 37.47005],
          [-112.39741, 37.4729],
          [-112.36957, 37.47575],
          [-112.34172, 37.4786],
          [-112.3217, 37.49917],
          [-112.31745, 37.50353],
          [-112.29742, 37.5241],
          [-112.29317, 37.52847],
          [-112.26531, 37.5313],
          [-112.24526, 37.55186],
          [-112.24101, 37.55622],
          [-112.21314, 37.55904],
          [-112.19308, 37.57959],
          [-112.18882, 37.58395],
          [-112.16094, 37.58676],
          [-112.14087, 37.60731],
          [-112.13661, 37.61166],
          [-112.10872, 37.61447],
          [-112.08083, 37.61727],
          [-112.06073, 37.6378],
          [-112.05647, 37.64216],
          [-112.02857, 37.64495],
          [-112.00846, 37.66547],
          [-112.00419, 37.66982],
          [-112, 37.67024]
        ]
      }
    }
  ]
}

