{
  "type": "FeatureCollection",
  "contract_version": "1.0.0",
  "bbox": [-130, 30.1806, -112, 42.69745],
  "features": [
    {
      "type": "Feature",
      "id": "2026100118_f234_10000_001",
      "properties": {
        "product_id": "winter_storm_levels",
        "source_id": "nbm_snow_level",
        "parameter": "snow_level",
        "definition": "height of the wet-bulb 0.5 degree C surface",
        "level_ft_msl": 10000,
        "label": "10,000 ft MSL",
        "unit": "ft_msl",
        "cycle_time_utc": "2026-10-01T18:00:00Z",
        "valid_time_utc": "2026-10-11T12:00:00Z",
        "lead_hours": 234,
        "segment": 1,
        "length_m": 2580484.5
      },
      "geometry": {
        "type": "LineString",
        "coordinates": [
          [-130, 33.73447],
          [-129.98799, 33.7371],
          [-129.96175, 33.74286],
          [-129.93551, 33.74861],
          [-129.90926, 33.75436],
          [-129.88301, 33.76011],
          [-129.85676, 33.76585],
          [-129.83051, 33.77158],
          [-129.81808, 33.76555],
          [-129.79736, 33.75549],
          [-129.77111, 33.76121],
          [-129.74485, 33.76694],
          [-129.71859, 33.77265],
          [-129.69233, 33.77837],
          [-129.6799, 33.77232],
          [-129.67304, 33.75049],
          [-129.65233, 33.74041],
          [-129.62608, 33.74612],
          [-129.59982, 33.75181],
          [-129.57355, 33.75751],
          [-129.56141, 33.77471],
          [-129.55413, 33.78504],
          [-129.54199, 33.80224],
          [-129.5347, 33.81256],
          [-129.52255, 33.82976],
          [-129.52939, 33.85159],
          [-129.5221, 33.86191],
          [-129.50994, 33.87911],
          [-129.50264, 33.88942],
          [-129.49048, 33.90662],
          [-129.48318, 33.91693],
          [-129.47101, 33.93412],
          [-129.46371, 33.94444],
          [-129.43739, 33.9501],
          [-129.42521, 33.96729],
          [-129.4179, 33.9776],
          [-129.40572, 33.99478],
          [-129.39841, 34.00509],
          [-129.38621, 34.02227],
          [-129.3789, 34.03258],
          [-129.35256, 34.03823],
          [-129.34036, 34.05541],
          [-129.33303, 34.06571],
          [-129.32082, 34.08288],
          [-129.3135, 34.09319],
          [-129.28714, 34.09883],
          [-129.27492, 34.116],
          [-129.26759, 34.1263],
          [-129.25536, 34.14346],
          [-129.24803, 34.15376],
          [-129.22165, 34.15939],
          [-129.20942, 34.17655],
          [-129.21622, 34.19837],
          [-129.20888, 34.20867],
          [-129.19663, 34.22582],
          [-129.18929, 34.23611],
          [-129.17704, 34.25327],
          [-129.16969, 34.26356],
          [-129.14328, 34.26917],
          [-129.13102, 34.28632],
          [-129.12366, 34.29661],
          [-129.09725, 34.30222],
          [-129.08498, 34.31936],
          [-129.07761, 34.32965],
          [-129.06534, 34.34679],
          [-129.05797, 34.35707],
          [-129.04569, 34.37421],
          [-129.03832, 34.38449],
          [-129.01188, 34.39008],
          [-128.98543, 34.39567],
          [-128.95899, 34.40126],
          [-128.94669, 34.41838],
          [-128.9393, 34.42866],
          [-128.927, 34.44578],
          [-128.91961, 34.45606],
          [-128.9073, 34.47318],
          [-128.89991, 34.48345],
          [-128.88759, 34.50057],
          [-128.88019, 34.51084],
          [-128.86786, 34.52795],
          [-128.86047, 34.53822],
          [-128.83398, 34.54378],
          [-128.82164, 34.56089],
          [-128.81424, 34.57116],
          [-128.78775, 34.57671],
          [-128.7754, 34.59382],
          [-128.76799, 34.60408],
          [-128.74148, 34.60963],
          [-128.71497, 34.61517],
          [-128.68846, 34.62071],
          [-128.66195, 34.62624],
          [-128.64958, 34.64333],
          [-128.64215, 34.65359],
          [-128.61563, 34.65911],
          [-128.5891, 34.66464],
          [-128.57671, 34.68172],
          [-128.56928, 34.69197],
          [-128.54274, 34.69748],
          [-128.53034, 34.71457],
          [-128.5229, 34.72481],
          [-128.49636, 34.73032],
          [-128.46981, 34.73582],
          [-128.45739, 34.75289],
          [-128.44994, 34.76313],
          [-128.42338, 34.76863],
          [-128.39682, 34.77412],
          [-128.37026, 34.7796],
          [-128.34369, 34.78508],
          [-128.33125, 34.80214],
          [-128.32378, 34.81238],
          [-128.29721, 34.81785],
          [-128.27063, 34.82331],
          [-128.24404, 34.82878],
          [-128.21746, 34.83424],
          [-128.19087, 34.83969],
          [-128.16428, 34.84514],
          [-128.13769, 34.85059],
          [-128.11109, 34.85603],
          [-128.08449, 34.86146],
          [-128.05789, 34.8669],
          [-128.0454, 34.88393],
          [-128.03791, 34.89415],
          [-128.01129, 34.89957],
          [-127.98468, 34.90499],
          [-127.95806, 34.91041],
          [-127.93145, 34.91582],
          [-127.90482, 34.92123],
          [-127.8782, 34.92663],
          [-127.85157, 34.93203],
          [-127.82495, 34.93742],
          [-127.79831, 34.94281],
          [-127.77168, 34.9482],
          [-127.74504, 34.95358],
          [-127.73259, 34.94741],
          [-127.71185, 34.93712],
          [-127.68521, 34.94249],
          [-127.65857, 34.94786],
          [-127.64613, 34.94168],
          [-127.62539, 34.93138],
          [-127.59875, 34.93674],
          [-127.58618, 34.95373],
          [-127.57864, 34.96393],
          [-127.55199, 34.96928],
          [-127.53941, 34.98627],
          [-127.53186, 34.99646],
          [-127.51927, 35.01345],
          [-127.51172, 35.02364],
          [-127.49912, 35.04063],
          [-127.49156, 35.05082],
          [-127.47897, 35.0678],
          [-127.4714, 35.07799],
          [-127.44472, 35.08332],
          [-127.43211, 35.10029],
          [-127.42454, 35.11048],
          [-127.41193, 35.12745],
          [-127.40436, 35.13763],
          [-127.39173, 35.1546],
          [-127.38416, 35.16478],
          [-127.37153, 35.18175],
          [-127.36395, 35.19193],
          [-127.35132, 35.20889],
          [-127.35782, 35.23072],
          [-127.35023, 35.2409],
          [-127.33759, 35.25786],
          [-127.34409, 35.27969],
          [-127.35059, 35.30151],
          [-127.3571, 35.32334],
          [-127.36361, 35.34516],
          [-127.3844, 35.35547],
          [-127.39687, 35.36166],
          [-127.38929, 35.37184],
          [-127.37663, 35.38879],
          [-127.38315, 35.41061],
          [-127.38967, 35.43242],
          [-127.39619, 35.45423],
          [-127.417, 35.46454],
          [-127.42949, 35.47073],
          [-127.43603, 35.49254],
          [-127.44256, 35.51434],
          [-127.4491, 35.53614],
          [-127.45564, 35.55795],
          [-127.46218, 35.57975],
          [-127.46872, 35.60154],
          [-127.48957, 35.61184],
          [-127.50208, 35.61801],
          [-127.52294, 35.62831],
          [-127.54975, 35.62297],
          [-127.56226, 35.62914],
          [-127.58312, 35.63943],
          [-127.60993, 35.63408],
          [-127.62245, 35.64025],
          [-127.64332, 35.65052],
          [-127.65585, 35.65669],
          [-127.67672, 35.66696],
          [-127.70354, 35.6616],
          [-127.73035, 35.65624],
          [-127.75715, 35.65087],
          [-127.78396, 35.6455],
          [-127.79649, 35.65166],
          [-127.81738, 35.66191],
          [-127.84418, 35.65653],
          [-127.85672, 35.66268],
          [-127.87761, 35.67292],
          [-127.90442, 35.66753],
          [-127.93122, 35.66214],
          [-127.94376, 35.66828],
          [-127.96466, 35.67851],
          [-127.99147, 35.67311],
          [-128.00401, 35.67925],
          [-128.02492, 35.68947],
          [-128.03747, 35.69561],
          [-128.04414, 35.71737],
          [-128.06506, 35.72759],
          [-128.07762, 35.73372],
          [-128.09855, 35.74394],
          [-128.11111, 35.75007],
          [-128.11779, 35.77182],
          [-128.13873, 35.78203],
          [-128.1513, 35.78816],
          [-128.17224, 35.79836],
          [-128.18481, 35.80448],
          [-128.19152, 35.82623],
          [-128.21247, 35.83643],
          [-128.22505, 35.84255],
          [-128.24601, 35.85274],
          [-128.2586, 35.85885],
          [-128.27957, 35.86904],
          [-128.29215, 35.87515],
          [-128.31313, 35.88533],
          [-128.32571, 35.89144],
          [-128.33245, 35.91318],
          [-128.35344, 35.92336],
          [-128.36603, 35.92946],
          [-128.38702, 35.93963],
          [-128.39962, 35.94573],
          [-128.42062, 35.9559],
          [-128.43322, 35.962],
          [-128.45423, 35.97216],
          [-128.48108, 35.96668],
          [-128.49369, 35.97278],
          [-128.5147, 35.98293],
          [-128.52731, 35.98902],
          [-128.54833, 35.99917],
          [-128.57518, 35.99368],
          [-128.5878, 35.99976],
          [-128.60882, 36.00991],
          [-128.62144, 36.01599],
          [-128.64248, 36.02612],
          [-128.6551, 36.0322],
          [-128.67614, 36.04234],
          [-128.70299, 36.03683],
          [-128.71562, 36.0429],
          [-128.73667, 36.05302],
          [-128.7493, 36.0591],
          [-128.77035, 36.06922],
          [-128.79721, 36.06369],
          [-128.80985, 36.06976],
          [-128.83091, 36.07987],
          [-128.84355, 36.08593],
          [-128.86461, 36.09604],
          [-128.89147, 36.0905],
          [-128.90412, 36.09656],
          [-128.92519, 36.10666],
          [-128.93784, 36.11271],
          [-128.95892, 36.12281],
          [-128.97157, 36.12886],
          [-128.99266, 36.13895],
          [-129.00531, 36.145],
          [-129.02641, 36.15508],
          [-129.05327, 36.14952],
          [-129.06593, 36.15557],
          [-129.08703, 36.16564],
          [-129.1139, 36.16007],
          [-129.12656, 36.16611],
          [-129.14767, 36.17618],
          [-129.16034, 36.18222],
          [-129.18146, 36.19228],
          [-129.19413, 36.19831],
          [-129.21525, 36.20837],
          [-129.22792, 36.21441],
          [-129.24905, 36.22446],
          [-129.26173, 36.23049],
          [-129.26867, 36.25216],
          [-129.28981, 36.26221],
          [-129.3025, 36.26824],
          [-129.30945, 36.28991],
          [-129.3164, 36.31158],
          [-129.32336, 36.33324],
          [-129.33032, 36.35491],
          [-129.33728, 36.37657],
          [-129.34425, 36.39823],
          [-129.35121, 36.41989],
          [-129.35818, 36.44155],
          [-129.3507, 36.45177],
          [-129.33823, 36.46881],
          [-129.3452, 36.49046],
          [-129.33772, 36.50068],
          [-129.32524, 36.51772],
          [-129.33221, 36.53937],
          [-129.32472, 36.54959],
          [-129.31223, 36.56662],
          [-129.31921, 36.58826],
          [-129.31171, 36.59848],
          [-129.29922, 36.6155],
          [-129.29172, 36.62572],
          [-129.27922, 36.64274],
          [-129.27172, 36.65295],
          [-129.25921, 36.66997],
          [-129.2517, 36.68018],
          [-129.23919, 36.6972],
          [-129.23168, 36.70741],
          [-129.21916, 36.72442],
          [-129.22612, 36.74606],
          [-129.21861, 36.75627],
          [-129.20608, 36.77327],
          [-129.19856, 36.78348],
          [-129.18603, 36.80048],
          [-129.17851, 36.81069],
          [-129.16597, 36.82769],
          [-129.15844, 36.83789],
          [-129.1459, 36.85489],
          [-129.15286, 36.87652],
          [-129.14533, 36.88672],
          [-129.13277, 36.90371],
          [-129.12524, 36.91391],
          [-129.11268, 36.9309],
          [-129.11963, 36.95252],
          [-129.1121, 36.96272],
          [-129.09953, 36.9797],
          [-129.10648, 37.00132],
          [-129.09894, 37.01151],
          [-129.08637, 37.0285],
          [-129.09332, 37.05011],
          [-129.08577, 37.0603],
          [-129.07319, 37.07728],
          [-129.06564, 37.08747],
          [-129.05305, 37.10444],
          [-129.06001, 37.12606],
          [-129.05245, 37.13624],
          [-129.03985, 37.15321],
          [-129.03229, 37.16339],
          [-129.01969, 37.18036],
          [-129.02664, 37.20197],
          [-129.01908, 37.21215],
          [-129.00647, 37.22911],
          [-129.01342, 37.25071],
          [-129.00585, 37.26089],
          [-128.99323, 37.27785],
          [-128.98566, 37.28802],
          [-128.97303, 37.30498],
          [-128.97998, 37.32658],
          [-128.97241, 37.33675],
          [-128.95977, 37.3537],
          [-128.96673, 37.3753],
          [-128.95914, 37.38547],
          [-128.9465, 37.40241],
          [-128.95346, 37.424],
          [-128.96041, 37.44559],
          [-128.95282, 37.45576],
          [-128.94017, 37.4727],
          [-128.93258, 37.48287],
          [-128.91992, 37.4998],
          [-128.92688, 37.52139],
          [-128.93383, 37.54297],
          [-128.92624, 37.55313],
          [-128.91357, 37.57006],
          [-128.92053, 37.59164],
          [-128.91293, 37.6018],
          [-128.90025, 37.61873],
          [-128.89265, 37.62888],
          [-128.87997, 37.64581],
          [-128.87236, 37.65596],
          [-128.85967, 37.67289],
          [-128.85206, 37.68304],
          [-128.83936, 37.69996],
          [-128.83175, 37.71011],
          [-128.81905, 37.72702],
          [-128.81142, 37.73717],
          [-128.79872, 37.75408],
          [-128.79109, 37.76423],
          [-128.76381, 37.76972],
          [-128.75109, 37.78662],
          [-128.74346, 37.79676],
          [-128.73074, 37.81367],
          [-128.7231, 37.82381],
          [-128.71037, 37.84071],
          [-128.70273, 37.85085],
          [-128.67542, 37.85632],
          [-128.66268, 37.87321],
          [-128.65504, 37.88334],
          [-128.62772, 37.88881],
          [-128.6004, 37.89427],
          [-128.58764, 37.91115],
          [-128.57998, 37.92128],
          [-128.55265, 37.92673],
          [-128.53988, 37.94361],
          [-128.53222, 37.95374],
          [-128.50487, 37.95918],
          [-128.49209, 37.97605],
          [-128.48442, 37.98617],
          [-128.45707, 37.99161],
          [-128.44428, 38.00848],
          [-128.4366, 38.01859],
          [-128.4238, 38.03546],
          [-128.43069, 38.05701],
          [-128.42301, 38.06713],
          [-128.4102, 38.08399],
          [-128.41709, 38.10554],
          [-128.4094, 38.11565],
          [-128.39659, 38.13251],
          [-128.3889, 38.14262],
          [-128.3615, 38.14804],
          [-128.34868, 38.16488],
          [-128.34098, 38.17499],
          [-128.32815, 38.19184],
          [-128.32044, 38.20194],
          [-128.29303, 38.20735],
          [-128.28018, 38.22419],
          [-128.27247, 38.23429],
          [-128.24505, 38.23968],
          [-128.23219, 38.25652],
          [-128.22448, 38.26662],
          [-128.21161, 38.28345],
          [-128.20389, 38.29354],
          [-128.17645, 38.29892],
          [-128.16357, 38.31575],
          [-128.15585, 38.32584],
          [-128.12839, 38.33121],
          [-128.10093, 38.33658],
          [-128.07347, 38.34195],
          [-128.046, 38.34731],
          [-128.01853, 38.35266],
          [-127.99106, 38.35801],
          [-127.96359, 38.36336],
          [-127.95067, 38.38016],
          [-127.94292, 38.39024],
          [-127.91544, 38.39558],
          [-127.88795, 38.40091],
          [-127.87502, 38.41771],
          [-127.86726, 38.42778],
          [-127.83976, 38.43311],
          [-127.81226, 38.43843],
          [-127.78475, 38.44375],
          [-127.75724, 38.44906],
          [-127.72973, 38.45436],
          [-127.70222, 38.45967],
          [-127.67471, 38.46496],
          [-127.64719, 38.47026],
          [-127.63421, 38.48703],
          [-127.62642, 38.49709],
          [-127.59889, 38.50238],
          [-127.57136, 38.50766],
          [-127.54383, 38.51293],
          [-127.51629, 38.5182],
          [-127.48875, 38.52347],
          [-127.47574, 38.54023],
          [-127.46793, 38.55028],
          [-127.44038, 38.55554],
          [-127.41283, 38.56079],
          [-127.38528, 38.56604],
          [-127.37224, 38.58279],
          [-127.36442, 38.59283],
          [-127.33686, 38.59807],
          [-127.30929, 38.60331],
          [-127.29624, 38.62005],
          [-127.28841, 38.63009],
          [-127.26083, 38.63531],
          [-127.24777, 38.65204],
          [-127.23993, 38.66208],
          [-127.21234, 38.6673],
          [-127.18475, 38.67252],
          [-127.15715, 38.67773],
          [-127.12955, 38.68293],
          [-127.10195, 38.68813],
          [-127.07435, 38.69333],
          [-127.0615, 38.6872],
          [-127.04009, 38.67698],
          [-127.01249, 38.68216],
          [-126.98488, 38.68735],
          [-126.97204, 38.68121],
          [-126.95064, 38.67097],
          [-126.92303, 38.67615],
          [-126.89542, 38.68132],
          [-126.88259, 38.67517],
          [-126.8612, 38.66492],
          [-126.84837, 38.65877],
          [-126.82699, 38.64852],
          [-126.81416, 38.64237],
          [-126.79278, 38.63212],
          [-126.76518, 38.63727],
          [-126.73757, 38.64241],
          [-126.70996, 38.64755],
          [-126.69681, 38.66424],
          [-126.68892, 38.67425],
          [-126.6613, 38.67938],
          [-126.64814, 38.69606],
          [-126.64024, 38.70607],
          [-126.61261, 38.71119],
          [-126.58498, 38.71631],
          [-126.55734, 38.72143],
          [-126.5297, 38.72654],
          [-126.50206, 38.73164],
          [-126.47442, 38.73674],
          [-126.44677, 38.74184],
          [-126.41912, 38.74693],
          [-126.39147, 38.75202],
          [-126.37865, 38.74584],
          [-126.3573, 38.73553],
          [-126.32964, 38.74061],
          [-126.31642, 38.75726],
          [-126.30849, 38.76725],
          [-126.28083, 38.77232],
          [-126.25316, 38.77739],
          [-126.22549, 38.78245],
          [-126.19782, 38.7875],
          [-126.18458, 38.80414],
          [-126.17663, 38.81412],
          [-126.14894, 38.81917],
          [-126.12126, 38.82421],
          [-126.108, 38.84084],
          [-126.10004, 38.85082],
          [-126.07234, 38.85585],
          [-126.05907, 38.87247],
          [-126.0511, 38.88245],
          [-126.0234, 38.88747],
          [-126.01011, 38.90409],
          [-126.00214, 38.91406],
          [-125.97442, 38.91908],
          [-125.9467, 38.92409],
          [-125.91898, 38.9291],
          [-125.89125, 38.9341],
          [-125.86353, 38.9391],
          [-125.8358, 38.94409],
          [-125.80807, 38.94908],
          [-125.78033, 38.95407],
          [-125.75259, 38.95905],
          [-125.72485, 38.96403],
          [-125.71151, 38.98061],
          [-125.7035, 38.99057],
          [-125.67575, 38.99553],
          [-125.648, 39.0005],
          [-125.63464, 39.01708],
          [-125.62662, 39.02702],
          [-125.61326, 39.0436],
          [-125.60523, 39.05355],
          [-125.57746, 39.0585],
          [-125.56408, 39.07507],
          [-125.55606, 39.08501],
          [-125.54267, 39.10157],
          [-125.53464, 39.11151],
          [-125.52125, 39.12808],
          [-125.52761, 39.14964],
          [-125.51958, 39.15957],
          [-125.50618, 39.17613],
          [-125.49814, 39.18606],
          [-125.47032, 39.19099],
          [-125.45691, 39.20755],
          [-125.44886, 39.21748],
          [-125.43544, 39.23402],
          [-125.42739, 39.24395],
          [-125.41397, 39.2605],
          [-125.40591, 39.27042],
          [-125.39248, 39.28696],
          [-125.38442, 39.29689],
          [-125.37098, 39.31342],
          [-125.36291, 39.32334],
          [-125.34947, 39.33988],
          [-125.3414, 39.3498],
          [-125.32795, 39.36632],
          [-125.31987, 39.37624],
          [-125.30641, 39.39277],
          [-125.29834, 39.40268],
          [-125.28487, 39.4192],
          [-125.27679, 39.42912],
          [-125.26332, 39.44563],
          [-125.25523, 39.45554],
          [-125.24175, 39.47206],
          [-125.24808, 39.49359],
          [-125.23999, 39.5035],
          [-125.2265, 39.52001],
          [-125.21841, 39.52991],
          [-125.20492, 39.54642],
          [-125.19682, 39.55632],
          [-125.18331, 39.57282],
          [-125.17521, 39.58272],
          [-125.1617, 39.59922],
          [-125.1536, 39.60912],
          [-125.14008, 39.62561],
          [-125.13197, 39.63551],
          [-125.11845, 39.652],
          [-125.11033, 39.66189],
          [-125.08238, 39.66675],
          [-125.06884, 39.68323],
          [-125.06072, 39.69312],
          [-125.04718, 39.7096],
          [-125.03905, 39.71949],
          [-125.02551, 39.73597],
          [-125.01737, 39.74585],
          [-125.00382, 39.76233],
          [-124.99569, 39.77221],
          [-124.96769, 39.77705],
          [-124.95413, 39.79351],
          [-124.94599, 39.80339],
          [-124.93241, 39.81985],
          [-124.92427, 39.82973],
          [-124.91069, 39.84619],
          [-124.90254, 39.85606],
          [-124.87452, 39.86088],
          [-124.86093, 39.87734],
          [-124.85277, 39.88721],
          [-124.82474, 39.89202],
          [-124.81114, 39.90846],
          [-124.80297, 39.91833],
          [-124.77493, 39.92313],
          [-124.74689, 39.92793],
          [-124.73403, 39.92166],
          [-124.7126, 39.91122],
          [-124.69974, 39.90495],
          [-124.67831, 39.8945],
          [-124.66546, 39.88822],
          [-124.65923, 39.86671],
          [-124.63782, 39.85625],
          [-124.62497, 39.84997],
          [-124.61875, 39.82845],
          [-124.61253, 39.80693],
          [-124.60631, 39.78541],
          [-124.60009, 39.76388],
          [-124.57871, 39.75341],
          [-124.56588, 39.74712],
          [-124.55968, 39.72559],
          [-124.55347, 39.70406],
          [-124.53211, 39.69358],
          [-124.51929, 39.68729],
          [-124.51309, 39.66575],
          [-124.49174, 39.65526],
          [-124.47893, 39.64897],
          [-124.45758, 39.63847],
          [-124.4296, 39.64323],
          [-124.41679, 39.63693],
          [-124.39545, 39.62643],
          [-124.36747, 39.63117],
          [-124.35383, 39.64761],
          [-124.34564, 39.65746],
          [-124.31765, 39.6622],
          [-124.28965, 39.66693],
          [-124.26166, 39.67166],
          [-124.24799, 39.68808],
          [-124.23979, 39.69793],
          [-124.22612, 39.71435],
          [-124.21792, 39.7242],
          [-124.20424, 39.74061],
          [-124.19603, 39.75046],
          [-124.16801, 39.75517],
          [-124.15432, 39.77157],
          [-124.16044, 39.79311],
          [-124.15223, 39.80296],
          [-124.13853, 39.81936],
          [-124.13031, 39.8292],
          [-124.1166, 39.8456],
          [-124.10838, 39.85543],
          [-124.09466, 39.87183],
          [-124.08644, 39.88166],
          [-124.07272, 39.89805],
          [-124.06448, 39.90788],
          [-124.05076, 39.92427],
          [-124.04252, 39.9341],
          [-124.02879, 39.95048],
          [-124.02054, 39.96031],
          [-124.0068, 39.97669],
          [-123.99856, 39.98652],
          [-123.98481, 40.00289],
          [-123.99091, 40.02441],
          [-123.98266, 40.03424],
          [-123.96891, 40.0506],
          [-123.97501, 40.07212],
          [-123.96675, 40.08194],
          [-123.95299, 40.09831],
          [-123.94473, 40.10812],
          [-123.93095, 40.12448],
          [-123.92269, 40.1343],
          [-123.90891, 40.15066],
          [-123.90064, 40.16047],
          [-123.88686, 40.17682],
          [-123.87858, 40.18663],
          [-123.86479, 40.20298],
          [-123.85651, 40.21279],
          [-123.82835, 40.21743],
          [-123.81455, 40.23378],
          [-123.80626, 40.24358],
          [-123.79245, 40.25992],
          [-123.79853, 40.28142],
          [-123.79024, 40.29122],
          [-123.77642, 40.30755],
          [-123.76812, 40.31735],
          [-123.7543, 40.33368],
          [-123.746, 40.34348],
          [-123.71779, 40.3481],
          [-123.70396, 40.36443],
          [-123.71002, 40.38592],
          [-123.70171, 40.39571],
          [-123.68787, 40.41203],
          [-123.67955, 40.42182],
          [-123.6657, 40.43813],
          [-123.67176, 40.45962],
          [-123.66344, 40.4694],
          [-123.64958, 40.48571],
          [-123.65564, 40.50719],
          [-123.64732, 40.51697],
          [-123.63345, 40.53328],
          [-123.62512, 40.54306],
          [-123.61124, 40.55936],
          [-123.6173, 40.58083],
          [-123.60897, 40.59061],
          [-123.59508, 40.6069],
          [-123.60113, 40.62837],
          [-123.5928, 40.63815],
          [-123.5789, 40.65443],
          [-123.58495, 40.6759],
          [-123.57661, 40.68567],
          [-123.5627, 40.70195],
          [-123.55436, 40.71172],
          [-123.54044, 40.728],
          [-123.5465, 40.74946],
          [-123.53814, 40.75922],
          [-123.52422, 40.7755],
          [-123.53027, 40.79695],
          [-123.52192, 40.80671],
          [-123.50798, 40.82298],
          [-123.51403, 40.84443],
          [-123.50567, 40.85419],
          [-123.49173, 40.87045],
          [-123.49778, 40.89189],
          [-123.50383, 40.91333],
          [-123.49546, 40.92309],
          [-123.48151, 40.93934],
          [-123.48756, 40.96078],
          [-123.49362, 40.98221],
          [-123.49968, 41.00364],
          [-123.4913, 41.01339],
          [-123.47733, 41.02964],
          [-123.48339, 41.05106],
          [-123.48945, 41.07249],
          [-123.49551, 41.09391],
          [-123.50158, 41.11532],
          [-123.49319, 41.12507],
          [-123.47921, 41.14131],
          [-123.48527, 41.16272],
          [-123.47688, 41.17246],
          [-123.46289, 41.18869],
          [-123.4545, 41.19843],
          [-123.4405, 41.21466],
          [-123.4321, 41.22439],
          [-123.4181, 41.24062],
          [-123.42416, 41.26202],
          [-123.41575, 41.27175],
          [-123.40174, 41.28797],
          [-123.40779, 41.30937],
          [-123.39938, 41.3191],
          [-123.38536, 41.33531],
          [-123.37695, 41.34504],
          [-123.36292, 41.36125],
          [-123.3545, 41.37097],
          [-123.34046, 41.38718],
          [-123.33204, 41.3969],
          [-123.318, 41.4131],
          [-123.30957, 41.42282],
          [-123.28105, 41.42735],
          [-123.26699, 41.44355],
          [-123.25855, 41.45326],
          [-123.23002, 41.45778],
          [-123.20149, 41.4623],
          [-123.17295, 41.46681],
          [-123.15999, 41.46048],
          [-123.1384, 41.44993],
          [-123.12545, 41.4436],
          [-123.10386, 41.43304],
          [-123.09091, 41.42671],
          [-123.06933, 41.41615],
          [-123.05639, 41.40981],
          [-123.03482, 41.39924],
          [-123.00629, 41.40373],
          [-122.97776, 41.40821],
          [-122.96482, 41.40186],
          [-122.94326, 41.39129],
          [-122.91473, 41.39576],
          [-122.8862, 41.40023],
          [-122.85767, 41.40469],
          [-122.82913, 41.40915],
          [-122.80059, 41.4136],
          [-122.77205, 41.41805],
          [-122.75912, 41.41169],
          [-122.73758, 41.40109],
          [-122.70904, 41.40553],
          [-122.6805, 41.40996],
          [-122.65195, 41.4144],
          [-122.62341, 41.41882],
          [-122.60925, 41.43497],
          [-122.60075, 41.44465],
          [-122.57219, 41.44907],
          [-122.54363, 41.45348],
          [-122.51506, 41.45789],
          [-122.4865, 41.46229],
          [-122.45793, 41.46669],
          [-122.42936, 41.47108],
          [-122.40078, 41.47547],
          [-122.37221, 41.47986],
          [-122.358, 41.49598],
          [-122.34947, 41.50565],
          [-122.32089, 41.51002],
          [-122.2923, 41.51439],
          [-122.27939, 41.508],
          [-122.25788, 41.49735],
          [-122.22929, 41.50171],
          [-122.2007, 41.50607],
          [-122.17211, 41.51042],
          [-122.14351, 41.51477],
          [-122.13061, 41.50837],
          [-122.10911, 41.4977],
          [-122.09622, 41.49129],
          [-122.07473, 41.48062],
          [-122.04614, 41.48495],
          [-122.03325, 41.47854],
          [-122.01177, 41.46786],
          [-121.99889, 41.46144],
          [-121.97742, 41.45075],
          [-121.96453, 41.44434],
          [-121.94307, 41.43365],
          [-121.93019, 41.42723],
          [-121.90874, 41.41653],
          [-121.88016, 41.42084],
          [-121.86729, 41.41441],
          [-121.84584, 41.40371],
          [-121.81726, 41.408],
          [-121.80439, 41.40158],
          [-121.78295, 41.39086],
          [-121.75438, 41.39515],
          [-121.72579, 41.39943],
          [-121.71294, 41.393],
          [-121.69151, 41.38227],
          [-121.66293, 41.38655],
          [-121.63435, 41.39082],
          [-121.62003, 41.40689],
          [-121.61144, 41.41653],
          [-121.59859, 41.41008],
          [-121.57717, 41.39934],
          [-121.54858, 41.4036],
          [-121.51999, 41.40785],
          [-121.50714, 41.4014],
          [-121.48574, 41.39065],
          [-121.45715, 41.39489],
          [-121.42855, 41.39913],
          [-121.41571, 41.39267],
          [-121.39432, 41.38191],
          [-121.38148, 41.37545],
          [-121.36009, 41.36469],
          [-121.33151, 41.36891],
          [-121.31868, 41.36244],
          [-121.2973, 41.35167],
          [-121.28447, 41.3452],
          [-121.2631, 41.33442],
          [-121.23452, 41.33863],
          [-121.2217, 41.33216],
          [-121.20033, 41.32137],
          [-121.17175, 41.32557],
          [-121.14316, 41.32976],
          [-121.11458, 41.33395],
          [-121.08599, 41.33813],
          [-121.07159, 41.35416],
          [-121.06296, 41.36378],
          [-121.03436, 41.36796],
          [-121.00575, 41.37213],
          [-120.99135, 41.38815],
          [-120.9827, 41.39776],
          [-120.95408, 41.40192],
          [-120.92547, 41.40608],
          [-120.91104, 41.42209],
          [-120.90238, 41.4317],
          [-120.88795, 41.4477],
          [-120.87929, 41.45731],
          [-120.85065, 41.46145],
          [-120.83621, 41.47745],
          [-120.82754, 41.48705],
          [-120.79889, 41.49118],
          [-120.77025, 41.49532],
          [-120.75578, 41.51131],
          [-120.7471, 41.5209],
          [-120.71845, 41.52502],
          [-120.68979, 41.52914],
          [-120.66112, 41.53325],
          [-120.63246, 41.53736],
          [-120.61797, 41.55334],
          [-120.60927, 41.56292],
          [-120.58059, 41.56702],
          [-120.56609, 41.58299],
          [-120.55739, 41.59257],
          [-120.54288, 41.60853],
          [-120.53417, 41.61811],
          [-120.51965, 41.63407],
          [-120.51094, 41.64365],
          [-120.49641, 41.6596],
          [-120.50188, 41.68105],
          [-120.49316, 41.69062],
          [-120.47863, 41.70657],
          [-120.48409, 41.72801],
          [-120.47537, 41.73758],
          [-120.46082, 41.75353],
          [-120.45209, 41.76309],
          [-120.42335, 41.76716],
          [-120.4088, 41.7831],
          [-120.40006, 41.79266],
          [-120.3855, 41.8086],
          [-120.37676, 41.81816],
          [-120.348, 41.82221],
          [-120.33342, 41.83814],
          [-120.32468, 41.84769],
          [-120.31009, 41.86362],
          [-120.30134, 41.87317],
          [-120.27256, 41.87721],
          [-120.25797, 41.89313],
          [-120.24921, 41.90268],
          [-120.22042, 41.90671],
          [-120.19163, 41.91074],
          [-120.17702, 41.92665],
          [-120.16825, 41.93619],
          [-120.15363, 41.95209],
          [-120.14485, 41.96164],
          [-120.11604, 41.96565],
          [-120.08723, 41.96966],
          [-120.05842, 41.97367],
          [-120.04378, 41.98956],
          [-120.03499, 41.99909],
          [-120.00617, 42.00309],
          [-119.99334, 41.99656],
          [-119.97197, 41.98567],
          [-119.94315, 41.98965],
          [-119.91433, 41.99364],
          [-119.8855, 41.99762],
          [-119.85667, 42.00159],
          [-119.84199, 42.01746],
          [-119.83318, 42.02699],
          [-119.80434, 42.03095],
          [-119.78965, 42.04682],
          [-119.78083, 42.05633],
          [-119.75199, 42.06029],
          [-119.73728, 42.07615],
          [-119.72846, 42.08566],
          [-119.6996, 42.08961],
          [-119.68488, 42.10546],
          [-119.67605, 42.11497],
          [-119.66132, 42.13082],
          [-119.65248, 42.14032],
          [-119.63775, 42.15617],
          [-119.62891, 42.16567],
          [-119.60002, 42.1696],
          [-119.57114, 42.17353],
          [-119.55639, 42.18936],
          [-119.54753, 42.19886],
          [-119.53278, 42.21469],
          [-119.52392, 42.22418],
          [-119.49501, 42.22809],
          [-119.4661, 42.232],
          [-119.43719, 42.2359],
          [-119.40828, 42.2398],
          [-119.37936, 42.2437],
          [-119.36655, 42.23713],
          [-119.34519, 42.22618],
          [-119.31628, 42.23006],
          [-119.28736, 42.23394],
          [-119.25844, 42.23782],
          [-119.22952, 42.24169],
          [-119.21671, 42.23511],
          [-119.19538, 42.22414],
          [-119.16646, 42.228],
          [-119.13753, 42.23186],
          [-119.10861, 42.23571],
          [-119.07968, 42.23955],
          [-119.05075, 42.2434],
          [-119.02182, 42.24723],
          [-118.99289, 42.25107],
          [-118.96395, 42.25489],
          [-118.93502, 42.25872],
          [-118.90608, 42.26254],
          [-118.89121, 42.27831],
          [-118.88228, 42.28777],
          [-118.85333, 42.29158],
          [-118.82438, 42.29538],
          [-118.79543, 42.29918],
          [-118.78264, 42.29257],
          [-118.76134, 42.28156],
          [-118.73239, 42.28535],
          [-118.70343, 42.28914],
          [-118.67448, 42.29292],
          [-118.64552, 42.29669],
          [-118.61655, 42.30047],
          [-118.58759, 42.30423],
          [-118.55862, 42.308],
          [-118.52965, 42.31176],
          [-118.50068, 42.31551],
          [-118.47171, 42.31926],
          [-118.45677, 42.33499],
          [-118.4478, 42.34442],
          [-118.41881, 42.34816],
          [-118.38983, 42.3519],
          [-118.36084, 42.35563],
          [-118.34587, 42.37135],
          [-118.33689, 42.38078],
          [-118.30789, 42.3845],
          [-118.29291, 42.40021],
          [-118.28392, 42.40963],
          [-118.26894, 42.42534],
          [-118.25994, 42.43476],
          [-118.23093, 42.43847],
          [-118.21593, 42.45417],
          [-118.20692, 42.46359],
          [-118.1779, 42.46729],
          [-118.16288, 42.48298],
          [-118.15388, 42.49239],
          [-118.12484, 42.49608],
          [-118.10981, 42.51177],
          [-118.1008, 42.52118],
          [-118.07175, 42.52486],
          [-118.05671, 42.54054],
          [-118.04769, 42.54994],
          [-118.01863, 42.55362],
          [-118.00358, 42.56929],
          [-117.99454, 42.57869],
          [-117.96548, 42.58235],
          [-117.93641, 42.58601],
          [-117.92134, 42.60167],
          [-117.9123, 42.61107],
          [-117.88322, 42.61472],
          [-117.85413, 42.61836],
          [-117.83905, 42.63401],
          [-117.82999, 42.6434],
          [-117.8009, 42.64704],
          [-117.7718, 42.65067],
          [-117.74271, 42.65429],
          [-117.71361, 42.65792],
          [-117.68451, 42.66153],
          [-117.6554, 42.66514],
          [-117.6263, 42.66875],
          [-117.59719, 42.67236],
          [-117.56808, 42.67595],
          [-117.53897, 42.67955],
          [-117.50985, 42.68314],
          [-117.48074, 42.68672],
          [-117.45162, 42.6903],
          [-117.4225, 42.69388],
          [-117.39338, 42.69745],
          [-117.38064, 42.69076],
          [-117.35941, 42.67961],
          [-117.33029, 42.68317],
          [-117.30116, 42.68672],
          [-117.28843, 42.68003],
          [-117.26721, 42.66886],
          [-117.23809, 42.67241],
          [-117.22536, 42.66571],
          [-117.20416, 42.65454],
          [-117.17504, 42.65807],
          [-117.16232, 42.65137],
          [-117.14112, 42.64019],
          [-117.112, 42.64372],
          [-117.09929, 42.63701],
          [-117.0781, 42.62582],
          [-117.04898, 42.62934],
          [-117.01987, 42.63285],
          [-116.99075, 42.63636],
          [-116.96163, 42.63986],
          [-116.9325, 42.64336],
          [-116.90338, 42.64685],
          [-116.87425, 42.65034],
          [-116.84512, 42.65383],
          [-116.81599, 42.65731],
          [-116.78686, 42.66078],
          [-116.75772, 42.66425],
          [-116.72859, 42.66772],
          [-116.69945, 42.67118],
          [-116.68676, 42.66444],
          [-116.66561, 42.65321],
          [-116.63647, 42.65666],
          [-116.60733, 42.66011],
          [-116.59465, 42.65336],
          [-116.57352, 42.64212],
          [-116.54438, 42.64556],
          [-116.5317, 42.63881],
          [-116.51058, 42.62755],
          [-116.48144, 42.63098],
          [-116.46877, 42.62423],
          [-116.44766, 42.61297],
          [-116.43499, 42.60621],
          [-116.41388, 42.59494],
          [-116.38475, 42.59836],
          [-116.37209, 42.59159],
          [-116.351, 42.58032],
          [-116.32187, 42.58372],
          [-116.29274, 42.58712],
          [-116.28009, 42.58035],
          [-116.25901, 42.56907],
          [-116.22988, 42.57246],
          [-116.20075, 42.57584],
          [-116.18811, 42.56907],
          [-116.16704, 42.55777],
          [-116.13791, 42.56114],
          [-116.10878, 42.56451],
          [-116.09614, 42.55773],
          [-116.07509, 42.54642],
          [-116.04596, 42.54978],
          [-116.01683, 42.55314],
          [-115.9877, 42.55649],
          [-115.97507, 42.5497],
          [-115.95403, 42.53838],
          [-115.9249, 42.54172],
          [-115.89577, 42.54505],
          [-115.88315, 42.53826],
          [-115.86212, 42.52692],
          [-115.83299, 42.53025],
          [-115.80387, 42.53357],
          [-115.77473, 42.53689],
          [-115.76212, 42.53008],
          [-115.74111, 42.51874],
          [-115.71198, 42.52204],
          [-115.68285, 42.52535],
          [-115.65372, 42.52865],
          [-115.62458, 42.53194],
          [-115.61198, 42.52512],
          [-115.59098, 42.51376],
          [-115.56185, 42.51704],
          [-115.53272, 42.52032],
          [-115.50358, 42.5236],
          [-115.47444, 42.52687],
          [-115.459, 42.54233],
          [-115.44973, 42.55161],
          [-115.42058, 42.55487],
          [-115.40799, 42.54804],
          [-115.38702, 42.53665],
          [-115.35787, 42.5399],
          [-115.32872, 42.54315],
          [-115.29957, 42.54639],
          [-115.28699, 42.53955],
          [-115.26603, 42.52815],
          [-115.23688, 42.53138],
          [-115.20773, 42.53461],
          [-115.17858, 42.53783],
          [-115.14943, 42.54105],
          [-115.12027, 42.54427],
          [-115.09112, 42.54748],
          [-115.06196, 42.55068],
          [-115.04939, 42.54382],
          [-115.02846, 42.5324],
          [-114.9993, 42.53559],
          [-114.97014, 42.53878],
          [-114.94098, 42.54197],
          [-114.92843, 42.5351],
          [-114.90751, 42.52366],
          [-114.87835, 42.52684],
          [-114.84919, 42.53001],
          [-114.82003, 42.53317],
          [-114.80749, 42.5263],
          [-114.78658, 42.51485],
          [-114.75742, 42.518],
          [-114.72826, 42.52115],
          [-114.71572, 42.51428],
          [-114.69483, 42.50281],
          [-114.66567, 42.50595],
          [-114.63651, 42.50909],
          [-114.62398, 42.5022],
          [-114.60311, 42.49072],
          [-114.57395, 42.49385],
          [-114.54479, 42.49697],
          [-114.51563, 42.50009],
          [-114.48646, 42.50321],
          [-114.47395, 42.49631],
          [-114.45309, 42.48481],
          [-114.42393, 42.48792],
          [-114.39476, 42.49102],
          [-114.3656, 42.49411],
          [-114.33643, 42.4972],
          [-114.30727, 42.50029],
          [-114.29165, 42.51566],
          [-114.28227, 42.52488],
          [-114.2531, 42.52795],
          [-114.22392, 42.53102],
          [-114.19473, 42.53409],
          [-114.16555, 42.53715],
          [-114.13637, 42.54021],
          [-114.12387, 42.53329],
          [-114.10304, 42.52176],
          [-114.07386, 42.52481],
          [-114.04468, 42.52785],
          [-114.01549, 42.53089],
          [-113.9863, 42.53393],
          [-113.97381, 42.527],
          [-113.95301, 42.51545],
          [-113.92382, 42.51847],
          [-113.91134, 42.51154],
          [-113.89054, 42.49998],
          [-113.86136, 42.50299],
          [-113.83217, 42.506],
          [-113.80299, 42.50901],
          [-113.7738, 42.51201],
          [-113.74461, 42.515],
          [-113.71542, 42.518],
          [-113.68623, 42.52098],
          [-113.65703, 42.52397],
          [-113.62784, 42.52694],
          [-113.59864, 42.52992],
          [-113.56944, 42.53288],
          [-113.55698, 42.52593],
          [-113.53622, 42.51433],
          [-113.50702, 42.51729],
          [-113.47783, 42.52024],
          [-113.44863, 42.52319],
          [-113.41942, 42.52613],
          [-113.39022, 42.52907],
          [-113.37777, 42.5221],
          [-113.35704, 42.51049],
          [-113.32783, 42.51342],
          [-113.29863, 42.51634],
          [-113.26943, 42.51926],
          [-113.24022, 42.52218],
          [-113.21101, 42.52509],
          [-113.1818, 42.528],
          [-113.15259, 42.5309],
          [-113.12338, 42.5338],
          [-113.09416, 42.53669],
          [-113.06495, 42.53958],
          [-113.03573, 42.54246],
          [-113.00651, 42.54534],
          [-112.97729, 42.54821],
          [-112.94807, 42.55108],
          [-112.91884, 42.55395],
          [-112.88961, 42.55681],
          [-112.86039, 42.55966],
          [-112.83116, 42.56251],
          [-112.80193, 42.56536],
          [-112.77269, 42.5682],
          [-112.74346, 42.57103],
          [-112.71422, 42.57387],
          [-112.68498, 42.57669],
          [-112.65574, 42.57952],
          [-112.6265, 42.58233],
          [-112.59726, 42.58515],
          [-112.56801, 42.58795],
          [-112.53877, 42.59076],
          [-112.50952, 42.59356],
          [-112.48027, 42.59635],
          [-112.45102, 42.59914],
          [-112.42177, 42.60192],
          [-112.39251, 42.6047],
          [-112.36326, 42.60748],
          [-112.334, 42.61025],
          [-112.30474, 42.61302],
          [-112.27548, 42.61578],
          [-112.24621, 42.61853],
          [-112.21695, 42.62129],
          [-112.18768, 42.62403],
          [-112.15842, 42.62678],
          [-112.12915, 42.62951],
          [-112.09988, 42.63225],
          [-112.0706, 42.63498],
          [-112.04133, 42.6377],
          [-112.01206, 42.64042],
          [-112, 42.64154]
        ]
      }
    },
    {
      "type": "Feature",
      "id": "2026100118_f234_11000_001",
      "properties": {
        "product_id": "winter_storm_levels",
        "source_id": "nbm_snow_level",
        "parameter": "snow_level",
        "definition": "height of the wet-bulb 0.5 degree C surface",
        "level_ft_msl": 11000,
        "label": "11,000 ft MSL",
        "unit": "ft_msl",
        "cycle_time_utc": "2026-10-01T18:00:00Z",
        "valid_time_utc": "2026-10-11T12:00:00Z",
        "lead_hours": 234,
        "segment": 1,
        "length_m": 2597869.7
      },
      "geometry": {
        "type": "LineString",
        "coordinates": [
          [-122.16734, 30.25422],
          [-122.15271, 30.27329],
          [-122.14706, 30.28066],
          [-122.13214, 30.3001],
          [-122.12648, 30.30747],
          [-122.10067, 30.31199],
          [-122.07485, 30.3165],
          [-122.04903, 30.32101],
          [-122.02321, 30.32551],
          [-122.00827, 30.34494],
          [-122.0026, 30.3523],
          [-121.97677, 30.3568],
          [-121.95094, 30.36129],
          [-121.9424, 30.3564],
          [-121.9199, 30.34349],
          [-121.89407, 30.34797],
          [-121.88554, 30.34307],
          [-121.86305, 30.33016],
          [-121.83722, 30.33463],
          [-121.81139, 30.3391],
          [-121.80286, 30.3342],
          [-121.78038, 30.32127],
          [-121.75455, 30.32573],
          [-121.72872, 30.33019],
          [-121.70288, 30.33464],
          [-121.67704, 30.33909],
          [-121.66852, 30.33418],
          [-121.64606, 30.32123],
          [-121.62022, 30.32567],
          [-121.59438, 30.3301],
          [-121.58587, 30.32519],
          [-121.56341, 30.31223],
          [-121.5549, 30.30731],
          [-121.53245, 30.29435],
          [-121.50662, 30.29877],
          [-121.48078, 30.30318],
          [-121.45494, 30.30759],
          [-121.4291, 30.312],
          [-121.40326, 30.3164],
          [-121.39475, 30.31148],
          [-121.37232, 30.29849],
          [-121.34648, 30.30288],
          [-121.32064, 30.30727],
          [-121.31213, 30.30234],
          [-121.28971, 30.28935],
          [-121.26387, 30.29373],
          [-121.23803, 30.2981],
          [-121.21218, 30.30247],
          [-121.18633, 30.30684],
          [-121.16048, 30.3112],
          [-121.13463, 30.31556],
          [-121.10877, 30.31992],
          [-121.09368, 30.33925],
          [-121.08795, 30.34658],
          [-121.06209, 30.35093],
          [-121.03622, 30.35527],
          [-121.01036, 30.35961],
          [-120.99524, 30.37894],
          [-120.98951, 30.38627],
          [-120.96363, 30.3906],
          [-120.94851, 30.40992],
          [-120.94277, 30.41724],
          [-120.92764, 30.43656],
          [-120.93265, 30.45888],
          [-120.92691, 30.46621],
          [-120.91177, 30.48552],
          [-120.90602, 30.49284],
          [-120.88012, 30.49716],
          [-120.86496, 30.51647],
          [-120.85922, 30.52379],
          [-120.84406, 30.5431],
          [-120.8383, 30.55042],
          [-120.82314, 30.56972],
          [-120.81738, 30.57704],
          [-120.80221, 30.59634],
          [-120.79645, 30.60366],
          [-120.78127, 30.62296],
          [-120.77551, 30.63027],
          [-120.76032, 30.64957],
          [-120.75456, 30.65689],
          [-120.73937, 30.67618],
          [-120.7336, 30.68349],
          [-120.7184, 30.70278],
          [-120.71263, 30.7101],
          [-120.69742, 30.72938],
          [-120.69165, 30.73669],
          [-120.67644, 30.75598],
          [-120.67066, 30.76329],
          [-120.65544, 30.78257],
          [-120.64967, 30.78988],
          [-120.62369, 30.79415],
          [-120.60845, 30.81342],
          [-120.60267, 30.82073],
          [-120.57669, 30.825],
          [-120.5507, 30.82925],
          [-120.52471, 30.83351],
          [-120.5162, 30.82854],
          [-120.49377, 30.81544],
          [-120.46778, 30.81969],
          [-120.44179, 30.82393],
          [-120.43328, 30.81895],
          [-120.41087, 30.80584],
          [-120.3956, 30.82509],
          [-120.3898, 30.83239],
          [-120.3638, 30.83662],
          [-120.33781, 30.84085],
          [-120.3293, 30.83587],
          [-120.30689, 30.82274],
          [-120.2984, 30.81776],
          [-120.29349, 30.79543],
          [-120.27109, 30.7823],
          [-120.2451, 30.78651],
          [-120.23661, 30.78153],
          [-120.21422, 30.76838],
          [-120.18823, 30.77258],
          [-120.16224, 30.77678],
          [-120.15375, 30.77179],
          [-120.13137, 30.75864],
          [-120.10538, 30.76282],
          [-120.09689, 30.75783],
          [-120.07453, 30.74467],
          [-120.04854, 30.74885],
          [-120.02255, 30.75302],
          [-120.01407, 30.74802],
          [-119.99171, 30.73485],
          [-119.96572, 30.73901],
          [-119.93973, 30.74317],
          [-119.91373, 30.74733],
          [-119.88774, 30.75148],
          [-119.86174, 30.75562],
          [-119.83574, 30.75976],
          [-119.80974, 30.7639],
          [-119.78374, 30.76803],
          [-119.75774, 30.77216],
          [-119.73173, 30.77628],
          [-119.70572, 30.7804],
          [-119.69034, 30.79959],
          [-119.6845, 30.80687],
          [-119.65848, 30.81098],
          [-119.63247, 30.81508],
          [-119.61707, 30.83426],
          [-119.61122, 30.84153],
          [-119.5852, 30.84563],
          [-119.56978, 30.8648],
          [-119.56394, 30.87207],
          [-119.5379, 30.87617],
          [-119.52248, 30.89533],
          [-119.51662, 30.9026],
          [-119.50119, 30.92176],
          [-119.49534, 30.92903],
          [-119.4799, 30.94819],
          [-119.47404, 30.95545],
          [-119.4586, 30.97461],
          [-119.46335, 30.99695],
          [-119.46811, 31.0193],
          [-119.47286, 31.04164],
          [-119.47762, 31.06398],
          [-119.47176, 31.07124],
          [-119.4563, 31.0904],
          [-119.46106, 31.11273],
          [-119.46582, 31.13507],
          [-119.47058, 31.15741],
          [-119.47534, 31.17975],
          [-119.46947, 31.18701],
          [-119.454, 31.20616],
          [-119.45876, 31.22849],
          [-119.46353, 31.25082],
          [-119.46829, 31.27316],
          [-119.46242, 31.28042],
          [-119.44693, 31.29956],
          [-119.44105, 31.30682],
          [-119.42555, 31.32596],
          [-119.41967, 31.33322],
          [-119.40417, 31.35235],
          [-119.39828, 31.35961],
          [-119.38277, 31.37875],
          [-119.38753, 31.40108],
          [-119.39229, 31.4234],
          [-119.39705, 31.44573],
          [-119.41947, 31.45897],
          [-119.42798, 31.46399],
          [-119.43275, 31.48631],
          [-119.43752, 31.50864],
          [-119.43163, 31.51589],
          [-119.4161, 31.53502],
          [-119.42087, 31.55734],
          [-119.42564, 31.57966],
          [-119.43042, 31.60198],
          [-119.43519, 31.6243],
          [-119.43997, 31.64662],
          [-119.44475, 31.66893],
          [-119.44953, 31.69124],
          [-119.45431, 31.71356],
          [-119.47679, 31.72678],
          [-119.48532, 31.7318],
          [-119.49011, 31.75411],
          [-119.49491, 31.77641],
          [-119.4997, 31.79872],
          [-119.52221, 31.81194],
          [-119.53075, 31.81695],
          [-119.53555, 31.83925],
          [-119.54036, 31.86156],
          [-119.54516, 31.88386],
          [-119.54997, 31.90616],
          [-119.55478, 31.92846],
          [-119.57732, 31.94166],
          [-119.58587, 31.94667],
          [-119.59069, 31.96896],
          [-119.59551, 31.99126],
          [-119.61807, 32.00446],
          [-119.64435, 32.00036],
          [-119.65291, 32.00536],
          [-119.67548, 32.01855],
          [-119.68404, 32.02355],
          [-119.70661, 32.03674],
          [-119.71517, 32.04174],
          [-119.73775, 32.05491],
          [-119.74632, 32.05991],
          [-119.76891, 32.07308],
          [-119.7952, 32.06897],
          [-119.8215, 32.06484],
          [-119.84779, 32.06071],
          [-119.87409, 32.05658],
          [-119.90038, 32.05244],
          [-119.90895, 32.05743],
          [-119.93156, 32.07058],
          [-119.95785, 32.06644],
          [-119.98414, 32.06229],
          [-119.99964, 32.04312],
          [-120.00552, 32.03585],
          [-120.0318, 32.03169],
          [-120.04729, 32.01252],
          [-120.05317, 32.00525],
          [-120.06865, 31.98608],
          [-120.07452, 31.97881],
          [-120.09, 31.95963],
          [-120.09587, 31.95235],
          [-120.12213, 31.94818],
          [-120.14839, 31.944],
          [-120.16385, 31.92482],
          [-120.16971, 31.91754],
          [-120.19596, 31.91335],
          [-120.2222, 31.90916],
          [-120.23765, 31.88997],
          [-120.24351, 31.88269],
          [-120.26974, 31.87849],
          [-120.28517, 31.85929],
          [-120.29103, 31.852],
          [-120.30645, 31.8328],
          [-120.3123, 31.82552],
          [-120.32772, 31.80631],
          [-120.33356, 31.79903],
          [-120.34897, 31.77982],
          [-120.35482, 31.77253],
          [-120.37022, 31.75332],
          [-120.37606, 31.74603],
          [-120.39146, 31.72682],
          [-120.3973, 31.71953],
          [-120.42349, 31.7153],
          [-120.44969, 31.71107],
          [-120.46506, 31.69185],
          [-120.4709, 31.68455],
          [-120.49708, 31.68032],
          [-120.51245, 31.66109],
          [-120.51828, 31.65379],
          [-120.54445, 31.64954],
          [-120.55981, 31.63031],
          [-120.56563, 31.62301],
          [-120.5918, 31.61876],
          [-120.61796, 31.6145],
          [-120.64412, 31.61024],
          [-120.67028, 31.60597],
          [-120.67886, 31.61092],
          [-120.70146, 31.62397],
          [-120.72762, 31.6197],
          [-120.7362, 31.62465],
          [-120.75881, 31.63769],
          [-120.76739, 31.64264],
          [-120.79001, 31.65568],
          [-120.81618, 31.65139],
          [-120.84234, 31.64709],
          [-120.8685, 31.64279],
          [-120.87709, 31.64774],
          [-120.88214, 31.67001],
          [-120.90478, 31.68303],
          [-120.91337, 31.68797],
          [-120.91844, 31.71024],
          [-120.94109, 31.72325],
          [-120.94968, 31.72819],
          [-120.95476, 31.75045],
          [-120.95983, 31.77272],
          [-120.9825, 31.78573],
          [-120.9911, 31.79066],
          [-120.99618, 31.81292],
          [-121.00127, 31.83518],
          [-121.00636, 31.85744],
          [-121.02905, 31.87044],
          [-121.03766, 31.87537],
          [-121.06035, 31.88836],
          [-121.06896, 31.89329],
          [-121.09167, 31.90628],
          [-121.10028, 31.91121],
          [-121.12299, 31.92419],
          [-121.13161, 31.92912],
          [-121.15433, 31.9421],
          [-121.18055, 31.93775],
          [-121.18917, 31.94267],
          [-121.21189, 31.95565],
          [-121.23811, 31.95129],
          [-121.24673, 31.95621],
          [-121.25187, 31.97845],
          [-121.27462, 31.99141],
          [-121.30084, 31.98704],
          [-121.30947, 31.99196],
          [-121.33222, 32.00491],
          [-121.35844, 32.00054],
          [-121.37371, 31.98124],
          [-121.3795, 31.97392],
          [-121.40572, 31.96953],
          [-121.42097, 31.95023],
          [-121.42675, 31.9429],
          [-121.45296, 31.93851],
          [-121.46159, 31.94342],
          [-121.46677, 31.96565],
          [-121.48954, 31.97859],
          [-121.51575, 31.97418],
          [-121.54196, 31.96978],
          [-121.55719, 31.95046],
          [-121.56297, 31.94313],
          [-121.58917, 31.93872],
          [-121.59781, 31.94362],
          [-121.60301, 31.96585],
          [-121.62579, 31.97876],
          [-121.652, 31.97434],
          [-121.67821, 31.96991],
          [-121.70441, 31.96547],
          [-121.71305, 31.97036],
          [-121.73585, 31.98326],
          [-121.74449, 31.98815],
          [-121.76729, 32.00104],
          [-121.77594, 32.00593],
          [-121.77017, 32.01327],
          [-121.75497, 32.0326],
          [-121.76021, 32.05483],
          [-121.75445, 32.06216],
          [-121.73923, 32.08149],
          [-121.73346, 32.08882],
          [-121.71824, 32.10815],
          [-121.71247, 32.11548],
          [-121.69724, 32.13481],
          [-121.70248, 32.15703],
          [-121.70771, 32.17925],
          [-121.71296, 32.20147],
          [-121.7182, 32.22368],
          [-121.71242, 32.23101],
          [-121.69718, 32.25033],
          [-121.69139, 32.25766],
          [-121.67614, 32.27698],
          [-121.67036, 32.2843],
          [-121.6551, 32.30362],
          [-121.64931, 32.31094],
          [-121.63405, 32.33025],
          [-121.63928, 32.35247],
          [-121.63349, 32.35979],
          [-121.61822, 32.3791],
          [-121.61242, 32.38642],
          [-121.59714, 32.40573],
          [-121.59135, 32.41305],
          [-121.56504, 32.41746],
          [-121.54975, 32.43676],
          [-121.54394, 32.44408],
          [-121.51763, 32.44848],
          [-121.50232, 32.46777],
          [-121.49652, 32.47509],
          [-121.4812, 32.49438],
          [-121.4754, 32.50169],
          [-121.44906, 32.50608],
          [-121.43374, 32.52537],
          [-121.42792, 32.53268],
          [-121.41259, 32.55196],
          [-121.41779, 32.57417],
          [-121.41198, 32.58148],
          [-121.39664, 32.60076],
          [-121.40184, 32.62296],
          [-121.40704, 32.64517],
          [-121.41224, 32.66737],
          [-121.40642, 32.67468],
          [-121.39106, 32.69395],
          [-121.39627, 32.71615],
          [-121.39044, 32.72346],
          [-121.37508, 32.74273],
          [-121.38028, 32.76493],
          [-121.38548, 32.78712],
          [-121.39069, 32.80932],
          [-121.38486, 32.81663],
          [-121.36948, 32.83589],
          [-121.37469, 32.85808],
          [-121.37989, 32.88028],
          [-121.40283, 32.89319],
          [-121.41153, 32.89809],
          [-121.43448, 32.911],
          [-121.44318, 32.9159],
          [-121.46613, 32.92881],
          [-121.47484, 32.9337],
          [-121.48007, 32.95589],
          [-121.50303, 32.96879],
          [-121.51174, 32.97368],
          [-121.51698, 32.99586],
          [-121.52222, 33.01804],
          [-121.5452, 33.03093],
          [-121.55392, 33.03582],
          [-121.57691, 33.04871],
          [-121.60336, 33.0443],
          [-121.61208, 33.04919],
          [-121.63508, 33.06207],
          [-121.66154, 33.05765],
          [-121.67026, 33.06253],
          [-121.69327, 33.0754],
          [-121.71973, 33.07098],
          [-121.72845, 33.07586],
          [-121.75147, 33.08872],
          [-121.77793, 33.08428],
          [-121.78666, 33.08916],
          [-121.80969, 33.10201],
          [-121.81842, 33.10689],
          [-121.84145, 33.11973],
          [-121.86791, 33.11528],
          [-121.87665, 33.12015],
          [-121.89969, 33.13299],
          [-121.92616, 33.12853],
          [-121.95262, 33.12407],
          [-121.97908, 33.11961],
          [-122.00553, 33.11513],
          [-122.01428, 33.12],
          [-122.03733, 33.13282],
          [-122.06379, 33.12834],
          [-122.09025, 33.12385],
          [-122.1167, 33.11936],
          [-122.14315, 33.11487],
          [-122.1696, 33.11037],
          [-122.18487, 33.09105],
          [-122.19067, 33.08372],
          [-122.20594, 33.06439],
          [-122.21173, 33.05706],
          [-122.23816, 33.05255],
          [-122.26459, 33.04803],
          [-122.27334, 33.05288],
          [-122.29641, 33.06567],
          [-122.30517, 33.07051],
          [-122.32825, 33.08329],
          [-122.337, 33.08814],
          [-122.36009, 33.10091],
          [-122.36885, 33.10576],
          [-122.37426, 33.1279],
          [-122.37967, 33.15005],
          [-122.38509, 33.17219],
          [-122.4082, 33.18495],
          [-122.43465, 33.18041],
          [-122.44342, 33.18525],
          [-122.44885, 33.20739],
          [-122.45428, 33.22953],
          [-122.45972, 33.25167],
          [-122.46516, 33.2738],
          [-122.47059, 33.29593],
          [-122.47604, 33.31807],
          [-122.47025, 33.3254],
          [-122.45499, 33.34474],
          [-122.46043, 33.36687],
          [-122.45464, 33.37421],
          [-122.42814, 33.37875],
          [-122.41287, 33.39808],
          [-122.40707, 33.40541],
          [-122.39179, 33.42474],
          [-122.39722, 33.44687],
          [-122.39142, 33.4542],
          [-122.37613, 33.47353],
          [-122.37033, 33.48086],
          [-122.35503, 33.50018],
          [-122.36046, 33.5223],
          [-122.35466, 33.52963],
          [-122.33935, 33.54895],
          [-122.34478, 33.57107],
          [-122.33897, 33.5784],
          [-122.32365, 33.59771],
          [-122.31784, 33.60504],
          [-122.30252, 33.62435],
          [-122.2967, 33.63167],
          [-122.28137, 33.65098],
          [-122.27555, 33.6583],
          [-122.26022, 33.67761],
          [-122.2544, 33.68493],
          [-122.23905, 33.70423],
          [-122.24447, 33.72634],
          [-122.23864, 33.73366],
          [-122.22329, 33.75296],
          [-122.2287, 33.77507],
          [-122.23412, 33.79718],
          [-122.22829, 33.8045],
          [-122.21293, 33.82379],
          [-122.21834, 33.8459],
          [-122.22376, 33.86801],
          [-122.24699, 33.88077],
          [-122.25581, 33.88561],
          [-122.26124, 33.90771],
          [-122.26666, 33.92982],
          [-122.26083, 33.93713],
          [-122.24545, 33.95642],
          [-122.25088, 33.97852],
          [-122.25631, 34.00062],
          [-122.25048, 34.00793],
          [-122.23509, 34.02721],
          [-122.22925, 34.03453],
          [-122.21385, 34.05381],
          [-122.20801, 34.06112],
          [-122.1926, 34.0804],
          [-122.19803, 34.10249],
          [-122.20345, 34.12458],
          [-122.20888, 34.14667],
          [-122.20304, 34.15398],
          [-122.18762, 34.17325],
          [-122.19304, 34.19534],
          [-122.18719, 34.20264],
          [-122.17177, 34.22191],
          [-122.16591, 34.22922],
          [-122.15048, 34.24848],
          [-122.14462, 34.25579],
          [-122.12918, 34.27504],
          [-122.12332, 34.28235],
          [-122.10787, 34.3016],
          [-122.10201, 34.30891],
          [-122.07527, 34.31338],
          [-122.05981, 34.33263],
          [-122.05395, 34.33993],
          [-122.03848, 34.35917],
          [-122.03261, 34.36647],
          [-122.01713, 34.38571],
          [-122.01126, 34.39301],
          [-121.99577, 34.41225],
          [-121.9899, 34.41955],
          [-121.97441, 34.43878],
          [-121.97981, 34.46086],
          [-121.97393, 34.46815],
          [-121.95843, 34.48738],
          [-121.96382, 34.50946],
          [-121.95794, 34.51675],
          [-121.94243, 34.53598],
          [-121.94783, 34.55805],
          [-121.95323, 34.58012],
          [-121.95863, 34.60219],
          [-121.96403, 34.62425],
          [-121.96944, 34.64632],
          [-121.97484, 34.66838],
          [-121.98025, 34.69044],
          [-121.97436, 34.69773],
          [-121.95883, 34.71695],
          [-121.96424, 34.73901],
          [-121.96965, 34.76106],
          [-121.97506, 34.78312],
          [-121.98048, 34.80517],
          [-121.97458, 34.81246],
          [-121.95903, 34.83167],
          [-121.96445, 34.85372],
          [-121.96987, 34.87577],
          [-121.96396, 34.88305],
          [-121.9484, 34.90226],
          [-121.95382, 34.9243],
          [-121.94792, 34.93158],
          [-121.93234, 34.95079],
          [-121.93776, 34.97283],
          [-121.94318, 34.99487],
          [-121.93727, 35.00215],
          [-121.92169, 35.02135],
          [-121.91577, 35.02863],
          [-121.90018, 35.04782],
          [-121.9056, 35.06985],
          [-121.89968, 35.07713],
          [-121.88408, 35.09632],
          [-121.8895, 35.11835],
          [-121.89491, 35.14039],
          [-121.90033, 35.16242],
          [-121.90575, 35.18444],
          [-121.89983, 35.19172],
          [-121.88421, 35.2109],
          [-121.88963, 35.23293],
          [-121.8837, 35.2402],
          [-121.86808, 35.25937],
          [-121.8735, 35.2814],
          [-121.86757, 35.28867],
          [-121.85193, 35.30784],
          [-121.85735, 35.32986],
          [-121.85142, 35.33713],
          [-121.83577, 35.3563],
          [-121.82984, 35.36356],
          [-121.81419, 35.38273],
          [-121.8196, 35.40474],
          [-121.82501, 35.42676],
          [-121.81907, 35.43402],
          [-121.80341, 35.45318],
          [-121.80882, 35.47519],
          [-121.80288, 35.48245],
          [-121.78721, 35.50161],
          [-121.79262, 35.52361],
          [-121.78667, 35.53088],
          [-121.77099, 35.55002],
          [-121.76504, 35.55729],
          [-121.74935, 35.57643],
          [-121.75476, 35.59843],
          [-121.7488, 35.60569],
          [-121.7331, 35.62483],
          [-121.73851, 35.64683],
          [-121.73256, 35.65409],
          [-121.71685, 35.67322],
          [-121.72225, 35.69522],
          [-121.71629, 35.70248],
          [-121.70057, 35.72161],
          [-121.70598, 35.7436],
          [-121.70001, 35.75086],
          [-121.68429, 35.76998],
          [-121.67832, 35.77723],
          [-121.66258, 35.79635],
          [-121.66798, 35.81834],
          [-121.66201, 35.8256],
          [-121.64627, 35.84471],
          [-121.65167, 35.8667],
          [-121.64569, 35.87395],
          [-121.62994, 35.89306],
          [-121.62396, 35.90031],
          [-121.60819, 35.91941],
          [-121.61359, 35.94139],
          [-121.60761, 35.94864],
          [-121.59184, 35.96774],
          [-121.59723, 35.98972],
          [-121.59125, 35.99697],
          [-121.57546, 36.01606],
          [-121.58086, 36.03804],
          [-121.58626, 36.06001],
          [-121.59166, 36.08198],
          [-121.59706, 36.10395],
          [-121.59107, 36.11119],
          [-121.57527, 36.13028],
          [-121.58067, 36.15225],
          [-121.58608, 36.17421],
          [-121.59148, 36.19618],
          [-121.59689, 36.21814],
          [-121.59089, 36.22538],
          [-121.57508, 36.24446],
          [-121.56908, 36.25169],
          [-121.55325, 36.27077],
          [-121.55866, 36.29273],
          [-121.55265, 36.29996],
          [-121.53682, 36.31904],
          [-121.53081, 36.32627],
          [-121.51497, 36.34534],
          [-121.52037, 36.36729],
          [-121.51436, 36.37452],
          [-121.49851, 36.39359],
          [-121.49249, 36.40082],
          [-121.46522, 36.40516],
          [-121.44936, 36.42422],
          [-121.44334, 36.43144],
          [-121.42747, 36.4505],
          [-121.43285, 36.47244],
          [-121.42683, 36.47967],
          [-121.41095, 36.49872],
          [-121.40492, 36.50594],
          [-121.38903, 36.52499],
          [-121.39442, 36.54693],
          [-121.38839, 36.55415],
          [-121.37249, 36.57319],
          [-121.36646, 36.58041],
          [-121.35055, 36.59945],
          [-121.35593, 36.62138],
          [-121.34989, 36.6286],
          [-121.33397, 36.64763],
          [-121.32794, 36.65485],
          [-121.31201, 36.67388],
          [-121.30597, 36.68109],
          [-121.29004, 36.70011],
          [-121.28399, 36.70733],
          [-121.26805, 36.72635],
          [-121.262, 36.73356],
          [-121.24605, 36.75258],
          [-121.24, 36.75979],
          [-121.22405, 36.7788],
          [-121.21799, 36.78601],
          [-121.20203, 36.80502],
          [-121.20739, 36.82694],
          [-121.20133, 36.83415],
          [-121.18536, 36.85315],
          [-121.19072, 36.87507],
          [-121.18466, 36.88227],
          [-121.16867, 36.90127],
          [-121.16261, 36.90848],
          [-121.14662, 36.92747],
          [-121.14055, 36.93467],
          [-121.12455, 36.95366],
          [-121.1299, 36.97557],
          [-121.12383, 36.98277],
          [-121.10782, 37.00176],
          [-121.11318, 37.02367],
          [-121.1071, 37.03087],
          [-121.09108, 37.04984],
          [-121.09643, 37.07175],
          [-121.09035, 37.07895],
          [-121.07432, 37.09792],
          [-121.07967, 37.11982],
          [-121.07359, 37.12702],
          [-121.05755, 37.14598],
          [-121.05146, 37.15318],
          [-121.03542, 37.17214],
          [-121.04076, 37.19404],
          [-121.04611, 37.21593],
          [-121.04002, 37.22312],
          [-121.02396, 37.24208],
          [-121.0293, 37.26397],
          [-121.02321, 37.27116],
          [-121.00714, 37.29011],
          [-121.01249, 37.312],
          [-121.00639, 37.31919],
          [-120.99031, 37.33814],
          [-120.99565, 37.36002],
          [-120.98955, 37.3672],
          [-120.97346, 37.38615],
          [-120.9788, 37.40803],
          [-120.9727, 37.41521],
          [-120.9566, 37.43415],
          [-120.96194, 37.45602],
          [-120.95583, 37.4632],
          [-120.93972, 37.48213],
          [-120.94506, 37.50401],
          [-120.93895, 37.51119],
          [-120.92283, 37.53011],
          [-120.92817, 37.55198],
          [-120.93351, 37.57385],
          [-120.93885, 37.59571],
          [-120.93273, 37.60289],
          [-120.9166, 37.6218],
          [-120.92194, 37.64366],
          [-120.92729, 37.66552],
          [-120.93263, 37.68738],
          [-120.93798, 37.70923],
          [-120.94333, 37.73108],
          [-120.94869, 37.75293],
          [-120.95404, 37.77478],
          [-120.9594, 37.79663],
          [-120.95327, 37.8038],
          [-120.93711, 37.8227],
          [-120.94247, 37.84454],
          [-120.94782, 37.86638],
          [-120.95319, 37.88822],
          [-120.95855, 37.91005],
          [-120.96391, 37.93188],
          [-120.96928, 37.95371],
          [-120.97465, 37.97554],
          [-120.98002, 37.99737],
          [-121.004, 38.01012],
          [-121.0131, 38.01496],
          [-121.01848, 38.03678],
          [-121.02386, 38.05859],
          [-121.02925, 38.08041],
          [-121.05325, 38.09315],
          [-121.06236, 38.09798],
          [-121.08637, 38.11072],
          [-121.09547, 38.11555],
          [-121.11949, 38.12827],
          [-121.14721, 38.12402],
          [-121.15633, 38.12884],
          [-121.18036, 38.14156],
          [-121.18947, 38.14639],
          [-121.1949, 38.16819],
          [-121.20032, 38.18999],
          [-121.20575, 38.21179],
          [-121.21118, 38.23358],
          [-121.21662, 38.25538],
          [-121.22205, 38.27717],
          [-121.21591, 38.28434],
          [-121.19972, 38.30323],
          [-121.20516, 38.32501],
          [-121.2106, 38.3468],
          [-121.21604, 38.36858],
          [-121.20989, 38.37575],
          [-121.19369, 38.39463],
          [-121.19913, 38.41641],
          [-121.19298, 38.42357],
          [-121.17676, 38.44244],
          [-121.1822, 38.46422],
          [-121.17605, 38.47138],
          [-121.15983, 38.49025],
          [-121.16526, 38.51202],
          [-121.15911, 38.51918],
          [-121.14287, 38.53804],
          [-121.14831, 38.55981],
          [-121.14215, 38.56696],
          [-121.1259, 38.58582],
          [-121.13134, 38.60758],
          [-121.12517, 38.61474],
          [-121.10892, 38.63359],
          [-121.10275, 38.64074],
          [-121.08649, 38.65959],
          [-121.09192, 38.68135],
          [-121.08575, 38.68849],
          [-121.06947, 38.70734],
          [-121.0749, 38.72909],
          [-121.06873, 38.73624],
          [-121.05244, 38.75508],
          [-121.05787, 38.77682],
          [-121.05169, 38.78397],
          [-121.0354, 38.8028],
          [-121.02922, 38.80994],
          [-121.01292, 38.82877],
          [-121.01834, 38.85051],
          [-121.01215, 38.85765],
          [-120.99584, 38.87648],
          [-120.98965, 38.88361],
          [-120.97333, 38.90243],
          [-120.97875, 38.92417],
          [-120.97256, 38.9313],
          [-120.95623, 38.95012],
          [-120.96165, 38.97185],
          [-120.95545, 38.97898],
          [-120.93911, 38.99779],
          [-120.93291, 39.00492],
          [-120.90495, 39.00913],
          [-120.88859, 39.02793],
          [-120.894, 39.04965],
          [-120.88779, 39.05678],
          [-120.87143, 39.07558],
          [-120.86522, 39.0827],
          [-120.84885, 39.10149],
          [-120.84263, 39.10862],
          [-120.81464, 39.11281],
          [-120.79825, 39.13159],
          [-120.79204, 39.13871],
          [-120.76403, 39.14289],
          [-120.74763, 39.16167],
          [-120.74141, 39.16879],
          [-120.7134, 39.17296],
          [-120.68538, 39.17713],
          [-120.65736, 39.18129],
          [-120.64818, 39.17646],
          [-120.64282, 39.15474],
          [-120.63746, 39.13301],
          [-120.64368, 39.1259],
          [-120.6601, 39.10713],
          [-120.65474, 39.0854],
          [-120.64938, 39.06367],
          [-120.6556, 39.05655],
          [-120.672, 39.03778],
          [-120.66664, 39.01604],
          [-120.66128, 38.99431],
          [-120.65592, 38.97257],
          [-120.63177, 38.95982],
          [-120.60381, 38.96398],
          [-120.57584, 38.96813],
          [-120.54787, 38.97228],
          [-120.53146, 38.99105],
          [-120.52523, 38.99817],
          [-120.49726, 39.00231],
          [-120.48083, 39.02107],
          [-120.4746, 39.02819],
          [-120.45816, 39.04694],
          [-120.45193, 39.05406],
          [-120.42394, 39.05818],
          [-120.40749, 39.07693],
          [-120.40125, 39.08404],
          [-120.37324, 39.08816],
          [-120.35678, 39.10691],
          [-120.35053, 39.11401],
          [-120.33407, 39.13275],
          [-120.32782, 39.13986],
          [-120.29979, 39.14396],
          [-120.28331, 39.16269],
          [-120.27706, 39.1698],
          [-120.26056, 39.18852],
          [-120.25431, 39.19563],
          [-120.22627, 39.19972],
          [-120.20976, 39.21844],
          [-120.2035, 39.22554],
          [-120.17545, 39.22962],
          [-120.1474, 39.2337],
          [-120.13087, 39.25241],
          [-120.1246, 39.2595],
          [-120.09654, 39.26358],
          [-120.06848, 39.26764],
          [-120.05193, 39.28634],
          [-120.04566, 39.29343],
          [-120.01758, 39.29749],
          [-119.98951, 39.30154],
          [-119.96143, 39.30559],
          [-119.93335, 39.30963],
          [-119.90527, 39.31367],
          [-119.87718, 39.31771],
          [-119.84909, 39.32174],
          [-119.82101, 39.32576],
          [-119.79291, 39.32978],
          [-119.77631, 39.34845],
          [-119.77001, 39.35553],
          [-119.74191, 39.35954],
          [-119.72529, 39.3782],
          [-119.71899, 39.38528],
          [-119.70236, 39.40393],
          [-119.69606, 39.41101],
          [-119.67942, 39.42966],
          [-119.67311, 39.43673],
          [-119.65647, 39.45537],
          [-119.65016, 39.46244],
          [-119.63351, 39.48109],
          [-119.63868, 39.5028],
          [-119.63236, 39.50987],
          [-119.6157, 39.52851],
          [-119.60938, 39.53557],
          [-119.59271, 39.5542],
          [-119.59788, 39.57592],
          [-119.59155, 39.58298],
          [-119.57487, 39.6016],
          [-119.56854, 39.60867],
          [-119.54037, 39.61264],
          [-119.52367, 39.63126],
          [-119.51734, 39.63832],
          [-119.48915, 39.64229],
          [-119.47245, 39.6609],
          [-119.46611, 39.66795],
          [-119.43791, 39.67191],
          [-119.42119, 39.69051],
          [-119.41484, 39.69757],
          [-119.38664, 39.70152],
          [-119.35843, 39.70546],
          [-119.33022, 39.7094],
          [-119.30201, 39.71334],
          [-119.27379, 39.71727],
          [-119.26463, 39.71238],
          [-119.24047, 39.69949],
          [-119.21226, 39.70341],
          [-119.2031, 39.69851],
          [-119.17896, 39.68561],
          [-119.15074, 39.68952],
          [-119.14159, 39.68463],
          [-119.11746, 39.67172],
          [-119.08925, 39.67562],
          [-119.06103, 39.67952],
          [-119.03282, 39.68341],
          [-119.0046, 39.6873],
          [-118.97638, 39.69118],
          [-118.94816, 39.69506],
          [-118.91994, 39.69893],
          [-118.90312, 39.71748],
          [-118.89674, 39.72452],
          [-118.8685, 39.72838],
          [-118.84027, 39.73225],
          [-118.81203, 39.7361],
          [-118.79519, 39.75464],
          [-118.7888, 39.76167],
          [-118.76055, 39.76551],
          [-118.7323, 39.76936],
          [-118.71544, 39.78788],
          [-118.70904, 39.79491],
          [-118.68078, 39.79874],
          [-118.65252, 39.80257],
          [-118.63564, 39.82109],
          [-118.62923, 39.82811],
          [-118.60096, 39.83193],
          [-118.57269, 39.83575],
          [-118.54441, 39.83956],
          [-118.5275, 39.85806],
          [-118.52109, 39.86507],
          [-118.4928, 39.86888],
          [-118.47588, 39.88737],
          [-118.46946, 39.89438],
          [-118.44117, 39.89818],
          [-118.41287, 39.90197],
          [-118.38457, 39.90575],
          [-118.36763, 39.92423],
          [-118.3612, 39.93124],
          [-118.33289, 39.93502],
          [-118.30458, 39.93879],
          [-118.29544, 39.93385],
          [-118.27135, 39.92084],
          [-118.24304, 39.9246],
          [-118.21473, 39.92836],
          [-118.18642, 39.93211],
          [-118.1581, 39.93586],
          [-118.14111, 39.95432],
          [-118.13466, 39.96132],
          [-118.10634, 39.96505],
          [-118.07801, 39.96879],
          [-118.04968, 39.97252],
          [-118.02135, 39.97624],
          [-117.99302, 39.97996],
          [-117.96468, 39.98368],
          [-117.93634, 39.98739],
          [-117.908, 39.9911],
          [-117.87966, 39.9948],
          [-117.85132, 39.9985],
          [-117.82297, 40.00219],
          [-117.79462, 40.00588],
          [-117.76627, 40.00956],
          [-117.73792, 40.01324],
          [-117.70957, 40.01691],
          [-117.68121, 40.02058],
          [-117.65285, 40.02425],
          [-117.62449, 40.02791],
          [-117.59613, 40.03156],
          [-117.56777, 40.03522],
          [-117.5394, 40.03886],
          [-117.51103, 40.0425],
          [-117.48266, 40.04614],
          [-117.45429, 40.04977],
          [-117.43716, 40.06815],
          [-117.43066, 40.07512],
          [-117.40227, 40.07874],
          [-117.37389, 40.08236],
          [-117.34551, 40.08598],
          [-117.31712, 40.08959],
          [-117.28873, 40.09319],
          [-117.26034, 40.09679],
          [-117.23194, 40.10039],
          [-117.20355, 40.10398],
          [-117.17515, 40.10757],
          [-117.14675, 40.11115],
          [-117.11835, 40.11473],
          [-117.08995, 40.1183],
          [-117.06154, 40.12187],
          [-117.03313, 40.12544],
          [-117.00472, 40.12899],
          [-116.99563, 40.124],
          [-116.97167, 40.11083],
          [-116.94326, 40.11438],
          [-116.91485, 40.11792],
          [-116.88644, 40.12146],
          [-116.85803, 40.125],
          [-116.84894, 40.11999],
          [-116.825, 40.1068],
          [-116.79659, 40.11033],
          [-116.76817, 40.11385],
          [-116.73976, 40.11736],
          [-116.73068, 40.11236],
          [-116.70675, 40.09915],
          [-116.67834, 40.10265],
          [-116.64992, 40.10616],
          [-116.64085, 40.10114],
          [-116.61694, 40.08792],
          [-116.58852, 40.09141],
          [-116.56011, 40.0949],
          [-116.53169, 40.09838],
          [-116.50327, 40.10186],
          [-116.47485, 40.10534],
          [-116.45754, 40.12361],
          [-116.45096, 40.13055],
          [-116.4419, 40.12552],
          [-116.41801, 40.11227],
          [-116.38958, 40.11574],
          [-116.36115, 40.11919],
          [-116.33272, 40.12264],
          [-116.30429, 40.12609],
          [-116.27585, 40.12953],
          [-116.24742, 40.13297],
          [-116.21898, 40.1364],
          [-116.19054, 40.13983],
          [-116.18149, 40.1348],
          [-116.15762, 40.12151],
          [-116.12919, 40.12493],
          [-116.10075, 40.12835],
          [-116.0917, 40.1233],
          [-116.06785, 40.11001],
          [-116.03941, 40.11341],
          [-116.01097, 40.11681],
          [-115.98253, 40.12021],
          [-115.95409, 40.1236],
          [-115.92564, 40.12699],
          [-115.8972, 40.13037],
          [-115.86875, 40.13375],
          [-115.8403, 40.13712],
          [-115.81185, 40.14049],
          [-115.78339, 40.14385],
          [-115.75494, 40.14721],
          [-115.73749, 40.16541],
          [-115.73087, 40.17231],
          [-115.7024, 40.17566],
          [-115.67393, 40.17901],
          [-115.64546, 40.18235],
          [-115.62799, 40.20054],
          [-115.62136, 40.20743],
          [-115.59288, 40.21077],
          [-115.57539, 40.22895],
          [-115.56875, 40.23584],
          [-115.54026, 40.23916],
          [-115.51177, 40.24248],
          [-115.48328, 40.24579],
          [-115.45479, 40.2491],
          [-115.42629, 40.25241],
          [-115.40877, 40.27057],
          [-115.40212, 40.27745],
          [-115.37361, 40.28075],
          [-115.34511, 40.28404],
          [-115.3166, 40.28733],
          [-115.28809, 40.29061],
          [-115.27906, 40.28553],
          [-115.25528, 40.27213],
          [-115.22677, 40.27541],
          [-115.19826, 40.27867],
          [-115.16975, 40.28194],
          [-115.15218, 40.30007],
          [-115.14551, 40.30694],
          [-115.11699, 40.3102],
          [-115.08846, 40.31345],
          [-115.05994, 40.31669],
          [-115.03141, 40.31993],
          [-115.00288, 40.32317],
          [-114.97435, 40.3264],
          [-114.94582, 40.32962],
          [-114.91729, 40.33284],
          [-114.88875, 40.33606],
          [-114.86022, 40.33927],
          [-114.83168, 40.34248],
          [-114.82267, 40.33738],
          [-114.79894, 40.32393],
          [-114.7704, 40.32712],
          [-114.74186, 40.33032],
          [-114.73286, 40.32521],
          [-114.70914, 40.31175],
          [-114.68061, 40.31493],
          [-114.65207, 40.31811],
          [-114.62353, 40.32128],
          [-114.61454, 40.31617],
          [-114.59084, 40.30269],
          [-114.5623, 40.30586],
          [-114.53376, 40.30902],
          [-114.50522, 40.31217],
          [-114.47668, 40.31532],
          [-114.44813, 40.31847],
          [-114.41959, 40.32161],
          [-114.39104, 40.32475],
          [-114.36249, 40.32788],
          [-114.35351, 40.32275],
          [-114.32984, 40.30924],
          [-114.30129, 40.31236],
          [-114.27274, 40.31548],
          [-114.26377, 40.31035],
          [-114.24011, 40.29682],
          [-114.21157, 40.29993],
          [-114.18302, 40.30303],
          [-114.17405, 40.2979],
          [-114.15041, 40.28436],
          [-114.14145, 40.27922],
          [-114.11781, 40.26568],
          [-114.10885, 40.26054],
          [-114.08523, 40.24699],
          [-114.05669, 40.25007],
          [-114.04773, 40.24493],
          [-114.02412, 40.23137],
          [-114.01516, 40.22622],
          [-113.99156, 40.21266],
          [-113.98261, 40.20751],
          [-113.95901, 40.19394],
          [-113.93049, 40.197],
          [-113.92154, 40.19185],
          [-113.89796, 40.17827],
          [-113.86943, 40.18133],
          [-113.84091, 40.18438],
          [-113.81238, 40.18742],
          [-113.80344, 40.18227],
          [-113.77988, 40.16867],
          [-113.75135, 40.17171],
          [-113.74242, 40.16655],
          [-113.71886, 40.15294],
          [-113.69034, 40.15597],
          [-113.68141, 40.1508],
          [-113.65786, 40.13719],
          [-113.62935, 40.14021],
          [-113.60082, 40.14322],
          [-113.5723, 40.14623],
          [-113.54378, 40.14923],
          [-113.51525, 40.15223],
          [-113.48672, 40.15522],
          [-113.45819, 40.15821],
          [-113.42966, 40.1612],
          [-113.40113, 40.16418],
          [-113.38327, 40.18214],
          [-113.37649, 40.18896],
          [-113.34795, 40.19193],
          [-113.3194, 40.1949],
          [-113.30152, 40.21285],
          [-113.29473, 40.21966],
          [-113.26618, 40.22262],
          [-113.23763, 40.22557],
          [-113.20907, 40.22852],
          [-113.18051, 40.23146],
          [-113.1626, 40.2494],
          [-113.1558, 40.2562],
          [-113.12723, 40.25914],
          [-113.11832, 40.25395],
          [-113.09483, 40.24027],
          [-113.06627, 40.24319],
          [-113.0377, 40.24611],
          [-113.00913, 40.24903],
          [-112.99119, 40.26695],
          [-112.98438, 40.27374],
          [-112.9558, 40.27665],
          [-112.92722, 40.27955],
          [-112.90926, 40.29746],
          [-112.90244, 40.30425],
          [-112.87385, 40.30714],
          [-112.84526, 40.31003],
          [-112.82728, 40.32793],
          [-112.82045, 40.33472],
          [-112.81155, 40.32951],
          [-112.78808, 40.3158],
          [-112.75949, 40.31867],
          [-112.74149, 40.33656],
          [-112.73466, 40.34334],
          [-112.70605, 40.34621],
          [-112.69715, 40.341],
          [-112.6737, 40.32727],
          [-112.6451, 40.33012],
          [-112.6165, 40.33297],
          [-112.6076, 40.32776],
          [-112.58416, 40.31402],
          [-112.55556, 40.31686],
          [-112.54668, 40.31164],
          [-112.52325, 40.29789],
          [-112.51436, 40.29267],
          [-112.49094, 40.27891],
          [-112.46235, 40.28174],
          [-112.43376, 40.28456],
          [-112.40516, 40.28738],
          [-112.37657, 40.29019],
          [-112.34797, 40.293],
          [-112.33909, 40.28777],
          [-112.3157, 40.27399],
          [-112.2871, 40.27679],
          [-112.25851, 40.27958],
          [-112.22991, 40.28237],
          [-112.20131, 40.28516],
          [-112.19244, 40.27992],
          [-112.16907, 40.26612],
          [-112.14047, 40.2689],
          [-112.13161, 40.26366],
          [-112.10824, 40.24985],
          [-112.09938, 40.24461],
          [-112.09576, 40.22278],
          [-112.07241, 40.20896],
          [-112.06355, 40.20372],
          [-112.04021, 40.18989],
          [-112.03136, 40.18465],
          [-112.00803, 40.17082],
          [-112, 40.16605]
        ]
      }
    },
    {
      "type": "Feature",
      "id": "2026100118_f234_11000_002",
      "properties": {
        "product_id": "winter_storm_levels",
        "source_id": "nbm_snow_level",
        "parameter": "snow_level",
        "definition": "height of the wet-bulb 0.5 degree C surface",
        "level_ft_msl": 11000,
        "label": "11,000 ft MSL",
        "unit": "ft_msl",
        "cycle_time_utc": "2026-10-01T18:00:00Z",
        "valid_time_utc": "2026-10-11T12:00:00Z",
        "lead_hours": 234,
        "segment": 2,
        "length_m": 278683.8
      },
      "geometry": {
        "type": "LineString",
        "coordinates": [
          [-125.94537, 30.1806],
          [-125.94758, 30.18179],
          [-125.95626, 30.18647],
          [-125.96222, 30.20862],
          [-125.96818, 30.23078],
          [-125.97414, 30.25293],
          [-125.9801, 30.27508],
          [-125.98607, 30.29723],
          [-125.99204, 30.31938],
          [-125.98662, 30.32688],
          [-125.97235, 30.34668],
          [-125.96693, 30.35418],
          [-125.95265, 30.37397],
          [-125.94723, 30.38148],
          [-125.93293, 30.40126],
          [-125.92751, 30.40877],
          [-125.90183, 30.41391],
          [-125.88753, 30.43369],
          [-125.8821, 30.44119],
          [-125.85641, 30.44632],
          [-125.83072, 30.45145],
          [-125.80503, 30.45657],
          [-125.77933, 30.46169],
          [-125.75363, 30.46681],
          [-125.72793, 30.47192],
          [-125.70223, 30.47703],
          [-125.67652, 30.48213],
          [-125.65081, 30.48723],
          [-125.6251, 30.49232],
          [-125.59939, 30.49741],
          [-125.57367, 30.50249],
          [-125.54796, 30.50758],
          [-125.52224, 30.51265],
          [-125.49652, 30.51772],
          [-125.48783, 30.51302],
          [-125.46491, 30.50063],
          [-125.43919, 30.5057],
          [-125.41347, 30.51075],
          [-125.38774, 30.51581],
          [-125.37906, 30.5111],
          [-125.35616, 30.4987],
          [-125.33043, 30.50374],
          [-125.3047, 30.50878],
          [-125.27897, 30.51382],
          [-125.25324, 30.51885],
          [-125.24456, 30.51414],
          [-125.22167, 30.50171],
          [-125.19594, 30.50673],
          [-125.17021, 30.51175],
          [-125.16153, 30.50704],
          [-125.13865, 30.4946],
          [-125.11292, 30.49961],
          [-125.08718, 30.50461],
          [-125.07851, 30.49989],
          [-125.05564, 30.48744],
          [-125.02991, 30.49243],
          [-125.00417, 30.49743],
          [-124.97843, 30.50241],
          [-124.95269, 30.5074],
          [-124.92694, 30.51238],
          [-124.91827, 30.50765],
          [-124.89542, 30.49517],
          [-124.86968, 30.50014],
          [-124.84393, 30.50511],
          [-124.81818, 30.51007],
          [-124.79243, 30.51502],
          [-124.76668, 30.51998],
          [-124.74092, 30.52493],
          [-124.71516, 30.52987],
          [-124.7065, 30.52513],
          [-124.68367, 30.51262],
          [-124.65792, 30.51756],
          [-124.63216, 30.52249],
          [-124.60639, 30.52742],
          [-124.58063, 30.53234],
          [-124.55486, 30.53726],
          [-124.5291, 30.54217],
          [-124.50333, 30.54708],
          [-124.47755, 30.55199],
          [-124.45178, 30.55689],
          [-124.426, 30.56179],
          [-124.41143, 30.58143],
          [-124.4059, 30.58888],
          [-124.38012, 30.59376],
          [-124.35433, 30.59865],
          [-124.33974, 30.61828],
          [-124.33421, 30.62573],
          [-124.30841, 30.63061],
          [-124.28261, 30.63548],
          [-124.25681, 30.64035],
          [-124.23101, 30.64521],
          [-124.2052, 30.65007],
          [-124.1794, 30.65493],
          [-124.15359, 30.65978],
          [-124.12777, 30.66463],
          [-124.10196, 30.66947],
          [-124.09331, 30.66469],
          [-124.07052, 30.6521],
          [-124.06188, 30.64733],
          [-124.03909, 30.63473],
          [-124.03045, 30.62995],
          [-124.02484, 30.60774],
          [-124.01923, 30.58553],
          [-123.99646, 30.57293],
          [-123.98783, 30.56815],
          [-123.98222, 30.54593],
          [-123.95947, 30.53332],
          [-123.95084, 30.52854],
          [-123.92809, 30.51592],
          [-123.91946, 30.51114],
          [-123.91387, 30.48892],
          [-123.89114, 30.4763],
          [-123.88251, 30.47151],
          [-123.85978, 30.45888],
          [-123.85116, 30.45409],
          [-123.84559, 30.43187],
          [-123.82287, 30.41924],
          [-123.81425, 30.41445],
          [-123.80869, 30.39222],
          [-123.80314, 30.37],
          [-123.79758, 30.34777],
          [-123.79203, 30.32554],
          [-123.78647, 30.30331],
          [-123.78092, 30.28108],
          [-123.78648, 30.27365],
          [-123.80111, 30.25406],
          [-123.79602, 30.23365]
        ]
      }
    }
  ]
}

