{
  "type": "FeatureCollection",
  "contract_version": "1.0.0",
  "bbox": [-130, 30.12626, -112, 44.5],
  "features": [
    {
      "type": "Feature",
      "id": "2026100906_f192_07000_001",
      "properties": {
        "product_id": "winter_storm_levels",
        "source_id": "nbm_snow_level",
        "parameter": "snow_level",
        "definition": "height of the wet-bulb 0.5 degree C surface",
        "level_ft_msl": 7000,
        "label": "7,000 ft MSL",
        "unit": "ft_msl",
        "cycle_time_utc": "2026-10-09T06:00:00Z",
        "valid_time_utc": "2026-10-17T06:00:00Z",
        "lead_hours": 192,
        "segment": 1,
        "length_m": 244392.6
      },
      "geometry": {
        "type": "LineString",
        "coordinates": [
          [-112.61135, 44.5],
          [-112.59764, 44.49248],
          [-112.57826, 44.48185],
          [-112.56394, 44.47398],
          [-112.54457, 44.46334],
          [-112.53025, 44.45548],
          [-112.52638, 44.4342],
          [-112.50702, 44.42355],
          [-112.49904, 44.41509],
          [-112.48884, 44.3944],
          [-112.48498, 44.37311],
          [-112.48112, 44.35182],
          [-112.47726, 44.33052],
          [-112.48827, 44.3203],
          [-112.49461, 44.30726],
          [-112.4993, 44.28516],
          [-112.5103, 44.27494],
          [-112.52519, 44.26109],
          [-112.53618, 44.25086],
          [-112.55106, 44.23702],
          [-112.56205, 44.22678],
          [-112.56837, 44.21373],
          [-112.57305, 44.19162],
          [-112.58403, 44.18138],
          [-112.59035, 44.16832],
          [-112.60133, 44.14562],
          [-112.60599, 44.13596],
          [-112.62084, 44.1221],
          [-112.62327, 44.10018],
          [-112.62793, 44.09053],
          [-112.64277, 44.07666],
          [-112.64519, 44.05474],
          [-112.64985, 44.04508],
          [-112.66467, 44.0312],
          [-112.67563, 44.02095],
          [-112.68192, 44.00788],
          [-112.69286, 43.98514],
          [-112.69751, 43.97547],
          [-112.71232, 43.96159],
          [-112.70843, 43.94024],
          [-112.71937, 43.92998],
          [-112.73417, 43.91609],
          [-112.73027, 43.89474],
          [-112.74121, 43.88447],
          [-112.756, 43.87058],
          [-112.76693, 43.8603],
          [-112.78171, 43.8464],
          [-112.79264, 43.83613],
          [-112.80742, 43.82222],
          [-112.80351, 43.80086],
          [-112.81442, 43.79058],
          [-112.82919, 43.77667],
          [-112.82528, 43.75531],
          [-112.83619, 43.74502],
          [-112.85094, 43.73111],
          [-112.84703, 43.70973],
          [-112.85793, 43.69944],
          [-112.87268, 43.68552],
          [-112.86876, 43.66414],
          [-112.87965, 43.65385],
          [-112.89439, 43.63992],
          [-112.90528, 43.62963],
          [-112.92001, 43.6157],
          [-112.91608, 43.59431],
          [-112.92696, 43.58401],
          [-112.94168, 43.57007],
          [-112.93775, 43.54868],
          [-112.94863, 43.53837],
          [-112.96334, 43.52443],
          [-112.95941, 43.50303],
          [-112.95548, 43.48163],
          [-112.96634, 43.47132],
          [-112.98104, 43.45737],
          [-112.9771, 43.43596],
          [-112.97317, 43.41455],
          [-112.96924, 43.39313],
          [-112.95004, 43.38246],
          [-112.93585, 43.37457],
          [-112.93193, 43.35315],
          [-112.91273, 43.34246],
          [-112.88327, 43.34531],
          [-112.85381, 43.34815],
          [-112.82435, 43.35099],
          [-112.80965, 43.36493],
          [-112.79878, 43.37524],
          [-112.7693, 43.37807],
          [-112.75459, 43.39201],
          [-112.74371, 43.40231],
          [-112.72899, 43.41625],
          [-112.7181, 43.42655],
          [-112.68861, 43.42936],
          [-112.67388, 43.44329],
          [-112.66298, 43.45358],
          [-112.64824, 43.46751],
          [-112.63734, 43.4778],
          [-112.62259, 43.49172],
          [-112.61169, 43.50201],
          [-112.58217, 43.5048],
          [-112.56799, 43.49689],
          [-112.54881, 43.48618],
          [-112.53464, 43.47827],
          [-112.51546, 43.46755],
          [-112.5013, 43.45963],
          [-112.49747, 43.43821],
          [-112.49364, 43.41679],
          [-112.47448, 43.40607],
          [-112.44499, 43.40885],
          [-112.43084, 43.40092],
          [-112.41278, 43.39635],
          [-112.3822, 43.39295],
          [-112.3519, 43.39116],
          [-112.33856, 43.38778],
          [-112.32052, 43.3832],
          [-112.28914, 43.37523],
          [-112.27581, 43.37185],
          [-112.25777, 43.36726],
          [-112.2264, 43.35929],
          [-112.21307, 43.3559],
          [-112.19395, 43.34514],
          [-112.16447, 43.34787],
          [-112.13499, 43.3506],
          [-112.12019, 43.36449],
          [-112.10924, 43.37476],
          [-112.09444, 43.38865],
          [-112.08349, 43.39891],
          [-112.06867, 43.4128],
          [-112.05772, 43.42306],
          [-112.02821, 43.42577],
          [-112.01339, 43.43964],
          [-112.00242, 43.4499],
          [-112, 43.45217]
        ]
      }
    },
    {
      "type": "Feature",
      "id": "2026100906_f192_08000_001",
      "properties": {
        "product_id": "winter_storm_levels",
        "source_id": "nbm_snow_level",
        "parameter": "snow_level",
        "definition": "height of the wet-bulb 0.5 degree C surface",
        "level_ft_msl": 8000,
        "label": "8,000 ft MSL",
        "unit": "ft_msl",
        "cycle_time_utc": "2026-10-09T06:00:00Z",
        "valid_time_utc": "2026-10-17T06:00:00Z",
        "lead_hours": 192,
        "segment": 1,
        "length_m": 1250061.3
      },
      "geometry": {
        "type": "LineString",
        "coordinates": [
          [-119.39013, 44.5],
          [-119.38915, 44.49618],
          [-119.39702, 44.48807],
          [-119.41335, 44.47123],
          [-119.40797, 44.45012],
          [-119.41583, 44.44201],
          [-119.43215, 44.42517],
          [-119.44001, 44.41706],
          [-119.45632, 44.40021],
          [-119.46417, 44.39209],
          [-119.48048, 44.37524],
          [-119.48833, 44.36712],
          [-119.50462, 44.35026],
          [-119.51247, 44.34214],
          [-119.52876, 44.32528],
          [-119.5366, 44.31715],
          [-119.55288, 44.30028],
          [-119.56071, 44.29216],
          [-119.57699, 44.27528],
          [-119.58482, 44.26716],
          [-119.60108, 44.25028],
          [-119.60891, 44.24215],
          [-119.62516, 44.22526],
          [-119.62454, 44.2035],
          [-119.62845, 44.19943],
          [-119.64861, 44.17847],
          [-119.65164, 44.17097],
          [-119.66787, 44.15407],
          [-119.67569, 44.14594],
          [-119.69191, 44.12903],
          [-119.69972, 44.1209],
          [-119.71594, 44.10399],
          [-119.72463, 44.09928],
          [-119.75136, 44.08481],
          [-119.7694, 44.07503],
          [-119.77809, 44.07032],
          [-119.79818, 44.04933],
          [-119.80208, 44.04526],
          [-119.82879, 44.03076],
          [-119.84681, 44.02098],
          [-119.85548, 44.01626],
          [-119.88217, 44.00176],
          [-119.89026, 43.99329],
          [-119.90612, 43.97667],
          [-119.92413, 43.96687],
          [-119.93191, 43.95871],
          [-119.94806, 43.94177],
          [-119.95583, 43.93361],
          [-119.97198, 43.91666],
          [-119.9665, 43.89549],
          [-119.96103, 43.87432],
          [-119.94565, 43.85447],
          [-119.93205, 43.8415],
          [-119.92073, 43.8359],
          [-119.91527, 43.81472],
          [-119.90982, 43.79353],
          [-119.88633, 43.78189],
          [-119.87502, 43.77628],
          [-119.85153, 43.76463],
          [-119.84023, 43.75901],
          [-119.83479, 43.73782],
          [-119.81132, 43.72616],
          [-119.80003, 43.72054],
          [-119.7946, 43.69934],
          [-119.77114, 43.68767],
          [-119.75985, 43.68205],
          [-119.75444, 43.66085],
          [-119.731, 43.64917],
          [-119.71971, 43.64355],
          [-119.69628, 43.63187],
          [-119.685, 43.62624],
          [-119.66157, 43.61455],
          [-119.6503, 43.60893],
          [-119.62688, 43.59723],
          [-119.61561, 43.5916],
          [-119.5922, 43.57991],
          [-119.5629, 43.5838],
          [-119.53359, 43.58768],
          [-119.52233, 43.58205],
          [-119.49893, 43.57034],
          [-119.46963, 43.57421],
          [-119.45837, 43.56857],
          [-119.43498, 43.55685],
          [-119.42372, 43.55121],
          [-119.40035, 43.53948],
          [-119.37105, 43.54334],
          [-119.34175, 43.5472],
          [-119.3305, 43.54155],
          [-119.30714, 43.52981],
          [-119.27784, 43.53366],
          [-119.24854, 43.5375],
          [-119.23729, 43.53185],
          [-119.21395, 43.5201],
          [-119.18465, 43.52393],
          [-119.17341, 43.51827],
          [-119.15007, 43.50651],
          [-119.12077, 43.51034],
          [-119.10954, 43.50467],
          [-119.08621, 43.4929],
          [-119.05691, 43.49672],
          [-119.02762, 43.50053],
          [-119.01639, 43.49486],
          [-118.99307, 43.48308],
          [-118.98185, 43.4774],
          [-118.95855, 43.46562],
          [-118.92925, 43.46941],
          [-118.91804, 43.46373],
          [-118.89474, 43.45194],
          [-118.88353, 43.44626],
          [-118.86024, 43.43446],
          [-118.84903, 43.42878],
          [-118.82575, 43.41697],
          [-118.81455, 43.41128],
          [-118.80935, 43.39001],
          [-118.78609, 43.3782],
          [-118.77489, 43.37251],
          [-118.7697, 43.35123],
          [-118.76452, 43.32995],
          [-118.74127, 43.31812],
          [-118.73008, 43.31243],
          [-118.72491, 43.29114],
          [-118.70168, 43.27931],
          [-118.6905, 43.27361],
          [-118.68533, 43.25232],
          [-118.68017, 43.23102],
          [-118.65696, 43.21918],
          [-118.64579, 43.21348],
          [-118.62259, 43.20163],
          [-118.61142, 43.19592],
          [-118.60628, 43.17462],
          [-118.58309, 43.16276],
          [-118.57192, 43.15705],
          [-118.56679, 43.13574],
          [-118.56167, 43.11442],
          [-118.55654, 43.0931],
          [-118.53337, 43.08124],
          [-118.52222, 43.07552],
          [-118.51711, 43.05419],
          [-118.512, 43.03287],
          [-118.50688, 43.01153],
          [-118.48375, 42.99966],
          [-118.47261, 42.99393],
          [-118.46751, 42.9726],
          [-118.46241, 42.95126],
          [-118.45731, 42.92991],
          [-118.45222, 42.90857],
          [-118.44713, 42.88722],
          [-118.44204, 42.86586],
          [-118.41894, 42.85397],
          [-118.40782, 42.84824],
          [-118.40274, 42.82688],
          [-118.39766, 42.80552],
          [-118.39259, 42.78415],
          [-118.38752, 42.76278],
          [-118.38245, 42.74141],
          [-118.37738, 42.72004],
          [-118.37231, 42.69866],
          [-118.34926, 42.68674],
          [-118.32018, 42.69046],
          [-118.30908, 42.68472],
          [-118.28604, 42.67279],
          [-118.25696, 42.6765],
          [-118.22787, 42.6802],
          [-118.19878, 42.6839],
          [-118.16969, 42.68759],
          [-118.1406, 42.69128],
          [-118.12951, 42.68553],
          [-118.10818, 42.6808],
          [-118.07659, 42.67378],
          [-118.06632, 42.6715],
          [-118.045, 42.66676],
          [-118.01422, 42.66321],
          [-117.98432, 42.6634],
          [-117.97406, 42.66111],
          [-117.95274, 42.65636],
          [-117.92365, 42.66001],
          [-117.89456, 42.66366],
          [-117.87659, 42.67335],
          [-117.86794, 42.67801],
          [-117.84131, 42.69234],
          [-117.82333, 42.70202],
          [-117.81468, 42.70668],
          [-117.78694, 42.71628],
          [-117.75892, 42.72463],
          [-117.74093, 42.7343],
          [-117.73226, 42.73895],
          [-117.70451, 42.74854],
          [-117.67647, 42.75688],
          [-117.65847, 42.76653],
          [-117.64953, 42.77002],
          [-117.62066, 42.77478],
          [-117.59397, 42.78908],
          [-117.58579, 42.79751],
          [-117.57612, 42.82069],
          [-117.5956, 42.84028],
          [-117.6005, 42.86165],
          [-117.59557, 42.88424],
          [-117.58768, 42.89236],
          [-117.5713, 42.90921],
          [-117.56341, 42.91732],
          [-117.54701, 42.93417],
          [-117.55191, 42.95554],
          [-117.54322, 42.96017],
          [-117.51482, 42.96723],
          [-117.50827, 42.98286],
          [-117.51316, 43.00422],
          [-117.52633, 43.01743],
          [-117.53267, 43.02379],
          [-117.52951, 43.03131],
          [-117.52296, 43.04694],
          [-117.51325, 43.07008],
          [-117.50929, 43.07413],
          [-117.48143, 43.08367],
          [-117.45327, 43.09195],
          [-117.43519, 43.10157],
          [-117.42648, 43.1062],
          [-117.39802, 43.11323],
          [-117.38157, 43.13004],
          [-117.37286, 43.13466],
          [-117.34439, 43.14168],
          [-117.31514, 43.14523],
          [-117.3088, 43.13887],
          [-117.31198, 43.13136],
          [-117.32844, 43.11455],
          [-117.32833, 43.09262],
          [-117.32506, 43.07107],
          [-117.32665, 43.06375],
          [-117.33323, 43.04813],
          [-117.32838, 43.02677],
          [-117.32352, 43.00541],
          [-117.32512, 42.98326],
          [-117.32842, 42.9609],
          [-117.32356, 42.93952],
          [-117.32029, 42.91796],
          [-117.32188, 42.91062],
          [-117.32846, 42.89499],
          [-117.32361, 42.87361],
          [-117.32861, 42.85103],
          [-117.32376, 42.82964],
          [-117.31891, 42.80825],
          [-117.31407, 42.78686],
          [-117.30923, 42.76546],
          [-117.31713, 42.75735],
          [-117.33353, 42.74051],
          [-117.32869, 42.71911],
          [-117.33658, 42.71099],
          [-117.35297, 42.69414],
          [-117.34813, 42.67274],
          [-117.35601, 42.66462],
          [-117.37239, 42.64776],
          [-117.38028, 42.63964],
          [-117.39665, 42.62278],
          [-117.3918, 42.60137],
          [-117.39968, 42.59325],
          [-117.41604, 42.57638],
          [-117.41119, 42.55496],
          [-117.40634, 42.53353],
          [-117.41421, 42.52541],
          [-117.43055, 42.50853],
          [-117.4257, 42.4871],
          [-117.43357, 42.47897],
          [-117.44991, 42.46209],
          [-117.44505, 42.44066],
          [-117.45291, 42.43253],
          [-117.46924, 42.41564],
          [-117.46438, 42.3942],
          [-117.45953, 42.37275],
          [-117.46738, 42.36462],
          [-117.4837, 42.34772],
          [-117.47884, 42.32627],
          [-117.47399, 42.30482],
          [-117.46913, 42.28337],
          [-117.47698, 42.27523],
          [-117.49328, 42.25832],
          [-117.48842, 42.23686],
          [-117.48357, 42.2154],
          [-117.49141, 42.20726],
          [-117.5077, 42.19034],
          [-117.50284, 42.16887],
          [-117.49799, 42.1474],
          [-117.49314, 42.12593],
          [-117.48829, 42.10445],
          [-117.48345, 42.08297],
          [-117.46065, 42.0709],
          [-117.44967, 42.06509],
          [-117.44483, 42.0436],
          [-117.42204, 42.03152],
          [-117.39311, 42.0351],
          [-117.36418, 42.03868],
          [-117.35321, 42.03286],
          [-117.33044, 42.02077],
          [-117.31947, 42.01494],
          [-117.2967, 42.00284],
          [-117.28574, 41.99702],
          [-117.26298, 41.98491],
          [-117.25203, 41.97908],
          [-117.22928, 41.96697],
          [-117.21832, 41.96114],
          [-117.21354, 41.93964],
          [-117.20876, 41.91813],
          [-117.18603, 41.90601],
          [-117.15713, 41.90956],
          [-117.12822, 41.91311],
          [-117.09932, 41.91665],
          [-117.07041, 41.92018],
          [-117.0415, 41.92371],
          [-117.01258, 41.92724],
          [-117.00165, 41.92139],
          [-116.97894, 41.90925],
          [-116.95003, 41.91276],
          [-116.9391, 41.90691],
          [-116.9164, 41.89476],
          [-116.90547, 41.8889],
          [-116.88279, 41.87674],
          [-116.87186, 41.87089],
          [-116.84918, 41.85872],
          [-116.83826, 41.85286],
          [-116.81559, 41.84069],
          [-116.78669, 41.84419],
          [-116.77578, 41.83832],
          [-116.75312, 41.82614],
          [-116.72422, 41.82963],
          [-116.71331, 41.82376],
          [-116.69066, 41.81157],
          [-116.66177, 41.81504],
          [-116.63287, 41.81851],
          [-116.60398, 41.82198],
          [-116.5876, 41.83885],
          [-116.57972, 41.84697],
          [-116.55081, 41.85042],
          [-116.53442, 41.86729],
          [-116.53905, 41.88882],
          [-116.53116, 41.89693],
          [-116.51476, 41.91379],
          [-116.51939, 41.93532],
          [-116.51149, 41.94343],
          [-116.49509, 41.96028],
          [-116.49971, 41.9818],
          [-116.49181, 41.98991],
          [-116.47539, 42.00676],
          [-116.46748, 42.01487],
          [-116.45105, 42.03171],
          [-116.44314, 42.03981],
          [-116.41418, 42.04324],
          [-116.38521, 42.04667],
          [-116.35624, 42.05009],
          [-116.32726, 42.0535],
          [-116.31635, 42.04762],
          [-116.2937, 42.03539],
          [-116.26473, 42.0388],
          [-116.23576, 42.0422],
          [-116.20678, 42.0456],
          [-116.17781, 42.04899],
          [-116.14883, 42.05237],
          [-116.13793, 42.04648],
          [-116.1153, 42.03424],
          [-116.1044, 42.02834],
          [-116.08178, 42.01609],
          [-116.07089, 42.01019],
          [-116.06635, 41.98866],
          [-116.04374, 41.97641],
          [-116.01478, 41.97977],
          [-116.00389, 41.97387],
          [-115.98129, 41.9616],
          [-115.95233, 41.96496],
          [-115.94145, 41.95905],
          [-115.91887, 41.94678],
          [-115.90799, 41.94087],
          [-115.88541, 41.92859],
          [-115.87454, 41.92267],
          [-115.87005, 41.90113],
          [-115.84748, 41.88884],
          [-115.83662, 41.88292],
          [-115.83214, 41.86138],
          [-115.80958, 41.84908],
          [-115.79873, 41.84316],
          [-115.79425, 41.82161],
          [-115.78978, 41.80005],
          [-115.78531, 41.77849],
          [-115.78085, 41.75693],
          [-115.78879, 41.74884],
          [-115.80528, 41.73203],
          [-115.80081, 41.71046],
          [-115.80875, 41.70237],
          [-115.82523, 41.68555],
          [-115.82076, 41.66398],
          [-115.82869, 41.65588],
          [-115.84516, 41.63906],
          [-115.84069, 41.61748],
          [-115.83622, 41.5959],
          [-115.84414, 41.5878],
          [-115.8606, 41.57097],
          [-115.85613, 41.54939],
          [-115.85165, 41.5278],
          [-115.84718, 41.50621],
          [-115.84272, 41.48461],
          [-115.85063, 41.47651],
          [-115.86707, 41.45967],
          [-115.8626, 41.43807],
          [-115.85813, 41.41647],
          [-115.85367, 41.39486],
          [-115.8492, 41.37326],
          [-115.84474, 41.35165],
          [-115.8223, 41.33932],
          [-115.79351, 41.34266],
          [-115.78271, 41.33672],
          [-115.76028, 41.32438],
          [-115.74948, 41.31844],
          [-115.72705, 41.3061],
          [-115.71626, 41.30015],
          [-115.71183, 41.27853],
          [-115.7074, 41.25691],
          [-115.685, 41.24456],
          [-115.67421, 41.23861],
          [-115.66979, 41.21698],
          [-115.66537, 41.19534],
          [-115.66096, 41.17371],
          [-115.65654, 41.15207],
          [-115.65213, 41.13043],
          [-115.66003, 41.12231],
          [-115.67645, 41.10546],
          [-115.67203, 41.08381],
          [-115.67993, 41.0757],
          [-115.69633, 41.05884],
          [-115.69192, 41.03718],
          [-115.6875, 41.01553],
          [-115.68309, 40.99387],
          [-115.69098, 40.98575],
          [-115.70737, 40.96888],
          [-115.70295, 40.94722],
          [-115.69854, 40.92556],
          [-115.67621, 40.91318],
          [-115.66546, 40.90722],
          [-115.64313, 40.89484],
          [-115.61447, 40.89816],
          [-115.58579, 40.90148],
          [-115.55712, 40.9048],
          [-115.52845, 40.90811],
          [-115.51204, 40.92496],
          [-115.50414, 40.93308],
          [-115.47546, 40.93638],
          [-115.45904, 40.95323],
          [-115.45113, 40.96135],
          [-115.42244, 40.96464],
          [-115.40601, 40.98148],
          [-115.3981, 40.98959],
          [-115.36939, 40.99287],
          [-115.35295, 41.00971],
          [-115.34503, 41.01781],
          [-115.32858, 41.03465],
          [-115.32065, 41.04275],
          [-115.30419, 41.05958],
          [-115.30853, 41.08123],
          [-115.3006, 41.08933],
          [-115.28413, 41.10616],
          [-115.27619, 41.11425],
          [-115.24745, 41.11752],
          [-115.23097, 41.13433],
          [-115.22303, 41.14242],
          [-115.19428, 41.14568],
          [-115.16552, 41.14892],
          [-115.13677, 41.15216],
          [-115.10801, 41.1554],
          [-115.09727, 41.14942],
          [-115.07496, 41.13698],
          [-115.04621, 41.14021],
          [-115.01745, 41.14343],
          [-115.00671, 41.13744],
          [-114.98442, 41.12499],
          [-114.95567, 41.12821],
          [-114.92691, 41.13142],
          [-114.91618, 41.12542],
          [-114.8939, 41.11296],
          [-114.86515, 41.11616],
          [-114.83639, 41.11935],
          [-114.80764, 41.12254],
          [-114.77888, 41.12573],
          [-114.76231, 41.1425],
          [-114.75434, 41.15057],
          [-114.72557, 41.15375],
          [-114.6968, 41.15692],
          [-114.66803, 41.16009],
          [-114.63925, 41.16325],
          [-114.62266, 41.18],
          [-114.61467, 41.18807],
          [-114.58588, 41.19122],
          [-114.5571, 41.19437],
          [-114.52831, 41.19752],
          [-114.49952, 41.20066],
          [-114.47073, 41.20379],
          [-114.46002, 41.19777],
          [-114.43778, 41.18526],
          [-114.409, 41.18838],
          [-114.38021, 41.1915],
          [-114.3695, 41.18548],
          [-114.34728, 41.17295],
          [-114.33658, 41.16692],
          [-114.31436, 41.15439],
          [-114.30366, 41.14836],
          [-114.28146, 41.13583],
          [-114.27076, 41.12979],
          [-114.24856, 41.11725],
          [-114.23787, 41.11121],
          [-114.21568, 41.09867],
          [-114.205, 41.09263],
          [-114.2009, 41.07095],
          [-114.17872, 41.05839],
          [-114.14996, 41.06148],
          [-114.13928, 41.05543],
          [-114.11711, 41.04287],
          [-114.08835, 41.04595],
          [-114.07169, 41.06266],
          [-114.06366, 41.07071],
          [-114.0349, 41.07378],
          [-114.00613, 41.07684],
          [-113.98945, 41.09354],
          [-113.98141, 41.10159],
          [-113.96472, 41.11828],
          [-113.95668, 41.12632],
          [-113.93999, 41.14302],
          [-113.93194, 41.15105],
          [-113.91524, 41.16774],
          [-113.91928, 41.18942],
          [-113.91124, 41.19746],
          [-113.89452, 41.21414],
          [-113.89856, 41.23581],
          [-113.89051, 41.24384],
          [-113.87378, 41.26052],
          [-113.87782, 41.28219],
          [-113.86976, 41.29022],
          [-113.85302, 41.30689],
          [-113.85706, 41.32855],
          [-113.849, 41.33657],
          [-113.83225, 41.35324],
          [-113.83628, 41.3749],
          [-113.82821, 41.38292],
          [-113.81145, 41.39958],
          [-113.81549, 41.42123],
          [-113.80741, 41.42925],
          [-113.79064, 41.4459],
          [-113.78256, 41.45392],
          [-113.76578, 41.47057],
          [-113.7577, 41.47858],
          [-113.74091, 41.49522],
          [-113.73283, 41.50324],
          [-113.71603, 41.51988],
          [-113.70794, 41.52789],
          [-113.67903, 41.53089],
          [-113.66222, 41.54752],
          [-113.65413, 41.55553],
          [-113.62521, 41.55852],
          [-113.59629, 41.56151],
          [-113.56737, 41.56449],
          [-113.55668, 41.55843],
          [-113.53447, 41.54583],
          [-113.50555, 41.54881],
          [-113.47663, 41.55178],
          [-113.44771, 41.55474],
          [-113.43703, 41.54867],
          [-113.41484, 41.53606],
          [-113.40416, 41.52999],
          [-113.38197, 41.51737],
          [-113.35306, 41.52032],
          [-113.3362, 41.53692],
          [-113.32808, 41.54491],
          [-113.29916, 41.54786],
          [-113.27023, 41.55079],
          [-113.2413, 41.55373],
          [-113.22442, 41.57031],
          [-113.21629, 41.5783],
          [-113.18735, 41.58122],
          [-113.17045, 41.59781],
          [-113.16231, 41.60579],
          [-113.13337, 41.6087],
          [-113.10442, 41.61161],
          [-113.0875, 41.62818],
          [-113.07936, 41.63616],
          [-113.0504, 41.63906],
          [-113.02144, 41.64196],
          [-112.99248, 41.64485],
          [-112.98181, 41.63875],
          [-112.95966, 41.62609],
          [-112.9307, 41.62897],
          [-112.90174, 41.63185],
          [-112.87278, 41.63472],
          [-112.86212, 41.62862],
          [-112.83999, 41.61594],
          [-112.81103, 41.61881],
          [-112.78207, 41.62166],
          [-112.75311, 41.62452],
          [-112.74246, 41.61841],
          [-112.72034, 41.60572],
          [-112.69138, 41.60856],
          [-112.66242, 41.6114],
          [-112.65178, 41.60528],
          [-112.62968, 41.59258],
          [-112.61904, 41.58646],
          [-112.59694, 41.57375],
          [-112.5863, 41.56763],
          [-112.56421, 41.55492],
          [-112.55358, 41.54879],
          [-112.5315, 41.53607],
          [-112.52087, 41.52995],
          [-112.4988, 41.51722],
          [-112.48818, 41.51109],
          [-112.46611, 41.49836],
          [-112.45549, 41.49223],
          [-112.43344, 41.4795],
          [-112.42282, 41.47336],
          [-112.40078, 41.46062],
          [-112.39016, 41.45449],
          [-112.36812, 41.44174],
          [-112.35751, 41.4356],
          [-112.33548, 41.42285],
          [-112.32488, 41.41671],
          [-112.30286, 41.40395],
          [-112.29226, 41.39781],
          [-112.27024, 41.38504],
          [-112.25964, 41.3789],
          [-112.23764, 41.36613],
          [-112.22705, 41.35998],
          [-112.20505, 41.34721],
          [-112.18803, 41.36372],
          [-112.17983, 41.37166],
          [-112.15093, 41.37443],
          [-112.13389, 41.39093],
          [-112.12569, 41.39887],
          [-112.10865, 41.41537],
          [-112.10044, 41.42331],
          [-112.07152, 41.42606],
          [-112.06093, 41.41991],
          [-112.03894, 41.40712],
          [-112.01002, 41.40985],
          [-112, 41.40402]
        ]
      }
    },
    {
      "type": "Feature",
      "id": "2026100906_f192_08000_002",
      "properties": {
        "product_id": "winter_storm_levels",
        "source_id": "nbm_snow_level",
        "parameter": "snow_level",
        "definition": "height of the wet-bulb 0.5 degree C surface",
        "level_ft_msl": 8000,
        "label": "8,000 ft MSL",
        "unit": "ft_msl",
        "cycle_time_utc": "2026-10-09T06:00:00Z",
        "valid_time_utc": "2026-10-17T06:00:00Z",
        "lead_hours": 192,
        "segment": 2,
        "length_m": 122754.1
      },
      "geometry": {
        "type": "LineString",
        "coordinates": [
          [-120.32911, 44.34986],
          [-120.32353, 44.32876],
          [-120.308, 44.309],
          [-120.30243, 44.2879],
          [-120.29687, 44.26679],
          [-120.28316, 44.25389],
          [-120.27178, 44.24832],
          [-120.26622, 44.2272],
          [-120.25072, 44.20743],
          [-120.23703, 44.19451],
          [-120.22565, 44.18894],
          [-120.21017, 44.16916],
          [-120.19836, 44.16337],
          [-120.17518, 44.152],
          [-120.16338, 44.14621],
          [-120.13206, 44.14304],
          [-120.10172, 44.14357],
          [-120.07227, 44.14753],
          [-120.04281, 44.15148],
          [-120.01336, 44.15542],
          [-119.98479, 44.1628],
          [-119.96861, 44.17972],
          [-119.96081, 44.18787],
          [-119.94462, 44.20479],
          [-119.93683, 44.21293],
          [-119.92063, 44.22985],
          [-119.91283, 44.23799],
          [-119.89662, 44.2549],
          [-119.88793, 44.2596],
          [-119.86117, 44.27408],
          [-119.85306, 44.28253],
          [-119.83713, 44.29912],
          [-119.82902, 44.30757],
          [-119.81973, 44.33064],
          [-119.8167, 44.33814],
          [-119.81043, 44.35371],
          [-119.81589, 44.37482],
          [-119.82136, 44.39592],
          [-119.82683, 44.41703],
          [-119.8405, 44.42995],
          [-119.85188, 44.43554],
          [-119.86734, 44.45531],
          [-119.87916, 44.46111],
          [-119.91057, 44.46431],
          [-119.92196, 44.4699],
          [-119.94377, 44.47437],
          [-119.97332, 44.47044],
          [-120.00288, 44.46651],
          [-120.03429, 44.46969],
          [-120.06384, 44.46575],
          [-120.09339, 44.4618],
          [-120.12107, 44.45073],
          [-120.15061, 44.44678],
          [-120.18015, 44.44282],
          [-120.19821, 44.43302],
          [-120.206, 44.42488],
          [-120.23553, 44.42091],
          [-120.26318, 44.40982],
          [-120.28123, 44.40002],
          [-120.28901, 44.39187],
          [-120.30517, 44.37494],
          [-120.31295, 44.36679],
          [-120.32911, 44.34986]
        ]
      }
    },
    {
      "type": "Feature",
      "id": "2026100906_f192_08000_003",
      "properties": {
        "product_id": "winter_storm_levels",
        "source_id": "nbm_snow_level",
        "parameter": "snow_level",
        "definition": "height of the wet-bulb 0.5 degree C surface",
        "level_ft_msl": 8000,
        "label": "8,000 ft MSL",
        "unit": "ft_msl",
        "cycle_time_utc": "2026-10-09T06:00:00Z",
        "valid_time_utc": "2026-10-17T06:00:00Z",
        "lead_hours": 192,
        "segment": 3,
        "length_m": 82939.4
      },
      "geometry": {
        "type": "LineString",
        "coordinates": [
          [-130, 44.00007],
          [-129.97368, 44.00506],
          [-129.9593, 44.02281],
          [-129.95237, 44.03136],
          [-129.93799, 44.0491],
          [-129.93106, 44.05765],
          [-129.90211, 44.06313],
          [-129.88771, 44.08086],
          [-129.88078, 44.0894],
          [-129.85181, 44.09487],
          [-129.8374, 44.1126],
          [-129.83046, 44.12114],
          [-129.80149, 44.1266],
          [-129.78706, 44.14432],
          [-129.78011, 44.15286],
          [-129.75113, 44.15831],
          [-129.73668, 44.17602],
          [-129.72973, 44.18455],
          [-129.71528, 44.20226],
          [-129.70832, 44.21079],
          [-129.67931, 44.21623],
          [-129.66485, 44.23393],
          [-129.65789, 44.24245],
          [-129.64342, 44.26015],
          [-129.63645, 44.26867],
          [-129.60742, 44.2741],
          [-129.59293, 44.29179],
          [-129.58596, 44.3003],
          [-129.55692, 44.30572],
          [-129.54242, 44.3234],
          [-129.53544, 44.33192],
          [-129.52093, 44.34959],
          [-129.51394, 44.3581],
          [-129.48488, 44.36351],
          [-129.47036, 44.38118],
          [-129.46337, 44.38969],
          [-129.43429, 44.39508],
          [-129.41976, 44.41274],
          [-129.41276, 44.42125],
          [-129.39822, 44.4389],
          [-129.39122, 44.44741],
          [-129.36212, 44.45279],
          [-129.34756, 44.47044],
          [-129.34055, 44.47893],
          [-129.32599, 44.49658],
          [-129.32317, 44.5]
        ]
      }
    },
    {
      "type": "Feature",
      "id": "2026100906_f192_09000_001",
      "properties": {
        "product_id": "winter_storm_levels",
        "source_id": "nbm_snow_level",
        "parameter": "snow_level",
        "definition": "height of the wet-bulb 0.5 degree C surface",
        "level_ft_msl": 9000,
        "label": "9,000 ft MSL",
        "unit": "ft_msl",
        "cycle_time_utc": "2026-10-09T06:00:00Z",
        "valid_time_utc": "2026-10-17T06:00:00Z",
        "lead_hours": 192,
        "segment": 1,
        "length_m": 15721.2
      },
      "geometry": {
        "type": "LineString",
        "coordinates": [
          [-128.20883, 39.42541],
          [-128.2019, 39.40398],
          [-128.17503, 39.39152],
          [-128.1589, 39.41227],
          [-128.16583, 39.43371],
          [-128.1927, 39.44617],
          [-128.20883, 39.42541]
        ]
      }
    },
    {
      "type": "Feature",
      "id": "2026100906_f192_09000_002",
      "properties": {
        "product_id": "winter_storm_levels",
        "source_id": "nbm_snow_level",
        "parameter": "snow_level",
        "definition": "height of the wet-bulb 0.5 degree C surface",
        "level_ft_msl": 9000,
        "label": "9,000 ft MSL",
        "unit": "ft_msl",
        "cycle_time_utc": "2026-10-09T06:00:00Z",
        "valid_time_utc": "2026-10-17T06:00:00Z",
        "lead_hours": 192,
        "segment": 2,
        "length_m": 242531.4
      },
      "geometry": {
        "type": "LineString",
        "coordinates": [
          [-128.67361, 37.87102],
          [-128.65781, 37.89197],
          [-128.65322, 37.89805],
          [-128.63741, 37.91899],
          [-128.63282, 37.92507],
          [-128.617, 37.94601],
          [-128.6124, 37.95209],
          [-128.61933, 37.97364],
          [-128.6035, 37.99457],
          [-128.5989, 38.00065],
          [-128.58306, 38.02158],
          [-128.57847, 38.02765],
          [-128.56262, 38.04857],
          [-128.53526, 38.05402],
          [-128.53065, 38.06009],
          [-128.51479, 38.08101],
          [-128.48742, 38.08644],
          [-128.46004, 38.09188],
          [-128.43266, 38.0973],
          [-128.40527, 38.10272],
          [-128.37788, 38.10814],
          [-128.37327, 38.11421],
          [-128.38098, 38.11784],
          [-128.40837, 38.11242],
          [-128.43494, 38.12492],
          [-128.44184, 38.14647],
          [-128.42595, 38.16737],
          [-128.42133, 38.17343],
          [-128.42823, 38.19497],
          [-128.41233, 38.21587],
          [-128.38492, 38.22129],
          [-128.3575, 38.2267],
          [-128.33007, 38.2321],
          [-128.30349, 38.2196],
          [-128.29578, 38.21596],
          [-128.29115, 38.22203],
          [-128.27522, 38.24291],
          [-128.2706, 38.24897],
          [-128.25466, 38.26984],
          [-128.25003, 38.2759],
          [-128.23409, 38.29677],
          [-128.22945, 38.30283],
          [-128.23632, 38.32437],
          [-128.22037, 38.34523],
          [-128.21573, 38.35129],
          [-128.19977, 38.37215],
          [-128.19513, 38.37821],
          [-128.17916, 38.39906],
          [-128.15169, 38.40444],
          [-128.14705, 38.41049],
          [-128.13106, 38.43134],
          [-128.10357, 38.43671],
          [-128.09893, 38.44276],
          [-128.08293, 38.4636],
          [-128.05543, 38.46896],
          [-128.05078, 38.47501],
          [-128.03477, 38.49584],
          [-128.00726, 38.50119],
          [-128.00261, 38.50724],
          [-127.98658, 38.52806],
          [-127.95906, 38.5334],
          [-127.93154, 38.53874],
          [-127.90493, 38.52619],
          [-127.89811, 38.50466],
          [-127.8913, 38.48312],
          [-127.8845, 38.46159],
          [-127.90054, 38.44076],
          [-127.90519, 38.43472],
          [-127.89839, 38.41318],
          [-127.91441, 38.39235],
          [-127.9419, 38.38701],
          [-127.94655, 38.38096],
          [-127.96256, 38.36013],
          [-127.96721, 38.35408],
          [-127.98322, 38.33324],
          [-128.01068, 38.32789],
          [-128.01533, 38.32183],
          [-128.03132, 38.30099],
          [-128.03596, 38.29493],
          [-128.02914, 38.27338],
          [-128.04512, 38.25253],
          [-128.07256, 38.24717],
          [-128.0772, 38.24111],
          [-128.09317, 38.22025],
          [-128.1206, 38.21488],
          [-128.14803, 38.20951],
          [-128.17545, 38.20413],
          [-128.18008, 38.19807],
          [-128.19602, 38.17719],
          [-128.20065, 38.17113],
          [-128.21658, 38.15026],
          [-128.22121, 38.14419],
          [-128.23713, 38.12331],
          [-128.24176, 38.11725],
          [-128.25767, 38.09636],
          [-128.26229, 38.09029],
          [-128.2782, 38.0694],
          [-128.28282, 38.06334],
          [-128.29872, 38.04244],
          [-128.30334, 38.03637],
          [-128.29647, 38.01481],
          [-128.31237, 37.99391],
          [-128.33973, 37.9885],
          [-128.34434, 37.98243],
          [-128.36021, 37.96152],
          [-128.38757, 37.9561],
          [-128.39217, 37.95003],
          [-128.40804, 37.92911],
          [-128.43538, 37.92369],
          [-128.43998, 37.91761],
          [-128.45583, 37.89669],
          [-128.48316, 37.89125],
          [-128.51048, 37.88581],
          [-128.53781, 37.88037],
          [-128.56513, 37.87492],
          [-128.56972, 37.86884],
          [-128.58554, 37.8479],
          [-128.61285, 37.84245],
          [-128.63937, 37.85493],
          [-128.64708, 37.85855],
          [-128.67361, 37.87102]
        ]
      }
    },
    {
      "type": "Feature",
      "id": "2026100906_f192_09000_003",
      "properties": {
        "product_id": "winter_storm_levels",
        "source_id": "nbm_snow_level",
        "parameter": "snow_level",
        "definition": "height of the wet-bulb 0.5 degree C surface",
        "level_ft_msl": 9000,
        "label": "9,000 ft MSL",
        "unit": "ft_msl",
        "cycle_time_utc": "2026-10-09T06:00:00Z",
        "valid_time_utc": "2026-10-17T06:00:00Z",
        "lead_hours": 192,
        "segment": 3,
        "length_m": 2495115.9
      },
      "geometry": {
        "type": "LineString",
        "coordinates": [
          [-130, 38.61591],
          [-129.97856, 38.62033],
          [-129.95112, 38.62599],
          [-129.92367, 38.63164],
          [-129.89623, 38.63729],
          [-129.88843, 38.63373],
          [-129.86156, 38.62149],
          [-129.83412, 38.62712],
          [-129.82632, 38.62357],
          [-129.79946, 38.61131],
          [-129.77202, 38.61694],
          [-129.76422, 38.61338],
          [-129.73738, 38.60111],
          [-129.70993, 38.60673],
          [-129.70214, 38.60316],
          [-129.6753, 38.59089],
          [-129.64785, 38.5965],
          [-129.6204, 38.6021],
          [-129.60468, 38.62306],
          [-129.60011, 38.62915],
          [-129.57265, 38.63475],
          [-129.55691, 38.6557],
          [-129.55234, 38.66179],
          [-129.52487, 38.66737],
          [-129.50912, 38.68832],
          [-129.50454, 38.69441],
          [-129.47706, 38.69998],
          [-129.44957, 38.70556],
          [-129.4338, 38.7265],
          [-129.42922, 38.73258],
          [-129.40172, 38.73814],
          [-129.38593, 38.75907],
          [-129.38135, 38.76515],
          [-129.35384, 38.77071],
          [-129.33804, 38.79163],
          [-129.33345, 38.79771],
          [-129.30593, 38.80326],
          [-129.27841, 38.8088],
          [-129.26258, 38.82971],
          [-129.25799, 38.83579],
          [-129.24216, 38.8567],
          [-129.23756, 38.86277],
          [-129.22172, 38.88367],
          [-129.21712, 38.88974],
          [-129.20127, 38.91064],
          [-129.19667, 38.91671],
          [-129.18082, 38.93761],
          [-129.17621, 38.94367],
          [-129.14865, 38.94919],
          [-129.13278, 38.97008],
          [-129.12817, 38.97615],
          [-129.11229, 38.99703],
          [-129.10768, 39.00309],
          [-129.08009, 39.0086],
          [-129.0642, 39.02948],
          [-129.05959, 39.03554],
          [-129.03199, 39.04104],
          [-129.01608, 39.06191],
          [-129.01147, 39.06797],
          [-128.99555, 39.08883],
          [-128.99093, 39.09489],
          [-128.96331, 39.10038],
          [-128.94739, 39.12123],
          [-128.94276, 39.12729],
          [-128.92682, 39.14814],
          [-128.92219, 39.1542],
          [-128.90625, 39.17505],
          [-128.90162, 39.1811],
          [-128.88566, 39.20194],
          [-128.88103, 39.20799],
          [-128.85338, 39.21346],
          [-128.83741, 39.2343],
          [-128.83278, 39.24034],
          [-128.80511, 39.2458],
          [-128.78913, 39.26663],
          [-128.78449, 39.27268],
          [-128.75682, 39.27813],
          [-128.74082, 39.29895],
          [-128.73617, 39.30499],
          [-128.72017, 39.32581],
          [-128.71552, 39.33185],
          [-128.69951, 39.35267],
          [-128.69486, 39.35871],
          [-128.66716, 39.36414],
          [-128.65113, 39.38495],
          [-128.64648, 39.39098],
          [-128.63044, 39.41179],
          [-128.62578, 39.41782],
          [-128.60974, 39.43862],
          [-128.60508, 39.44466],
          [-128.58903, 39.46545],
          [-128.58436, 39.47148],
          [-128.55663, 39.4769],
          [-128.54056, 39.49768],
          [-128.5359, 39.50371],
          [-128.50815, 39.50912],
          [-128.49207, 39.52989],
          [-128.4874, 39.53592],
          [-128.45964, 39.54132],
          [-128.44354, 39.56209],
          [-128.43887, 39.56812],
          [-128.4111, 39.5735],
          [-128.40328, 39.5699],
          [-128.37635, 39.55748],
          [-128.36853, 39.55387],
          [-128.34161, 39.54144],
          [-128.31384, 39.54682],
          [-128.30603, 39.54321],
          [-128.27912, 39.53077],
          [-128.25135, 39.53613],
          [-128.24354, 39.53252],
          [-128.21663, 39.52007],
          [-128.20883, 39.51646],
          [-128.18193, 39.50401],
          [-128.17413, 39.50039],
          [-128.16719, 39.47897],
          [-128.16027, 39.45754],
          [-128.15334, 39.43611],
          [-128.14642, 39.41468],
          [-128.1395, 39.39325],
          [-128.13258, 39.37181],
          [-128.10573, 39.35934],
          [-128.09794, 39.35572],
          [-128.09104, 39.33427],
          [-128.0642, 39.32179],
          [-128.05641, 39.31817],
          [-128.02959, 39.30568],
          [-128.0218, 39.30205],
          [-128.01492, 39.2806],
          [-127.9881, 39.26811],
          [-127.96039, 39.27343],
          [-127.93268, 39.27875],
          [-127.90496, 39.28406],
          [-127.87724, 39.28937],
          [-127.84952, 39.29468],
          [-127.82179, 39.29998],
          [-127.79406, 39.30528],
          [-127.76633, 39.31057],
          [-127.73859, 39.31585],
          [-127.71086, 39.32114],
          [-127.68312, 39.32642],
          [-127.65537, 39.33169],
          [-127.62763, 39.33696],
          [-127.59988, 39.34222],
          [-127.57213, 39.34748],
          [-127.54437, 39.35274],
          [-127.5366, 39.34909],
          [-127.52981, 39.32763],
          [-127.52302, 39.30616],
          [-127.51624, 39.28469],
          [-127.52095, 39.27868],
          [-127.53719, 39.25797],
          [-127.5304, 39.23649],
          [-127.52362, 39.21502],
          [-127.52833, 39.209],
          [-127.54455, 39.18829],
          [-127.53777, 39.16681],
          [-127.54248, 39.16079],
          [-127.55869, 39.14006],
          [-127.55191, 39.11858],
          [-127.5252, 39.106],
          [-127.51744, 39.10235],
          [-127.49074, 39.08977],
          [-127.48299, 39.08611],
          [-127.47622, 39.06462],
          [-127.44953, 39.05203],
          [-127.44178, 39.04837],
          [-127.44649, 39.04235],
          [-127.46271, 39.02163],
          [-127.46741, 39.01561],
          [-127.48362, 38.99488],
          [-127.45694, 38.98228],
          [-127.42928, 38.98753],
          [-127.40161, 38.99277],
          [-127.37394, 38.99801],
          [-127.34627, 39.00324],
          [-127.33004, 39.02396],
          [-127.32532, 39.02997],
          [-127.29764, 39.0352],
          [-127.28139, 39.05591],
          [-127.27667, 39.06192],
          [-127.24898, 39.06714],
          [-127.22128, 39.07235],
          [-127.20502, 39.09305],
          [-127.20029, 39.09906],
          [-127.17258, 39.10426],
          [-127.1563, 39.12495],
          [-127.15157, 39.13096],
          [-127.12385, 39.13615],
          [-127.09613, 39.14134],
          [-127.06841, 39.14653],
          [-127.0521, 39.16721],
          [-127.04736, 39.17321],
          [-127.03104, 39.19388],
          [-127.02631, 39.19989],
          [-126.99856, 39.20506],
          [-126.98223, 39.22572],
          [-126.97749, 39.23172],
          [-126.94973, 39.23689],
          [-126.93339, 39.25755],
          [-126.92864, 39.26354],
          [-126.90087, 39.2687],
          [-126.87311, 39.27385],
          [-126.85674, 39.2945],
          [-126.85199, 39.30049],
          [-126.82421, 39.30564],
          [-126.79643, 39.31077],
          [-126.76865, 39.31591],
          [-126.75225, 39.33654],
          [-126.74749, 39.34253],
          [-126.71969, 39.34766],
          [-126.70328, 39.36828],
          [-126.69852, 39.37427],
          [-126.67071, 39.37939],
          [-126.65429, 39.40001],
          [-126.64952, 39.40599],
          [-126.63309, 39.4266],
          [-126.62831, 39.43259],
          [-126.61187, 39.4532],
          [-126.6071, 39.45918],
          [-126.57927, 39.46428],
          [-126.55143, 39.46938],
          [-126.53497, 39.48998],
          [-126.53019, 39.49595],
          [-126.50234, 39.50104],
          [-126.47449, 39.50612],
          [-126.44664, 39.5112],
          [-126.41879, 39.51627],
          [-126.4023, 39.53686],
          [-126.40887, 39.55834],
          [-126.40408, 39.56432],
          [-126.38757, 39.58489],
          [-126.38278, 39.59086],
          [-126.36626, 39.61143],
          [-126.36147, 39.61741],
          [-126.34494, 39.63797],
          [-126.34014, 39.64394],
          [-126.32361, 39.6645],
          [-126.31881, 39.67047],
          [-126.29091, 39.67552],
          [-126.27436, 39.69608],
          [-126.26956, 39.70204],
          [-126.253, 39.72259],
          [-126.2482, 39.72856],
          [-126.22027, 39.73359],
          [-126.2037, 39.75413],
          [-126.19889, 39.7601],
          [-126.18231, 39.78063],
          [-126.18886, 39.8021],
          [-126.18404, 39.80806],
          [-126.16745, 39.82859],
          [-126.16264, 39.83455],
          [-126.13468, 39.83957],
          [-126.11808, 39.86009],
          [-126.11326, 39.86605],
          [-126.09665, 39.88657],
          [-126.09182, 39.89252],
          [-126.0752, 39.91304],
          [-126.07038, 39.91899],
          [-126.05375, 39.9395],
          [-126.04892, 39.94545],
          [-126.03228, 39.96596],
          [-126.02745, 39.97191],
          [-125.99945, 39.9769],
          [-125.9828, 39.9974],
          [-125.97796, 40.00335],
          [-125.9613, 40.02384],
          [-125.95647, 40.02979],
          [-125.9398, 40.05027],
          [-125.93496, 40.05622],
          [-125.91828, 40.0767],
          [-125.91344, 40.08265],
          [-125.8854, 40.08762],
          [-125.86871, 40.1081],
          [-125.86386, 40.11404],
          [-125.83582, 40.11901],
          [-125.81911, 40.13947],
          [-125.81426, 40.14541],
          [-125.78621, 40.15037],
          [-125.76949, 40.17083],
          [-125.76463, 40.17677],
          [-125.73656, 40.18171],
          [-125.7085, 40.18666],
          [-125.69175, 40.2071],
          [-125.68689, 40.21304],
          [-125.65881, 40.21798],
          [-125.63073, 40.22291],
          [-125.60265, 40.22783],
          [-125.57456, 40.23275],
          [-125.54647, 40.23767],
          [-125.51838, 40.24258],
          [-125.49029, 40.24749],
          [-125.46219, 40.2524],
          [-125.43409, 40.25729],
          [-125.40599, 40.26219],
          [-125.37788, 40.26708],
          [-125.34978, 40.27196],
          [-125.32167, 40.27685],
          [-125.29355, 40.28172],
          [-125.26544, 40.28659],
          [-125.23732, 40.29146],
          [-125.22956, 40.28773],
          [-125.20283, 40.27487],
          [-125.18597, 40.29526],
          [-125.18107, 40.30118],
          [-125.15295, 40.30603],
          [-125.13608, 40.32641],
          [-125.14244, 40.34786],
          [-125.13754, 40.35378],
          [-125.10939, 40.35862],
          [-125.0925, 40.37899],
          [-125.09886, 40.40044],
          [-125.09395, 40.40635],
          [-125.07705, 40.42672],
          [-125.07214, 40.43263],
          [-125.05524, 40.45299],
          [-125.05033, 40.4589],
          [-125.03341, 40.47925],
          [-125.03976, 40.50069],
          [-125.03484, 40.5066],
          [-125.01791, 40.52695],
          [-125.013, 40.53285],
          [-124.99606, 40.5532],
          [-125.00241, 40.57462],
          [-124.99749, 40.58053],
          [-124.98054, 40.60087],
          [-124.97562, 40.60677],
          [-124.95866, 40.6271],
          [-124.95374, 40.63301],
          [-124.93677, 40.65333],
          [-124.93184, 40.65923],
          [-124.91487, 40.67956],
          [-124.92121, 40.70097],
          [-124.91628, 40.70687],
          [-124.89929, 40.72719],
          [-124.89436, 40.73309],
          [-124.87737, 40.7534],
          [-124.8837, 40.77481],
          [-124.87876, 40.7807],
          [-124.86176, 40.80101],
          [-124.86809, 40.82241],
          [-124.86315, 40.8283],
          [-124.84614, 40.8486],
          [-124.85247, 40.87],
          [-124.84753, 40.87589],
          [-124.8305, 40.89618],
          [-124.83683, 40.91758],
          [-124.83189, 40.92347],
          [-124.81485, 40.94375],
          [-124.82118, 40.96514],
          [-124.81623, 40.97103],
          [-124.79918, 40.99131],
          [-124.79423, 40.99719],
          [-124.77718, 41.01747],
          [-124.7835, 41.03885],
          [-124.77855, 41.04473],
          [-124.76148, 41.065],
          [-124.76781, 41.08638],
          [-124.76285, 41.09226],
          [-124.74577, 41.11252],
          [-124.7521, 41.13389],
          [-124.74714, 41.13977],
          [-124.73005, 41.16003],
          [-124.73638, 41.18139],
          [-124.73141, 41.18727],
          [-124.71431, 41.20752],
          [-124.70935, 41.2134],
          [-124.69223, 41.23364],
          [-124.69856, 41.255],
          [-124.69359, 41.26087],
          [-124.67647, 41.28111],
          [-124.68279, 41.30246],
          [-124.67782, 41.30833],
          [-124.66069, 41.32856],
          [-124.65571, 41.33443],
          [-124.63857, 41.35466],
          [-124.64489, 41.376],
          [-124.63991, 41.38187],
          [-124.62276, 41.40209],
          [-124.62908, 41.42343],
          [-124.6241, 41.4293],
          [-124.60693, 41.44951],
          [-124.61325, 41.47085],
          [-124.60827, 41.47671],
          [-124.59109, 41.49691],
          [-124.58611, 41.50278],
          [-124.56892, 41.52298],
          [-124.56393, 41.52884],
          [-124.54674, 41.54903],
          [-124.55305, 41.57036],
          [-124.54806, 41.57622],
          [-124.53086, 41.5964],
          [-124.52586, 41.60226],
          [-124.50865, 41.62244],
          [-124.50365, 41.6283],
          [-124.48643, 41.64848],
          [-124.48143, 41.65433],
          [-124.4642, 41.6745],
          [-124.4705, 41.69582],
          [-124.4655, 41.70167],
          [-124.44825, 41.72184],
          [-124.44325, 41.72769],
          [-124.426, 41.74785],
          [-124.4323, 41.76916],
          [-124.42729, 41.77501],
          [-124.41003, 41.79516],
          [-124.41632, 41.81646],
          [-124.41131, 41.82231],
          [-124.39404, 41.84245],
          [-124.38902, 41.8483],
          [-124.37174, 41.86844],
          [-124.36672, 41.87429],
          [-124.34943, 41.89442],
          [-124.34441, 41.90027],
          [-124.32711, 41.92039],
          [-124.32209, 41.92624],
          [-124.30478, 41.94636],
          [-124.29975, 41.9522],
          [-124.28244, 41.97232],
          [-124.27741, 41.97816],
          [-124.26008, 41.99828],
          [-124.25505, 42.00411],
          [-124.23771, 42.02422],
          [-124.23268, 42.03006],
          [-124.21534, 42.05016],
          [-124.22161, 42.07144],
          [-124.22789, 42.09272],
          [-124.22285, 42.09855],
          [-124.20549, 42.11864],
          [-124.20045, 42.12448],
          [-124.17177, 42.12913],
          [-124.1544, 42.14921],
          [-124.14935, 42.15504],
          [-124.12066, 42.15969],
          [-124.09197, 42.16432],
          [-124.07457, 42.1844],
          [-124.06952, 42.19023],
          [-124.04082, 42.19485],
          [-124.01211, 42.19948],
          [-124.00425, 42.19573],
          [-123.97717, 42.18283],
          [-123.94846, 42.18744],
          [-123.9406, 42.1837],
          [-123.91354, 42.17078],
          [-123.88483, 42.17539],
          [-123.85612, 42.17999],
          [-123.84826, 42.17623],
          [-123.82121, 42.1633],
          [-123.81336, 42.15955],
          [-123.78631, 42.14661],
          [-123.77846, 42.14286],
          [-123.75143, 42.12992],
          [-123.72273, 42.1345],
          [-123.71488, 42.13074],
          [-123.68785, 42.11779],
          [-123.68001, 42.11402],
          [-123.653, 42.10107],
          [-123.6243, 42.10563],
          [-123.5956, 42.11019],
          [-123.56689, 42.11475],
          [-123.53819, 42.1193],
          [-123.50948, 42.12385],
          [-123.48077, 42.12839],
          [-123.45205, 42.13293],
          [-123.42334, 42.13746],
          [-123.39462, 42.14199],
          [-123.3659, 42.14652],
          [-123.33717, 42.15104],
          [-123.30845, 42.15555],
          [-123.2909, 42.17555],
          [-123.2858, 42.18136],
          [-123.25706, 42.18586],
          [-123.22832, 42.19037],
          [-123.21075, 42.21035],
          [-123.20565, 42.21616],
          [-123.1769, 42.22065],
          [-123.14814, 42.22514],
          [-123.13055, 42.24511],
          [-123.12544, 42.25091],
          [-123.09667, 42.25539],
          [-123.06791, 42.25987],
          [-123.03914, 42.26434],
          [-123.03131, 42.26055],
          [-123.00434, 42.24751],
          [-122.97557, 42.25197],
          [-122.9468, 42.25642],
          [-122.91802, 42.26087],
          [-122.91019, 42.25708],
          [-122.88324, 42.24402],
          [-122.85447, 42.24846],
          [-122.84664, 42.24467],
          [-122.8197, 42.2316],
          [-122.79093, 42.23603],
          [-122.78311, 42.23223],
          [-122.75618, 42.21915],
          [-122.74836, 42.21535],
          [-122.72144, 42.20226],
          [-122.69267, 42.20668],
          [-122.68486, 42.20288],
          [-122.65795, 42.18978],
          [-122.62918, 42.19419],
          [-122.62137, 42.19038],
          [-122.59447, 42.17727],
          [-122.58666, 42.17347],
          [-122.58073, 42.15215],
          [-122.55385, 42.13903],
          [-122.54604, 42.13522],
          [-122.54012, 42.11389],
          [-122.51325, 42.10077],
          [-122.50545, 42.09696],
          [-122.49954, 42.07562],
          [-122.49363, 42.05429],
          [-122.48772, 42.03295],
          [-122.46088, 42.01981],
          [-122.45309, 42.016],
          [-122.4472, 41.99465],
          [-122.4413, 41.97331],
          [-122.43541, 41.95196],
          [-122.4086, 41.9388],
          [-122.40082, 41.93498],
          [-122.37402, 41.92182],
          [-122.36624, 41.918],
          [-122.33945, 41.90483],
          [-122.31075, 41.9092],
          [-122.30297, 41.90537],
          [-122.27619, 41.8922],
          [-122.26841, 41.88837],
          [-122.26256, 41.867],
          [-122.2358, 41.85382],
          [-122.22803, 41.84999],
          [-122.20127, 41.8368],
          [-122.19351, 41.83297],
          [-122.18768, 41.81159],
          [-122.16094, 41.79839],
          [-122.15317, 41.79456],
          [-122.14735, 41.77318],
          [-122.14154, 41.75179],
          [-122.13572, 41.73041],
          [-122.12991, 41.70902],
          [-122.1241, 41.68763],
          [-122.11829, 41.66623],
          [-122.12343, 41.66044],
          [-122.14112, 41.6405],
          [-122.13531, 41.6191],
          [-122.1295, 41.59769],
          [-122.1237, 41.57629],
          [-122.1179, 41.55488],
          [-122.12303, 41.54909],
          [-122.1407, 41.52913],
          [-122.1349, 41.50772],
          [-122.1291, 41.4863],
          [-122.1233, 41.46488],
          [-122.11751, 41.44346],
          [-122.11171, 41.42204],
          [-122.10592, 41.40061],
          [-122.10014, 41.37918],
          [-122.10526, 41.37338],
          [-122.12291, 41.3534],
          [-122.11712, 41.33197],
          [-122.11133, 41.31053],
          [-122.08473, 41.29728],
          [-122.07701, 41.29344],
          [-122.07124, 41.27199],
          [-122.06546, 41.25055],
          [-122.05969, 41.2291],
          [-122.03312, 41.21584],
          [-122.02541, 41.21198],
          [-121.99885, 41.19871],
          [-121.99114, 41.19486],
          [-121.96458, 41.18159],
          [-121.95687, 41.17773],
          [-121.93033, 41.16445],
          [-121.92262, 41.16059],
          [-121.89609, 41.1473],
          [-121.88839, 41.14344],
          [-121.86186, 41.13015],
          [-121.85416, 41.12629],
          [-121.82764, 41.11299],
          [-121.79914, 41.11729],
          [-121.79145, 41.11343],
          [-121.76494, 41.10012],
          [-121.75725, 41.09625],
          [-121.73075, 41.08293],
          [-121.70225, 41.08722],
          [-121.69456, 41.08335],
          [-121.66808, 41.07002],
          [-121.66039, 41.06615],
          [-121.63391, 41.05282],
          [-121.62623, 41.04895],
          [-121.62056, 41.02746],
          [-121.5941, 41.01412],
          [-121.58642, 41.01025],
          [-121.58076, 40.98875],
          [-121.57511, 40.96726],
          [-121.54867, 40.95391],
          [-121.54099, 40.95003],
          [-121.53535, 40.92853],
          [-121.50892, 40.91517],
          [-121.50125, 40.91129],
          [-121.49562, 40.88978],
          [-121.46921, 40.87641],
          [-121.46154, 40.87253],
          [-121.43514, 40.85915],
          [-121.42748, 40.85526],
          [-121.40109, 40.84188],
          [-121.39343, 40.83799],
          [-121.36704, 40.82461],
          [-121.35938, 40.82072],
          [-121.33301, 40.80732],
          [-121.32535, 40.80343],
          [-121.31976, 40.78191],
          [-121.2934, 40.7685],
          [-121.28575, 40.76461],
          [-121.28017, 40.74308],
          [-121.25383, 40.72967],
          [-121.24618, 40.72577],
          [-121.24061, 40.70424],
          [-121.23505, 40.6827],
          [-121.22948, 40.66116],
          [-121.22392, 40.63962],
          [-121.21836, 40.61807],
          [-121.22349, 40.61227],
          [-121.24118, 40.5923],
          [-121.24631, 40.5865],
          [-121.26399, 40.56653],
          [-121.26912, 40.56073],
          [-121.28679, 40.54074],
          [-121.28122, 40.51919],
          [-121.28635, 40.51339],
          [-121.304, 40.4934],
          [-121.29843, 40.47184],
          [-121.30356, 40.46603],
          [-121.3212, 40.44604],
          [-121.31563, 40.42447],
          [-121.31007, 40.40291],
          [-121.3045, 40.38134],
          [-121.29894, 40.35977],
          [-121.29338, 40.33819],
          [-121.28782, 40.31661],
          [-121.28226, 40.29503],
          [-121.27671, 40.27345],
          [-121.27434, 40.25139],
          [-121.26879, 40.2298],
          [-121.26324, 40.20821],
          [-121.26517, 40.20288],
          [-121.27183, 40.1845],
          [-121.26628, 40.16291],
          [-121.26074, 40.14131],
          [-121.2552, 40.11971],
          [-121.24966, 40.09811],
          [-121.23443, 40.08301],
          [-121.23, 40.07862],
          [-121.22447, 40.05701],
          [-121.21894, 40.0354],
          [-121.21342, 40.01379],
          [-121.20472, 39.99265],
          [-121.18827, 39.97267],
          [-121.17306, 39.95755],
          [-121.16547, 39.95364],
          [-121.13934, 39.94016],
          [-121.13176, 39.93624],
          [-121.10564, 39.92275],
          [-121.09806, 39.91883],
          [-121.07195, 39.90534],
          [-121.06437, 39.90142],
          [-121.03827, 39.88791],
          [-121.03069, 39.88399],
          [-121.00672, 39.87887],
          [-120.97579, 39.87225],
          [-120.96883, 39.87076],
          [-120.94275, 39.85724],
          [-120.93518, 39.85331],
          [-120.91122, 39.84817],
          [-120.89061, 39.83748],
          [-120.87758, 39.83072],
          [-120.84667, 39.82407],
          [-120.83972, 39.82258],
          [-120.81367, 39.80904],
          [-120.80611, 39.8051],
          [-120.78006, 39.79156],
          [-120.7725, 39.78762],
          [-120.74646, 39.77407],
          [-120.73891, 39.77013],
          [-120.73349, 39.74848],
          [-120.70747, 39.73491],
          [-120.69992, 39.73098],
          [-120.67391, 39.71741],
          [-120.66636, 39.71347],
          [-120.64035, 39.69989],
          [-120.6328, 39.69595],
          [-120.61651, 39.67589],
          [-120.60143, 39.6607],
          [-120.59705, 39.65629],
          [-120.59167, 39.63462],
          [-120.57797, 39.61417],
          [-120.5726, 39.59249],
          [-120.56723, 39.57081],
          [-120.55771, 39.54974],
          [-120.55234, 39.52806],
          [-120.53995, 39.5074],
          [-120.53036, 39.49139],
          [-120.52704, 39.48682],
          [-120.51232, 39.46651],
          [-120.49579, 39.44646],
          [-120.4862, 39.43044],
          [-120.4829, 39.42587],
          [-120.46819, 39.40554],
          [-120.45349, 39.38522],
          [-120.44211, 39.36946],
          [-120.43775, 39.36504],
          [-120.41476, 39.34592],
          [-120.40544, 39.33857],
          [-120.38499, 39.3278],
          [-120.36999, 39.31256],
          [-120.36248, 39.3086],
          [-120.3463, 39.28848],
          [-120.33131, 39.27324],
          [-120.30326, 39.27734],
          [-120.2752, 39.28144],
          [-120.24714, 39.28553],
          [-120.21907, 39.28962],
          [-120.21157, 39.28566],
          [-120.18573, 39.27199],
          [-120.15767, 39.27607],
          [-120.1296, 39.28014],
          [-120.10154, 39.28422],
          [-120.07347, 39.28828],
          [-120.0454, 39.29234],
          [-120.0379, 39.28837],
          [-120.01208, 39.27467],
          [-119.98401, 39.27873],
          [-119.97652, 39.27475],
          [-119.95071, 39.26104],
          [-119.94322, 39.25706],
          [-119.91743, 39.24335],
          [-119.90994, 39.23937],
          [-119.88415, 39.22565],
          [-119.87667, 39.22167],
          [-119.85089, 39.20795],
          [-119.8434, 39.20396],
          [-119.81763, 39.19023],
          [-119.81015, 39.18625],
          [-119.78439, 39.17251],
          [-119.75634, 39.17653],
          [-119.74886, 39.17254],
          [-119.72311, 39.1588],
          [-119.69506, 39.1628],
          [-119.66701, 39.16681],
          [-119.63895, 39.17081],
          [-119.63148, 39.16681],
          [-119.60575, 39.15305],
          [-119.5777, 39.15704],
          [-119.54964, 39.16102],
          [-119.54217, 39.15703],
          [-119.51645, 39.14325],
          [-119.50899, 39.13925],
          [-119.48328, 39.12547],
          [-119.45523, 39.12944],
          [-119.44776, 39.12543],
          [-119.42206, 39.11164],
          [-119.4146, 39.10764],
          [-119.38891, 39.09384],
          [-119.36087, 39.09779],
          [-119.35341, 39.09379],
          [-119.32773, 39.07998],
          [-119.32028, 39.07597],
          [-119.29461, 39.06215],
          [-119.28716, 39.05814],
          [-119.26149, 39.04432],
          [-119.25405, 39.04031],
          [-119.24898, 39.01853],
          [-119.24391, 38.99675],
          [-119.23885, 38.97497],
          [-119.23378, 38.95319],
          [-119.20815, 38.93935],
          [-119.20071, 38.93534],
          [-119.19566, 38.91355],
          [-119.17005, 38.8997],
          [-119.16261, 38.89568],
          [-119.13701, 38.88184],
          [-119.12957, 38.87781],
          [-119.10398, 38.86396],
          [-119.09655, 38.85994],
          [-119.07096, 38.84607],
          [-119.04297, 38.84998],
          [-119.01497, 38.85389],
          [-118.98698, 38.85779],
          [-118.97955, 38.85376],
          [-118.95398, 38.83988],
          [-118.92598, 38.84377],
          [-118.89799, 38.84766],
          [-118.89057, 38.84363],
          [-118.86501, 38.82973],
          [-118.83701, 38.83361],
          [-118.8296, 38.82958],
          [-118.80405, 38.81567],
          [-118.79664, 38.81164],
          [-118.79167, 38.78982],
          [-118.76614, 38.77591],
          [-118.75873, 38.77187],
          [-118.75378, 38.75006],
          [-118.73798, 38.72973],
          [-118.72331, 38.71432],
          [-118.71591, 38.71027],
          [-118.72109, 38.7045],
          [-118.72809, 38.68609],
          [-118.73398, 38.66276],
          [-118.72904, 38.64093],
          [-118.7241, 38.6191],
          [-118.71916, 38.59727],
          [-118.71422, 38.57543],
          [-118.70928, 38.5536],
          [-118.70435, 38.53175],
          [-118.69942, 38.50991],
          [-118.69449, 38.48807],
          [-118.66904, 38.47412],
          [-118.66166, 38.47007],
          [-118.65674, 38.44822],
          [-118.65182, 38.42637],
          [-118.6264, 38.41242],
          [-118.61902, 38.40837],
          [-118.61411, 38.38651],
          [-118.5887, 38.37255],
          [-118.58132, 38.36849],
          [-118.57642, 38.34663],
          [-118.55102, 38.33266],
          [-118.54365, 38.32861],
          [-118.53876, 38.30674],
          [-118.51338, 38.29276],
          [-118.50601, 38.2887],
          [-118.48064, 38.27472],
          [-118.47327, 38.27066],
          [-118.4684, 38.24878],
          [-118.44304, 38.23479],
          [-118.43568, 38.23073],
          [-118.43082, 38.20885],
          [-118.40548, 38.19485],
          [-118.39812, 38.19079],
          [-118.39327, 38.1689],
          [-118.36794, 38.15489],
          [-118.36058, 38.15083],
          [-118.35574, 38.12894],
          [-118.33042, 38.11492],
          [-118.32308, 38.11085],
          [-118.31824, 38.08896],
          [-118.31341, 38.06706],
          [-118.30858, 38.04516],
          [-118.30375, 38.02326],
          [-118.29893, 38.00136],
          [-118.2941, 37.97946],
          [-118.28928, 37.95755],
          [-118.28446, 37.93564],
          [-118.27965, 37.91373],
          [-118.27483, 37.89181],
          [-118.27002, 37.8699],
          [-118.2652, 37.84798],
          [-118.26039, 37.82606],
          [-118.25559, 37.80414],
          [-118.25078, 37.78221],
          [-118.24598, 37.76029],
          [-118.24117, 37.73836],
          [-118.23637, 37.71643],
          [-118.23158, 37.69449],
          [-118.20638, 37.68044],
          [-118.19907, 37.67635],
          [-118.19428, 37.65441],
          [-118.16909, 37.64035],
          [-118.16178, 37.63626],
          [-118.13661, 37.62219],
          [-118.1089, 37.62597],
          [-118.1016, 37.62188],
          [-118.07643, 37.6078],
          [-118.04873, 37.61157],
          [-118.04143, 37.60748],
          [-118.01628, 37.59339],
          [-118.00898, 37.58929],
          [-117.98383, 37.57519],
          [-117.97653, 37.5711],
          [-117.9514, 37.557],
          [-117.9441, 37.5529],
          [-117.91898, 37.53879],
          [-117.91168, 37.53469],
          [-117.88657, 37.52058],
          [-117.87927, 37.51648],
          [-117.85416, 37.50236],
          [-117.84688, 37.49826],
          [-117.82178, 37.48413],
          [-117.81449, 37.48003],
          [-117.7894, 37.46589],
          [-117.78211, 37.46179],
          [-117.75703, 37.44765],
          [-117.72936, 37.45137],
          [-117.72208, 37.44726],
          [-117.697, 37.43312],
          [-117.66933, 37.43683],
          [-117.64166, 37.44053],
          [-117.61398, 37.44424],
          [-117.5863, 37.44793],
          [-117.57903, 37.44382],
          [-117.55398, 37.42965],
          [-117.5263, 37.43334],
          [-117.49862, 37.43702],
          [-117.49135, 37.4329],
          [-117.46631, 37.41872],
          [-117.43864, 37.42239],
          [-117.41096, 37.42606],
          [-117.40369, 37.42194],
          [-117.37867, 37.40775],
          [-117.37141, 37.40362],
          [-117.34639, 37.38942],
          [-117.33913, 37.3853],
          [-117.31412, 37.37109],
          [-117.30686, 37.36696],
          [-117.28186, 37.35275],
          [-117.27461, 37.34862],
          [-117.24961, 37.3344],
          [-117.22195, 37.33804],
          [-117.19429, 37.34168],
          [-117.18704, 37.33755],
          [-117.16206, 37.32331],
          [-117.1344, 37.32694],
          [-117.11649, 37.34679],
          [-117.11129, 37.35256],
          [-117.08362, 37.35617],
          [-117.06569, 37.37602],
          [-117.06049, 37.38178],
          [-117.03281, 37.38539],
          [-117.01487, 37.40523],
          [-117.00966, 37.41099],
          [-116.98197, 37.41459],
          [-116.96402, 37.43442],
          [-116.9588, 37.44018],
          [-116.94084, 37.46],
          [-116.93562, 37.46576],
          [-116.91765, 37.48558],
          [-116.91244, 37.49133],
          [-116.89446, 37.51115],
          [-116.89897, 37.53314],
          [-116.89375, 37.53889],
          [-116.87576, 37.5587],
          [-116.88028, 37.58068],
          [-116.87505, 37.58644],
          [-116.85705, 37.60624],
          [-116.86156, 37.62822],
          [-116.86608, 37.6502],
          [-116.86085, 37.65595],
          [-116.84283, 37.67574],
          [-116.84735, 37.69772],
          [-116.84211, 37.70346],
          [-116.82409, 37.72326],
          [-116.81885, 37.729],
          [-116.80082, 37.74879],
          [-116.80532, 37.77076],
          [-116.80008, 37.7765],
          [-116.78204, 37.79628],
          [-116.78654, 37.81825],
          [-116.79105, 37.84021],
          [-116.79556, 37.86217],
          [-116.80007, 37.88412],
          [-116.80458, 37.90608],
          [-116.79934, 37.91182],
          [-116.78127, 37.93159],
          [-116.78578, 37.95354],
          [-116.78053, 37.95928],
          [-116.76245, 37.97904],
          [-116.7572, 37.98478],
          [-116.72935, 37.98833],
          [-116.7015, 37.99188],
          [-116.67365, 37.99542],
          [-116.6458, 37.99896],
          [-116.61795, 38.00249],
          [-116.61067, 37.99834],
          [-116.58562, 37.98407],
          [-116.57835, 37.97992],
          [-116.5533, 37.96563],
          [-116.54603, 37.96149],
          [-116.52099, 37.9472],
          [-116.51373, 37.94305],
          [-116.50927, 37.92109],
          [-116.48425, 37.90679],
          [-116.47699, 37.90264],
          [-116.45197, 37.88833],
          [-116.44471, 37.88418],
          [-116.44027, 37.86222],
          [-116.41528, 37.8479],
          [-116.40802, 37.84375],
          [-116.38303, 37.82943],
          [-116.37577, 37.82527],
          [-116.35079, 37.81095],
          [-116.34354, 37.80679],
          [-116.31857, 37.79246],
          [-116.31132, 37.7883],
          [-116.28635, 37.77397],
          [-116.27911, 37.7698],
          [-116.25415, 37.75546],
          [-116.22635, 37.75894],
          [-116.19854, 37.7624],
          [-116.17073, 37.76587],
          [-116.14293, 37.76932],
          [-116.11512, 37.77278],
          [-116.0873, 37.77623],
          [-116.05949, 37.77967],
          [-116.03167, 37.78311],
          [-116.01348, 37.80281],
          [-116.0082, 37.80853],
          [-115.98038, 37.81197],
          [-115.96217, 37.83166],
          [-115.96651, 37.85364],
          [-115.96122, 37.85936],
          [-115.94301, 37.87904],
          [-115.94734, 37.90102],
          [-115.94205, 37.90673],
          [-115.92383, 37.92642],
          [-115.92816, 37.94839],
          [-115.92287, 37.9541],
          [-115.90463, 37.97378],
          [-115.89933, 37.97949],
          [-115.87146, 37.9829],
          [-115.84358, 37.98631],
          [-115.81571, 37.98971],
          [-115.78783, 37.99311],
          [-115.78059, 37.98893],
          [-115.75565, 37.97453],
          [-115.74841, 37.97035],
          [-115.72348, 37.95594],
          [-115.71624, 37.95176],
          [-115.69132, 37.93735],
          [-115.68408, 37.93316],
          [-115.6798, 37.91118],
          [-115.65489, 37.89676],
          [-115.64766, 37.89257],
          [-115.62276, 37.87815],
          [-115.5949, 37.88152],
          [-115.58768, 37.87733],
          [-115.56279, 37.86289],
          [-115.55556, 37.8587],
          [-115.53068, 37.84426],
          [-115.52346, 37.84007],
          [-115.51921, 37.81807],
          [-115.49435, 37.80363],
          [-115.48713, 37.79943],
          [-115.48289, 37.77743],
          [-115.45804, 37.76298],
          [-115.45083, 37.75878],
          [-115.4466, 37.73678],
          [-115.42176, 37.72231],
          [-115.41455, 37.71811],
          [-115.41033, 37.69611],
          [-115.40611, 37.6741],
          [-115.4019, 37.65209],
          [-115.39768, 37.63007],
          [-115.39347, 37.60806],
          [-115.38926, 37.58604],
          [-115.36446, 37.57156],
          [-115.35727, 37.56735],
          [-115.35307, 37.54533],
          [-115.32829, 37.53084],
          [-115.32109, 37.52664],
          [-115.3169, 37.50461],
          [-115.29213, 37.49011],
          [-115.28494, 37.4859],
          [-115.26019, 37.4714],
          [-115.23243, 37.47472],
          [-115.21414, 37.49436],
          [-115.20883, 37.50006],
          [-115.18106, 37.50337],
          [-115.16276, 37.523],
          [-115.15745, 37.5287],
          [-115.12967, 37.532],
          [-115.11136, 37.55162],
          [-115.10604, 37.55732],
          [-115.07825, 37.56061],
          [-115.05046, 37.56389],
          [-115.03213, 37.5835],
          [-115.02681, 37.5892],
          [-114.99901, 37.59247],
          [-114.97121, 37.59574],
          [-114.94341, 37.59901],
          [-114.92505, 37.61861],
          [-114.91972, 37.6243],
          [-114.91253, 37.62008],
          [-114.8878, 37.60553],
          [-114.85999, 37.60878],
          [-114.85281, 37.60456],
          [-114.82967, 37.59854],
          [-114.80028, 37.59324],
          [-114.77247, 37.59648],
          [-114.75408, 37.61606],
          [-114.74874, 37.62175],
          [-114.73035, 37.64132],
          [-114.725, 37.64701],
          [-114.69718, 37.65023],
          [-114.67877, 37.6698],
          [-114.67342, 37.67548],
          [-114.64559, 37.6787],
          [-114.61776, 37.68191],
          [-114.58992, 37.68512],
          [-114.56208, 37.68832],
          [-114.53425, 37.69152],
          [-114.50641, 37.69472],
          [-114.47856, 37.69791],
          [-114.45072, 37.70109],
          [-114.43225, 37.72063],
          [-114.42689, 37.7263],
          [-114.39904, 37.72948],
          [-114.38056, 37.74901],
          [-114.37519, 37.75468],
          [-114.34733, 37.75784],
          [-114.32884, 37.77737],
          [-114.32302, 37.78056],
          [-114.2956, 37.78619],
          [-114.26773, 37.78935],
          [-114.23985, 37.7925],
          [-114.21198, 37.79564],
          [-114.1841, 37.79878],
          [-114.15622, 37.80192],
          [-114.12834, 37.80505],
          [-114.12118, 37.8008],
          [-114.09651, 37.78615],
          [-114.06863, 37.78927],
          [-114.06147, 37.78501],
          [-114.03681, 37.77035],
          [-114.02965, 37.76609],
          [-114.02571, 37.74406],
          [-114.00107, 37.72939],
          [-113.99391, 37.72513],
          [-113.98999, 37.70309],
          [-113.96536, 37.68842],
          [-113.95821, 37.68415],
          [-113.95429, 37.66211],
          [-113.95037, 37.64006],
          [-113.92576, 37.62538],
          [-113.91861, 37.62111],
          [-113.89401, 37.60642],
          [-113.88687, 37.60216],
          [-113.86227, 37.58746],
          [-113.85514, 37.58319],
          [-113.83055, 37.56849],
          [-113.80272, 37.57157],
          [-113.77489, 37.57465],
          [-113.74706, 37.57772],
          [-113.71923, 37.58079],
          [-113.70065, 37.60026],
          [-113.69525, 37.60591],
          [-113.66741, 37.60897],
          [-113.64882, 37.62843],
          [-113.64342, 37.63408],
          [-113.61557, 37.63713],
          [-113.58772, 37.64017],
          [-113.55986, 37.64321],
          [-113.53201, 37.64625],
          [-113.50415, 37.64928],
          [-113.47629, 37.65231],
          [-113.45766, 37.67174],
          [-113.45224, 37.67739],
          [-113.42438, 37.68041],
          [-113.39651, 37.68342],
          [-113.36864, 37.68643],
          [-113.34998, 37.70585],
          [-113.34456, 37.71149],
          [-113.31668, 37.71449],
          [-113.2888, 37.71748],
          [-113.27012, 37.7369],
          [-113.26469, 37.74253],
          [-113.2368, 37.74552],
          [-113.21811, 37.76492],
          [-113.21268, 37.77055],
          [-113.19398, 37.78995],
          [-113.18855, 37.79558],
          [-113.16984, 37.81498],
          [-113.16441, 37.82061],
          [-113.13649, 37.82358],
          [-113.11777, 37.84296],
          [-113.12152, 37.86501],
          [-113.11608, 37.87064],
          [-113.09735, 37.89002],
          [-113.0919, 37.89564],
          [-113.07316, 37.91502],
          [-113.06771, 37.92064],
          [-113.04896, 37.94001],
          [-113.04351, 37.94564],
          [-113.02475, 37.965],
          [-113.0193, 37.97062],
          [-112.99134, 37.97357],
          [-112.97257, 37.99293],
          [-112.96711, 37.99855],
          [-112.93915, 38.00148],
          [-112.91118, 38.00441],
          [-112.88321, 38.00734],
          [-112.85524, 38.01026],
          [-112.82727, 38.01318],
          [-112.7993, 38.01609],
          [-112.79218, 38.01179],
          [-112.78848, 37.98975],
          [-112.78479, 37.9677],
          [-112.76027, 37.95287],
          [-112.75315, 37.94856],
          [-112.74947, 37.92652],
          [-112.74579, 37.90447],
          [-112.74211, 37.88242],
          [-112.73843, 37.86036],
          [-112.74389, 37.85475],
          [-112.76269, 37.8354],
          [-112.75901, 37.81335],
          [-112.75533, 37.79129],
          [-112.76078, 37.78567],
          [-112.77956, 37.76632],
          [-112.75508, 37.75147],
          [-112.72718, 37.75438],
          [-112.69927, 37.75728],
          [-112.67136, 37.76017],
          [-112.64345, 37.76306],
          [-112.61554, 37.76595],
          [-112.59673, 37.78528],
          [-112.59127, 37.79089],
          [-112.56334, 37.79377],
          [-112.53542, 37.79664],
          [-112.5075, 37.79951],
          [-112.47957, 37.80237],
          [-112.45165, 37.80523],
          [-112.42372, 37.80808],
          [-112.39579, 37.81093],
          [-112.36786, 37.81378],
          [-112.33992, 37.81662],
          [-112.33283, 37.81229],
          [-112.3084, 37.79739],
          [-112.28047, 37.80022],
          [-112.25254, 37.80304],
          [-112.24545, 37.79871],
          [-112.22104, 37.78379],
          [-112.19311, 37.78661],
          [-112.16518, 37.78942],
          [-112.13725, 37.79223],
          [-112.11835, 37.81151],
          [-112.11286, 37.8171],
          [-112.08492, 37.8199],
          [-112.05698, 37.8227],
          [-112.02903, 37.82549],
          [-112.00109, 37.82827],
          [-112, 37.8276]
        ]
      }
    },
    {
      "type": "Feature",
      "id": "2026100906_f192_10000_001",
      "properties": {
        "product_id": "winter_storm_levels",
        "source_id": "nbm_snow_level",
        "parameter": "snow_level",
        "definition": "height of the wet-bulb 0.5 degree C surface",
        "level_ft_msl": 10000,
        "label": "10,000 ft MSL",
        "unit": "ft_msl",
        "cycle_time_utc": "2026-10-09T06:00:00Z",
        "valid_time_utc": "2026-10-17T06:00:00Z",
        "lead_hours": 192,
        "segment": 1,
        "length_m": 704924.4
      },
      "geometry": {
        "type": "LineString",
        "coordinates": [
          [-114.55889, 30.12626],
          [-114.56202, 30.14487],
          [-114.55924, 30.1481],
          [-114.53977, 30.17065],
          [-114.54355, 30.19316],
          [-114.54077, 30.19638],
          [-114.52128, 30.21893],
          [-114.5185, 30.22215],
          [-114.49901, 30.2447],
          [-114.50278, 30.26721],
          [-114.49999, 30.27043],
          [-114.48049, 30.29297],
          [-114.48426, 30.31548],
          [-114.48148, 30.3187],
          [-114.46196, 30.34124],
          [-114.46573, 30.36374],
          [-114.46294, 30.36696],
          [-114.44342, 30.3895],
          [-114.44718, 30.412],
          [-114.44439, 30.41522],
          [-114.42485, 30.43775],
          [-114.42862, 30.46026],
          [-114.43239, 30.48276],
          [-114.4296, 30.48597],
          [-114.41004, 30.5085],
          [-114.41381, 30.531],
          [-114.41101, 30.53422],
          [-114.39145, 30.55674],
          [-114.39521, 30.57924],
          [-114.39242, 30.58246],
          [-114.37284, 30.60497],
          [-114.3766, 30.62747],
          [-114.3738, 30.63069],
          [-114.35422, 30.6532],
          [-114.35797, 30.6757],
          [-114.35518, 30.67891],
          [-114.33558, 30.70142],
          [-114.33933, 30.72392],
          [-114.36552, 30.74077],
          [-114.36926, 30.74317],
          [-114.37303, 30.76567],
          [-114.37679, 30.78816],
          [-114.38056, 30.81064],
          [-114.38433, 30.83313],
          [-114.3881, 30.85562],
          [-114.39187, 30.87811],
          [-114.39565, 30.90059],
          [-114.39942, 30.92307],
          [-114.4032, 30.94556],
          [-114.40698, 30.96804],
          [-114.41076, 30.99052],
          [-114.41454, 31.013],
          [-114.41832, 31.03548],
          [-114.42211, 31.05795],
          [-114.42589, 31.08043],
          [-114.42968, 31.10291],
          [-114.43347, 31.12538],
          [-114.43066, 31.1286],
          [-114.411, 31.1511],
          [-114.41478, 31.17357],
          [-114.41857, 31.19604],
          [-114.41576, 31.19925],
          [-114.39609, 31.22175],
          [-114.39987, 31.24422],
          [-114.40366, 31.26669],
          [-114.40085, 31.2699],
          [-114.38116, 31.29239],
          [-114.38494, 31.31486],
          [-114.38213, 31.31807],
          [-114.36242, 31.34056],
          [-114.36621, 31.36302],
          [-114.36999, 31.38549],
          [-114.36718, 31.3887],
          [-114.34746, 31.41118],
          [-114.34464, 31.41439],
          [-114.32491, 31.43687],
          [-114.32869, 31.45933],
          [-114.33247, 31.48179],
          [-114.33626, 31.50425],
          [-114.34004, 31.52671],
          [-114.34382, 31.54917],
          [-114.341, 31.55238],
          [-114.32125, 31.57485],
          [-114.32504, 31.59731],
          [-114.32882, 31.61976],
          [-114.33261, 31.64222],
          [-114.33639, 31.66467],
          [-114.34018, 31.68712],
          [-114.34397, 31.70957],
          [-114.34776, 31.73202],
          [-114.35156, 31.75447],
          [-114.34873, 31.75767],
          [-114.32895, 31.78014],
          [-114.33274, 31.80258],
          [-114.32991, 31.80579],
          [-114.31012, 31.82825],
          [-114.3139, 31.85069],
          [-114.31108, 31.8539],
          [-114.29127, 31.87635],
          [-114.29505, 31.89879],
          [-114.29222, 31.902],
          [-114.26579, 31.90521],
          [-114.24596, 31.92766],
          [-114.24313, 31.93087],
          [-114.21669, 31.93407],
          [-114.19024, 31.93727],
          [-114.1704, 31.9597],
          [-114.16756, 31.96291],
          [-114.14771, 31.98534],
          [-114.14487, 31.98854],
          [-114.11841, 31.99173],
          [-114.09854, 32.01415],
          [-114.0957, 32.01735],
          [-114.07582, 32.03977],
          [-114.07298, 32.04297],
          [-114.0531, 32.06539],
          [-114.05025, 32.06859],
          [-114.03036, 32.091],
          [-114.02751, 32.0942],
          [-114.00761, 32.1166],
          [-114.00477, 32.11981],
          [-113.98485, 32.14221],
          [-113.98201, 32.14541],
          [-113.96208, 32.1678],
          [-113.95924, 32.171],
          [-113.93931, 32.1934],
          [-113.93646, 32.19659],
          [-113.91652, 32.21898],
          [-113.91367, 32.22218],
          [-113.88715, 32.22533],
          [-113.86719, 32.24771],
          [-113.86434, 32.25091],
          [-113.84438, 32.27328],
          [-113.84153, 32.27648],
          [-113.82155, 32.29885],
          [-113.82526, 32.32129],
          [-113.82241, 32.32448],
          [-113.80242, 32.34685],
          [-113.79957, 32.35005],
          [-113.77957, 32.37241],
          [-113.78328, 32.39484],
          [-113.78042, 32.39803],
          [-113.76041, 32.42039],
          [-113.75755, 32.42359],
          [-113.73098, 32.42671],
          [-113.71096, 32.44906],
          [-113.71465, 32.47148],
          [-113.71179, 32.47468],
          [-113.69176, 32.49702],
          [-113.69545, 32.51945],
          [-113.69914, 32.54187],
          [-113.70283, 32.56429],
          [-113.69997, 32.56748],
          [-113.67992, 32.58982],
          [-113.68361, 32.61224],
          [-113.6873, 32.63466],
          [-113.691, 32.65708],
          [-113.69469, 32.6795],
          [-113.69182, 32.68269],
          [-113.67175, 32.70502],
          [-113.67544, 32.72743],
          [-113.70199, 32.74432],
          [-113.70578, 32.74674],
          [-113.70948, 32.76915],
          [-113.71319, 32.79156],
          [-113.71689, 32.81396],
          [-113.7206, 32.83637],
          [-113.7243, 32.85878],
          [-113.72801, 32.88118],
          [-113.7546, 32.89805],
          [-113.7584, 32.90046],
          [-113.76212, 32.92287],
          [-113.76583, 32.94527],
          [-113.76955, 32.96766],
          [-113.77327, 32.99006],
          [-113.777, 33.01246],
          [-113.78072, 33.03485],
          [-113.80736, 33.05171],
          [-113.81116, 33.05412],
          [-113.81489, 33.07651],
          [-113.81863, 33.0989],
          [-113.82236, 33.12129],
          [-113.84902, 33.13814],
          [-113.85283, 33.14054],
          [-113.85657, 33.16293],
          [-113.86032, 33.18531],
          [-113.887, 33.20215],
          [-113.89081, 33.20456],
          [-113.89456, 33.22694],
          [-113.92126, 33.24377],
          [-113.92508, 33.24617],
          [-113.92884, 33.26855],
          [-113.95555, 33.28538],
          [-113.95937, 33.28778],
          [-113.96313, 33.31015],
          [-113.9669, 33.33253],
          [-113.99364, 33.34934],
          [-113.99746, 33.35174],
          [-114.00124, 33.37411],
          [-114.00501, 33.39648],
          [-114.03177, 33.41329],
          [-114.03559, 33.41569],
          [-114.03938, 33.43805],
          [-114.04317, 33.46042],
          [-114.04696, 33.48278],
          [-114.05075, 33.50514],
          [-114.05455, 33.5275],
          [-114.05834, 33.54985],
          [-114.05546, 33.55304],
          [-114.03531, 33.57537],
          [-114.0391, 33.59773],
          [-114.03622, 33.60092],
          [-114.01605, 33.62324],
          [-114.01984, 33.64559],
          [-114.01696, 33.64878],
          [-113.99678, 33.6711],
          [-114.00057, 33.69345],
          [-113.99768, 33.69663],
          [-113.97749, 33.71895],
          [-113.9746, 33.72213],
          [-113.9544, 33.74444],
          [-113.95818, 33.76679],
          [-113.9553, 33.76997],
          [-113.93508, 33.79227],
          [-113.93219, 33.79546],
          [-113.91197, 33.81776],
          [-113.90908, 33.82094],
          [-113.88885, 33.84324],
          [-113.88596, 33.84642],
          [-113.86572, 33.86871],
          [-113.86282, 33.87189],
          [-113.84257, 33.89418],
          [-113.83968, 33.89736],
          [-113.81276, 33.90048],
          [-113.7925, 33.92276],
          [-113.7896, 33.92594],
          [-113.76268, 33.92905],
          [-113.7424, 33.95132],
          [-113.7395, 33.9545],
          [-113.71257, 33.95761],
          [-113.69227, 33.97987],
          [-113.68937, 33.98305],
          [-113.66906, 34.0053],
          [-113.66616, 34.00848],
          [-113.63922, 34.01158],
          [-113.61889, 34.03382],
          [-113.61599, 34.037],
          [-113.58904, 34.04008],
          [-113.5687, 34.06232],
          [-113.56579, 34.0655],
          [-113.53883, 34.06858],
          [-113.51848, 34.09081],
          [-113.51557, 34.09398],
          [-113.49521, 34.11621],
          [-113.4923, 34.11938],
          [-113.47193, 34.14161],
          [-113.46902, 34.14478],
          [-113.44865, 34.167],
          [-113.44573, 34.17017],
          [-113.42535, 34.19239],
          [-113.42243, 34.19556],
          [-113.40204, 34.21777],
          [-113.39912, 34.22094],
          [-113.37871, 34.24314],
          [-113.3824, 34.26547],
          [-113.38609, 34.2878],
          [-113.38317, 34.29097],
          [-113.36275, 34.31317],
          [-113.36643, 34.33549],
          [-113.36351, 34.33866],
          [-113.34308, 34.36085],
          [-113.34016, 34.36402],
          [-113.31971, 34.38621],
          [-113.32339, 34.40853],
          [-113.32047, 34.4117],
          [-113.30001, 34.43388],
          [-113.29709, 34.43705],
          [-113.27662, 34.45922],
          [-113.2737, 34.46239],
          [-113.24663, 34.46542],
          [-113.22615, 34.48758],
          [-113.22323, 34.49075],
          [-113.20274, 34.51291],
          [-113.19981, 34.51608],
          [-113.17273, 34.51909],
          [-113.14564, 34.5221],
          [-113.11856, 34.5251],
          [-113.09147, 34.5281],
          [-113.06438, 34.53109],
          [-113.0373, 34.53408],
          [-113.03346, 34.53167],
          [-113.00659, 34.51475],
          [-112.9795, 34.51773],
          [-112.95241, 34.5207],
          [-112.92532, 34.52367],
          [-112.89823, 34.52664],
          [-112.87114, 34.5296],
          [-112.84404, 34.53256],
          [-112.81695, 34.53551],
          [-112.78985, 34.53846],
          [-112.76275, 34.5414],
          [-112.75892, 34.53898],
          [-112.73209, 34.52202],
          [-112.70499, 34.52495],
          [-112.6779, 34.52788],
          [-112.65729, 34.54998],
          [-112.65435, 34.55313],
          [-112.62724, 34.55605],
          [-112.60014, 34.55897],
          [-112.57303, 34.56188],
          [-112.5524, 34.58396],
          [-112.54945, 34.58712],
          [-112.52233, 34.59002],
          [-112.50168, 34.61209],
          [-112.49873, 34.61524],
          [-112.47808, 34.63731],
          [-112.47512, 34.64046],
          [-112.44799, 34.64335],
          [-112.42086, 34.64624],
          [-112.39373, 34.64912],
          [-112.37304, 34.67117],
          [-112.37009, 34.67432],
          [-112.34295, 34.67719],
          [-112.3158, 34.68006],
          [-112.28866, 34.68292],
          [-112.26151, 34.68578],
          [-112.23436, 34.68864],
          [-112.20721, 34.69149],
          [-112.18006, 34.69434],
          [-112.15291, 34.69718],
          [-112.12576, 34.70002],
          [-112.0986, 34.70285],
          [-112.07145, 34.70568],
          [-112.04429, 34.7085],
          [-112.01713, 34.71132],
          [-112, 34.7131]
        ]
      }
    },
    {
      "type": "Feature",
      "id": "2026100906_f192_10000_002",
      "properties": {
        "product_id": "winter_storm_levels",
        "source_id": "nbm_snow_level",
        "parameter": "snow_level",
        "definition": "height of the wet-bulb 0.5 degree C surface",
        "level_ft_msl": 10000,
        "label": "10,000 ft MSL",
        "unit": "ft_msl",
        "cycle_time_utc": "2026-10-09T06:00:00Z",
        "valid_time_utc": "2026-10-17T06:00:00Z",
        "lead_hours": 192,
        "segment": 2,
        "length_m": 89474.4
      },
      "geometry": {
        "type": "LineString",
        "coordinates": [
          [-115.73619, 30.91284],
          [-115.73342, 30.91608],
          [-115.71405, 30.93875],
          [-115.71808, 30.9612],
          [-115.72211, 30.98364],
          [-115.71935, 30.98688],
          [-115.69996, 31.00955],
          [-115.69719, 31.01279],
          [-115.671, 31.01624],
          [-115.6448, 31.01969],
          [-115.61861, 31.02313],
          [-115.61483, 31.02075],
          [-115.5884, 31.00412],
          [-115.58463, 31.00174],
          [-115.58062, 30.97929],
          [-115.5542, 30.96265],
          [-115.55043, 30.96027],
          [-115.54643, 30.93781],
          [-115.52003, 30.92116],
          [-115.51626, 30.91879],
          [-115.51227, 30.89633],
          [-115.50828, 30.87387],
          [-115.50429, 30.85141],
          [-115.50031, 30.82895],
          [-115.49632, 30.80649],
          [-115.49234, 30.78403],
          [-115.49511, 30.7808],
          [-115.5145, 30.75815],
          [-115.51727, 30.75491],
          [-115.5434, 30.75148],
          [-115.56954, 30.74805],
          [-115.59567, 30.74461],
          [-115.62181, 30.74117],
          [-115.62558, 30.74355],
          [-115.62958, 30.76601],
          [-115.65596, 30.78265],
          [-115.65973, 30.78502],
          [-115.68612, 30.80165],
          [-115.6899, 30.80403],
          [-115.69392, 30.82648],
          [-115.69794, 30.84894],
          [-115.72435, 30.86556],
          [-115.72812, 30.86793],
          [-115.73216, 30.89039],
          [-115.73619, 30.91284]
        ]
      }
    }
  ]
}

