{
  "type": "FeatureCollection",
  "contract_version": "1.0.0",
  "bbox": [-130, 30.19293, -112, 44.5],
  "features": [
    {
      "type": "Feature",
      "id": "2026092706_f228_09000_001",
      "properties": {
        "product_id": "winter_storm_levels",
        "source_id": "nbm_snow_level",
        "parameter": "snow_level",
        "definition": "height of the wet-bulb 0.5 degree C surface",
        "level_ft_msl": 9000,
        "label": "9,000 ft MSL",
        "unit": "ft_msl",
        "cycle_time_utc": "2026-09-27T06:00:00Z",
        "valid_time_utc": "2026-10-06T18:00:00Z",
        "lead_hours": 228,
        "segment": 1,
        "length_m": 327163.4
      },
      "geometry": {
        "type": "LineString",
        "coordinates": [
          [-130, 42.3656],
          [-129.99583, 42.37088],
          [-129.96738, 42.37643],
          [-129.95638, 42.39038],
          [-129.94642, 42.403],
          [-129.93542, 42.41694],
          [-129.92546, 42.42955],
          [-129.89698, 42.43509],
          [-129.88596, 42.44903],
          [-129.87599, 42.46164],
          [-129.86497, 42.47557],
          [-129.855, 42.48818],
          [-129.84397, 42.50211],
          [-129.83399, 42.51471],
          [-129.82295, 42.52864],
          [-129.81297, 42.54124],
          [-129.80193, 42.55516],
          [-129.79194, 42.56776],
          [-129.76341, 42.57327],
          [-129.75236, 42.58719],
          [-129.74236, 42.59978],
          [-129.71383, 42.60528],
          [-129.70277, 42.61919],
          [-129.69276, 42.63178],
          [-129.68169, 42.64569],
          [-129.67167, 42.65827],
          [-129.6606, 42.67218],
          [-129.65058, 42.68476],
          [-129.62202, 42.69024],
          [-129.61093, 42.70414],
          [-129.6009, 42.71672],
          [-129.57233, 42.72219],
          [-129.56123, 42.73609],
          [-129.55119, 42.74865],
          [-129.54009, 42.76255],
          [-129.53005, 42.77511],
          [-129.50145, 42.78057],
          [-129.49034, 42.79446],
          [-129.48029, 42.80702],
          [-129.46917, 42.8209],
          [-129.45911, 42.83346],
          [-129.43049, 42.83891],
          [-129.41937, 42.85279],
          [-129.4093, 42.86534],
          [-129.39817, 42.87921],
          [-129.38809, 42.89176],
          [-129.35945, 42.8972],
          [-129.34831, 42.91106],
          [-129.33823, 42.92361],
          [-129.32708, 42.93747],
          [-129.31699, 42.95001],
          [-129.30583, 42.96387],
          [-129.31325, 42.98485],
          [-129.30315, 42.99738],
          [-129.29199, 43.01124],
          [-129.2994, 43.03221],
          [-129.2893, 43.04474],
          [-129.27813, 43.05859],
          [-129.28554, 43.07955],
          [-129.29296, 43.10051],
          [-129.30038, 43.12146],
          [-129.31935, 43.12962],
          [-129.33652, 43.137],
          [-129.34395, 43.15794],
          [-129.35138, 43.17889],
          [-129.37037, 43.18704],
          [-129.38755, 43.19441],
          [-129.395, 43.21535],
          [-129.40245, 43.23628],
          [-129.4099, 43.25722],
          [-129.39979, 43.26974],
          [-129.38861, 43.28357],
          [-129.39606, 43.3045],
          [-129.38595, 43.31702],
          [-129.37476, 43.33085],
          [-129.36464, 43.34336],
          [-129.35344, 43.35719],
          [-129.3609, 43.37811],
          [-129.35077, 43.39062],
          [-129.33957, 43.40444],
          [-129.34702, 43.42536],
          [-129.33688, 43.43786],
          [-129.32567, 43.45168],
          [-129.31553, 43.46418],
          [-129.30432, 43.47799],
          [-129.29417, 43.49049],
          [-129.28295, 43.5043],
          [-129.2728, 43.5168],
          [-129.26157, 43.53061],
          [-129.25141, 43.5431],
          [-129.22258, 43.54849],
          [-129.21134, 43.56229],
          [-129.21878, 43.58319],
          [-129.20861, 43.59567],
          [-129.19737, 43.60947],
          [-129.18719, 43.62195],
          [-129.17594, 43.63575],
          [-129.16576, 43.64822],
          [-129.15451, 43.66201],
          [-129.14432, 43.67449],
          [-129.11544, 43.67986],
          [-129.10418, 43.69364],
          [-129.09398, 43.70611],
          [-129.08271, 43.71989],
          [-129.07251, 43.73236],
          [-129.06123, 43.74614],
          [-129.05102, 43.7586],
          [-129.03974, 43.77237],
          [-129.02953, 43.78483],
          [-129.01824, 43.7986],
          [-129.02565, 43.81947],
          [-129.01543, 43.83193],
          [-128.9865, 43.83728],
          [-128.9752, 43.85104],
          [-128.96497, 43.86349],
          [-128.95366, 43.87725],
          [-128.94343, 43.88969],
          [-128.93211, 43.90345],
          [-128.92187, 43.91589],
          [-128.91055, 43.92964],
          [-128.90031, 43.94208],
          [-128.88898, 43.95583],
          [-128.87873, 43.96827],
          [-128.8674, 43.98201],
          [-128.85714, 43.99444],
          [-128.8458, 44.00818],
          [-128.83554, 44.02061],
          [-128.8242, 44.03435],
          [-128.81393, 44.04677],
          [-128.80258, 44.06051],
          [-128.7923, 44.07293],
          [-128.78095, 44.08666],
          [-128.77067, 44.09908],
          [-128.75931, 44.1128],
          [-128.74902, 44.12522],
          [-128.73765, 44.13894],
          [-128.74503, 44.15978],
          [-128.73474, 44.17219],
          [-128.72337, 44.18591],
          [-128.71307, 44.19832],
          [-128.70169, 44.21203],
          [-128.69139, 44.22443],
          [-128.66232, 44.22972],
          [-128.65093, 44.24342],
          [-128.64061, 44.25582],
          [-128.61153, 44.2611],
          [-128.58245, 44.26637],
          [-128.55337, 44.27163],
          [-128.52428, 44.27689],
          [-128.49519, 44.28215],
          [-128.46609, 44.2874],
          [-128.43699, 44.29265],
          [-128.42556, 44.30633],
          [-128.41521, 44.31872],
          [-128.3861, 44.32395],
          [-128.37466, 44.33763],
          [-128.3643, 44.35001],
          [-128.33518, 44.35524],
          [-128.30605, 44.36046],
          [-128.27692, 44.36568],
          [-128.26546, 44.37935],
          [-128.25508, 44.39172],
          [-128.22594, 44.39693],
          [-128.1968, 44.40214],
          [-128.16765, 44.40734],
          [-128.1385, 44.41253],
          [-128.12701, 44.42619],
          [-128.11661, 44.43855],
          [-128.08745, 44.44374],
          [-128.07595, 44.45739],
          [-128.06554, 44.46974],
          [-128.03637, 44.47492],
          [-128.00719, 44.48009],
          [-127.99568, 44.49373],
          [-127.99039, 44.5]
        ]
      }
    },
    {
      "type": "Feature",
      "id": "2026092706_f228_10000_001",
      "properties": {
        "product_id": "winter_storm_levels",
        "source_id": "nbm_snow_level",
        "parameter": "snow_level",
        "definition": "height of the wet-bulb 0.5 degree C surface",
        "level_ft_msl": 10000,
        "label": "10,000 ft MSL",
        "unit": "ft_msl",
        "cycle_time_utc": "2026-09-27T06:00:00Z",
        "valid_time_utc": "2026-10-06T18:00:00Z",
        "lead_hours": 228,
        "segment": 1,
        "length_m": 1801110.5
      },
      "geometry": {
        "type": "LineString",
        "coordinates": [
          [-130, 33.33745],
          [-129.97525, 33.3429],
          [-129.9491, 33.34867],
          [-129.92295, 33.35442],
          [-129.89679, 33.36018],
          [-129.87064, 33.36593],
          [-129.84447, 33.37167],
          [-129.83242, 33.38891],
          [-129.82518, 33.39926],
          [-129.79901, 33.40499],
          [-129.77284, 33.41073],
          [-129.76077, 33.42796],
          [-129.75353, 33.4383],
          [-129.72734, 33.44403],
          [-129.71526, 33.46126],
          [-129.70801, 33.4716],
          [-129.69593, 33.48883],
          [-129.68867, 33.49916],
          [-129.67658, 33.51639],
          [-129.66932, 33.52672],
          [-129.65722, 33.54395],
          [-129.64996, 33.55428],
          [-129.62375, 33.55998],
          [-129.61164, 33.5772],
          [-129.60437, 33.58753],
          [-129.59226, 33.60475],
          [-129.58498, 33.61508],
          [-129.57286, 33.63229],
          [-129.5797, 33.65413],
          [-129.57243, 33.66446],
          [-129.5603, 33.68167],
          [-129.55302, 33.69199],
          [-129.54089, 33.7092],
          [-129.53361, 33.71952],
          [-129.52147, 33.73673],
          [-129.5283, 33.75856],
          [-129.52102, 33.76889],
          [-129.50887, 33.78609],
          [-129.50158, 33.79641],
          [-129.48943, 33.8136],
          [-129.49626, 33.83544],
          [-129.5031, 33.85727],
          [-129.50994, 33.87911],
          [-129.50264, 33.88942],
          [-129.49048, 33.90662],
          [-129.49732, 33.92845],
          [-129.50417, 33.95027],
          [-129.49687, 33.96059],
          [-129.48469, 33.97778],
          [-129.49154, 33.9996],
          [-129.49839, 34.02143],
          [-129.49108, 34.03174],
          [-129.4789, 34.04893],
          [-129.48575, 34.07075],
          [-129.4926, 34.09257],
          [-129.49945, 34.11439],
          [-129.50631, 34.1362],
          [-129.49899, 34.14651],
          [-129.4868, 34.16369],
          [-129.49366, 34.18551],
          [-129.48634, 34.19581],
          [-129.47414, 34.21299],
          [-129.481, 34.2348],
          [-129.47368, 34.24511],
          [-129.46147, 34.26228],
          [-129.45415, 34.27258],
          [-129.44193, 34.28975],
          [-129.4346, 34.30005],
          [-129.42239, 34.31722],
          [-129.42924, 34.33903],
          [-129.43609, 34.36083],
          [-129.44295, 34.38264],
          [-129.44981, 34.40444],
          [-129.44248, 34.41474],
          [-129.43025, 34.4319],
          [-129.43711, 34.4537],
          [-129.44398, 34.4755],
          [-129.43663, 34.48579],
          [-129.4244, 34.50295],
          [-129.41705, 34.51324],
          [-129.40481, 34.5304],
          [-129.41167, 34.55219],
          [-129.40432, 34.56248],
          [-129.39207, 34.57964],
          [-129.38472, 34.58993],
          [-129.37246, 34.60707],
          [-129.37932, 34.62886],
          [-129.37196, 34.63915],
          [-129.3597, 34.6563],
          [-129.36656, 34.67808],
          [-129.37343, 34.69987],
          [-129.38029, 34.72165],
          [-129.38716, 34.74343],
          [-129.3798, 34.75372],
          [-129.36752, 34.77086],
          [-129.37439, 34.79264],
          [-129.36702, 34.80292],
          [-129.35474, 34.82006],
          [-129.34737, 34.83034],
          [-129.33508, 34.84747],
          [-129.34195, 34.86925],
          [-129.33457, 34.87952],
          [-129.32227, 34.89665],
          [-129.31489, 34.90693],
          [-129.30259, 34.92406],
          [-129.29521, 34.93433],
          [-129.26865, 34.93996],
          [-129.25634, 34.95708],
          [-129.24895, 34.96735],
          [-129.23663, 34.98447],
          [-129.24348, 35.00624],
          [-129.23609, 35.01651],
          [-129.22376, 35.03362],
          [-129.23062, 35.05539],
          [-129.22322, 35.06566],
          [-129.21089, 35.08277],
          [-129.20348, 35.09303],
          [-129.19114, 35.11014],
          [-129.18374, 35.12041],
          [-129.17139, 35.13751],
          [-129.16398, 35.14777],
          [-129.13736, 35.15337],
          [-129.11074, 35.15897],
          [-129.09838, 35.17607],
          [-129.09096, 35.18633],
          [-129.07859, 35.20342],
          [-129.07117, 35.21368],
          [-129.04453, 35.21926],
          [-129.03215, 35.23635],
          [-129.02472, 35.2466],
          [-129.01234, 35.26369],
          [-129.00491, 35.27394],
          [-128.99251, 35.29102],
          [-128.99934, 35.31278],
          [-128.9919, 35.32303],
          [-128.97951, 35.34011],
          [-128.97206, 35.35036],
          [-128.95966, 35.36743],
          [-128.96649, 35.38919],
          [-128.95904, 35.39943],
          [-128.94663, 35.4165],
          [-128.93918, 35.42674],
          [-128.91248, 35.4323],
          [-128.90006, 35.44937],
          [-128.8926, 35.45961],
          [-128.88017, 35.47668],
          [-128.87271, 35.48691],
          [-128.846, 35.49246],
          [-128.83356, 35.50952],
          [-128.82609, 35.51975],
          [-128.81365, 35.53681],
          [-128.80618, 35.54704],
          [-128.79372, 35.56409],
          [-128.78625, 35.57433],
          [-128.77379, 35.59137],
          [-128.76631, 35.6016],
          [-128.75385, 35.61865],
          [-128.76065, 35.64039],
          [-128.75317, 35.65062],
          [-128.74069, 35.66766],
          [-128.73321, 35.67789],
          [-128.72073, 35.69493],
          [-128.72753, 35.71667],
          [-128.72004, 35.72689],
          [-128.70755, 35.74392],
          [-128.70006, 35.75414],
          [-128.68756, 35.77118],
          [-128.68007, 35.7814],
          [-128.66757, 35.79842],
          [-128.66007, 35.80864],
          [-128.64756, 35.82567],
          [-128.64006, 35.83588],
          [-128.62754, 35.85291],
          [-128.62003, 35.86312],
          [-128.60752, 35.88014],
          [-128.6, 35.89035],
          [-128.57318, 35.89585],
          [-128.56065, 35.91286],
          [-128.55313, 35.92307],
          [-128.5263, 35.92856],
          [-128.51376, 35.94557],
          [-128.50623, 35.95577],
          [-128.49369, 35.97278],
          [-128.50046, 35.9945],
          [-128.49293, 36.00471],
          [-128.48037, 36.02171],
          [-128.48715, 36.04343],
          [-128.47961, 36.05363],
          [-128.46705, 36.07063],
          [-128.45951, 36.08083],
          [-128.44694, 36.09782],
          [-128.4394, 36.10802],
          [-128.41252, 36.11348],
          [-128.39994, 36.13047],
          [-128.39239, 36.14067],
          [-128.36549, 36.14612],
          [-128.3386, 36.15158],
          [-128.326, 36.16856],
          [-128.31844, 36.17875],
          [-128.30584, 36.19573],
          [-128.29828, 36.20591],
          [-128.27136, 36.21135],
          [-128.25875, 36.22833],
          [-128.25118, 36.23851],
          [-128.22425, 36.24394],
          [-128.21163, 36.26091],
          [-128.20406, 36.27109],
          [-128.17712, 36.27651],
          [-128.15018, 36.28194],
          [-128.13754, 36.29889],
          [-128.12996, 36.30907],
          [-128.10301, 36.31448],
          [-128.07605, 36.31989],
          [-128.0634, 36.33684],
          [-128.0558, 36.34701],
          [-128.02884, 36.35241],
          [-128.01617, 36.36936],
          [-128.00857, 36.37952],
          [-127.9816, 36.38492],
          [-127.96892, 36.40186],
          [-127.96131, 36.41202],
          [-127.94863, 36.42896],
          [-127.94102, 36.43912],
          [-127.92833, 36.45605],
          [-127.92071, 36.46621],
          [-127.90802, 36.48314],
          [-127.9004, 36.4933],
          [-127.87339, 36.49867],
          [-127.86068, 36.5156],
          [-127.85306, 36.52575],
          [-127.84034, 36.54267],
          [-127.83272, 36.55282],
          [-127.82, 36.56974],
          [-127.81236, 36.57989],
          [-127.79964, 36.59681],
          [-127.792, 36.60695],
          [-127.77927, 36.62387],
          [-127.78594, 36.64557],
          [-127.77829, 36.65572],
          [-127.76555, 36.67262],
          [-127.77223, 36.69432],
          [-127.76458, 36.70447],
          [-127.75183, 36.72137],
          [-127.7585, 36.74307],
          [-127.75085, 36.75321],
          [-127.73809, 36.77011],
          [-127.74477, 36.7918],
          [-127.73711, 36.80194],
          [-127.72435, 36.81883],
          [-127.73102, 36.84052],
          [-127.72336, 36.85066],
          [-127.71058, 36.86755],
          [-127.70292, 36.87768],
          [-127.69014, 36.89457],
          [-127.68247, 36.9047],
          [-127.66969, 36.92159],
          [-127.66202, 36.93172],
          [-127.64923, 36.9486],
          [-127.65589, 36.97028],
          [-127.64821, 36.98041],
          [-127.63541, 36.99728],
          [-127.64208, 37.01896],
          [-127.64875, 37.04064],
          [-127.65542, 37.06231],
          [-127.66209, 37.08398],
          [-127.66876, 37.10565],
          [-127.67544, 37.12732],
          [-127.66776, 37.13744],
          [-127.65494, 37.15431],
          [-127.66162, 37.17597],
          [-127.65393, 37.18609],
          [-127.64111, 37.20295],
          [-127.64779, 37.22462],
          [-127.65447, 37.24627],
          [-127.66115, 37.26793],
          [-127.66784, 37.28958],
          [-127.67453, 37.31124],
          [-127.68122, 37.33288],
          [-127.68791, 37.35453],
          [-127.69461, 37.37618],
          [-127.70131, 37.39782],
          [-127.69361, 37.40793],
          [-127.68077, 37.42478],
          [-127.68747, 37.44642],
          [-127.69417, 37.46806],
          [-127.70087, 37.4897],
          [-127.69316, 37.4998],
          [-127.68031, 37.51665],
          [-127.68702, 37.53828],
          [-127.69373, 37.55991],
          [-127.68601, 37.57001],
          [-127.67315, 37.58685],
          [-127.67986, 37.60848],
          [-127.67214, 37.61858],
          [-127.65926, 37.63542],
          [-127.65154, 37.64552],
          [-127.63866, 37.66235],
          [-127.63093, 37.67245],
          [-127.61805, 37.68927],
          [-127.61032, 37.69937],
          [-127.59743, 37.7162],
          [-127.60413, 37.73781],
          [-127.61084, 37.75943],
          [-127.61754, 37.78104],
          [-127.62425, 37.80265],
          [-127.61651, 37.81274],
          [-127.60361, 37.82956],
          [-127.61032, 37.85116],
          [-127.60257, 37.86125],
          [-127.58966, 37.87806],
          [-127.58192, 37.88815],
          [-127.569, 37.90496],
          [-127.56125, 37.91505],
          [-127.54832, 37.93185],
          [-127.54057, 37.94193],
          [-127.52764, 37.95874],
          [-127.51987, 37.96882],
          [-127.49248, 37.9741],
          [-127.47954, 37.99089],
          [-127.47177, 38.00097],
          [-127.44436, 38.00624],
          [-127.43141, 38.02303],
          [-127.42363, 38.03311],
          [-127.39621, 38.03837],
          [-127.38325, 38.05515],
          [-127.37547, 38.06522],
          [-127.3625, 38.08201],
          [-127.35471, 38.09207],
          [-127.32727, 38.09732],
          [-127.31429, 38.1141],
          [-127.3065, 38.12416],
          [-127.29351, 38.14093],
          [-127.28572, 38.151],
          [-127.25826, 38.15624],
          [-127.24526, 38.173],
          [-127.23746, 38.18306],
          [-127.20999, 38.18829],
          [-127.19698, 38.20505],
          [-127.18917, 38.2151],
          [-127.17615, 38.23186],
          [-127.16834, 38.24191],
          [-127.15531, 38.25867],
          [-127.14749, 38.26872],
          [-127.12, 38.27393],
          [-127.0925, 38.27914],
          [-127.07971, 38.273],
          [-127.05838, 38.26276],
          [-127.03088, 38.26796],
          [-127.00338, 38.27315],
          [-126.99033, 38.28989],
          [-126.98249, 38.29993],
          [-126.96943, 38.31667],
          [-126.96159, 38.32671],
          [-126.94852, 38.34344],
          [-126.94068, 38.35348],
          [-126.91316, 38.35865],
          [-126.88563, 38.36383],
          [-126.8581, 38.369],
          [-126.83056, 38.37417],
          [-126.80303, 38.37933],
          [-126.77549, 38.38448],
          [-126.74795, 38.38963],
          [-126.73516, 38.38347],
          [-126.71384, 38.37319],
          [-126.6863, 38.37834],
          [-126.65876, 38.38347],
          [-126.63121, 38.38861],
          [-126.60366, 38.39374],
          [-126.57611, 38.39886],
          [-126.54855, 38.40398],
          [-126.521, 38.4091],
          [-126.50822, 38.40291],
          [-126.48692, 38.39261],
          [-126.47377, 38.4093],
          [-126.46587, 38.41931],
          [-126.43831, 38.42442],
          [-126.41074, 38.42951],
          [-126.38317, 38.43461],
          [-126.37039, 38.42842],
          [-126.34911, 38.4181],
          [-126.32153, 38.42318],
          [-126.29396, 38.42826],
          [-126.28078, 38.44493],
          [-126.27286, 38.45493],
          [-126.24528, 38.46],
          [-126.21769, 38.46507],
          [-126.20449, 38.48173],
          [-126.19657, 38.49173],
          [-126.18336, 38.50839],
          [-126.17543, 38.51839],
          [-126.14783, 38.52344],
          [-126.12022, 38.52849],
          [-126.10699, 38.54514],
          [-126.09905, 38.55513],
          [-126.07144, 38.56017],
          [-126.04382, 38.56521],
          [-126.03057, 38.58185],
          [-126.02263, 38.59184],
          [-126.00938, 38.60848],
          [-126.00143, 38.61846],
          [-125.97379, 38.62348],
          [-125.96053, 38.64012],
          [-125.95257, 38.6501],
          [-125.9393, 38.66673],
          [-125.93134, 38.6767],
          [-125.91807, 38.69333],
          [-125.9101, 38.7033],
          [-125.88243, 38.70831],
          [-125.86915, 38.72493],
          [-125.86117, 38.7349],
          [-125.8335, 38.7399],
          [-125.8202, 38.75652],
          [-125.81222, 38.76648],
          [-125.79892, 38.78309],
          [-125.79093, 38.79306],
          [-125.76324, 38.79805],
          [-125.73554, 38.80303],
          [-125.72276, 38.7968],
          [-125.70146, 38.78642],
          [-125.67376, 38.79139],
          [-125.64606, 38.79636],
          [-125.61836, 38.80132],
          [-125.59065, 38.80628],
          [-125.56295, 38.81123],
          [-125.53524, 38.81618],
          [-125.50752, 38.82112],
          [-125.47981, 38.82607],
          [-125.46644, 38.84265],
          [-125.45842, 38.85259],
          [-125.4307, 38.85752],
          [-125.41732, 38.8741],
          [-125.4093, 38.88404],
          [-125.38156, 38.88897],
          [-125.35382, 38.89388],
          [-125.32608, 38.8988],
          [-125.29833, 38.90371],
          [-125.28556, 38.89745],
          [-125.26429, 38.88702],
          [-125.25088, 38.90358],
          [-125.24284, 38.91351],
          [-125.21508, 38.91841],
          [-125.20167, 38.93496],
          [-125.19362, 38.94489],
          [-125.18019, 38.96144],
          [-125.17214, 38.97137],
          [-125.15871, 38.98792],
          [-125.15065, 38.99784],
          [-125.12287, 39.00272],
          [-125.09509, 39.0076],
          [-125.0673, 39.01247],
          [-125.03952, 39.01734],
          [-125.02606, 39.03387],
          [-125.01798, 39.04379],
          [-125.00452, 39.06031],
          [-124.99644, 39.07023],
          [-124.98297, 39.08675],
          [-124.97488, 39.09667],
          [-124.96141, 39.11319],
          [-124.95332, 39.1231],
          [-124.93983, 39.13962],
          [-124.93174, 39.14953],
          [-124.91825, 39.16604],
          [-124.91015, 39.17595],
          [-124.89666, 39.19246],
          [-124.88856, 39.20236],
          [-124.87505, 39.21887],
          [-124.86695, 39.22877],
          [-124.85344, 39.24527],
          [-124.84533, 39.25517],
          [-124.83181, 39.27167],
          [-124.8237, 39.28157],
          [-124.81017, 39.29807],
          [-124.80205, 39.30796],
          [-124.77418, 39.31278],
          [-124.76064, 39.32927],
          [-124.75252, 39.33916],
          [-124.72463, 39.34397],
          [-124.71108, 39.36045],
          [-124.70295, 39.37034],
          [-124.67505, 39.37514],
          [-124.66149, 39.39161],
          [-124.65335, 39.4015],
          [-124.62545, 39.40629],
          [-124.59753, 39.41108],
          [-124.58396, 39.42754],
          [-124.57581, 39.43742],
          [-124.54789, 39.4422],
          [-124.5343, 39.45866],
          [-124.52614, 39.46854],
          [-124.51255, 39.48499],
          [-124.50439, 39.49487],
          [-124.49079, 39.51132],
          [-124.48262, 39.52119],
          [-124.46901, 39.53764],
          [-124.46084, 39.54751],
          [-124.44723, 39.56396],
          [-124.43906, 39.57382],
          [-124.42543, 39.59027],
          [-124.41726, 39.60013],
          [-124.40363, 39.61657],
          [-124.40979, 39.63812],
          [-124.40161, 39.64798],
          [-124.38797, 39.66441],
          [-124.37979, 39.67427],
          [-124.36614, 39.6907],
          [-124.35795, 39.70056],
          [-124.3443, 39.71698],
          [-124.33611, 39.72684],
          [-124.32245, 39.74326],
          [-124.31425, 39.75311],
          [-124.30058, 39.76953],
          [-124.29238, 39.77938],
          [-124.27871, 39.79579],
          [-124.28486, 39.81733],
          [-124.29101, 39.83886],
          [-124.2828, 39.8487],
          [-124.26912, 39.86511],
          [-124.27527, 39.88664],
          [-124.26706, 39.89648],
          [-124.25337, 39.91289],
          [-124.25952, 39.93441],
          [-124.2513, 39.94425],
          [-124.2376, 39.96065],
          [-124.22938, 39.97048],
          [-124.21567, 39.98688],
          [-124.22182, 40.00839],
          [-124.22797, 40.02991],
          [-124.23412, 40.05142],
          [-124.22589, 40.06125],
          [-124.21217, 40.07764],
          [-124.21832, 40.09915],
          [-124.21009, 40.10897],
          [-124.19636, 40.12536],
          [-124.20251, 40.14686],
          [-124.20867, 40.16836],
          [-124.20043, 40.17818],
          [-124.18669, 40.19456],
          [-124.19284, 40.21605],
          [-124.18459, 40.22588],
          [-124.17084, 40.24224],
          [-124.177, 40.26373],
          [-124.18316, 40.28522],
          [-124.1749, 40.29504],
          [-124.16114, 40.3114],
          [-124.15288, 40.32122],
          [-124.13912, 40.33758],
          [-124.14527, 40.35906],
          [-124.13701, 40.36887],
          [-124.12323, 40.38523],
          [-124.12939, 40.4067],
          [-124.12112, 40.41651],
          [-124.10733, 40.43286],
          [-124.09906, 40.44267],
          [-124.08527, 40.45901],
          [-124.07699, 40.46882],
          [-124.06319, 40.48516],
          [-124.05491, 40.49496],
          [-124.0411, 40.5113],
          [-124.03282, 40.5211],
          [-124.01901, 40.53743],
          [-124.01072, 40.54723],
          [-123.9969, 40.56356],
          [-124.00304, 40.58502],
          [-123.99474, 40.59481],
          [-123.98091, 40.61114],
          [-123.98705, 40.63259],
          [-123.99319, 40.65405],
          [-123.98489, 40.66384],
          [-123.97105, 40.68015],
          [-123.97719, 40.7016],
          [-123.96888, 40.71139],
          [-123.95503, 40.7277],
          [-123.94672, 40.73749],
          [-123.93287, 40.75379],
          [-123.939, 40.77523],
          [-123.93068, 40.78502],
          [-123.91682, 40.80132],
          [-123.92296, 40.82276],
          [-123.91463, 40.83253],
          [-123.90076, 40.84883],
          [-123.89243, 40.85861],
          [-123.87855, 40.8749],
          [-123.88469, 40.89633],
          [-123.87635, 40.9061],
          [-123.86246, 40.92239],
          [-123.85413, 40.93216],
          [-123.84023, 40.94844],
          [-123.83189, 40.95821],
          [-123.81799, 40.97449],
          [-123.80964, 40.98426],
          [-123.79573, 41.00053],
          [-123.78739, 41.0103],
          [-123.77347, 41.02657],
          [-123.77959, 41.04798],
          [-123.78571, 41.0694],
          [-123.77735, 41.07916],
          [-123.76342, 41.09542],
          [-123.75507, 41.10518],
          [-123.74113, 41.12144],
          [-123.74725, 41.14284],
          [-123.73888, 41.1526],
          [-123.72494, 41.16885],
          [-123.73105, 41.19025],
          [-123.72268, 41.2],
          [-123.70873, 41.21625],
          [-123.70036, 41.226],
          [-123.6864, 41.24225],
          [-123.69251, 41.26364],
          [-123.68413, 41.27338],
          [-123.67016, 41.28962],
          [-123.67627, 41.31101],
          [-123.66789, 41.32075],
          [-123.65391, 41.33699],
          [-123.66002, 41.35837],
          [-123.65163, 41.36811],
          [-123.63764, 41.38434],
          [-123.64375, 41.40572],
          [-123.63536, 41.41545],
          [-123.62136, 41.43168],
          [-123.62747, 41.45305],
          [-123.61907, 41.46278],
          [-123.60506, 41.479],
          [-123.61117, 41.50037],
          [-123.60276, 41.51009],
          [-123.58875, 41.52631],
          [-123.59486, 41.54767],
          [-123.58645, 41.55739],
          [-123.57242, 41.5736],
          [-123.57853, 41.59496],
          [-123.57011, 41.60468],
          [-123.55608, 41.62088],
          [-123.54766, 41.6306],
          [-123.53361, 41.6468],
          [-123.53972, 41.66815],
          [-123.54583, 41.68949],
          [-123.55194, 41.71084],
          [-123.55805, 41.73218],
          [-123.54962, 41.74189],
          [-123.53556, 41.75808],
          [-123.54168, 41.77942],
          [-123.54779, 41.80075],
          [-123.53935, 41.81046],
          [-123.52529, 41.82664],
          [-123.51684, 41.83635],
          [-123.48821, 41.8409],
          [-123.47413, 41.85707],
          [-123.46568, 41.86677],
          [-123.4516, 41.88294],
          [-123.44314, 41.89264],
          [-123.42905, 41.90881],
          [-123.43515, 41.93013],
          [-123.42669, 41.93983],
          [-123.41258, 41.95598],
          [-123.40412, 41.96568],
          [-123.39001, 41.98183],
          [-123.39611, 42.00315],
          [-123.38764, 42.01284],
          [-123.37352, 42.02899],
          [-123.36504, 42.03868],
          [-123.35091, 42.05482],
          [-123.34244, 42.06451],
          [-123.3283, 42.08065],
          [-123.31982, 42.09033],
          [-123.30568, 42.10647],
          [-123.29719, 42.11615],
          [-123.28304, 42.13228],
          [-123.27455, 42.14196],
          [-123.24582, 42.14646],
          [-123.23166, 42.16259],
          [-123.22316, 42.17226],
          [-123.20899, 42.18838],
          [-123.20049, 42.19806],
          [-123.17174, 42.20255],
          [-123.15756, 42.21866],
          [-123.14905, 42.22833],
          [-123.12029, 42.23281],
          [-123.09153, 42.23729],
          [-123.07734, 42.2534],
          [-123.06881, 42.26306],
          [-123.04004, 42.26753],
          [-123.02583, 42.28363],
          [-123.0173, 42.29328],
          [-122.98852, 42.29775],
          [-122.9743, 42.31384],
          [-122.96576, 42.32349],
          [-122.93697, 42.32794],
          [-122.92273, 42.34403],
          [-122.91419, 42.35368],
          [-122.88538, 42.35812],
          [-122.87113, 42.3742],
          [-122.86258, 42.38384],
          [-122.83377, 42.38828],
          [-122.81951, 42.40435],
          [-122.81095, 42.41399],
          [-122.78212, 42.41841],
          [-122.75329, 42.42283],
          [-122.72446, 42.42725],
          [-122.69563, 42.43166],
          [-122.68134, 42.44772],
          [-122.67276, 42.45735],
          [-122.64392, 42.46175],
          [-122.61507, 42.46615],
          [-122.60076, 42.4822],
          [-122.59218, 42.49182],
          [-122.56332, 42.49621],
          [-122.549, 42.51225],
          [-122.5404, 42.52187],
          [-122.52608, 42.53791],
          [-122.51748, 42.54753],
          [-122.50314, 42.56356],
          [-122.49454, 42.57318],
          [-122.46565, 42.57755],
          [-122.4513, 42.59357],
          [-122.44269, 42.60318],
          [-122.42834, 42.6192],
          [-122.41972, 42.62881],
          [-122.39082, 42.63317],
          [-122.37645, 42.64919],
          [-122.36783, 42.65879],
          [-122.35345, 42.6748],
          [-122.34482, 42.6844],
          [-122.33044, 42.70041],
          [-122.32181, 42.71001],
          [-122.29288, 42.71435],
          [-122.27848, 42.73035],
          [-122.26984, 42.73994],
          [-122.25544, 42.75594],
          [-122.2468, 42.76553],
          [-122.23239, 42.78152],
          [-122.22374, 42.79111],
          [-122.19478, 42.79544],
          [-122.18035, 42.81142],
          [-122.1717, 42.821],
          [-122.15727, 42.83698],
          [-122.14861, 42.84657],
          [-122.13417, 42.86254],
          [-122.1255, 42.87212],
          [-122.09652, 42.87643],
          [-122.08206, 42.89239],
          [-122.07339, 42.90197],
          [-122.05893, 42.91793],
          [-122.05026, 42.92751],
          [-122.03579, 42.94347],
          [-122.04166, 42.9647],
          [-122.03297, 42.97427],
          [-122.0185, 42.99023],
          [-122.00981, 42.9998],
          [-121.99533, 43.01574],
          [-121.98664, 43.02531],
          [-121.9576, 43.02959],
          [-121.9431, 43.04553],
          [-121.9344, 43.05509],
          [-121.90535, 43.05936],
          [-121.8763, 43.06363],
          [-121.84725, 43.06789],
          [-121.81819, 43.07215],
          [-121.78913, 43.0764],
          [-121.76007, 43.08065],
          [-121.731, 43.08489],
          [-121.71646, 43.10081],
          [-121.70774, 43.11036],
          [-121.69319, 43.12627],
          [-121.68446, 43.13582],
          [-121.65537, 43.14004],
          [-121.64081, 43.15595],
          [-121.64661, 43.17717],
          [-121.63787, 43.18671],
          [-121.6233, 43.20261],
          [-121.62909, 43.22383],
          [-121.62034, 43.23336],
          [-121.60576, 43.24926],
          [-121.61155, 43.27047],
          [-121.6028, 43.28],
          [-121.58821, 43.29589],
          [-121.57946, 43.30542],
          [-121.56486, 43.3213],
          [-121.5561, 43.33083],
          [-121.5415, 43.34671],
          [-121.53273, 43.35623],
          [-121.50358, 43.36043],
          [-121.48896, 43.3763],
          [-121.48019, 43.38583],
          [-121.45102, 43.39002],
          [-121.42185, 43.3942],
          [-121.40721, 43.41007],
          [-121.39843, 43.41958],
          [-121.36925, 43.42376],
          [-121.3546, 43.43961],
          [-121.34581, 43.44912],
          [-121.31662, 43.45329],
          [-121.28743, 43.45746],
          [-121.25823, 43.46162],
          [-121.24356, 43.47746],
          [-121.23475, 43.48696],
          [-121.20555, 43.49111],
          [-121.17634, 43.49526],
          [-121.16165, 43.51109],
          [-121.15283, 43.52059],
          [-121.12361, 43.52472],
          [-121.10891, 43.54055],
          [-121.10008, 43.55004],
          [-121.07085, 43.55417],
          [-121.04162, 43.55829],
          [-121.0269, 43.57411],
          [-121.01806, 43.5836],
          [-120.98882, 43.58771],
          [-120.97408, 43.60352],
          [-120.97976, 43.6247],
          [-120.97091, 43.63418],
          [-120.95617, 43.64998],
          [-120.94732, 43.65946],
          [-120.91805, 43.66356],
          [-120.90329, 43.67936],
          [-120.89444, 43.68883],
          [-120.86516, 43.69292],
          [-120.83587, 43.69701],
          [-120.8211, 43.7128],
          [-120.81223, 43.72227],
          [-120.78293, 43.72634],
          [-120.76815, 43.74212],
          [-120.75927, 43.75159],
          [-120.72996, 43.75565],
          [-120.70066, 43.75972],
          [-120.68756, 43.7533],
          [-120.66573, 43.74261],
          [-120.63642, 43.74666],
          [-120.60711, 43.75071],
          [-120.5778, 43.75476],
          [-120.54848, 43.7588],
          [-120.51917, 43.76283],
          [-120.48985, 43.76686],
          [-120.46053, 43.77089],
          [-120.4312, 43.77491],
          [-120.41635, 43.79066],
          [-120.40744, 43.8001],
          [-120.3781, 43.80412],
          [-120.34876, 43.80812],
          [-120.33389, 43.82386],
          [-120.32497, 43.8333],
          [-120.29562, 43.8373],
          [-120.26627, 43.84129],
          [-120.23692, 43.84528],
          [-120.20756, 43.84926],
          [-120.19266, 43.86498],
          [-120.18372, 43.87441],
          [-120.15435, 43.87839],
          [-120.12499, 43.88236],
          [-120.09561, 43.88633],
          [-120.06624, 43.89029],
          [-120.05131, 43.90599],
          [-120.04235, 43.91541],
          [-120.01297, 43.91937],
          [-119.98358, 43.92332],
          [-119.96863, 43.93901],
          [-119.95966, 43.94842],
          [-119.93027, 43.95236],
          [-119.91531, 43.96805],
          [-119.90633, 43.97746],
          [-119.89136, 43.99314],
          [-119.88238, 44.00255],
          [-119.8674, 44.01823],
          [-119.85842, 44.02764],
          [-119.82899, 44.03156],
          [-119.814, 44.04723],
          [-119.80501, 44.05663],
          [-119.79001, 44.07229],
          [-119.78101, 44.08169],
          [-119.75157, 44.0856],
          [-119.73656, 44.10126],
          [-119.74199, 44.12241],
          [-119.73299, 44.1318],
          [-119.71797, 44.14745],
          [-119.70895, 44.15684],
          [-119.67948, 44.16074],
          [-119.66445, 44.17638],
          [-119.65543, 44.18577],
          [-119.64039, 44.20141],
          [-119.63136, 44.21079],
          [-119.60187, 44.21467],
          [-119.58682, 44.23031],
          [-119.57779, 44.23969],
          [-119.56273, 44.25531],
          [-119.55369, 44.26469],
          [-119.52418, 44.26856],
          [-119.49467, 44.27242],
          [-119.46515, 44.27628],
          [-119.45007, 44.29189],
          [-119.44101, 44.30126],
          [-119.41149, 44.30511],
          [-119.38196, 44.30896],
          [-119.35243, 44.31279],
          [-119.3229, 44.31663],
          [-119.30778, 44.33223],
          [-119.29871, 44.34159],
          [-119.26917, 44.34541],
          [-119.25404, 44.36101],
          [-119.24497, 44.37036],
          [-119.21541, 44.37418],
          [-119.18585, 44.37799],
          [-119.17071, 44.39357],
          [-119.16162, 44.40292],
          [-119.13205, 44.40673],
          [-119.11689, 44.4223],
          [-119.1078, 44.43165],
          [-119.09263, 44.44722],
          [-119.08353, 44.45656],
          [-119.05394, 44.46035],
          [-119.03876, 44.47591],
          [-119.02965, 44.48525],
          [-119.00006, 44.48903],
          [-118.97046, 44.4928],
          [-118.94085, 44.49657],
          [-118.9375, 44.5]
        ]
      }
    },
    {
      "type": "Feature",
      "id": "2026092706_f228_11000_001",
      "properties": {
        "product_id": "winter_storm_levels",
        "source_id": "nbm_snow_level",
        "parameter": "snow_level",
        "definition": "height of the wet-bulb 0.5 degree C surface",
        "level_ft_msl": 11000,
        "label": "11,000 ft MSL",
        "unit": "ft_msl",
        "cycle_time_utc": "2026-09-27T06:00:00Z",
        "valid_time_utc": "2026-10-06T18:00:00Z",
        "lead_hours": 228,
        "segment": 1,
        "length_m": 2037781
      },
      "geometry": {
        "type": "LineString",
        "coordinates": [
          [-122.57157, 30.25069],
          [-122.57035, 30.25229],
          [-122.55551, 30.27177],
          [-122.54988, 30.27916],
          [-122.52409, 30.28374],
          [-122.50923, 30.30321],
          [-122.5036, 30.3106],
          [-122.48874, 30.33007],
          [-122.4831, 30.33745],
          [-122.46823, 30.35692],
          [-122.46259, 30.3643],
          [-122.44772, 30.38377],
          [-122.44208, 30.39115],
          [-122.4272, 30.41061],
          [-122.42155, 30.41799],
          [-122.40666, 30.43745],
          [-122.40101, 30.44483],
          [-122.38612, 30.46428],
          [-122.38047, 30.47166],
          [-122.36557, 30.49111],
          [-122.35991, 30.49849],
          [-122.34501, 30.51794],
          [-122.35029, 30.54021],
          [-122.34464, 30.54759],
          [-122.32972, 30.56703],
          [-122.33501, 30.5893],
          [-122.32935, 30.59668],
          [-122.31442, 30.61612],
          [-122.30876, 30.6235],
          [-122.29383, 30.64294],
          [-122.28816, 30.65031],
          [-122.27322, 30.66975],
          [-122.26755, 30.67712],
          [-122.25261, 30.69655],
          [-122.24694, 30.70392],
          [-122.23198, 30.72336],
          [-122.23726, 30.74562],
          [-122.23159, 30.75299],
          [-122.21662, 30.77242],
          [-122.21095, 30.77979],
          [-122.19598, 30.79921],
          [-122.1903, 30.80658],
          [-122.17532, 30.826],
          [-122.16964, 30.83337],
          [-122.15466, 30.85279],
          [-122.14897, 30.86016],
          [-122.13398, 30.87957],
          [-122.13925, 30.90184],
          [-122.13356, 30.9092],
          [-122.11856, 30.92861],
          [-122.11287, 30.93598],
          [-122.09787, 30.95539],
          [-122.09217, 30.96275],
          [-122.07716, 30.98216],
          [-122.07147, 30.98952],
          [-122.05645, 31.00892],
          [-122.0617, 31.03118],
          [-122.056, 31.03854],
          [-122.04097, 31.05794],
          [-122.04623, 31.0802],
          [-122.04052, 31.08756],
          [-122.02549, 31.10696],
          [-122.01978, 31.11432],
          [-122.00474, 31.13371],
          [-122.00999, 31.15597],
          [-122.00428, 31.16332],
          [-121.98923, 31.18272],
          [-121.98352, 31.19007],
          [-121.96846, 31.20946],
          [-121.96274, 31.21681],
          [-121.94768, 31.2362],
          [-121.94196, 31.24355],
          [-121.92689, 31.26294],
          [-121.93213, 31.28519],
          [-121.93737, 31.30744],
          [-121.93165, 31.31479],
          [-121.91657, 31.33417],
          [-121.91084, 31.34152],
          [-121.89575, 31.3609],
          [-121.89003, 31.36825],
          [-121.87493, 31.38762],
          [-121.8692, 31.39497],
          [-121.85409, 31.41434],
          [-121.84836, 31.42169],
          [-121.83325, 31.44105],
          [-121.82752, 31.4484],
          [-121.8124, 31.46776],
          [-121.80666, 31.47511],
          [-121.79153, 31.49447],
          [-121.78579, 31.50181],
          [-121.7597, 31.50626],
          [-121.74456, 31.52562],
          [-121.74978, 31.54787],
          [-121.74403, 31.55521],
          [-121.72889, 31.57456],
          [-121.72314, 31.5819],
          [-121.69702, 31.58634],
          [-121.68186, 31.60569],
          [-121.67611, 31.61302],
          [-121.66095, 31.63237],
          [-121.65519, 31.6397],
          [-121.64002, 31.65904],
          [-121.63426, 31.66638],
          [-121.61908, 31.68571],
          [-121.61332, 31.69305],
          [-121.59813, 31.71238],
          [-121.59237, 31.71972],
          [-121.56622, 31.72413],
          [-121.55102, 31.74346],
          [-121.54525, 31.75079],
          [-121.53005, 31.77012],
          [-121.52428, 31.77745],
          [-121.49811, 31.78185],
          [-121.48289, 31.80117],
          [-121.47712, 31.8085],
          [-121.45094, 31.8129],
          [-121.42476, 31.81729],
          [-121.40953, 31.8366],
          [-121.40375, 31.84393],
          [-121.38851, 31.86323],
          [-121.38272, 31.87056],
          [-121.35653, 31.87494],
          [-121.33033, 31.87932],
          [-121.30413, 31.88369],
          [-121.27793, 31.88806],
          [-121.26266, 31.90735],
          [-121.25687, 31.91467],
          [-121.24159, 31.93396],
          [-121.2358, 31.94128],
          [-121.20958, 31.94564],
          [-121.18337, 31.94999],
          [-121.16807, 31.96927],
          [-121.16227, 31.97658],
          [-121.14697, 31.99586],
          [-121.14116, 32.00317],
          [-121.12586, 32.02245],
          [-121.13098, 32.04469],
          [-121.1361, 32.06694],
          [-121.14122, 32.08918],
          [-121.13541, 32.09649],
          [-121.12009, 32.11576],
          [-121.12522, 32.138],
          [-121.13034, 32.16024],
          [-121.12453, 32.16755],
          [-121.10919, 32.18682],
          [-121.11432, 32.20905],
          [-121.11945, 32.23129],
          [-121.12457, 32.25352],
          [-121.12971, 32.27576],
          [-121.12389, 32.28306],
          [-121.10854, 32.30232],
          [-121.11367, 32.32456],
          [-121.1188, 32.34678],
          [-121.12393, 32.36901],
          [-121.12907, 32.39124],
          [-121.13421, 32.41347],
          [-121.13935, 32.43569],
          [-121.14449, 32.45791],
          [-121.14963, 32.48013],
          [-121.1438, 32.48744],
          [-121.12843, 32.50669],
          [-121.13357, 32.52891],
          [-121.12774, 32.53622],
          [-121.11236, 32.55547],
          [-121.1175, 32.57768],
          [-121.11166, 32.58499],
          [-121.09627, 32.60423],
          [-121.10141, 32.62645],
          [-121.09557, 32.63375],
          [-121.08017, 32.65299],
          [-121.07433, 32.66029],
          [-121.05892, 32.67953],
          [-121.06406, 32.70174],
          [-121.05821, 32.70904],
          [-121.0428, 32.72828],
          [-121.03695, 32.73557],
          [-121.02153, 32.7548],
          [-121.02666, 32.77701],
          [-121.02081, 32.78431],
          [-121.00537, 32.80354],
          [-120.99952, 32.81083],
          [-120.98408, 32.83006],
          [-120.97822, 32.83735],
          [-120.96277, 32.85657],
          [-120.95691, 32.86386],
          [-120.94146, 32.88308],
          [-120.93559, 32.89037],
          [-120.92013, 32.90959],
          [-120.91427, 32.91687],
          [-120.8988, 32.93609],
          [-120.89293, 32.94337],
          [-120.87745, 32.96258],
          [-120.87158, 32.96987],
          [-120.8561, 32.98907],
          [-120.85022, 32.99636],
          [-120.83473, 33.01556],
          [-120.82886, 33.02284],
          [-120.81336, 33.04204],
          [-120.81846, 33.06424],
          [-120.81258, 33.07153],
          [-120.78609, 33.0758],
          [-120.77058, 33.09499],
          [-120.76469, 33.10227],
          [-120.74917, 33.12146],
          [-120.74329, 33.12874],
          [-120.72776, 33.14793],
          [-120.72187, 33.1552],
          [-120.69535, 33.15946],
          [-120.67981, 33.17864],
          [-120.67392, 33.18592],
          [-120.65837, 33.20509],
          [-120.65247, 33.21237],
          [-120.63692, 33.23154],
          [-120.63102, 33.23881],
          [-120.61546, 33.25798],
          [-120.60956, 33.26525],
          [-120.58301, 33.26949],
          [-120.56744, 33.28866],
          [-120.56153, 33.29592],
          [-120.54595, 33.31508],
          [-120.54004, 33.32235],
          [-120.52445, 33.34151],
          [-120.51854, 33.34877],
          [-120.50294, 33.36793],
          [-120.49702, 33.37519],
          [-120.48142, 33.39434],
          [-120.4755, 33.4016],
          [-120.45989, 33.42075],
          [-120.45397, 33.42801],
          [-120.42738, 33.43222],
          [-120.41176, 33.45136],
          [-120.40583, 33.45862],
          [-120.3902, 33.47776],
          [-120.38427, 33.48502],
          [-120.36864, 33.50415],
          [-120.36271, 33.51141],
          [-120.34706, 33.53054],
          [-120.34113, 33.53779],
          [-120.32548, 33.55692],
          [-120.31954, 33.56417],
          [-120.30388, 33.5833],
          [-120.30891, 33.60548],
          [-120.30297, 33.61273],
          [-120.2873, 33.63185],
          [-120.28136, 33.6391],
          [-120.26568, 33.65822],
          [-120.25973, 33.66547],
          [-120.24405, 33.68458],
          [-120.2381, 33.69183],
          [-120.22241, 33.71094],
          [-120.21646, 33.71819],
          [-120.20076, 33.73729],
          [-120.19481, 33.74454],
          [-120.16813, 33.7487],
          [-120.15242, 33.7678],
          [-120.14646, 33.77505],
          [-120.11978, 33.77921],
          [-120.0931, 33.78336],
          [-120.07737, 33.80245],
          [-120.0714, 33.80969],
          [-120.05567, 33.82878],
          [-120.0497, 33.83601],
          [-120.023, 33.84016],
          [-120.00725, 33.85924],
          [-120.00128, 33.86647],
          [-119.97457, 33.87061],
          [-119.95881, 33.88968],
          [-119.95283, 33.89692],
          [-119.93706, 33.91599],
          [-119.94203, 33.93816],
          [-119.93605, 33.94539],
          [-119.92027, 33.96446],
          [-119.91429, 33.97169],
          [-119.89851, 33.99075],
          [-119.90347, 34.01292],
          [-119.89748, 34.02015],
          [-119.88169, 34.03921],
          [-119.8757, 34.04644],
          [-119.8599, 34.06549],
          [-119.86486, 34.08766],
          [-119.85887, 34.09489],
          [-119.84306, 34.11394],
          [-119.83706, 34.12116],
          [-119.82124, 34.14021],
          [-119.8262, 34.16237],
          [-119.8202, 34.1696],
          [-119.80437, 34.18864],
          [-119.80933, 34.2108],
          [-119.80332, 34.21802],
          [-119.78748, 34.23706],
          [-119.78147, 34.24428],
          [-119.76563, 34.26331],
          [-119.77058, 34.28547],
          [-119.76457, 34.29269],
          [-119.74872, 34.31172],
          [-119.7427, 34.31894],
          [-119.72684, 34.33796],
          [-119.73179, 34.36012],
          [-119.73674, 34.38227],
          [-119.74169, 34.40442],
          [-119.74665, 34.42657],
          [-119.75161, 34.44872],
          [-119.75657, 34.47086],
          [-119.76153, 34.49301],
          [-119.76649, 34.51515],
          [-119.77146, 34.53729],
          [-119.77642, 34.55943],
          [-119.79952, 34.57251],
          [-119.80828, 34.57747],
          [-119.81326, 34.59961],
          [-119.81823, 34.62174],
          [-119.82321, 34.64388],
          [-119.8282, 34.66601],
          [-119.83318, 34.68814],
          [-119.82715, 34.69535],
          [-119.81125, 34.71436],
          [-119.81623, 34.73649],
          [-119.82122, 34.75861],
          [-119.82621, 34.78073],
          [-119.82017, 34.78794],
          [-119.80425, 34.80695],
          [-119.80924, 34.82907],
          [-119.8032, 34.83628],
          [-119.78728, 34.85528],
          [-119.79226, 34.8774],
          [-119.78622, 34.8846],
          [-119.75926, 34.88869],
          [-119.74332, 34.90768],
          [-119.73727, 34.91489],
          [-119.72132, 34.93388],
          [-119.71527, 34.94108],
          [-119.68829, 34.94516],
          [-119.67233, 34.96414],
          [-119.66628, 34.97134],
          [-119.65031, 34.99032],
          [-119.64425, 34.99752],
          [-119.62827, 35.01649],
          [-119.63323, 35.03861],
          [-119.62717, 35.0458],
          [-119.61119, 35.06477],
          [-119.60512, 35.07197],
          [-119.58913, 35.09094],
          [-119.59408, 35.11304],
          [-119.58802, 35.12024],
          [-119.57201, 35.1392],
          [-119.56594, 35.14639],
          [-119.54993, 35.16535],
          [-119.54386, 35.17254],
          [-119.52784, 35.1915],
          [-119.52176, 35.19869],
          [-119.50574, 35.21764],
          [-119.49966, 35.22483],
          [-119.48362, 35.24378],
          [-119.47754, 35.25097],
          [-119.4615, 35.26991],
          [-119.45541, 35.2771],
          [-119.43936, 35.29604],
          [-119.43328, 35.30322],
          [-119.41722, 35.32216],
          [-119.41113, 35.32934],
          [-119.39506, 35.34827],
          [-119.38897, 35.35545],
          [-119.3729, 35.37438],
          [-119.37782, 35.39648],
          [-119.38275, 35.41857],
          [-119.37665, 35.42575],
          [-119.36057, 35.44467],
          [-119.36549, 35.46676],
          [-119.37042, 35.48884],
          [-119.37535, 35.51093],
          [-119.36925, 35.5181],
          [-119.35315, 35.53702],
          [-119.35808, 35.5591],
          [-119.36301, 35.58118],
          [-119.36794, 35.60325],
          [-119.37288, 35.62533],
          [-119.39614, 35.63842],
          [-119.40497, 35.64339],
          [-119.40992, 35.66546],
          [-119.41486, 35.68753],
          [-119.41981, 35.7096],
          [-119.42476, 35.73166],
          [-119.42971, 35.75372],
          [-119.45301, 35.7668],
          [-119.46185, 35.77176],
          [-119.46682, 35.79382],
          [-119.47178, 35.81588],
          [-119.47674, 35.83794],
          [-119.50007, 35.85101],
          [-119.50892, 35.85596],
          [-119.51389, 35.87801],
          [-119.51887, 35.90006],
          [-119.54221, 35.91312],
          [-119.55107, 35.91808],
          [-119.55606, 35.94012],
          [-119.54994, 35.94729],
          [-119.53381, 35.9662],
          [-119.53879, 35.98824],
          [-119.54378, 36.01028],
          [-119.54877, 36.03232],
          [-119.55376, 36.05436],
          [-119.55875, 36.07639],
          [-119.56374, 36.09842],
          [-119.58714, 36.11147],
          [-119.59601, 36.11642],
          [-119.61941, 36.12946],
          [-119.62829, 36.1344],
          [-119.6517, 36.14744],
          [-119.66058, 36.15238],
          [-119.6656, 36.1744],
          [-119.67062, 36.19642],
          [-119.67564, 36.21844],
          [-119.68066, 36.24046],
          [-119.7041, 36.25348],
          [-119.71299, 36.25842],
          [-119.71802, 36.28044],
          [-119.74147, 36.29345],
          [-119.75037, 36.29839],
          [-119.75541, 36.32039],
          [-119.77888, 36.3334],
          [-119.78778, 36.33834],
          [-119.79283, 36.36034],
          [-119.79788, 36.38234],
          [-119.80294, 36.40434],
          [-119.808, 36.42634],
          [-119.81306, 36.44834],
          [-119.81812, 36.47034],
          [-119.82319, 36.49233],
          [-119.82825, 36.51432],
          [-119.83332, 36.53631],
          [-119.82719, 36.54348],
          [-119.81102, 36.56237],
          [-119.81609, 36.58435],
          [-119.82115, 36.60634],
          [-119.82623, 36.62832],
          [-119.82009, 36.63548],
          [-119.8039, 36.65437],
          [-119.80897, 36.67635],
          [-119.80283, 36.68351],
          [-119.78664, 36.70239],
          [-119.79171, 36.72436],
          [-119.79678, 36.74634],
          [-119.79063, 36.7535],
          [-119.77442, 36.77237],
          [-119.77949, 36.79434],
          [-119.78456, 36.81631],
          [-119.78964, 36.83827],
          [-119.79471, 36.86023],
          [-119.78856, 36.86739],
          [-119.77234, 36.88626],
          [-119.77741, 36.90822],
          [-119.78249, 36.93017],
          [-119.78757, 36.95213],
          [-119.79265, 36.97408],
          [-119.79773, 36.99603],
          [-119.80282, 37.01798],
          [-119.8079, 37.03993],
          [-119.80174, 37.04708],
          [-119.78549, 37.06594],
          [-119.79058, 37.08788],
          [-119.79566, 37.10982],
          [-119.80075, 37.13176],
          [-119.80585, 37.1537],
          [-119.81094, 37.17564],
          [-119.80477, 37.18278],
          [-119.7885, 37.20163],
          [-119.79359, 37.22356],
          [-119.79869, 37.24549],
          [-119.80378, 37.26742],
          [-119.80888, 37.28934],
          [-119.80271, 37.29649],
          [-119.78642, 37.31532],
          [-119.79152, 37.33724],
          [-119.79662, 37.35916],
          [-119.80172, 37.38108],
          [-119.80682, 37.403],
          [-119.81193, 37.42491],
          [-119.81704, 37.44682],
          [-119.82215, 37.46873],
          [-119.82726, 37.49064],
          [-119.83237, 37.51254],
          [-119.83749, 37.53445],
          [-119.84261, 37.55635],
          [-119.83642, 37.56349],
          [-119.8201, 37.5823],
          [-119.82521, 37.6042],
          [-119.83033, 37.6261],
          [-119.83545, 37.64799],
          [-119.84058, 37.66988],
          [-119.8457, 37.69177],
          [-119.85083, 37.71366],
          [-119.85596, 37.73554],
          [-119.86109, 37.75742],
          [-119.86623, 37.7793],
          [-119.87136, 37.80118],
          [-119.8765, 37.82306],
          [-119.88164, 37.84493],
          [-119.88678, 37.8668],
          [-119.89193, 37.88867],
          [-119.89707, 37.91054],
          [-119.90222, 37.9324],
          [-119.90737, 37.95426],
          [-119.91253, 37.97612],
          [-119.91768, 37.99798],
          [-119.94153, 38.01088],
          [-119.95058, 38.01577],
          [-119.95574, 38.03763],
          [-119.96091, 38.05948],
          [-119.96608, 38.08133],
          [-119.97125, 38.10317],
          [-119.97642, 38.12502],
          [-120.00031, 38.1379],
          [-120.00937, 38.14279],
          [-120.01455, 38.16463],
          [-120.01974, 38.18646],
          [-120.02493, 38.2083],
          [-120.03011, 38.23013],
          [-120.05403, 38.243],
          [-120.0631, 38.24788],
          [-120.0683, 38.26971],
          [-120.0735, 38.29154],
          [-120.07871, 38.31336],
          [-120.08391, 38.33518],
          [-120.08912, 38.357],
          [-120.09433, 38.37882],
          [-120.09954, 38.40063],
          [-120.10475, 38.42245],
          [-120.12872, 38.43529],
          [-120.13781, 38.44017],
          [-120.14304, 38.46197],
          [-120.14826, 38.48378],
          [-120.15349, 38.50558],
          [-120.15872, 38.52738],
          [-120.16395, 38.54918],
          [-120.16919, 38.57098],
          [-120.17443, 38.59277],
          [-120.17966, 38.61456],
          [-120.18491, 38.63635],
          [-120.17868, 38.64347],
          [-120.16225, 38.66223],
          [-120.16749, 38.68402],
          [-120.17273, 38.7058],
          [-120.17797, 38.72758],
          [-120.18322, 38.74936],
          [-120.17698, 38.75647],
          [-120.16054, 38.77522],
          [-120.16578, 38.797],
          [-120.17103, 38.81877],
          [-120.16479, 38.82588],
          [-120.14833, 38.84462],
          [-120.14209, 38.85173],
          [-120.12562, 38.87047],
          [-120.11938, 38.87758],
          [-120.1029, 38.89632],
          [-120.09665, 38.90342],
          [-120.08017, 38.92216],
          [-120.07392, 38.92926],
          [-120.04594, 38.93333],
          [-120.01796, 38.9374],
          [-119.98998, 38.94146],
          [-119.962, 38.94551],
          [-119.95287, 38.94064],
          [-119.92881, 38.9278],
          [-119.90083, 38.93184],
          [-119.8917, 38.92697],
          [-119.86765, 38.91411],
          [-119.85853, 38.90924],
          [-119.83449, 38.89638],
          [-119.82537, 38.8915],
          [-119.80134, 38.87864],
          [-119.79222, 38.87376],
          [-119.7682, 38.86089],
          [-119.74023, 38.86491],
          [-119.71226, 38.86892],
          [-119.70315, 38.86404],
          [-119.67913, 38.85115],
          [-119.65116, 38.85516],
          [-119.62319, 38.85916],
          [-119.61409, 38.85427],
          [-119.59009, 38.84138],
          [-119.58098, 38.83649],
          [-119.55699, 38.82358],
          [-119.54789, 38.81869],
          [-119.52391, 38.80578],
          [-119.49595, 38.80977],
          [-119.48685, 38.80487],
          [-119.46288, 38.79195],
          [-119.43491, 38.79592],
          [-119.40695, 38.79989],
          [-119.37898, 38.80386],
          [-119.36989, 38.79895],
          [-119.34594, 38.78602],
          [-119.31797, 38.78998],
          [-119.29, 38.79393],
          [-119.26203, 38.79787],
          [-119.23406, 38.80181],
          [-119.20609, 38.80575],
          [-119.19701, 38.80084],
          [-119.17307, 38.78788],
          [-119.1451, 38.79181],
          [-119.13602, 38.78689],
          [-119.11209, 38.77392],
          [-119.08412, 38.77784],
          [-119.05615, 38.78175],
          [-119.02817, 38.78566],
          [-119.0002, 38.78957],
          [-118.97222, 38.79347],
          [-118.94424, 38.79736],
          [-118.92757, 38.81599],
          [-118.92124, 38.82306],
          [-118.89325, 38.82694],
          [-118.86526, 38.83082],
          [-118.83726, 38.8347],
          [-118.82057, 38.85332],
          [-118.81424, 38.86038],
          [-118.79753, 38.87899],
          [-118.7912, 38.88605],
          [-118.76318, 38.88992],
          [-118.74647, 38.90852],
          [-118.74013, 38.91558],
          [-118.7121, 38.91944],
          [-118.68408, 38.92329],
          [-118.66734, 38.94188],
          [-118.66099, 38.94893],
          [-118.64425, 38.96753],
          [-118.6379, 38.97458],
          [-118.60986, 38.97841],
          [-118.5931, 38.997],
          [-118.58674, 39.00405],
          [-118.57767, 38.99911],
          [-118.55377, 38.98608],
          [-118.52572, 38.9899],
          [-118.49767, 38.99372],
          [-118.48861, 38.98877],
          [-118.46471, 38.97573],
          [-118.43666, 38.97954],
          [-118.40861, 38.98335],
          [-118.38056, 38.98715],
          [-118.35251, 38.99094],
          [-118.32445, 38.99473],
          [-118.29639, 38.99852],
          [-118.27958, 39.01707],
          [-118.2732, 39.02411],
          [-118.24513, 39.02789],
          [-118.2283, 39.04643],
          [-118.22192, 39.05346],
          [-118.20508, 39.072],
          [-118.19869, 39.07904],
          [-118.18184, 39.09757],
          [-118.17545, 39.1046],
          [-118.1586, 39.12313],
          [-118.1522, 39.13016],
          [-118.13534, 39.14869],
          [-118.12895, 39.15571],
          [-118.11208, 39.17424],
          [-118.10567, 39.18126],
          [-118.0888, 39.19978],
          [-118.08239, 39.2068],
          [-118.06551, 39.22531],
          [-118.07034, 39.2471],
          [-118.06393, 39.25412],
          [-118.04703, 39.27263],
          [-118.05187, 39.29442],
          [-118.04545, 39.30144],
          [-118.02855, 39.31994],
          [-118.03338, 39.34172],
          [-118.03821, 39.36349],
          [-118.03179, 39.37051],
          [-118.01487, 39.389],
          [-118.00845, 39.39602],
          [-117.99152, 39.41451],
          [-117.99634, 39.43628],
          [-117.98992, 39.44329],
          [-117.97298, 39.46177],
          [-117.9778, 39.48354],
          [-117.97138, 39.49055],
          [-117.95442, 39.50903],
          [-117.94799, 39.51604],
          [-117.93103, 39.53451],
          [-117.93585, 39.55627],
          [-117.92942, 39.56327],
          [-117.91244, 39.58174],
          [-117.906, 39.58875],
          [-117.88903, 39.60721],
          [-117.88258, 39.61421],
          [-117.85434, 39.61791],
          [-117.83735, 39.63637],
          [-117.8309, 39.64337],
          [-117.80265, 39.64706],
          [-117.78565, 39.66551],
          [-117.77919, 39.67251],
          [-117.75093, 39.6762],
          [-117.72267, 39.67988],
          [-117.69441, 39.68356],
          [-117.67737, 39.70199],
          [-117.67091, 39.70898],
          [-117.65387, 39.72741],
          [-117.64741, 39.7344],
          [-117.63036, 39.75282],
          [-117.62389, 39.75981],
          [-117.5956, 39.76347],
          [-117.56731, 39.76713],
          [-117.53902, 39.77078],
          [-117.51072, 39.77443],
          [-117.49364, 39.79283],
          [-117.48716, 39.79981],
          [-117.45886, 39.80345],
          [-117.44977, 39.79847],
          [-117.42582, 39.78534],
          [-117.39752, 39.78897],
          [-117.38844, 39.78398],
          [-117.36451, 39.77084],
          [-117.3474, 39.78923],
          [-117.34091, 39.79621],
          [-117.3126, 39.79982],
          [-117.28429, 39.80343],
          [-117.25598, 39.80704],
          [-117.22766, 39.81064],
          [-117.19935, 39.81424],
          [-117.18221, 39.83261],
          [-117.1757, 39.83958],
          [-117.14738, 39.84317],
          [-117.13022, 39.86153],
          [-117.12371, 39.8685],
          [-117.09538, 39.87208],
          [-117.06704, 39.87565],
          [-117.0387, 39.87922],
          [-117.01036, 39.88278],
          [-116.98201, 39.88634],
          [-116.95367, 39.8899],
          [-116.93647, 39.90824],
          [-116.92995, 39.9152],
          [-116.90159, 39.91874],
          [-116.88438, 39.93708],
          [-116.87785, 39.94403],
          [-116.84949, 39.94757],
          [-116.83226, 39.9659],
          [-116.82573, 39.97285],
          [-116.80849, 39.99117],
          [-116.80195, 39.99812],
          [-116.77357, 40.00165],
          [-116.74519, 40.00517],
          [-116.72793, 40.02348],
          [-116.72139, 40.03042],
          [-116.693, 40.03393],
          [-116.67573, 40.05224],
          [-116.66918, 40.05918],
          [-116.64077, 40.06268],
          [-116.62349, 40.08098],
          [-116.61694, 40.08792],
          [-116.58852, 40.09141],
          [-116.57123, 40.1097],
          [-116.56467, 40.11664],
          [-116.53624, 40.12012],
          [-116.50782, 40.1236],
          [-116.49051, 40.14188],
          [-116.48394, 40.14881],
          [-116.4555, 40.15228],
          [-116.42707, 40.15575],
          [-116.39863, 40.15921],
          [-116.38129, 40.17747],
          [-116.37471, 40.1844],
          [-116.34626, 40.18785],
          [-116.31781, 40.1913],
          [-116.28936, 40.19474],
          [-116.26091, 40.19818],
          [-116.23245, 40.20162],
          [-116.204, 40.20505],
          [-116.17554, 40.20847],
          [-116.14708, 40.21189],
          [-116.11861, 40.21531],
          [-116.09015, 40.21872],
          [-116.06168, 40.22213],
          [-116.03321, 40.22553],
          [-116.00474, 40.22893],
          [-115.97627, 40.23232],
          [-115.9478, 40.23571],
          [-115.91932, 40.23909],
          [-115.89084, 40.24247],
          [-115.86236, 40.24584],
          [-115.83388, 40.24921],
          [-115.8054, 40.25258],
          [-115.78794, 40.27077],
          [-115.78132, 40.27768],
          [-115.76385, 40.29587],
          [-115.75722, 40.30277],
          [-115.73974, 40.32096],
          [-115.73311, 40.32785],
          [-115.71563, 40.34604],
          [-115.72002, 40.36777],
          [-115.71338, 40.37466],
          [-115.69589, 40.39284],
          [-115.68925, 40.39973],
          [-115.67174, 40.4179],
          [-115.67613, 40.43963],
          [-115.66949, 40.44652],
          [-115.65197, 40.46468],
          [-115.64532, 40.47157],
          [-115.6278, 40.48973],
          [-115.62115, 40.49662],
          [-115.60362, 40.51478],
          [-115.59696, 40.52166],
          [-115.57942, 40.53981],
          [-115.57277, 40.5467],
          [-115.55522, 40.56485],
          [-115.54856, 40.57173],
          [-115.531, 40.58987],
          [-115.52434, 40.59675],
          [-115.50677, 40.61489],
          [-115.51113, 40.63659],
          [-115.50446, 40.64347],
          [-115.47586, 40.64677],
          [-115.45827, 40.6649],
          [-115.4516, 40.67178],
          [-115.42299, 40.67507],
          [-115.39437, 40.67837],
          [-115.36576, 40.68165],
          [-115.33714, 40.68493],
          [-115.30852, 40.68821],
          [-115.2799, 40.69149],
          [-115.27084, 40.68642],
          [-115.24697, 40.67305],
          [-115.23791, 40.66798],
          [-115.21405, 40.65461],
          [-115.205, 40.64953],
          [-115.2007, 40.62782],
          [-115.19641, 40.60611],
          [-115.17257, 40.59273],
          [-115.16352, 40.58765],
          [-115.15924, 40.56593],
          [-115.13541, 40.55254],
          [-115.10682, 40.55579],
          [-115.09778, 40.55071],
          [-115.07396, 40.53731],
          [-115.04537, 40.54055],
          [-115.01679, 40.54378],
          [-114.98819, 40.54701],
          [-114.97054, 40.5651],
          [-114.96384, 40.57196],
          [-114.93524, 40.57518],
          [-114.91758, 40.59326],
          [-114.91087, 40.60012],
          [-114.88226, 40.60333],
          [-114.86458, 40.6214],
          [-114.85787, 40.62826],
          [-114.82925, 40.63146],
          [-114.80063, 40.63466],
          [-114.77201, 40.63785],
          [-114.74339, 40.64104],
          [-114.73436, 40.63594],
          [-114.71057, 40.6225],
          [-114.68195, 40.62568],
          [-114.65332, 40.62885],
          [-114.6443, 40.62375],
          [-114.62052, 40.61029],
          [-114.5919, 40.61346],
          [-114.58289, 40.60835],
          [-114.55912, 40.59489],
          [-114.5305, 40.59804],
          [-114.52149, 40.59293],
          [-114.49774, 40.57946],
          [-114.46912, 40.5826],
          [-114.4405, 40.58574],
          [-114.41188, 40.58888],
          [-114.38326, 40.59201],
          [-114.37425, 40.58689],
          [-114.35052, 40.5734],
          [-114.3219, 40.57652],
          [-114.3129, 40.5714],
          [-114.28918, 40.5579],
          [-114.26056, 40.56101],
          [-114.23194, 40.56412],
          [-114.20332, 40.56722],
          [-114.19433, 40.5621],
          [-114.17063, 40.54858],
          [-114.16164, 40.54345],
          [-114.13794, 40.52992],
          [-114.12896, 40.52479],
          [-114.12489, 40.50304],
          [-114.10121, 40.48951],
          [-114.09223, 40.48438],
          [-114.06856, 40.47084],
          [-114.05958, 40.4657],
          [-114.03592, 40.45216],
          [-114.02694, 40.44702],
          [-114.00329, 40.43347],
          [-113.97469, 40.43654],
          [-113.9461, 40.4396],
          [-113.91751, 40.44266],
          [-113.88891, 40.44572],
          [-113.87994, 40.44057],
          [-113.85631, 40.427],
          [-113.82772, 40.43005],
          [-113.79912, 40.43309],
          [-113.79016, 40.42794],
          [-113.76654, 40.41435],
          [-113.73795, 40.41738],
          [-113.70935, 40.42041],
          [-113.68076, 40.42343],
          [-113.65216, 40.42645],
          [-113.62356, 40.42946],
          [-113.61461, 40.4243],
          [-113.59101, 40.41069],
          [-113.56241, 40.4137],
          [-113.54453, 40.43166],
          [-113.53775, 40.43847],
          [-113.50914, 40.44146],
          [-113.49125, 40.45941],
          [-113.49518, 40.48118],
          [-113.48839, 40.48799],
          [-113.47048, 40.50593],
          [-113.47441, 40.5277],
          [-113.46761, 40.5345],
          [-113.4497, 40.55244],
          [-113.4429, 40.55924],
          [-113.41426, 40.56222],
          [-113.38561, 40.56519],
          [-113.36767, 40.58312],
          [-113.36087, 40.58992],
          [-113.33222, 40.59288],
          [-113.32326, 40.58771],
          [-113.29967, 40.57408],
          [-113.27102, 40.57703],
          [-113.26207, 40.57186],
          [-113.25819, 40.5501],
          [-113.25431, 40.52833],
          [-113.25043, 40.50656],
          [-113.24655, 40.48479],
          [-113.22299, 40.47114],
          [-113.19437, 40.47408],
          [-113.16574, 40.47702],
          [-113.13711, 40.47995],
          [-113.10849, 40.48288],
          [-113.09955, 40.4777],
          [-113.07601, 40.46403],
          [-113.06709, 40.45884],
          [-113.06325, 40.43706],
          [-113.03972, 40.42338],
          [-113.01111, 40.4263],
          [-112.98249, 40.4292],
          [-112.96451, 40.4471],
          [-112.95768, 40.45389],
          [-112.92906, 40.45679],
          [-112.91106, 40.47468],
          [-112.91487, 40.49646],
          [-112.90804, 40.50325],
          [-112.89003, 40.52113],
          [-112.89383, 40.54291],
          [-112.887, 40.54969],
          [-112.86898, 40.56757],
          [-112.87278, 40.58934],
          [-112.86594, 40.59612],
          [-112.8479, 40.61399],
          [-112.8517, 40.63576],
          [-112.84486, 40.64253],
          [-112.82681, 40.6604],
          [-112.81997, 40.66718],
          [-112.80192, 40.68504],
          [-112.79507, 40.69181],
          [-112.777, 40.70967],
          [-112.77015, 40.71644],
          [-112.74145, 40.7193],
          [-112.72337, 40.73715],
          [-112.71651, 40.74392],
          [-112.6878, 40.74678],
          [-112.65908, 40.74963],
          [-112.63036, 40.75248],
          [-112.60165, 40.75532],
          [-112.57292, 40.75816],
          [-112.5442, 40.76099],
          [-112.51548, 40.76382],
          [-112.49735, 40.78164],
          [-112.49048, 40.7884],
          [-112.46175, 40.79122],
          [-112.43301, 40.79404],
          [-112.40427, 40.79685],
          [-112.37554, 40.79965],
          [-112.35738, 40.81746],
          [-112.3505, 40.82421],
          [-112.32175, 40.827],
          [-112.30358, 40.8448],
          [-112.29669, 40.85155],
          [-112.26793, 40.85434],
          [-112.23917, 40.85712],
          [-112.21041, 40.8599],
          [-112.18165, 40.86267],
          [-112.15289, 40.86544],
          [-112.12413, 40.86821],
          [-112.09536, 40.87097],
          [-112.08645, 40.86574],
          [-112.06296, 40.85197],
          [-112.05405, 40.84674],
          [-112.03056, 40.83296],
          [-112.0018, 40.83571],
          [-112, 40.83588]
        ]
      }
    },
    {
      "type": "Feature",
      "id": "2026092706_f228_12000_001",
      "properties": {
        "product_id": "winter_storm_levels",
        "source_id": "nbm_snow_level",
        "parameter": "snow_level",
        "definition": "height of the wet-bulb 0.5 degree C surface",
        "level_ft_msl": 12000,
        "label": "12,000 ft MSL",
        "unit": "ft_msl",
        "cycle_time_utc": "2026-09-27T06:00:00Z",
        "valid_time_utc": "2026-10-06T18:00:00Z",
        "lead_hours": 228,
        "segment": 1,
        "length_m": 117095.8
      },
      "geometry": {
        "type": "LineString",
        "coordinates": [
          [-112, 34.93302],
          [-112.02323, 34.93062],
          [-112.02859, 34.93403],
          [-112.05388, 34.95011],
          [-112.0811, 34.94729],
          [-112.08646, 34.9507],
          [-112.11177, 34.96677],
          [-112.13898, 34.96394],
          [-112.14435, 34.96734],
          [-112.16967, 34.9834],
          [-112.19689, 34.98056],
          [-112.20226, 34.98397],
          [-112.22759, 35.00002],
          [-112.25481, 34.99716],
          [-112.28203, 34.99431],
          [-112.28741, 34.99771],
          [-112.31275, 35.01375],
          [-112.31812, 35.01715],
          [-112.34347, 35.03318],
          [-112.34885, 35.03658],
          [-112.35236, 35.05887],
          [-112.37772, 35.0749],
          [-112.3831, 35.0783],
          [-112.38662, 35.10059],
          [-112.39013, 35.12288],
          [-112.39365, 35.14516],
          [-112.39716, 35.16745],
          [-112.40068, 35.18973],
          [-112.4042, 35.21202],
          [-112.40004, 35.21642],
          [-112.38044, 35.23717],
          [-112.38396, 35.25945],
          [-112.38748, 35.28173],
          [-112.38332, 35.28613],
          [-112.3637, 35.30688],
          [-112.35954, 35.31128],
          [-112.33992, 35.33202],
          [-112.34343, 35.35429],
          [-112.33926, 35.35869],
          [-112.31963, 35.37943],
          [-112.31546, 35.38383],
          [-112.29581, 35.40456],
          [-112.29165, 35.40895],
          [-112.26432, 35.41181],
          [-112.24466, 35.43253],
          [-112.24049, 35.43693],
          [-112.22082, 35.45765],
          [-112.21665, 35.46204],
          [-112.19697, 35.48275],
          [-112.19279, 35.48715],
          [-112.16545, 35.48998],
          [-112.1381, 35.49282],
          [-112.1184, 35.51352],
          [-112.11422, 35.51791],
          [-112.08687, 35.52073],
          [-112.06715, 35.54143],
          [-112.06297, 35.54582],
          [-112.03561, 35.54863],
          [-112.00824, 35.55144],
          [-112, 35.56008]
        ]
      }
    },
    {
      "type": "Feature",
      "id": "2026092706_f228_12000_002",
      "properties": {
        "product_id": "winter_storm_levels",
        "source_id": "nbm_snow_level",
        "parameter": "snow_level",
        "definition": "height of the wet-bulb 0.5 degree C surface",
        "level_ft_msl": 12000,
        "label": "12,000 ft MSL",
        "unit": "ft_msl",
        "cycle_time_utc": "2026-09-27T06:00:00Z",
        "valid_time_utc": "2026-10-06T18:00:00Z",
        "lead_hours": 228,
        "segment": 2,
        "length_m": 639152.5
      },
      "geometry": {
        "type": "LineString",
        "coordinates": [
          [-116.46205, 30.19293],
          [-116.46147, 30.19361],
          [-116.45765, 30.19817],
          [-116.43963, 30.21966],
          [-116.44378, 30.24212],
          [-116.43995, 30.24667],
          [-116.42192, 30.26815],
          [-116.4181, 30.27271],
          [-116.40006, 30.29419],
          [-116.39623, 30.29874],
          [-116.37818, 30.32022],
          [-116.37435, 30.32477],
          [-116.34834, 30.32834],
          [-116.33028, 30.34981],
          [-116.32644, 30.35436],
          [-116.30838, 30.37583],
          [-116.30454, 30.38038],
          [-116.28647, 30.40184],
          [-116.28263, 30.4064],
          [-116.25659, 30.40995],
          [-116.23055, 30.4135],
          [-116.21246, 30.43495],
          [-116.20862, 30.4395],
          [-116.19051, 30.46095],
          [-116.18667, 30.46549],
          [-116.16856, 30.48694],
          [-116.16472, 30.49149],
          [-116.1466, 30.51293],
          [-116.1507, 30.53538],
          [-116.14685, 30.53993],
          [-116.12872, 30.56137],
          [-116.12488, 30.56592],
          [-116.10674, 30.58735],
          [-116.11083, 30.6098],
          [-116.10698, 30.61435],
          [-116.08884, 30.63578],
          [-116.08499, 30.64032],
          [-116.06683, 30.66175],
          [-116.07092, 30.6842],
          [-116.06706, 30.68875],
          [-116.0489, 30.71017],
          [-116.05298, 30.73262],
          [-116.04913, 30.73716],
          [-116.03095, 30.75858],
          [-116.02709, 30.76313],
          [-116.00891, 30.78454],
          [-116.01299, 30.80699],
          [-116.00913, 30.81153],
          [-115.99093, 30.83294],
          [-115.98707, 30.83748],
          [-115.96887, 30.85889],
          [-115.97294, 30.88134],
          [-115.96908, 30.88588],
          [-115.95086, 30.90728],
          [-115.95494, 30.92973],
          [-115.95107, 30.93427],
          [-115.93285, 30.95567],
          [-115.93692, 30.97811],
          [-115.93305, 30.98265],
          [-115.91481, 31.00404],
          [-115.91889, 31.02648],
          [-115.91502, 31.03102],
          [-115.89677, 31.05241],
          [-115.89289, 31.05695],
          [-115.87464, 31.07834],
          [-115.87076, 31.08288],
          [-115.8525, 31.10426],
          [-115.84862, 31.1088],
          [-115.82241, 31.11227],
          [-115.80413, 31.13365],
          [-115.80026, 31.13818],
          [-115.78197, 31.15956],
          [-115.77809, 31.16409],
          [-115.75979, 31.18546],
          [-115.75591, 31.18999],
          [-115.73761, 31.21136],
          [-115.73372, 31.21589],
          [-115.70749, 31.21935],
          [-115.68125, 31.2228],
          [-115.66292, 31.24416],
          [-115.65904, 31.24869],
          [-115.63279, 31.25213],
          [-115.60654, 31.25557],
          [-115.58029, 31.259],
          [-115.575, 31.25568],
          [-115.55003, 31.23999],
          [-115.52378, 31.24342],
          [-115.51849, 31.24009],
          [-115.49354, 31.2244],
          [-115.48824, 31.22107],
          [-115.4633, 31.20537],
          [-115.43705, 31.20878],
          [-115.43176, 31.20545],
          [-115.40683, 31.18974],
          [-115.40154, 31.18641],
          [-115.37661, 31.1707],
          [-115.37133, 31.16736],
          [-115.34641, 31.15164],
          [-115.34113, 31.14831],
          [-115.31621, 31.13259],
          [-115.31093, 31.12925],
          [-115.28603, 31.11352],
          [-115.28075, 31.11018],
          [-115.2768, 31.08773],
          [-115.25191, 31.07199],
          [-115.24663, 31.06865],
          [-115.24269, 31.0462],
          [-115.21781, 31.03046],
          [-115.21254, 31.02712],
          [-115.2086, 31.00466],
          [-115.18374, 30.98891],
          [-115.17846, 30.98557],
          [-115.17454, 30.9631],
          [-115.14969, 30.94735],
          [-115.1235, 30.95071],
          [-115.0973, 30.95407],
          [-115.0711, 30.95742],
          [-115.05271, 30.97872],
          [-115.04881, 30.98323],
          [-115.03041, 31.00453],
          [-115.0265, 31.00904],
          [-115.00809, 31.03033],
          [-115.00419, 31.03485],
          [-114.97797, 31.03818],
          [-114.95175, 31.04152],
          [-114.92553, 31.04484],
          [-114.9071, 31.06612],
          [-114.90319, 31.07063],
          [-114.87696, 31.07395],
          [-114.85073, 31.07727],
          [-114.84546, 31.07392],
          [-114.82063, 31.05811],
          [-114.79441, 31.06142],
          [-114.77595, 31.08268],
          [-114.77203, 31.08719],
          [-114.74579, 31.09049],
          [-114.71956, 31.09378],
          [-114.69332, 31.09707],
          [-114.66708, 31.10035],
          [-114.64859, 31.1216],
          [-114.64467, 31.1261],
          [-114.61842, 31.12938],
          [-114.59217, 31.13265],
          [-114.56592, 31.13592],
          [-114.5474, 31.15715],
          [-114.54347, 31.16165],
          [-114.51721, 31.16491],
          [-114.49869, 31.18614],
          [-114.49476, 31.19064],
          [-114.47622, 31.21186],
          [-114.47229, 31.21636],
          [-114.44602, 31.21961],
          [-114.42747, 31.24082],
          [-114.42353, 31.24532],
          [-114.39725, 31.24856],
          [-114.37869, 31.26976],
          [-114.37475, 31.27426],
          [-114.34846, 31.27749],
          [-114.32988, 31.29869],
          [-114.32594, 31.30319],
          [-114.30736, 31.32438],
          [-114.30341, 31.32888],
          [-114.27711, 31.3321],
          [-114.25851, 31.35329],
          [-114.25457, 31.35778],
          [-114.23596, 31.37897],
          [-114.23201, 31.38346],
          [-114.2134, 31.40464],
          [-114.20945, 31.40913],
          [-114.19083, 31.43031],
          [-114.18687, 31.4348],
          [-114.16824, 31.45597],
          [-114.16429, 31.46047],
          [-114.14565, 31.48164],
          [-114.1417, 31.48613],
          [-114.12305, 31.50729],
          [-114.12679, 31.52976],
          [-114.12283, 31.53424],
          [-114.10417, 31.55541],
          [-114.10022, 31.5599],
          [-114.08155, 31.58105],
          [-114.08529, 31.60351],
          [-114.08132, 31.608],
          [-114.06265, 31.62916],
          [-114.06638, 31.65161],
          [-114.07012, 31.67407],
          [-114.06615, 31.67856],
          [-114.04746, 31.69971],
          [-114.05119, 31.72216],
          [-114.04723, 31.72665],
          [-114.02852, 31.74779],
          [-114.03225, 31.77025],
          [-114.02829, 31.77473],
          [-114.00957, 31.79587],
          [-114.0056, 31.80036],
          [-113.98688, 31.82149],
          [-113.9829, 31.82598],
          [-113.96417, 31.84711],
          [-113.96789, 31.86956],
          [-113.96392, 31.87404],
          [-113.94518, 31.89517],
          [-113.9412, 31.89965],
          [-113.92245, 31.92078],
          [-113.92616, 31.94323],
          [-113.92219, 31.94771],
          [-113.90342, 31.96883],
          [-113.89944, 31.9733],
          [-113.88067, 31.99442],
          [-113.87669, 31.9989],
          [-113.85791, 32.02001],
          [-113.85392, 32.02449],
          [-113.83514, 32.0456],
          [-113.83115, 32.05007],
          [-113.81235, 32.07118],
          [-113.80837, 32.07565],
          [-113.78956, 32.09675],
          [-113.78557, 32.10123],
          [-113.76676, 32.12233],
          [-113.76277, 32.1268],
          [-113.74395, 32.14789],
          [-113.73995, 32.15237],
          [-113.72112, 32.17346],
          [-113.71713, 32.17793],
          [-113.69829, 32.19901],
          [-113.69429, 32.20349],
          [-113.66777, 32.2066],
          [-113.64892, 32.22768],
          [-113.64492, 32.23215],
          [-113.62606, 32.25322],
          [-113.62206, 32.25769],
          [-113.59552, 32.26079],
          [-113.57665, 32.28186],
          [-113.57265, 32.28632],
          [-113.55376, 32.30739],
          [-113.54976, 32.31185],
          [-113.53087, 32.33291],
          [-113.52686, 32.33738],
          [-113.5003, 32.34046],
          [-113.47374, 32.34354],
          [-113.45483, 32.36459],
          [-113.45082, 32.36905],
          [-113.42426, 32.37212],
          [-113.40533, 32.39316],
          [-113.40132, 32.39763],
          [-113.37474, 32.40069],
          [-113.3558, 32.42172],
          [-113.35179, 32.42618],
          [-113.33284, 32.44721],
          [-113.32882, 32.45167],
          [-113.30987, 32.4727],
          [-113.30584, 32.47716],
          [-113.28688, 32.49818],
          [-113.28286, 32.50264],
          [-113.25626, 32.50568],
          [-113.23728, 32.5267],
          [-113.23325, 32.53115],
          [-113.21427, 32.55216],
          [-113.21024, 32.55662],
          [-113.19125, 32.57763],
          [-113.18722, 32.58208],
          [-113.16821, 32.60308],
          [-113.16418, 32.60754],
          [-113.13755, 32.61056],
          [-113.11854, 32.63155],
          [-113.1145, 32.63601],
          [-113.08787, 32.63902],
          [-113.06884, 32.66001],
          [-113.0648, 32.66446],
          [-113.03815, 32.66746],
          [-113.01911, 32.68844],
          [-113.01507, 32.69289],
          [-112.99602, 32.71387],
          [-112.99197, 32.71832],
          [-112.96532, 32.72131],
          [-112.94625, 32.74228],
          [-112.9422, 32.74673],
          [-112.91554, 32.74971],
          [-112.88887, 32.75269],
          [-112.86978, 32.77365],
          [-112.86573, 32.77809],
          [-112.83906, 32.78107],
          [-112.81238, 32.78403],
          [-112.79327, 32.80498],
          [-112.78922, 32.80942],
          [-112.76253, 32.81238],
          [-112.73585, 32.81533],
          [-112.70916, 32.81828],
          [-112.69003, 32.83922],
          [-112.68597, 32.84366],
          [-112.66683, 32.86459],
          [-112.66277, 32.86902],
          [-112.64362, 32.88995],
          [-112.63956, 32.89439],
          [-112.61285, 32.89732],
          [-112.58614, 32.90025],
          [-112.56697, 32.92116],
          [-112.56291, 32.9256],
          [-112.53619, 32.92852],
          [-112.50947, 32.93143],
          [-112.48275, 32.93434],
          [-112.45602, 32.93725],
          [-112.4293, 32.94015],
          [-112.40257, 32.94305],
          [-112.37585, 32.94594],
          [-112.34912, 32.94883],
          [-112.32239, 32.95171],
          [-112.29566, 32.95459],
          [-112.26892, 32.95747],
          [-112.24219, 32.96034],
          [-112.21545, 32.96321],
          [-112.18872, 32.96607],
          [-112.16947, 32.98693],
          [-112.16538, 32.99136],
          [-112.14612, 33.01222],
          [-112.14204, 33.01664],
          [-112.11529, 33.01949],
          [-112.09602, 33.04034],
          [-112.09193, 33.04477],
          [-112.07264, 33.06561],
          [-112.06855, 33.07004],
          [-112.04179, 33.07287],
          [-112.02249, 33.09371],
          [-112.0184, 33.09813],
          [-112, 33.10008]
        ]
      }
    }
  ]
}

