{
  "type": "FeatureCollection",
  "contract_version": "1.0.0",
  "bbox": [-130, 30.11003, -112, 44.5],
  "features": [
    {
      "type": "Feature",
      "id": "2026091312_f216_08000_001",
      "properties": {
        "product_id": "winter_storm_levels",
        "source_id": "nbm_snow_level",
        "parameter": "snow_level",
        "definition": "height of the wet-bulb 0.5 degree C surface",
        "level_ft_msl": 8000,
        "label": "8,000 ft MSL",
        "unit": "ft_msl",
        "cycle_time_utc": "2026-09-13T12:00:00Z",
        "valid_time_utc": "2026-09-22T12:00:00Z",
        "lead_hours": 216,
        "segment": 1,
        "length_m": 34553.8
      },
      "geometry": {
        "type": "LineString",
        "coordinates": [
          [-128.7693, 44.5],
          [-128.75636, 44.49451],
          [-128.74905, 44.49141],
          [-128.71981, 44.479],
          [-128.7125, 44.4759],
          [-128.68327, 44.46349],
          [-128.67597, 44.46038],
          [-128.67149, 44.43906],
          [-128.66119, 44.41879],
          [-128.63199, 44.40636],
          [-128.60286, 44.41163],
          [-128.57374, 44.41689],
          [-128.55632, 44.43774],
          [-128.56077, 44.45907],
          [-128.55933, 44.46376],
          [-128.53018, 44.46901],
          [-128.51275, 44.48985],
          [-128.50839, 44.49506],
          [-128.48092, 44.5]
        ]
      }
    },
    {
      "type": "Feature",
      "id": "2026091312_f216_09000_001",
      "properties": {
        "product_id": "winter_storm_levels",
        "source_id": "nbm_snow_level",
        "parameter": "snow_level",
        "definition": "height of the wet-bulb 0.5 degree C surface",
        "level_ft_msl": 9000,
        "label": "9,000 ft MSL",
        "unit": "ft_msl",
        "cycle_time_utc": "2026-09-13T12:00:00Z",
        "valid_time_utc": "2026-09-22T12:00:00Z",
        "lead_hours": 216,
        "segment": 1,
        "length_m": 904957
      },
      "geometry": {
        "type": "LineString",
        "coordinates": [
          [-130, 39.23132],
          [-129.98109, 39.23519],
          [-129.95349, 39.24083],
          [-129.9352, 39.26514],
          [-129.93317, 39.26784],
          [-129.91486, 39.29214],
          [-129.91283, 39.29484],
          [-129.88521, 39.30047],
          [-129.85759, 39.30609],
          [-129.82996, 39.31171],
          [-129.80233, 39.31732],
          [-129.7747, 39.32293],
          [-129.74707, 39.32854],
          [-129.71943, 39.33414],
          [-129.69179, 39.33973],
          [-129.67342, 39.364],
          [-129.67138, 39.3667],
          [-129.653, 39.39097],
          [-129.65095, 39.39366],
          [-129.62329, 39.39924],
          [-129.59563, 39.40482],
          [-129.56797, 39.4104],
          [-129.54955, 39.43465],
          [-129.55676, 39.45602],
          [-129.55472, 39.45871],
          [-129.53629, 39.48296],
          [-129.5435, 39.50432],
          [-129.54145, 39.50702],
          [-129.51376, 39.51258],
          [-129.48606, 39.51814],
          [-129.46761, 39.54237],
          [-129.46556, 39.54506],
          [-129.4471, 39.56928],
          [-129.44505, 39.57197],
          [-129.42658, 39.59619],
          [-129.42452, 39.59888],
          [-129.40604, 39.62309],
          [-129.40399, 39.62578],
          [-129.3855, 39.64999],
          [-129.38344, 39.65268],
          [-129.36494, 39.67688],
          [-129.36289, 39.67957],
          [-129.34438, 39.70377],
          [-129.35157, 39.72512],
          [-129.34951, 39.72781],
          [-129.32175, 39.73334],
          [-129.30322, 39.75752],
          [-129.30116, 39.76021],
          [-129.28262, 39.78439],
          [-129.28056, 39.78708],
          [-129.25278, 39.79259],
          [-129.23422, 39.81676],
          [-129.23216, 39.81945],
          [-129.20437, 39.82495],
          [-129.1858, 39.84912],
          [-129.18373, 39.8518],
          [-129.16515, 39.87596],
          [-129.16308, 39.87864],
          [-129.14449, 39.90279],
          [-129.14243, 39.90548],
          [-129.11461, 39.91097],
          [-129.096, 39.93511],
          [-129.09393, 39.93779],
          [-129.0661, 39.94327],
          [-129.04747, 39.96741],
          [-129.0454, 39.97009],
          [-129.01756, 39.97556],
          [-128.99892, 39.99968],
          [-128.99684, 40.00236],
          [-128.97819, 40.02648],
          [-128.97612, 40.02916],
          [-128.95746, 40.05328],
          [-128.95538, 40.05596],
          [-128.93671, 40.08007],
          [-128.93464, 40.08274],
          [-128.91596, 40.10685],
          [-128.91388, 40.10952],
          [-128.89519, 40.13362],
          [-128.89311, 40.1363],
          [-128.87441, 40.16039],
          [-128.87234, 40.16307],
          [-128.85363, 40.18716],
          [-128.86075, 40.20848],
          [-128.85867, 40.21115],
          [-128.83995, 40.23523],
          [-128.84707, 40.25655],
          [-128.84499, 40.25922],
          [-128.82625, 40.2833],
          [-128.82417, 40.28597],
          [-128.80543, 40.31004],
          [-128.80334, 40.31271],
          [-128.78459, 40.33677],
          [-128.78251, 40.33945],
          [-128.76374, 40.3635],
          [-128.76166, 40.36617],
          [-128.74289, 40.39022],
          [-128.75, 40.41153],
          [-128.74791, 40.4142],
          [-128.72913, 40.43824],
          [-128.73624, 40.45954],
          [-128.73415, 40.46221],
          [-128.71536, 40.48625],
          [-128.71327, 40.48892],
          [-128.69446, 40.51295],
          [-128.70157, 40.53424],
          [-128.69948, 40.53691],
          [-128.68066, 40.56093],
          [-128.67857, 40.5636],
          [-128.65974, 40.58762],
          [-128.66685, 40.6089],
          [-128.66476, 40.61157],
          [-128.64592, 40.63558],
          [-128.64382, 40.63825],
          [-128.62498, 40.66225],
          [-128.62288, 40.66492],
          [-128.60402, 40.68891],
          [-128.60193, 40.69158],
          [-128.58306, 40.71557],
          [-128.58096, 40.71824],
          [-128.56208, 40.74223],
          [-128.55998, 40.74489],
          [-128.5411, 40.76887],
          [-128.539, 40.77154],
          [-128.51091, 40.77691],
          [-128.48282, 40.78227],
          [-128.45472, 40.78763],
          [-128.42663, 40.79299],
          [-128.4077, 40.81695],
          [-128.40559, 40.81961],
          [-128.37749, 40.82496],
          [-128.35854, 40.84891],
          [-128.35644, 40.85157],
          [-128.33748, 40.87552],
          [-128.33537, 40.87818],
          [-128.30725, 40.88351],
          [-128.28827, 40.90745],
          [-128.28616, 40.91011],
          [-128.25802, 40.91543],
          [-128.22988, 40.92076],
          [-128.20174, 40.92607],
          [-128.17359, 40.93139],
          [-128.15458, 40.9553],
          [-128.15246, 40.95796],
          [-128.1243, 40.96326],
          [-128.10527, 40.98717],
          [-128.10316, 40.98983],
          [-128.07499, 40.99512],
          [-128.05594, 41.01902],
          [-128.05382, 41.02168],
          [-128.03477, 41.04557],
          [-128.03265, 41.04822],
          [-128.00446, 41.0535],
          [-127.98538, 41.07739],
          [-127.98326, 41.08004],
          [-127.96418, 41.10392],
          [-127.96206, 41.10657],
          [-127.94296, 41.13044],
          [-127.94084, 41.13309],
          [-127.92173, 41.15696],
          [-127.91961, 41.15961],
          [-127.9005, 41.18347],
          [-127.89837, 41.18612],
          [-127.87925, 41.20998],
          [-127.87712, 41.21263],
          [-127.85799, 41.23648],
          [-127.85586, 41.23913],
          [-127.83671, 41.26297],
          [-127.83459, 41.26562],
          [-127.80633, 41.27086],
          [-127.78716, 41.2947],
          [-127.78503, 41.29734],
          [-127.75676, 41.30258],
          [-127.73758, 41.3264],
          [-127.73545, 41.32905],
          [-127.71626, 41.35287],
          [-127.71413, 41.35552],
          [-127.69493, 41.37933],
          [-127.69279, 41.38197],
          [-127.66449, 41.38719],
          [-127.66097, 41.38559],
          [-127.62924, 41.37117],
          [-127.60094, 41.37638],
          [-127.57264, 41.38159],
          [-127.54433, 41.38679],
          [-127.54081, 41.38518],
          [-127.5091, 41.37074],
          [-127.50558, 41.36914],
          [-127.49866, 41.3479],
          [-127.49175, 41.32665],
          [-127.48484, 41.3054],
          [-127.45316, 41.29095],
          [-127.44964, 41.28934],
          [-127.41798, 41.27488],
          [-127.38969, 41.28006],
          [-127.37043, 41.30384],
          [-127.36829, 41.30649],
          [-127.34, 41.31166],
          [-127.33648, 41.31005],
          [-127.30482, 41.29557],
          [-127.30131, 41.29396],
          [-127.26966, 41.27947],
          [-127.26615, 41.27786],
          [-127.23451, 41.26336],
          [-127.20622, 41.26851],
          [-127.20271, 41.2669],
          [-127.17108, 41.25239],
          [-127.16757, 41.25078],
          [-127.13596, 41.23626],
          [-127.10767, 41.2414],
          [-127.07938, 41.24653],
          [-127.07587, 41.24492],
          [-127.04427, 41.23038],
          [-127.01598, 41.23551],
          [-126.98768, 41.24062],
          [-126.96834, 41.26437],
          [-126.96619, 41.26701],
          [-126.94683, 41.29076],
          [-126.94468, 41.2934],
          [-126.92531, 41.31713],
          [-126.92316, 41.31977],
          [-126.90378, 41.3435],
          [-126.90163, 41.34614],
          [-126.88224, 41.36987],
          [-126.88008, 41.3725],
          [-126.86069, 41.39623],
          [-126.85853, 41.39886],
          [-126.83912, 41.42258],
          [-126.83696, 41.42521],
          [-126.81755, 41.44892],
          [-126.81539, 41.45155],
          [-126.78702, 41.45663],
          [-126.76759, 41.48033],
          [-126.76543, 41.48297],
          [-126.73705, 41.48804],
          [-126.7176, 41.51173],
          [-126.71544, 41.51436],
          [-126.68705, 41.51942],
          [-126.66758, 41.54311],
          [-126.66542, 41.54574],
          [-126.63702, 41.55079],
          [-126.61753, 41.57446],
          [-126.61536, 41.57709],
          [-126.58696, 41.58214],
          [-126.55854, 41.58718],
          [-126.53903, 41.61084],
          [-126.53686, 41.61346],
          [-126.50844, 41.6185],
          [-126.48891, 41.64214],
          [-126.48673, 41.64477],
          [-126.4583, 41.6498],
          [-126.43875, 41.67343],
          [-126.43658, 41.67606],
          [-126.40813, 41.68107],
          [-126.38857, 41.7047],
          [-126.38639, 41.70733],
          [-126.36681, 41.73095],
          [-126.36464, 41.73358],
          [-126.34505, 41.7572],
          [-126.34287, 41.75982],
          [-126.32327, 41.78343],
          [-126.3211, 41.78605],
          [-126.30149, 41.80966],
          [-126.29931, 41.81228],
          [-126.27082, 41.81727],
          [-126.25119, 41.84087],
          [-126.24901, 41.84349],
          [-126.22938, 41.86708],
          [-126.22719, 41.8697],
          [-126.20755, 41.89329],
          [-126.20536, 41.89591],
          [-126.18571, 41.91948],
          [-126.18352, 41.9221],
          [-126.16386, 41.94568],
          [-126.16167, 41.9483],
          [-126.14199, 41.97186],
          [-126.13981, 41.97448],
          [-126.12012, 41.99804],
          [-126.11793, 42.00066],
          [-126.09824, 42.02421],
          [-126.09605, 42.02683],
          [-126.07634, 42.05038],
          [-126.07415, 42.053],
          [-126.05443, 42.07654],
          [-126.05224, 42.07916],
          [-126.03251, 42.10269],
          [-126.03917, 42.1239],
          [-126.03698, 42.12651],
          [-126.01724, 42.15004],
          [-126.01504, 42.15266],
          [-125.99529, 42.17618],
          [-125.9931, 42.17879],
          [-125.97334, 42.20231],
          [-125.97114, 42.20492],
          [-125.95137, 42.22843],
          [-125.94917, 42.23105],
          [-125.92939, 42.25455],
          [-125.92719, 42.25716],
          [-125.9074, 42.28066],
          [-125.9052, 42.28327],
          [-125.8854, 42.30677],
          [-125.89204, 42.32795],
          [-125.88984, 42.33056],
          [-125.87002, 42.35405],
          [-125.86782, 42.35666],
          [-125.848, 42.38014],
          [-125.84579, 42.38274],
          [-125.81712, 42.38765],
          [-125.79727, 42.41111],
          [-125.79507, 42.41372],
          [-125.77521, 42.43719],
          [-125.77301, 42.43979],
          [-125.75314, 42.46325],
          [-125.75093, 42.46585],
          [-125.72223, 42.47074],
          [-125.70235, 42.49419],
          [-125.70014, 42.49679],
          [-125.68025, 42.52023],
          [-125.67804, 42.52284],
          [-125.64931, 42.52771],
          [-125.6294, 42.55114],
          [-125.62719, 42.55374],
          [-125.59845, 42.5586],
          [-125.57852, 42.58203],
          [-125.57631, 42.58463],
          [-125.54756, 42.58948],
          [-125.52762, 42.61289],
          [-125.5254, 42.61549],
          [-125.49664, 42.62034],
          [-125.47668, 42.64374],
          [-125.47446, 42.64634],
          [-125.45448, 42.66974],
          [-125.45226, 42.67234],
          [-125.42348, 42.67717],
          [-125.40349, 42.70055],
          [-125.40127, 42.70315],
          [-125.38126, 42.72653],
          [-125.37904, 42.72913],
          [-125.35024, 42.73395],
          [-125.33022, 42.75732],
          [-125.32799, 42.75991],
          [-125.30796, 42.78328],
          [-125.30573, 42.78587],
          [-125.27692, 42.79068],
          [-125.25687, 42.81403],
          [-125.25464, 42.81663],
          [-125.22581, 42.82142],
          [-125.20574, 42.84477],
          [-125.20351, 42.84736],
          [-125.18343, 42.8707],
          [-125.1812, 42.87329],
          [-125.16111, 42.89662],
          [-125.15887, 42.89921],
          [-125.13877, 42.92254],
          [-125.13654, 42.92513],
          [-125.10767, 42.9299],
          [-125.08755, 42.95322],
          [-125.08532, 42.95581],
          [-125.06519, 42.97912],
          [-125.06295, 42.98171],
          [-125.03406, 42.98647],
          [-125.01392, 43.00977],
          [-125.01168, 43.01236],
          [-124.99152, 43.03565],
          [-124.98928, 43.03824],
          [-124.96911, 43.06153],
          [-124.96687, 43.06411],
          [-124.93795, 43.06886],
          [-124.91777, 43.09213],
          [-124.91552, 43.09472],
          [-124.8866, 43.09946],
          [-124.86639, 43.12272],
          [-124.86415, 43.12531],
          [-124.83521, 43.13003],
          [-124.81498, 43.15329],
          [-124.81274, 43.15588],
          [-124.7925, 43.17913],
          [-124.79025, 43.18171],
          [-124.77001, 43.20495],
          [-124.76776, 43.20754],
          [-124.7475, 43.23077],
          [-124.75397, 43.25188],
          [-124.75171, 43.25446],
          [-124.73145, 43.27769],
          [-124.72919, 43.28027],
          [-124.70891, 43.3035],
          [-124.70666, 43.30608],
          [-124.67766, 43.31077],
          [-124.65736, 43.33399],
          [-124.65511, 43.33657],
          [-124.6348, 43.35977],
          [-124.63254, 43.36235],
          [-124.61222, 43.38555],
          [-124.60996, 43.38813],
          [-124.58963, 43.41132],
          [-124.58738, 43.4139],
          [-124.56703, 43.43709],
          [-124.56477, 43.43967],
          [-124.54442, 43.46285],
          [-124.54216, 43.46542],
          [-124.5218, 43.4886],
          [-124.51954, 43.49117],
          [-124.49047, 43.49584],
          [-124.47009, 43.519],
          [-124.46783, 43.52157],
          [-124.44744, 43.54473],
          [-124.44517, 43.54731],
          [-124.42477, 43.57046],
          [-124.43119, 43.59153],
          [-124.42892, 43.59411],
          [-124.39982, 43.59875],
          [-124.3794, 43.62189],
          [-124.37713, 43.62446],
          [-124.3567, 43.6476],
          [-124.35442, 43.65017],
          [-124.33398, 43.67329],
          [-124.33171, 43.67586],
          [-124.31125, 43.69898],
          [-124.30898, 43.70155],
          [-124.28851, 43.72467],
          [-124.29491, 43.74573],
          [-124.29264, 43.74829],
          [-124.27216, 43.7714],
          [-124.26988, 43.77397],
          [-124.24939, 43.79707],
          [-124.24711, 43.79963],
          [-124.22661, 43.82273],
          [-124.22433, 43.82529],
          [-124.20382, 43.84838],
          [-124.20154, 43.85094],
          [-124.18102, 43.87403],
          [-124.17874, 43.87659],
          [-124.15821, 43.89966],
          [-124.15592, 43.90223],
          [-124.12672, 43.90682],
          [-124.10617, 43.92989],
          [-124.10389, 43.93245],
          [-124.08332, 43.95551],
          [-124.08104, 43.95807],
          [-124.06046, 43.98112],
          [-124.05818, 43.98368],
          [-124.02895, 43.98826],
          [-124.00836, 44.0113],
          [-124.00607, 44.01386],
          [-123.97683, 44.01842],
          [-123.95622, 44.04145],
          [-123.95392, 44.04401],
          [-123.9333, 44.06704],
          [-123.93101, 44.0696],
          [-123.90175, 44.07415],
          [-123.88111, 44.09716],
          [-123.87882, 44.09972],
          [-123.84954, 44.10426],
          [-123.82888, 44.12727],
          [-123.82659, 44.12982],
          [-123.80592, 44.15282],
          [-123.80362, 44.15538],
          [-123.77433, 44.15991],
          [-123.75364, 44.18289],
          [-123.75134, 44.18545],
          [-123.73064, 44.20843],
          [-123.72834, 44.21098],
          [-123.69902, 44.2155],
          [-123.67831, 44.23847],
          [-123.676, 44.24102],
          [-123.65527, 44.26399],
          [-123.65297, 44.26654],
          [-123.62364, 44.27104],
          [-123.60289, 44.294],
          [-123.60058, 44.29655],
          [-123.57982, 44.31949],
          [-123.57752, 44.32204],
          [-123.55675, 44.34498],
          [-123.55444, 44.34753],
          [-123.52508, 44.35202],
          [-123.50429, 44.37495],
          [-123.50198, 44.3775],
          [-123.48118, 44.40042],
          [-123.47887, 44.40297],
          [-123.45805, 44.42588],
          [-123.45574, 44.42843],
          [-123.43492, 44.45134],
          [-123.43261, 44.45389],
          [-123.40321, 44.45835],
          [-123.38237, 44.48125],
          [-123.38005, 44.48379],
          [-123.36529, 44.5]
        ]
      }
    },
    {
      "type": "Feature",
      "id": "2026091312_f216_10000_001",
      "properties": {
        "product_id": "winter_storm_levels",
        "source_id": "nbm_snow_level",
        "parameter": "snow_level",
        "definition": "height of the wet-bulb 0.5 degree C surface",
        "level_ft_msl": 10000,
        "label": "10,000 ft MSL",
        "unit": "ft_msl",
        "cycle_time_utc": "2026-09-13T12:00:00Z",
        "valid_time_utc": "2026-09-22T12:00:00Z",
        "lead_hours": 216,
        "segment": 1,
        "length_m": 2102124.7
      },
      "geometry": {
        "type": "LineString",
        "coordinates": [
          [-122.18362, 30.2541],
          [-122.17142, 30.27001],
          [-122.15085, 30.29682],
          [-122.13028, 30.32363],
          [-122.10969, 30.35043],
          [-122.0891, 30.37723],
          [-122.06849, 30.40403],
          [-122.04788, 30.43082],
          [-122.0531, 30.4531],
          [-122.03248, 30.47989],
          [-122.0377, 30.50217],
          [-122.01706, 30.52896],
          [-121.99642, 30.55574],
          [-121.97576, 30.58251],
          [-121.95509, 30.60928],
          [-121.9292, 30.61377],
          [-121.90852, 30.64053],
          [-121.91373, 30.66281],
          [-121.89303, 30.68957],
          [-121.87233, 30.71633],
          [-121.87754, 30.73861],
          [-121.85682, 30.76536],
          [-121.83089, 30.76983],
          [-121.83609, 30.79211],
          [-121.81535, 30.81885],
          [-121.79461, 30.84559],
          [-121.77385, 30.87233],
          [-121.75309, 30.89906],
          [-121.72713, 30.90351],
          [-121.70635, 30.93023],
          [-121.68556, 30.95695],
          [-121.66476, 30.98367],
          [-121.66993, 31.00594],
          [-121.64912, 31.03265],
          [-121.6543, 31.05493],
          [-121.65948, 31.0772],
          [-121.66466, 31.09947],
          [-121.66984, 31.12174],
          [-121.64901, 31.14844],
          [-121.65419, 31.17071],
          [-121.63335, 31.19741],
          [-121.63853, 31.21968],
          [-121.64371, 31.24194],
          [-121.6489, 31.26421],
          [-121.65408, 31.28647],
          [-121.68533, 31.30429],
          [-121.69052, 31.32655],
          [-121.72178, 31.34437],
          [-121.72699, 31.36663],
          [-121.7322, 31.38888],
          [-121.73741, 31.41114],
          [-121.7687, 31.42894],
          [-121.77392, 31.45119],
          [-121.77914, 31.47344],
          [-121.78436, 31.49569],
          [-121.76348, 31.52239],
          [-121.7687, 31.54464],
          [-121.77393, 31.56689],
          [-121.77915, 31.58913],
          [-121.75826, 31.61583],
          [-121.73736, 31.64252],
          [-121.74258, 31.66476],
          [-121.72167, 31.69144],
          [-121.72689, 31.71369],
          [-121.70596, 31.74037],
          [-121.71118, 31.76261],
          [-121.69024, 31.78928],
          [-121.66929, 31.81595],
          [-121.67451, 31.83819],
          [-121.67972, 31.86043],
          [-121.68495, 31.88266],
          [-121.66398, 31.90933],
          [-121.6692, 31.93156],
          [-121.67442, 31.95379],
          [-121.67964, 31.97602],
          [-121.68487, 31.99825],
          [-121.6901, 32.02048],
          [-121.69533, 32.0427],
          [-121.70056, 32.06493],
          [-121.70579, 32.08715],
          [-121.73726, 32.10494],
          [-121.7425, 32.12716],
          [-121.74775, 32.14938],
          [-121.75299, 32.17159],
          [-121.75824, 32.19381],
          [-121.76349, 32.21603],
          [-121.76875, 32.23824],
          [-121.774, 32.26045],
          [-121.77926, 32.28266],
          [-121.78452, 32.30487],
          [-121.78978, 32.32708],
          [-121.79504, 32.34929],
          [-121.80031, 32.3715],
          [-121.77928, 32.39815],
          [-121.75824, 32.42479],
          [-121.7635, 32.447],
          [-121.74245, 32.47364],
          [-121.77403, 32.4914],
          [-121.75297, 32.51804],
          [-121.7319, 32.54468],
          [-121.71082, 32.57131],
          [-121.71608, 32.59351],
          [-121.72134, 32.6157],
          [-121.72661, 32.6379],
          [-121.75823, 32.65565],
          [-121.7635, 32.67785],
          [-121.76878, 32.70003],
          [-121.77405, 32.72222],
          [-121.77933, 32.74441],
          [-121.78461, 32.7666],
          [-121.78989, 32.78878],
          [-121.79518, 32.81096],
          [-121.80046, 32.83315],
          [-121.80575, 32.85533],
          [-121.81104, 32.8775],
          [-121.78992, 32.90412],
          [-121.79521, 32.9263],
          [-121.8005, 32.94848],
          [-121.8058, 32.97065],
          [-121.78466, 32.99726],
          [-121.78995, 33.01943],
          [-121.79525, 33.0416],
          [-121.80054, 33.06377],
          [-121.80584, 33.08594],
          [-121.81114, 33.10811],
          [-121.81645, 33.13027],
          [-121.82175, 33.15243],
          [-121.82706, 33.1746],
          [-121.83237, 33.19676],
          [-121.83768, 33.21891],
          [-121.84299, 33.24107],
          [-121.87481, 33.25878],
          [-121.88013, 33.28093],
          [-121.88545, 33.30309],
          [-121.89078, 33.32524],
          [-121.89611, 33.34739],
          [-121.90144, 33.36953],
          [-121.9333, 33.38722],
          [-121.93864, 33.40937],
          [-121.94398, 33.43151],
          [-121.94932, 33.45365],
          [-121.95467, 33.47579],
          [-121.96002, 33.49793],
          [-121.96537, 33.52007],
          [-121.97072, 33.5422],
          [-122.00264, 33.55987],
          [-122.008, 33.582],
          [-122.01337, 33.60413],
          [-122.04531, 33.62179],
          [-122.05068, 33.64392],
          [-122.05605, 33.66604],
          [-122.06143, 33.68816],
          [-122.06681, 33.71029],
          [-122.09879, 33.72793],
          [-122.10418, 33.75004],
          [-122.10957, 33.77216],
          [-122.11496, 33.79428],
          [-122.12036, 33.81639],
          [-122.12576, 33.8385],
          [-122.13116, 33.86061],
          [-122.13656, 33.88272],
          [-122.14196, 33.90483],
          [-122.14737, 33.92693],
          [-122.15277, 33.94904],
          [-122.15818, 33.97114],
          [-122.1636, 33.99324],
          [-122.19567, 34.01085],
          [-122.20109, 34.03295],
          [-122.20652, 34.05504],
          [-122.21194, 34.07714],
          [-122.21737, 34.09923],
          [-122.2228, 34.12132],
          [-122.22823, 34.14341],
          [-122.23367, 34.1655],
          [-122.2658, 34.18308],
          [-122.29795, 34.20066],
          [-122.3034, 34.22274],
          [-122.33556, 34.24031],
          [-122.34102, 34.26239],
          [-122.3732, 34.27995],
          [-122.37867, 34.30202],
          [-122.41086, 34.31957],
          [-122.44307, 34.33712],
          [-122.44855, 34.35919],
          [-122.48078, 34.37672],
          [-122.48627, 34.39878],
          [-122.49177, 34.42084],
          [-122.49727, 34.44291],
          [-122.52953, 34.46043],
          [-122.53504, 34.48248],
          [-122.54055, 34.50454],
          [-122.54606, 34.52659],
          [-122.55158, 34.54864],
          [-122.58387, 34.56615],
          [-122.5894, 34.58819],
          [-122.59492, 34.61024],
          [-122.60045, 34.63228],
          [-122.63278, 34.64977],
          [-122.63832, 34.67181],
          [-122.64386, 34.69385],
          [-122.6494, 34.71589],
          [-122.65495, 34.73792],
          [-122.6605, 34.75996],
          [-122.66605, 34.78199],
          [-122.6716, 34.80402],
          [-122.67715, 34.82605],
          [-122.68271, 34.84808],
          [-122.71511, 34.86554],
          [-122.72068, 34.88756],
          [-122.7531, 34.90501],
          [-122.75867, 34.92703],
          [-122.76425, 34.94905],
          [-122.76983, 34.97106],
          [-122.77541, 34.99308],
          [-122.80787, 35.01051],
          [-122.81346, 35.03252],
          [-122.81906, 35.05453],
          [-122.82465, 35.07653],
          [-122.85714, 35.09395],
          [-122.86275, 35.11596],
          [-122.86836, 35.13796],
          [-122.87397, 35.15995],
          [-122.87958, 35.18195],
          [-122.88519, 35.20395],
          [-122.86389, 35.23053],
          [-122.8695, 35.25252],
          [-122.87512, 35.27451],
          [-122.88074, 35.2965],
          [-122.9133, 35.31389],
          [-122.91893, 35.33588],
          [-122.92456, 35.35786],
          [-122.93019, 35.37984],
          [-122.93583, 35.40182],
          [-122.94146, 35.42379],
          [-122.9471, 35.44577],
          [-122.95274, 35.46774],
          [-122.9314, 35.49431],
          [-122.93704, 35.51628],
          [-122.94269, 35.53825],
          [-122.94833, 35.56021],
          [-122.95398, 35.58218],
          [-122.93262, 35.60873],
          [-122.93826, 35.63069],
          [-122.97094, 35.64806],
          [-122.97659, 35.67002],
          [-122.98225, 35.69197],
          [-122.98791, 35.71393],
          [-122.96653, 35.74047],
          [-122.97219, 35.76242],
          [-122.97786, 35.78437],
          [-122.98352, 35.80632],
          [-122.98919, 35.82826],
          [-122.99486, 35.85021],
          [-123.00053, 35.87215],
          [-123.03328, 35.88949],
          [-123.03897, 35.91142],
          [-123.01756, 35.93796],
          [-123.02324, 35.95989],
          [-123.02892, 35.98182],
          [-123.03461, 36.00375],
          [-123.0403, 36.02568],
          [-123.0731, 36.043],
          [-123.0788, 36.06493],
          [-123.0845, 36.08685],
          [-123.0902, 36.10877],
          [-123.09591, 36.13068],
          [-123.10161, 36.1526],
          [-123.10732, 36.17451],
          [-123.11303, 36.19643],
          [-123.1459, 36.21372],
          [-123.15162, 36.23563],
          [-123.15734, 36.25754],
          [-123.19024, 36.27482],
          [-123.19597, 36.29672],
          [-123.20171, 36.31862],
          [-123.20744, 36.34052],
          [-123.21318, 36.36241],
          [-123.21893, 36.3843],
          [-123.25187, 36.40157],
          [-123.25762, 36.42346],
          [-123.26337, 36.44534],
          [-123.26913, 36.46723],
          [-123.27489, 36.48911],
          [-123.28065, 36.51099],
          [-123.28641, 36.53287],
          [-123.29218, 36.55475],
          [-123.29795, 36.57662],
          [-123.30372, 36.5985],
          [-123.30949, 36.62037],
          [-123.34252, 36.6376],
          [-123.3483, 36.65946],
          [-123.35409, 36.68133],
          [-123.38714, 36.69855],
          [-123.39293, 36.72041],
          [-123.39873, 36.74226],
          [-123.40453, 36.76412],
          [-123.41033, 36.78597],
          [-123.41614, 36.80782],
          [-123.44924, 36.82502],
          [-123.45505, 36.84687],
          [-123.46087, 36.86871],
          [-123.46669, 36.89056],
          [-123.47251, 36.9124],
          [-123.47833, 36.93424],
          [-123.48416, 36.95607],
          [-123.51732, 36.97325],
          [-123.52315, 36.99508],
          [-123.52899, 37.01691],
          [-123.53483, 37.03874],
          [-123.54067, 37.06056],
          [-123.54652, 37.08239],
          [-123.55237, 37.10421],
          [-123.53085, 37.13069],
          [-123.5367, 37.15251],
          [-123.54255, 37.17432],
          [-123.5484, 37.19614],
          [-123.55425, 37.21795],
          [-123.56011, 37.23976],
          [-123.53857, 37.26623],
          [-123.54442, 37.28803],
          [-123.55028, 37.30984],
          [-123.52873, 37.3363],
          [-123.53458, 37.3581],
          [-123.51301, 37.38455],
          [-123.51887, 37.40635],
          [-123.52473, 37.42814],
          [-123.53059, 37.44993],
          [-123.509, 37.47638],
          [-123.51486, 37.49816],
          [-123.52073, 37.51995],
          [-123.52659, 37.54173],
          [-123.50498, 37.56817],
          [-123.51085, 37.58995],
          [-123.48922, 37.61637],
          [-123.49509, 37.63815],
          [-123.47345, 37.66457],
          [-123.47932, 37.68634],
          [-123.48518, 37.70811],
          [-123.49105, 37.72988],
          [-123.49692, 37.75164],
          [-123.5028, 37.77341],
          [-123.50867, 37.79517],
          [-123.48701, 37.82157],
          [-123.49288, 37.84333],
          [-123.49876, 37.86508],
          [-123.50464, 37.88684],
          [-123.51053, 37.90859],
          [-123.51641, 37.93034],
          [-123.49472, 37.95673],
          [-123.50061, 37.97847],
          [-123.50649, 38.00021],
          [-123.51238, 38.02195],
          [-123.49067, 38.04833],
          [-123.49656, 38.07007],
          [-123.50245, 38.0918],
          [-123.50835, 38.11354],
          [-123.51424, 38.13527],
          [-123.49251, 38.16163],
          [-123.4984, 38.18336],
          [-123.5043, 38.20508],
          [-123.48255, 38.23144],
          [-123.48845, 38.25316],
          [-123.49435, 38.27487],
          [-123.50025, 38.29659],
          [-123.50616, 38.3183],
          [-123.51206, 38.34001],
          [-123.49029, 38.36635],
          [-123.4962, 38.38806],
          [-123.5021, 38.40976],
          [-123.50802, 38.43147],
          [-123.48622, 38.45779],
          [-123.49213, 38.47949],
          [-123.49804, 38.50119],
          [-123.50396, 38.52288],
          [-123.48215, 38.5492],
          [-123.48806, 38.57089],
          [-123.49398, 38.59258],
          [-123.4999, 38.61426],
          [-123.53358, 38.63131],
          [-123.53951, 38.65299],
          [-123.51767, 38.6793],
          [-123.5236, 38.70098],
          [-123.52953, 38.72265],
          [-123.53547, 38.74432],
          [-123.54141, 38.76599],
          [-123.54735, 38.78765],
          [-123.58109, 38.80468],
          [-123.58704, 38.82635],
          [-123.59299, 38.848],
          [-123.59894, 38.86966],
          [-123.6049, 38.89131],
          [-123.63868, 38.90832],
          [-123.64465, 38.92997],
          [-123.65062, 38.95162],
          [-123.65659, 38.97326],
          [-123.66257, 38.9949],
          [-123.69639, 39.0119],
          [-123.70238, 39.03353],
          [-123.70836, 39.05517],
          [-123.71435, 39.0768],
          [-123.72035, 39.09843],
          [-123.72634, 39.12005],
          [-123.76022, 39.13702],
          [-123.76622, 39.15864],
          [-123.77223, 39.18026],
          [-123.77824, 39.20188],
          [-123.75635, 39.22815],
          [-123.76236, 39.24976],
          [-123.76837, 39.27137],
          [-123.77439, 39.29298],
          [-123.78041, 39.31458],
          [-123.78643, 39.33619],
          [-123.79245, 39.35779],
          [-123.79847, 39.37938],
          [-123.8045, 39.40098],
          [-123.78258, 39.42723],
          [-123.7886, 39.44882],
          [-123.79463, 39.47041],
          [-123.80067, 39.49199],
          [-123.8067, 39.51358],
          [-123.78475, 39.53981],
          [-123.79079, 39.56139],
          [-123.79682, 39.58297],
          [-123.80286, 39.60454],
          [-123.83691, 39.62146],
          [-123.84296, 39.64303],
          [-123.84901, 39.66459],
          [-123.88308, 39.68149],
          [-123.88914, 39.70305],
          [-123.89521, 39.72461],
          [-123.90127, 39.74617],
          [-123.90734, 39.76772],
          [-123.94146, 39.7846],
          [-123.94754, 39.80615],
          [-123.98167, 39.82302],
          [-123.98776, 39.84456],
          [-123.99386, 39.8661],
          [-124.02802, 39.88296],
          [-124.03412, 39.9045],
          [-124.04023, 39.92603],
          [-124.07442, 39.94287],
          [-124.08053, 39.9644],
          [-124.11474, 39.98123],
          [-124.12087, 40.00275],
          [-124.127, 40.02427],
          [-124.16123, 40.04108],
          [-124.16738, 40.0626],
          [-124.17352, 40.08411],
          [-124.17966, 40.10561],
          [-124.18581, 40.12712],
          [-124.19196, 40.14862],
          [-124.16998, 40.17482],
          [-124.14799, 40.20102],
          [-124.12598, 40.2272],
          [-124.09783, 40.23189],
          [-124.0758, 40.25807],
          [-124.04764, 40.26275],
          [-124.01947, 40.26742],
          [-123.9913, 40.27209],
          [-123.96313, 40.27676],
          [-123.93495, 40.28142],
          [-123.90677, 40.28608],
          [-123.88469, 40.31222],
          [-123.8565, 40.31687],
          [-123.82831, 40.32152],
          [-123.8062, 40.34765],
          [-123.778, 40.35228],
          [-123.78408, 40.37377],
          [-123.76194, 40.39989],
          [-123.7398, 40.42601],
          [-123.71764, 40.45211],
          [-123.72372, 40.4736],
          [-123.70154, 40.4997],
          [-123.70762, 40.52117],
          [-123.71369, 40.54265],
          [-123.6915, 40.56874],
          [-123.69758, 40.59021],
          [-123.70366, 40.61168],
          [-123.70973, 40.63314],
          [-123.68753, 40.65922],
          [-123.6936, 40.68068],
          [-123.69969, 40.70213],
          [-123.67746, 40.7282],
          [-123.65522, 40.75426],
          [-123.6269, 40.75886],
          [-123.60465, 40.78491],
          [-123.58238, 40.81095],
          [-123.58844, 40.83239],
          [-123.56616, 40.85843],
          [-123.57223, 40.87987],
          [-123.5783, 40.90131],
          [-123.556, 40.92733],
          [-123.56206, 40.94876],
          [-123.53975, 40.97478],
          [-123.51742, 41.00078],
          [-123.52349, 41.02221],
          [-123.50115, 41.04821],
          [-123.4788, 41.0742],
          [-123.45643, 41.10019],
          [-123.42801, 41.10475],
          [-123.40563, 41.13072],
          [-123.38323, 41.15669],
          [-123.35479, 41.16124],
          [-123.33237, 41.18719],
          [-123.33841, 41.20861],
          [-123.31598, 41.23455],
          [-123.29354, 41.2605],
          [-123.29957, 41.2819],
          [-123.27712, 41.30783],
          [-123.25465, 41.33376],
          [-123.26068, 41.35516],
          [-123.2382, 41.38108],
          [-123.24423, 41.40247],
          [-123.22174, 41.42838],
          [-123.22776, 41.44976],
          [-123.20525, 41.47566],
          [-123.18273, 41.50156],
          [-123.15418, 41.50607],
          [-123.13164, 41.53195],
          [-123.10308, 41.53645],
          [-123.08052, 41.56232],
          [-123.05195, 41.56681],
          [-123.02937, 41.59267],
          [-123.00678, 41.61853],
          [-122.98417, 41.64437],
          [-122.96156, 41.67022],
          [-122.93893, 41.69605],
          [-122.9163, 41.72188],
          [-122.89365, 41.7477],
          [-122.87099, 41.77352],
          [-122.87696, 41.79487],
          [-122.85428, 41.82068],
          [-122.8316, 41.84648],
          [-122.8089, 41.87227],
          [-122.78619, 41.89806],
          [-122.76346, 41.92384],
          [-122.74073, 41.94961],
          [-122.71203, 41.95404],
          [-122.68334, 41.95846],
          [-122.65463, 41.96288],
          [-122.62593, 41.96729],
          [-122.5913, 41.95035],
          [-122.5626, 41.95476],
          [-122.53389, 41.95915],
          [-122.50519, 41.96355],
          [-122.48238, 41.98928],
          [-122.45366, 41.99367],
          [-122.45956, 42.01501],
          [-122.43673, 42.04073],
          [-122.44262, 42.06207],
          [-122.41978, 42.08778],
          [-122.42567, 42.10911],
          [-122.43157, 42.13044],
          [-122.43747, 42.15177],
          [-122.44337, 42.1731],
          [-122.44928, 42.19442],
          [-122.45519, 42.21574],
          [-122.43231, 42.24143],
          [-122.43822, 42.26274],
          [-122.44413, 42.28405],
          [-122.45004, 42.30536],
          [-122.45596, 42.32666],
          [-122.43305, 42.35234],
          [-122.43897, 42.37364],
          [-122.44488, 42.39493],
          [-122.42196, 42.4206],
          [-122.42788, 42.44189],
          [-122.40494, 42.46754],
          [-122.41086, 42.48882],
          [-122.3879, 42.51447],
          [-122.36494, 42.54011],
          [-122.37085, 42.56138],
          [-122.34787, 42.58701],
          [-122.32488, 42.61263],
          [-122.29597, 42.61697],
          [-122.27296, 42.64258],
          [-122.24994, 42.66819],
          [-122.2269, 42.69378],
          [-122.19797, 42.69811],
          [-122.16904, 42.70243],
          [-122.1401, 42.70675],
          [-122.1053, 42.68979],
          [-122.0705, 42.67283],
          [-122.03572, 42.65586],
          [-122.00096, 42.63888],
          [-121.97203, 42.64317],
          [-121.93728, 42.62618],
          [-121.90835, 42.63046],
          [-121.87942, 42.63474],
          [-121.85049, 42.63902],
          [-121.82156, 42.64328],
          [-121.79263, 42.64755],
          [-121.76369, 42.65181],
          [-121.73475, 42.65606],
          [-121.71159, 42.6816],
          [-121.68263, 42.68584],
          [-121.65945, 42.71136],
          [-121.63625, 42.73688],
          [-121.61304, 42.76239],
          [-121.58982, 42.78789],
          [-121.56084, 42.79211],
          [-121.5376, 42.8176],
          [-121.51434, 42.84309],
          [-121.52009, 42.86435],
          [-121.49682, 42.88983],
          [-121.50257, 42.91108],
          [-121.47928, 42.93655],
          [-121.48503, 42.9578],
          [-121.46173, 42.98326],
          [-121.46747, 43.00451],
          [-121.44416, 43.02995],
          [-121.42083, 43.05539],
          [-121.39749, 43.08082],
          [-121.36841, 43.08501],
          [-121.33933, 43.08919],
          [-121.31596, 43.11461],
          [-121.28687, 43.11878],
          [-121.25207, 43.10171],
          [-121.21728, 43.08463],
          [-121.18819, 43.08878],
          [-121.1591, 43.09294],
          [-121.12433, 43.07584],
          [-121.09523, 43.07998],
          [-121.06048, 43.06287],
          [-121.03139, 43.067],
          [-121.0023, 43.07113],
          [-120.9732, 43.07526],
          [-120.94411, 43.07938],
          [-120.91501, 43.08349],
          [-120.88591, 43.0876],
          [-120.8568, 43.09171],
          [-120.8277, 43.09581],
          [-120.79859, 43.09991],
          [-120.76948, 43.104],
          [-120.74036, 43.10809],
          [-120.71125, 43.11217],
          [-120.67655, 43.09499],
          [-120.64743, 43.09906],
          [-120.61831, 43.10313],
          [-120.58363, 43.08593],
          [-120.56007, 43.11125],
          [-120.53095, 43.11531],
          [-120.50182, 43.11936],
          [-120.47269, 43.1234],
          [-120.44356, 43.12744],
          [-120.41443, 43.13148],
          [-120.38529, 43.13551],
          [-120.35615, 43.13953],
          [-120.32701, 43.14356],
          [-120.29787, 43.14757],
          [-120.26872, 43.15158],
          [-120.23957, 43.15559],
          [-120.21042, 43.1596],
          [-120.18127, 43.16359],
          [-120.15212, 43.16759],
          [-120.12296, 43.17158],
          [-120.0938, 43.17556],
          [-120.07009, 43.2008],
          [-120.04092, 43.20478],
          [-120.01175, 43.20875],
          [-119.98801, 43.23398],
          [-119.95883, 43.23794],
          [-119.93507, 43.26316],
          [-119.90588, 43.26711],
          [-119.8821, 43.29231],
          [-119.8529, 43.29626],
          [-119.82369, 43.3002],
          [-119.79988, 43.32539],
          [-119.77066, 43.32932],
          [-119.74144, 43.33324],
          [-119.71222, 43.33716],
          [-119.68299, 43.34108],
          [-119.65914, 43.36624],
          [-119.62991, 43.37015],
          [-119.60067, 43.37405],
          [-119.57143, 43.37795],
          [-119.54219, 43.38184],
          [-119.51294, 43.38573],
          [-119.48903, 43.41086],
          [-119.45978, 43.41474],
          [-119.43052, 43.41862],
          [-119.40126, 43.42249],
          [-119.37732, 43.4476],
          [-119.34804, 43.45146],
          [-119.32408, 43.47657],
          [-119.2948, 43.48042],
          [-119.26551, 43.48427],
          [-119.24152, 43.50936],
          [-119.21223, 43.51319],
          [-119.18821, 43.53827],
          [-119.16419, 43.56334],
          [-119.13487, 43.56717],
          [-119.11083, 43.59222],
          [-119.08677, 43.61728],
          [-119.05743, 43.62109],
          [-119.03335, 43.64613],
          [-119.00926, 43.67116],
          [-118.98516, 43.69619],
          [-118.96104, 43.72121],
          [-118.93167, 43.72499],
          [-118.90753, 43.75],
          [-118.88338, 43.775],
          [-118.85922, 43.79999],
          [-118.82983, 43.80377],
          [-118.80564, 43.82875],
          [-118.77624, 43.83251],
          [-118.75203, 43.85748],
          [-118.72782, 43.88244],
          [-118.69839, 43.88619],
          [-118.67415, 43.91114],
          [-118.64472, 43.91488],
          [-118.6499, 43.93608],
          [-118.62564, 43.96102],
          [-118.63083, 43.98222],
          [-118.60655, 44.00715],
          [-118.61174, 44.02834],
          [-118.58744, 44.05326],
          [-118.59262, 44.07444],
          [-118.56831, 44.09935],
          [-118.57349, 44.12053],
          [-118.54917, 44.14543],
          [-118.55435, 44.1666],
          [-118.53, 44.19149],
          [-118.50565, 44.21637],
          [-118.47611, 44.22007],
          [-118.45173, 44.24494],
          [-118.42219, 44.24864],
          [-118.39779, 44.27349],
          [-118.36823, 44.27718],
          [-118.33867, 44.28086],
          [-118.30911, 44.28454],
          [-118.27442, 44.26704],
          [-118.24486, 44.27071],
          [-118.2153, 44.27437],
          [-118.18573, 44.27803],
          [-118.15617, 44.28169],
          [-118.1266, 44.28533],
          [-118.10211, 44.31015],
          [-118.07253, 44.31379],
          [-118.04295, 44.31742],
          [-118.01844, 44.34222],
          [-117.98885, 44.34584],
          [-117.96431, 44.37063],
          [-117.93977, 44.3954],
          [-117.91521, 44.42017],
          [-117.89064, 44.44493],
          [-117.86101, 44.44853],
          [-117.83642, 44.47328],
          [-117.81181, 44.49803],
          [-117.79551, 44.5]
        ]
      }
    },
    {
      "type": "Feature",
      "id": "2026091312_f216_11000_001",
      "properties": {
        "product_id": "winter_storm_levels",
        "source_id": "nbm_snow_level",
        "parameter": "snow_level",
        "definition": "height of the wet-bulb 0.5 degree C surface",
        "level_ft_msl": 11000,
        "label": "11,000 ft MSL",
        "unit": "ft_msl",
        "cycle_time_utc": "2026-09-13T12:00:00Z",
        "valid_time_utc": "2026-09-22T12:00:00Z",
        "lead_hours": 216,
        "segment": 1,
        "length_m": 1996204.1
      },
      "geometry": {
        "type": "LineString",
        "coordinates": [
          [-116.45397, 30.19269],
          [-116.45433, 30.1946],
          [-116.45847, 30.21706],
          [-116.43881, 30.2405],
          [-116.43663, 30.2431],
          [-116.43964, 30.24499],
          [-116.46677, 30.26198],
          [-116.47093, 30.28443],
          [-116.47394, 30.28632],
          [-116.50109, 30.3033],
          [-116.50525, 30.32575],
          [-116.50941, 30.34821],
          [-116.51358, 30.37066],
          [-116.5166, 30.37254],
          [-116.54377, 30.38951],
          [-116.54794, 30.41196],
          [-116.55211, 30.43441],
          [-116.53243, 30.45785],
          [-116.53025, 30.46046],
          [-116.53442, 30.48291],
          [-116.53859, 30.50535],
          [-116.54277, 30.5278],
          [-116.54694, 30.55024],
          [-116.55112, 30.57269],
          [-116.5553, 30.59513],
          [-116.55948, 30.61757],
          [-116.56367, 30.64001],
          [-116.56785, 30.66245],
          [-116.57204, 30.68489],
          [-116.55232, 30.70832],
          [-116.55013, 30.71093],
          [-116.55431, 30.73336],
          [-116.5585, 30.7558],
          [-116.56269, 30.77824],
          [-116.54295, 30.80166],
          [-116.54076, 30.80427],
          [-116.54494, 30.8267],
          [-116.54913, 30.84913],
          [-116.55332, 30.87156],
          [-116.55751, 30.894],
          [-116.5617, 30.91642],
          [-116.56474, 30.91831],
          [-116.59204, 30.93525],
          [-116.59625, 30.95768],
          [-116.60045, 30.98011],
          [-116.60465, 31.00253],
          [-116.60886, 31.02495],
          [-116.61306, 31.04738],
          [-116.61727, 31.0698],
          [-116.62148, 31.09222],
          [-116.6257, 31.11464],
          [-116.62991, 31.13706],
          [-116.63412, 31.15947],
          [-116.63834, 31.18189],
          [-116.64256, 31.20431],
          [-116.64678, 31.22672],
          [-116.651, 31.24913],
          [-116.65523, 31.27154],
          [-116.65945, 31.29396],
          [-116.66368, 31.31637],
          [-116.66791, 31.33877],
          [-116.67214, 31.36118],
          [-116.67637, 31.38359],
          [-116.6806, 31.40599],
          [-116.68484, 31.4284],
          [-116.68907, 31.4508],
          [-116.69331, 31.4732],
          [-116.69636, 31.47508],
          [-116.72382, 31.49198],
          [-116.70399, 31.5154],
          [-116.70179, 31.518],
          [-116.70603, 31.5404],
          [-116.71028, 31.5628],
          [-116.71453, 31.58519],
          [-116.71877, 31.60759],
          [-116.72302, 31.62998],
          [-116.72727, 31.65237],
          [-116.73153, 31.67477],
          [-116.73578, 31.69716],
          [-116.74004, 31.71955],
          [-116.7443, 31.74193],
          [-116.74856, 31.76432],
          [-116.75282, 31.78671],
          [-116.75708, 31.80909],
          [-116.76134, 31.83147],
          [-116.76561, 31.85386],
          [-116.76988, 31.87624],
          [-116.77415, 31.89862],
          [-116.77721, 31.90049],
          [-116.80478, 31.91737],
          [-116.80906, 31.93974],
          [-116.81334, 31.96212],
          [-116.81762, 31.98449],
          [-116.8219, 32.00687],
          [-116.82619, 32.02924],
          [-116.83048, 32.05161],
          [-116.83476, 32.07398],
          [-116.83905, 32.09635],
          [-116.84334, 32.11871],
          [-116.84764, 32.14108],
          [-116.82773, 32.16448],
          [-116.82551, 32.16708],
          [-116.8298, 32.18944],
          [-116.8341, 32.2118],
          [-116.81417, 32.2352],
          [-116.81196, 32.23779],
          [-116.81625, 32.26016],
          [-116.82054, 32.28251],
          [-116.8006, 32.3059],
          [-116.79838, 32.3085],
          [-116.80267, 32.33086],
          [-116.80697, 32.35321],
          [-116.78701, 32.3766],
          [-116.78479, 32.37919],
          [-116.78908, 32.40155],
          [-116.79338, 32.4239],
          [-116.79767, 32.44625],
          [-116.77769, 32.46963],
          [-116.77547, 32.47223],
          [-116.77977, 32.49457],
          [-116.78406, 32.51692],
          [-116.78836, 32.53927],
          [-116.79266, 32.56161],
          [-116.77266, 32.58498],
          [-116.77044, 32.58758],
          [-116.77473, 32.60992],
          [-116.77903, 32.63226],
          [-116.78333, 32.65461],
          [-116.78763, 32.67694],
          [-116.79194, 32.69928],
          [-116.79502, 32.70115],
          [-116.82279, 32.71799],
          [-116.8271, 32.74033],
          [-116.83141, 32.76266],
          [-116.83573, 32.78499],
          [-116.84004, 32.80733],
          [-116.84313, 32.8092],
          [-116.87093, 32.82602],
          [-116.87526, 32.84835],
          [-116.87959, 32.87068],
          [-116.88391, 32.893],
          [-116.88824, 32.91533],
          [-116.89134, 32.91719],
          [-116.91917, 32.93401],
          [-116.92351, 32.95633],
          [-116.92785, 32.97865],
          [-116.93094, 32.98052],
          [-116.9588, 32.99732],
          [-116.96315, 33.01964],
          [-116.96625, 33.0215],
          [-116.99412, 33.0383],
          [-116.99847, 33.06061],
          [-117.00157, 33.06248],
          [-117.02946, 33.07927],
          [-117.03256, 33.08113],
          [-117.06045, 33.09792],
          [-117.06483, 33.12022],
          [-117.06793, 33.12209],
          [-117.09584, 33.13886],
          [-117.09894, 33.14073],
          [-117.12686, 33.1575],
          [-117.13125, 33.1798],
          [-117.13435, 33.18166],
          [-117.16229, 33.19842],
          [-117.16669, 33.22072],
          [-117.16979, 33.22258],
          [-117.19774, 33.23934],
          [-117.20215, 33.26163],
          [-117.20525, 33.26349],
          [-117.23322, 33.28024],
          [-117.23633, 33.2821],
          [-117.2643, 33.29884],
          [-117.26872, 33.32113],
          [-117.27315, 33.34342],
          [-117.27757, 33.36571],
          [-117.282, 33.38799],
          [-117.28511, 33.38985],
          [-117.31312, 33.40658],
          [-117.31755, 33.42886],
          [-117.32199, 33.45114],
          [-117.32642, 33.47342],
          [-117.33086, 33.4957],
          [-117.3353, 33.51797],
          [-117.31525, 33.54135],
          [-117.31302, 33.54395],
          [-117.31746, 33.56622],
          [-117.3219, 33.5885],
          [-117.32635, 33.61077],
          [-117.32947, 33.61262],
          [-117.35754, 33.62933],
          [-117.36199, 33.6516],
          [-117.36644, 33.67387],
          [-117.36956, 33.67572],
          [-117.39766, 33.69242],
          [-117.40212, 33.71468],
          [-117.40658, 33.73694],
          [-117.40971, 33.7388],
          [-117.43782, 33.75549],
          [-117.44229, 33.77774],
          [-117.44542, 33.7796],
          [-117.47355, 33.79628],
          [-117.47803, 33.81853],
          [-117.48251, 33.84079],
          [-117.487, 33.86304],
          [-117.49012, 33.86489],
          [-117.51828, 33.88156],
          [-117.52278, 33.90381],
          [-117.52727, 33.92605],
          [-117.53177, 33.9483],
          [-117.53627, 33.97054],
          [-117.5394, 33.97239],
          [-117.56759, 33.98905],
          [-117.5721, 34.01128],
          [-117.57661, 34.03352],
          [-117.58112, 34.05576],
          [-117.58563, 34.07799],
          [-117.58877, 34.07984],
          [-117.61699, 34.09648],
          [-117.62152, 34.11872],
          [-117.62465, 34.12056],
          [-117.6529, 34.1372],
          [-117.65743, 34.15942],
          [-117.66056, 34.16127],
          [-117.68882, 34.1779],
          [-117.69336, 34.20012],
          [-117.6979, 34.22234],
          [-117.70104, 34.22419],
          [-117.72932, 34.24081],
          [-117.73247, 34.24265],
          [-117.75934, 34.23889],
          [-117.78763, 34.25549],
          [-117.79078, 34.25734],
          [-117.81766, 34.25357],
          [-117.84596, 34.27016],
          [-117.84911, 34.272],
          [-117.87599, 34.26822],
          [-117.9043, 34.2848],
          [-117.90889, 34.30702],
          [-117.91204, 34.30886],
          [-117.94037, 34.32543],
          [-117.94496, 34.34764],
          [-117.94956, 34.36984],
          [-117.95416, 34.39205],
          [-117.93408, 34.41544],
          [-117.93185, 34.41804],
          [-117.93645, 34.44024],
          [-117.91635, 34.46364],
          [-117.91412, 34.46623],
          [-117.91872, 34.48843],
          [-117.92331, 34.51063],
          [-117.92791, 34.53282],
          [-117.93251, 34.55502],
          [-117.93712, 34.57721],
          [-117.94172, 34.5994],
          [-117.94488, 34.60124],
          [-117.97329, 34.61779],
          [-117.95317, 34.64118],
          [-117.95094, 34.64377],
          [-117.95555, 34.66596],
          [-117.93542, 34.68934],
          [-117.93318, 34.69193],
          [-117.91304, 34.71531],
          [-117.88605, 34.71909],
          [-117.88382, 34.72168],
          [-117.88842, 34.74387],
          [-117.86826, 34.76723],
          [-117.86602, 34.76982],
          [-117.87062, 34.792],
          [-117.87522, 34.81418],
          [-117.87982, 34.83636],
          [-117.88442, 34.85853],
          [-117.88759, 34.86037],
          [-117.91605, 34.87692],
          [-117.92067, 34.89909],
          [-117.92383, 34.90093],
          [-117.95232, 34.91747],
          [-117.95694, 34.93964],
          [-117.96156, 34.9618],
          [-117.96619, 34.98396],
          [-117.97082, 35.00612],
          [-117.97544, 35.02828],
          [-117.98008, 35.05044],
          [-117.98325, 35.05228],
          [-118.01178, 35.0688],
          [-118.01642, 35.09096],
          [-118.02106, 35.11311],
          [-118.0257, 35.13526],
          [-118.03035, 35.15741],
          [-118.03352, 35.15924],
          [-118.06209, 35.17575],
          [-118.06674, 35.19789],
          [-118.0714, 35.22004],
          [-118.07458, 35.22187],
          [-118.10317, 35.23837],
          [-118.10634, 35.2402],
          [-118.13494, 35.2567],
          [-118.13812, 35.25853],
          [-118.16673, 35.27502],
          [-118.16991, 35.27685],
          [-118.19853, 35.29333],
          [-118.20171, 35.29516],
          [-118.22882, 35.29133],
          [-118.25745, 35.3078],
          [-118.26064, 35.30963],
          [-118.28775, 35.30579],
          [-118.3164, 35.32225],
          [-118.32111, 35.34438],
          [-118.32429, 35.34621],
          [-118.35295, 35.36266],
          [-118.35614, 35.36448],
          [-118.3848, 35.38093],
          [-118.38799, 35.38275],
          [-118.41512, 35.3789],
          [-118.4438, 35.39533],
          [-118.44854, 35.41745],
          [-118.45173, 35.41927],
          [-118.48043, 35.4357],
          [-118.48362, 35.43752],
          [-118.51232, 35.45394],
          [-118.51551, 35.45576],
          [-118.54423, 35.47217],
          [-118.54899, 35.49428],
          [-118.55218, 35.4961],
          [-118.58092, 35.51251],
          [-118.58569, 35.53461],
          [-118.58888, 35.53643],
          [-118.61763, 35.55283],
          [-118.62082, 35.55465],
          [-118.64958, 35.57103],
          [-118.65437, 35.59313],
          [-118.65757, 35.59495],
          [-118.68634, 35.61133],
          [-118.69114, 35.63343],
          [-118.69434, 35.63524],
          [-118.72313, 35.65161],
          [-118.72793, 35.6737],
          [-118.73274, 35.69579],
          [-118.73594, 35.69761],
          [-118.76476, 35.71397],
          [-118.76957, 35.73605],
          [-118.74942, 35.75945],
          [-118.74718, 35.76205],
          [-118.75039, 35.76386],
          [-118.77922, 35.78022],
          [-118.78404, 35.8023],
          [-118.78887, 35.82437],
          [-118.79207, 35.82619],
          [-118.82093, 35.84253],
          [-118.82576, 35.8646],
          [-118.8306, 35.88667],
          [-118.83544, 35.90874],
          [-118.84028, 35.93081],
          [-118.84512, 35.95288],
          [-118.84997, 35.97494],
          [-118.85481, 35.997],
          [-118.85966, 36.01906],
          [-118.86451, 36.04112],
          [-118.86773, 36.04293],
          [-118.89665, 36.05925],
          [-118.90151, 36.0813],
          [-118.90637, 36.10335],
          [-118.91123, 36.1254],
          [-118.9161, 36.14745],
          [-118.92097, 36.1695],
          [-118.92584, 36.19154],
          [-118.92906, 36.19335],
          [-118.95803, 36.20965],
          [-118.96125, 36.21146],
          [-118.99023, 36.22775],
          [-118.99511, 36.24979],
          [-118.99834, 36.2516],
          [-119.02566, 36.24765],
          [-119.05466, 36.26393],
          [-119.05788, 36.26574],
          [-119.08689, 36.28201],
          [-119.09012, 36.28382],
          [-119.11913, 36.30008],
          [-119.12405, 36.32211],
          [-119.12728, 36.32391],
          [-119.15631, 36.34017],
          [-119.16124, 36.36219],
          [-119.16446, 36.364],
          [-119.19351, 36.38024],
          [-119.19845, 36.40226],
          [-119.20168, 36.40407],
          [-119.23075, 36.42031],
          [-119.23569, 36.44232],
          [-119.24064, 36.46433],
          [-119.24387, 36.46614],
          [-119.27296, 36.48236],
          [-119.27791, 36.50437],
          [-119.28287, 36.52638],
          [-119.26268, 36.54977],
          [-119.26044, 36.55236],
          [-119.26539, 36.57437],
          [-119.27035, 36.59637],
          [-119.27531, 36.61837],
          [-119.28027, 36.64036],
          [-119.28524, 36.66236],
          [-119.26502, 36.68574],
          [-119.26278, 36.68833],
          [-119.26774, 36.71033],
          [-119.2727, 36.73231],
          [-119.27767, 36.7543],
          [-119.28264, 36.77629],
          [-119.28761, 36.79827],
          [-119.29258, 36.82025],
          [-119.29756, 36.84223],
          [-119.30253, 36.86421],
          [-119.30751, 36.88619],
          [-119.31249, 36.90816],
          [-119.31747, 36.93013],
          [-119.29722, 36.95349],
          [-119.29497, 36.95608],
          [-119.29995, 36.97805],
          [-119.30493, 37.00002],
          [-119.30992, 37.02198],
          [-119.3149, 37.04394],
          [-119.31989, 37.0659],
          [-119.32488, 37.08786],
          [-119.32988, 37.10981],
          [-119.33487, 37.13177],
          [-119.33987, 37.15372],
          [-119.34312, 37.15552],
          [-119.37241, 37.17168],
          [-119.37742, 37.19363],
          [-119.38068, 37.19543],
          [-119.40998, 37.21158],
          [-119.415, 37.23353],
          [-119.39471, 37.25687],
          [-119.39245, 37.25946],
          [-119.39747, 37.2814],
          [-119.40248, 37.30333],
          [-119.38218, 37.32667],
          [-119.37992, 37.32926],
          [-119.3596, 37.35258],
          [-119.35735, 37.35518],
          [-119.33702, 37.3785],
          [-119.33476, 37.38109],
          [-119.31442, 37.40441],
          [-119.28682, 37.40838],
          [-119.25921, 37.41235],
          [-119.25695, 37.41494],
          [-119.23659, 37.43824],
          [-119.20897, 37.4422],
          [-119.2067, 37.44479],
          [-119.18633, 37.46809],
          [-119.18406, 37.47067],
          [-119.18904, 37.4926],
          [-119.16866, 37.51589],
          [-119.14101, 37.51984],
          [-119.13875, 37.52242],
          [-119.11834, 37.5457],
          [-119.09069, 37.54964],
          [-119.06304, 37.55358],
          [-119.06077, 37.55616],
          [-119.04034, 37.57943],
          [-119.01268, 37.58336],
          [-119.01041, 37.58594],
          [-118.98996, 37.6092],
          [-118.96229, 37.61312],
          [-118.96002, 37.6157],
          [-118.93956, 37.63895],
          [-118.93728, 37.64153],
          [-118.91681, 37.66478],
          [-118.91453, 37.66736],
          [-118.89405, 37.6906],
          [-118.89178, 37.69318],
          [-118.87128, 37.71641],
          [-118.84358, 37.72031],
          [-118.8413, 37.72289],
          [-118.82079, 37.74612],
          [-118.79308, 37.75001],
          [-118.76537, 37.75389],
          [-118.73765, 37.75777],
          [-118.70993, 37.76164],
          [-118.70765, 37.76422],
          [-118.71255, 37.78613],
          [-118.692, 37.80934],
          [-118.68971, 37.81191],
          [-118.66916, 37.83511],
          [-118.64142, 37.83898],
          [-118.61367, 37.84283],
          [-118.61139, 37.84541],
          [-118.61627, 37.86732],
          [-118.59568, 37.8905],
          [-118.5934, 37.89308],
          [-118.59828, 37.91498],
          [-118.60316, 37.93688],
          [-118.60804, 37.95878],
          [-118.61293, 37.98068],
          [-118.61782, 38.00258],
          [-118.59721, 38.02575],
          [-118.59492, 38.02832],
          [-118.59981, 38.05021],
          [-118.57918, 38.07338],
          [-118.57689, 38.07595],
          [-118.58178, 38.09784],
          [-118.56114, 38.121],
          [-118.55885, 38.12357],
          [-118.56373, 38.14545],
          [-118.54308, 38.1686],
          [-118.54079, 38.17118],
          [-118.54567, 38.19305],
          [-118.55055, 38.21493],
          [-118.52989, 38.23807],
          [-118.52759, 38.24064],
          [-118.50691, 38.26378],
          [-118.50462, 38.26635],
          [-118.48393, 38.28948],
          [-118.45606, 38.29331],
          [-118.45376, 38.29588],
          [-118.43306, 38.319],
          [-118.40519, 38.32281],
          [-118.40288, 38.32538],
          [-118.38216, 38.34849],
          [-118.35428, 38.3523],
          [-118.32639, 38.3561],
          [-118.2985, 38.3599],
          [-118.27061, 38.3637],
          [-118.24272, 38.36749],
          [-118.21482, 38.37127],
          [-118.18692, 38.37505],
          [-118.18462, 38.37761],
          [-118.16384, 38.4007],
          [-118.13593, 38.40447],
          [-118.10802, 38.40823],
          [-118.10571, 38.4108],
          [-118.08491, 38.43386],
          [-118.0826, 38.43643],
          [-118.06179, 38.45949],
          [-118.03386, 38.46324],
          [-118.03155, 38.46581],
          [-118.01072, 38.48886],
          [-118.0084, 38.49142],
          [-117.98757, 38.51447],
          [-117.98525, 38.51703],
          [-117.99004, 38.53889],
          [-117.96918, 38.56193],
          [-117.96687, 38.56449],
          [-117.946, 38.58753],
          [-117.94369, 38.59009],
          [-117.92281, 38.61312],
          [-117.9205, 38.61568],
          [-117.92527, 38.63753],
          [-117.90439, 38.66055],
          [-117.90206, 38.66311],
          [-117.88117, 38.68613],
          [-117.87885, 38.68869],
          [-117.88362, 38.71053],
          [-117.86271, 38.73354],
          [-117.86039, 38.7361],
          [-117.83947, 38.75911],
          [-117.83714, 38.76166],
          [-117.84191, 38.7835],
          [-117.82098, 38.8065],
          [-117.81865, 38.80906],
          [-117.82341, 38.83089],
          [-117.80247, 38.85389],
          [-117.80014, 38.85644],
          [-117.8049, 38.87827],
          [-117.80966, 38.9001],
          [-117.7887, 38.92309],
          [-117.78637, 38.92564],
          [-117.79113, 38.94747],
          [-117.7959, 38.96929],
          [-117.80066, 38.99111],
          [-117.77968, 39.01408],
          [-117.77735, 39.01664],
          [-117.78211, 39.03845],
          [-117.78688, 39.06027],
          [-117.79017, 39.06208],
          [-117.81975, 39.07838],
          [-117.82303, 39.08019],
          [-117.85262, 39.09648],
          [-117.85591, 39.09829],
          [-117.88551, 39.11457],
          [-117.8903, 39.13638],
          [-117.89359, 39.13819],
          [-117.92321, 39.15446],
          [-117.92801, 39.17626],
          [-117.93281, 39.19806],
          [-117.91182, 39.22102],
          [-117.90949, 39.22358],
          [-117.91429, 39.24537],
          [-117.91909, 39.26716],
          [-117.9239, 39.28895],
          [-117.90288, 39.3119],
          [-117.90055, 39.31445],
          [-117.90535, 39.33624],
          [-117.91015, 39.35802],
          [-117.91496, 39.3798],
          [-117.89393, 39.40274],
          [-117.89159, 39.40529],
          [-117.89639, 39.42706],
          [-117.87534, 39.45],
          [-117.87301, 39.45255],
          [-117.87781, 39.47432],
          [-117.85675, 39.49725],
          [-117.85441, 39.49979],
          [-117.83333, 39.52271],
          [-117.83099, 39.52526],
          [-117.83579, 39.54702],
          [-117.8147, 39.56994],
          [-117.81236, 39.57249],
          [-117.79127, 39.59539],
          [-117.78892, 39.59794],
          [-117.79371, 39.6197],
          [-117.7726, 39.6426],
          [-117.77026, 39.64514],
          [-117.74914, 39.66804],
          [-117.74679, 39.67058],
          [-117.72566, 39.69347],
          [-117.72331, 39.69602],
          [-117.70217, 39.7189],
          [-117.69982, 39.72144],
          [-117.67867, 39.74432],
          [-117.65039, 39.74799],
          [-117.64804, 39.75053],
          [-117.62687, 39.7734],
          [-117.59858, 39.77706],
          [-117.59622, 39.7796],
          [-117.57504, 39.80246],
          [-117.54673, 39.80611],
          [-117.54438, 39.80865],
          [-117.52318, 39.8315],
          [-117.52082, 39.83404],
          [-117.49961, 39.85689],
          [-117.49725, 39.85942],
          [-117.47603, 39.88226],
          [-117.47367, 39.8848],
          [-117.45243, 39.90763],
          [-117.45007, 39.91017],
          [-117.45481, 39.9319],
          [-117.43356, 39.95473],
          [-117.4312, 39.95727],
          [-117.43593, 39.97899],
          [-117.41467, 40.00181],
          [-117.41231, 40.00435],
          [-117.39104, 40.02716],
          [-117.38867, 40.02969],
          [-117.36739, 40.0525],
          [-117.36503, 40.05503],
          [-117.34373, 40.07783],
          [-117.31535, 40.08144],
          [-117.31298, 40.08398],
          [-117.29167, 40.10677],
          [-117.2893, 40.1093],
          [-117.26798, 40.13209],
          [-117.26561, 40.13462],
          [-117.24428, 40.1574],
          [-117.24191, 40.15993],
          [-117.22057, 40.1827],
          [-117.2182, 40.18523],
          [-117.19685, 40.208],
          [-117.19447, 40.21053],
          [-117.17311, 40.23329],
          [-117.17074, 40.23582],
          [-117.14937, 40.25858],
          [-117.12092, 40.26215],
          [-117.11855, 40.26468],
          [-117.09716, 40.28743],
          [-117.09478, 40.28995],
          [-117.07338, 40.31269],
          [-117.04492, 40.31626],
          [-117.04254, 40.31878],
          [-117.02112, 40.34151],
          [-117.01874, 40.34404],
          [-116.99732, 40.36676],
          [-116.99493, 40.36929],
          [-116.9735, 40.39201],
          [-116.97111, 40.39453],
          [-116.94966, 40.41725],
          [-116.92117, 40.42079],
          [-116.91879, 40.42331],
          [-116.89732, 40.44601],
          [-116.86882, 40.44955],
          [-116.86643, 40.45207],
          [-116.84495, 40.47476],
          [-116.81644, 40.47828],
          [-116.81405, 40.48081],
          [-116.79254, 40.50349],
          [-116.79016, 40.50601],
          [-116.76864, 40.52869],
          [-116.74011, 40.5322],
          [-116.71158, 40.5357],
          [-116.68305, 40.5392],
          [-116.65451, 40.5427],
          [-116.62598, 40.54619],
          [-116.59744, 40.54968],
          [-116.59504, 40.55219],
          [-116.57348, 40.57484],
          [-116.54493, 40.57832],
          [-116.54253, 40.58084],
          [-116.52095, 40.60348],
          [-116.49239, 40.60695],
          [-116.46383, 40.61041],
          [-116.46143, 40.61293],
          [-116.43982, 40.63555],
          [-116.43742, 40.63807],
          [-116.4158, 40.66069],
          [-116.4134, 40.6632],
          [-116.39177, 40.68581],
          [-116.38937, 40.68833],
          [-116.36773, 40.71093],
          [-116.36533, 40.71345],
          [-116.34368, 40.73605],
          [-116.34127, 40.73856],
          [-116.34581, 40.76023],
          [-116.35035, 40.7819],
          [-116.3549, 40.80356],
          [-116.35945, 40.82522],
          [-116.36399, 40.84688],
          [-116.36854, 40.86854],
          [-116.3731, 40.89019],
          [-116.35141, 40.91278],
          [-116.349, 40.91528],
          [-116.32731, 40.93786],
          [-116.32489, 40.94037],
          [-116.30319, 40.96294],
          [-116.30078, 40.96545],
          [-116.27906, 40.98801],
          [-116.27665, 40.99052],
          [-116.25492, 41.01308],
          [-116.2525, 41.01558],
          [-116.23077, 41.03814],
          [-116.22835, 41.04064],
          [-116.2066, 41.06319],
          [-116.20418, 41.06569],
          [-116.18242, 41.08823],
          [-116.15372, 41.09164],
          [-116.1513, 41.09414],
          [-116.12952, 41.11667],
          [-116.1271, 41.11918],
          [-116.10531, 41.1417],
          [-116.07659, 41.14509],
          [-116.07417, 41.1476],
          [-116.05236, 41.17011],
          [-116.02363, 41.17349],
          [-116.02121, 41.176],
          [-115.99938, 41.1985],
          [-115.97064, 41.20187],
          [-115.9419, 41.20524],
          [-115.91315, 41.20861],
          [-115.8844, 41.21197],
          [-115.85565, 41.21533],
          [-115.8269, 41.21868],
          [-115.79815, 41.22202],
          [-115.76939, 41.22537],
          [-115.76696, 41.22786],
          [-115.74507, 41.25033],
          [-115.71631, 41.25366],
          [-115.68754, 41.25699],
          [-115.6851, 41.25949],
          [-115.66319, 41.28194],
          [-115.63441, 41.28526],
          [-115.60563, 41.28857],
          [-115.6032, 41.29107],
          [-115.58126, 41.31351],
          [-115.55247, 41.31681],
          [-115.55003, 41.31931],
          [-115.52807, 41.34174],
          [-115.49927, 41.34503],
          [-115.49683, 41.34752],
          [-115.47486, 41.36994],
          [-115.44605, 41.37323],
          [-115.44361, 41.37572],
          [-115.42161, 41.39813],
          [-115.41917, 41.40062],
          [-115.39716, 41.42303],
          [-115.39472, 41.42552],
          [-115.3727, 41.44791],
          [-115.34387, 41.45118],
          [-115.31503, 41.45445],
          [-115.2862, 41.45771],
          [-115.28375, 41.4602],
          [-115.2617, 41.48258],
          [-115.23285, 41.48583],
          [-115.2304, 41.48831],
          [-115.20834, 41.51068],
          [-115.17948, 41.51393],
          [-115.15062, 41.51716],
          [-115.12077, 41.50063],
          [-115.11745, 41.49879],
          [-115.0876, 41.48224],
          [-115.0833, 41.46063],
          [-115.07899, 41.43901],
          [-115.07469, 41.41739],
          [-115.07138, 41.41555],
          [-115.04156, 41.39899],
          [-115.03727, 41.37736],
          [-115.03298, 41.35573],
          [-115.02967, 41.35389],
          [-114.99988, 41.33732],
          [-114.9956, 41.31568],
          [-114.99229, 41.31384],
          [-114.96252, 41.29725],
          [-114.95921, 41.29541],
          [-114.93041, 41.29862],
          [-114.90065, 41.28202],
          [-114.89639, 41.26038],
          [-114.89309, 41.25853],
          [-114.8643, 41.26173],
          [-114.83456, 41.24512],
          [-114.83126, 41.24328],
          [-114.80246, 41.24646],
          [-114.77274, 41.22984],
          [-114.76944, 41.228],
          [-114.74065, 41.23117],
          [-114.71186, 41.23435],
          [-114.68306, 41.23751],
          [-114.65427, 41.24068],
          [-114.62547, 41.24384],
          [-114.59667, 41.24699],
          [-114.56787, 41.25014],
          [-114.53907, 41.25329],
          [-114.51027, 41.25643],
          [-114.48146, 41.25956],
          [-114.479, 41.26204],
          [-114.45682, 41.28435],
          [-114.428, 41.28747],
          [-114.39918, 41.2906],
          [-114.37036, 41.29371],
          [-114.34154, 41.29683],
          [-114.31272, 41.29993],
          [-114.2839, 41.30304],
          [-114.25507, 41.30614],
          [-114.22624, 41.30923],
          [-114.19741, 41.31232],
          [-114.16858, 41.3154],
          [-114.13894, 41.29868],
          [-114.13565, 41.29683],
          [-114.10682, 41.2999],
          [-114.07799, 41.30297],
          [-114.07552, 41.30544],
          [-114.05324, 41.3277],
          [-114.0244, 41.33076],
          [-114.02192, 41.33323],
          [-113.99962, 41.35547],
          [-113.99715, 41.35794],
          [-114.00122, 41.37959],
          [-113.9789, 41.40183],
          [-113.97643, 41.4043],
          [-113.9541, 41.42652],
          [-113.95162, 41.42899],
          [-113.92929, 41.45121],
          [-113.92681, 41.45368],
          [-113.90446, 41.4759],
          [-113.87558, 41.47893],
          [-113.87309, 41.4814],
          [-113.85073, 41.5036],
          [-113.84825, 41.50607],
          [-113.82587, 41.52827],
          [-113.82339, 41.53074],
          [-113.80101, 41.55293],
          [-113.77209, 41.55594],
          [-113.76961, 41.55841],
          [-113.7472, 41.58059],
          [-113.71828, 41.5836],
          [-113.71579, 41.58606],
          [-113.69337, 41.60824],
          [-113.66444, 41.61124],
          [-113.63551, 41.61423],
          [-113.63302, 41.61669],
          [-113.61057, 41.63885],
          [-113.58163, 41.64184],
          [-113.55269, 41.64482],
          [-113.52374, 41.64779],
          [-113.4948, 41.65076],
          [-113.46585, 41.65373],
          [-113.4369, 41.65669],
          [-113.40795, 41.65965],
          [-113.37899, 41.6626],
          [-113.37649, 41.66506],
          [-113.35398, 41.68718],
          [-113.32502, 41.69013],
          [-113.29605, 41.69306],
          [-113.26709, 41.696],
          [-113.23812, 41.69893],
          [-113.23561, 41.70138],
          [-113.21306, 41.72348],
          [-113.18409, 41.7264],
          [-113.15511, 41.72932],
          [-113.1526, 41.73177],
          [-113.13003, 41.75386],
          [-113.10104, 41.75676],
          [-113.07205, 41.75967],
          [-113.04305, 41.76256],
          [-113.04054, 41.76502],
          [-113.01794, 41.78708],
          [-112.98894, 41.78997],
          [-112.95993, 41.79285],
          [-112.95742, 41.7953],
          [-112.93479, 41.81736],
          [-112.90577, 41.82023],
          [-112.87676, 41.8231],
          [-112.87424, 41.82555],
          [-112.85159, 41.84759],
          [-112.84907, 41.85004],
          [-112.8264, 41.87207],
          [-112.82388, 41.87451],
          [-112.80121, 41.89654],
          [-112.79869, 41.89899],
          [-112.776, 41.92101],
          [-112.77347, 41.92345],
          [-112.77731, 41.94506],
          [-112.7546, 41.96707],
          [-112.75208, 41.96952],
          [-112.75591, 41.99112],
          [-112.75974, 42.01273],
          [-112.73701, 42.03472],
          [-112.73449, 42.03717],
          [-112.73831, 42.05877],
          [-112.74214, 42.08036],
          [-112.7194, 42.10235],
          [-112.71687, 42.10479],
          [-112.7207, 42.12638],
          [-112.72452, 42.14797],
          [-112.70176, 42.16994],
          [-112.69923, 42.17239],
          [-112.70306, 42.19397],
          [-112.68028, 42.21594],
          [-112.67775, 42.21838],
          [-112.65496, 42.24034],
          [-112.65243, 42.24278],
          [-112.62963, 42.26474],
          [-112.6271, 42.26718],
          [-112.60429, 42.28913],
          [-112.57513, 42.29194],
          [-112.54597, 42.29475],
          [-112.54343, 42.29719],
          [-112.5206, 42.31912],
          [-112.51806, 42.32156],
          [-112.49521, 42.34349],
          [-112.46604, 42.34629],
          [-112.4635, 42.34872],
          [-112.44063, 42.37064],
          [-112.41145, 42.37343],
          [-112.40891, 42.37586],
          [-112.38602, 42.39777],
          [-112.35683, 42.40055],
          [-112.35428, 42.40298],
          [-112.33138, 42.42488],
          [-112.30218, 42.42765],
          [-112.29963, 42.43008],
          [-112.27671, 42.45197],
          [-112.2475, 42.45473],
          [-112.24495, 42.45716],
          [-112.22201, 42.47904],
          [-112.19279, 42.48179],
          [-112.16356, 42.48454],
          [-112.13434, 42.48728],
          [-112.10511, 42.49001],
          [-112.10256, 42.49244],
          [-112.07958, 42.5143],
          [-112.05034, 42.51702],
          [-112.0211, 42.51975],
          [-112.01855, 42.52217],
          [-112, 42.53979]
        ]
      }
    },
    {
      "type": "Feature",
      "id": "2026091312_f216_12000_001",
      "properties": {
        "product_id": "winter_storm_levels",
        "source_id": "nbm_snow_level",
        "parameter": "snow_level",
        "definition": "height of the wet-bulb 0.5 degree C surface",
        "level_ft_msl": 12000,
        "label": "12,000 ft MSL",
        "unit": "ft_msl",
        "cycle_time_utc": "2026-09-13T12:00:00Z",
        "valid_time_utc": "2026-09-22T12:00:00Z",
        "lead_hours": 216,
        "segment": 1,
        "length_m": 21351.6
      },
      "geometry": {
        "type": "LineString",
        "coordinates": [
          [-114.03096, 35.3725],
          [-114.02711, 35.35026],
          [-114.02325, 35.32803],
          [-113.99837, 35.31275],
          [-113.97964, 35.33305],
          [-113.98348, 35.35528],
          [-113.98733, 35.37752],
          [-114.01222, 35.3928],
          [-114.03096, 35.3725]
        ]
      }
    },
    {
      "type": "Feature",
      "id": "2026091312_f216_12000_002",
      "properties": {
        "product_id": "winter_storm_levels",
        "source_id": "nbm_snow_level",
        "parameter": "snow_level",
        "definition": "height of the wet-bulb 0.5 degree C surface",
        "level_ft_msl": 12000,
        "label": "12,000 ft MSL",
        "unit": "ft_msl",
        "cycle_time_utc": "2026-09-13T12:00:00Z",
        "valid_time_utc": "2026-09-22T12:00:00Z",
        "lead_hours": 216,
        "segment": 2,
        "length_m": 1206060.1
      },
      "geometry": {
        "type": "LineString",
        "coordinates": [
          [-114.17561, 30.11003],
          [-114.17786, 30.12373],
          [-114.18157, 30.14624],
          [-114.18528, 30.16876],
          [-114.18899, 30.19128],
          [-114.19271, 30.2138],
          [-114.19642, 30.23631],
          [-114.20014, 30.25883],
          [-114.20385, 30.28134],
          [-114.20757, 30.30385],
          [-114.21129, 30.32636],
          [-114.21501, 30.34888],
          [-114.21873, 30.37139],
          [-114.20084, 30.39196],
          [-114.19636, 30.39711],
          [-114.20008, 30.41961],
          [-114.20381, 30.44212],
          [-114.1859, 30.46269],
          [-114.18142, 30.46784],
          [-114.18514, 30.49034],
          [-114.18886, 30.51285],
          [-114.19258, 30.53535],
          [-114.17466, 30.55592],
          [-114.17017, 30.56106],
          [-114.17389, 30.58356],
          [-114.17762, 30.60607],
          [-114.18134, 30.62857],
          [-114.1634, 30.64913],
          [-114.15891, 30.65427],
          [-114.16263, 30.67677],
          [-114.16636, 30.69927],
          [-114.1484, 30.71983],
          [-114.14391, 30.72497],
          [-114.14763, 30.74746],
          [-114.12967, 30.76802],
          [-114.12517, 30.77316],
          [-114.12889, 30.79565],
          [-114.11091, 30.8162],
          [-114.10642, 30.82134],
          [-114.08843, 30.84189],
          [-114.08394, 30.84702],
          [-114.08765, 30.86952],
          [-114.06965, 30.89006],
          [-114.06515, 30.89519],
          [-114.04715, 30.91573],
          [-114.04265, 30.92087],
          [-114.04636, 30.94336],
          [-114.02834, 30.9639],
          [-114.02384, 30.96903],
          [-114.00581, 30.98956],
          [-114.00131, 30.99469],
          [-113.98328, 31.01522],
          [-113.97877, 31.02035],
          [-113.96073, 31.04088],
          [-113.95622, 31.04601],
          [-113.95991, 31.0685],
          [-113.94186, 31.08902],
          [-113.93735, 31.09415],
          [-113.91929, 31.11467],
          [-113.91478, 31.11979],
          [-113.89671, 31.14031],
          [-113.89219, 31.14544],
          [-113.87412, 31.16595],
          [-113.8696, 31.17107],
          [-113.87328, 31.19356],
          [-113.8552, 31.21406],
          [-113.85068, 31.21919],
          [-113.83259, 31.23969],
          [-113.82806, 31.24482],
          [-113.80996, 31.26532],
          [-113.80543, 31.27044],
          [-113.78733, 31.29094],
          [-113.7828, 31.29606],
          [-113.76468, 31.31655],
          [-113.76015, 31.32167],
          [-113.76382, 31.34416],
          [-113.74569, 31.36464],
          [-113.74116, 31.36976],
          [-113.72302, 31.39025],
          [-113.71849, 31.39537],
          [-113.72215, 31.41785],
          [-113.704, 31.43833],
          [-113.69946, 31.44345],
          [-113.68131, 31.46392],
          [-113.67677, 31.46904],
          [-113.65861, 31.48951],
          [-113.65407, 31.49463],
          [-113.65772, 31.51711],
          [-113.63954, 31.53757],
          [-113.635, 31.54269],
          [-113.61682, 31.56316],
          [-113.61227, 31.56827],
          [-113.61592, 31.59074],
          [-113.59773, 31.6112],
          [-113.59318, 31.61632],
          [-113.59682, 31.63879],
          [-113.60046, 31.66126],
          [-113.58226, 31.68171],
          [-113.5777, 31.68683],
          [-113.58135, 31.7093],
          [-113.58499, 31.73176],
          [-113.58863, 31.75423],
          [-113.57041, 31.77468],
          [-113.56585, 31.77979],
          [-113.5695, 31.80225],
          [-113.55126, 31.8227],
          [-113.5467, 31.82781],
          [-113.55034, 31.85027],
          [-113.55399, 31.87273],
          [-113.55763, 31.89519],
          [-113.56127, 31.91765],
          [-113.54302, 31.93809],
          [-113.53845, 31.9432],
          [-113.5421, 31.96566],
          [-113.54574, 31.98811],
          [-113.54939, 32.01057],
          [-113.55541, 32.01444],
          [-113.57952, 32.02993],
          [-113.58317, 32.05238],
          [-113.58682, 32.07483],
          [-113.56855, 32.09526],
          [-113.56398, 32.10037],
          [-113.56763, 32.12282],
          [-113.57129, 32.14527],
          [-113.57494, 32.16771],
          [-113.5786, 32.19016],
          [-113.58226, 32.2126],
          [-113.58591, 32.23504],
          [-113.58958, 32.25748],
          [-113.59324, 32.27992],
          [-113.5969, 32.30236],
          [-113.60057, 32.3248],
          [-113.60423, 32.34723],
          [-113.6079, 32.36967],
          [-113.61395, 32.37353],
          [-113.64051, 32.37043],
          [-113.6647, 32.38589],
          [-113.66838, 32.40832],
          [-113.67206, 32.43075],
          [-113.65375, 32.45118],
          [-113.62717, 32.45428],
          [-113.60059, 32.45738],
          [-113.596, 32.46249],
          [-113.59967, 32.48492],
          [-113.58134, 32.50534],
          [-113.57675, 32.51044],
          [-113.58042, 32.53287],
          [-113.58409, 32.55529],
          [-113.58776, 32.57771],
          [-113.59143, 32.60014],
          [-113.59511, 32.62256],
          [-113.57675, 32.64297],
          [-113.57215, 32.64807],
          [-113.57583, 32.67049],
          [-113.5795, 32.69291],
          [-113.58317, 32.71532],
          [-113.5648, 32.73573],
          [-113.5602, 32.74083],
          [-113.56387, 32.76324],
          [-113.56755, 32.78566],
          [-113.57122, 32.80807],
          [-113.55283, 32.82847],
          [-113.54823, 32.83357],
          [-113.5519, 32.85598],
          [-113.55557, 32.87838],
          [-113.55925, 32.90079],
          [-113.56293, 32.9232],
          [-113.5666, 32.9456],
          [-113.57028, 32.968],
          [-113.57397, 32.9904],
          [-113.58004, 32.99427],
          [-113.60436, 33.00971],
          [-113.60805, 33.03211],
          [-113.61174, 33.05451],
          [-113.61543, 33.0769],
          [-113.61913, 33.0993],
          [-113.62282, 33.12169],
          [-113.62652, 33.14408],
          [-113.63261, 33.14794],
          [-113.65696, 33.16337],
          [-113.66067, 33.18576],
          [-113.66676, 33.18962],
          [-113.67137, 33.18452],
          [-113.6898, 33.16413],
          [-113.71654, 33.16102],
          [-113.74328, 33.15791],
          [-113.76766, 33.17332],
          [-113.77138, 33.19571],
          [-113.77511, 33.21809],
          [-113.75669, 33.23849],
          [-113.72993, 33.24161],
          [-113.70316, 33.24472],
          [-113.69855, 33.24981],
          [-113.70465, 33.25367],
          [-113.72904, 33.26909],
          [-113.73276, 33.29147],
          [-113.73649, 33.31385],
          [-113.74021, 33.33622],
          [-113.74394, 33.3586],
          [-113.75004, 33.36245],
          [-113.77446, 33.37786],
          [-113.77819, 33.40023],
          [-113.7843, 33.40408],
          [-113.80873, 33.41948],
          [-113.81484, 33.42333],
          [-113.83928, 33.43872],
          [-113.84539, 33.44257],
          [-113.86984, 33.45796],
          [-113.87595, 33.46181],
          [-113.90041, 33.47719],
          [-113.90653, 33.48104],
          [-113.93099, 33.49641],
          [-113.93711, 33.50026],
          [-113.96393, 33.49711],
          [-113.9884, 33.51248],
          [-113.99452, 33.51632],
          [-114.01901, 33.53168],
          [-114.02513, 33.53552],
          [-114.04962, 33.55088],
          [-114.05575, 33.55472],
          [-114.08025, 33.57007],
          [-114.08637, 33.57391],
          [-114.11088, 33.58926],
          [-114.11701, 33.59309],
          [-114.14153, 33.60843],
          [-114.14535, 33.63079],
          [-114.14916, 33.65313],
          [-114.15298, 33.67548],
          [-114.1568, 33.69783],
          [-114.16062, 33.72017],
          [-114.16444, 33.74252],
          [-114.16827, 33.76486],
          [-114.17209, 33.7872],
          [-114.17592, 33.80954],
          [-114.17975, 33.83187],
          [-114.18358, 33.85421],
          [-114.18741, 33.87654],
          [-114.19125, 33.89887],
          [-114.19508, 33.92121],
          [-114.17662, 33.94161],
          [-114.172, 33.94672],
          [-114.17583, 33.96904],
          [-114.17967, 33.99137],
          [-114.1835, 34.0137],
          [-114.18734, 34.03602],
          [-114.19118, 34.05834],
          [-114.19502, 34.08066],
          [-114.19886, 34.10298],
          [-114.20271, 34.1253],
          [-114.20655, 34.14762],
          [-114.2104, 34.16993],
          [-114.21425, 34.19224],
          [-114.22041, 34.19607],
          [-114.24508, 34.21137],
          [-114.24893, 34.23368],
          [-114.25279, 34.25599],
          [-114.25665, 34.27829],
          [-114.26051, 34.3006],
          [-114.26437, 34.3229],
          [-114.26824, 34.3452],
          [-114.24972, 34.3656],
          [-114.24509, 34.37069],
          [-114.24895, 34.39299],
          [-114.25281, 34.41529],
          [-114.25668, 34.43759],
          [-114.26054, 34.45988],
          [-114.26441, 34.48217],
          [-114.24587, 34.50256],
          [-114.24123, 34.50765],
          [-114.2451, 34.52994],
          [-114.24896, 34.55223],
          [-114.25515, 34.55605],
          [-114.28221, 34.55286],
          [-114.30888, 34.54744],
          [-114.31391, 34.54457],
          [-114.33244, 34.52418],
          [-114.35949, 34.52098],
          [-114.38425, 34.53624],
          [-114.39044, 34.54006],
          [-114.40077, 34.55703],
          [-114.39667, 34.57571],
          [-114.39565, 34.58038],
          [-114.39955, 34.60266],
          [-114.40255, 34.62505],
          [-114.39291, 34.64893],
          [-114.38364, 34.65913],
          [-114.36972, 34.67442],
          [-114.36045, 34.68461],
          [-114.33543, 34.69969],
          [-114.33027, 34.70181],
          [-114.31015, 34.71328],
          [-114.28305, 34.71647],
          [-114.25982, 34.71011],
          [-114.25363, 34.70629],
          [-114.22885, 34.69102],
          [-114.22227, 34.66906],
          [-114.21841, 34.64678],
          [-114.21493, 34.64264],
          [-114.21028, 34.64773],
          [-114.21415, 34.67001],
          [-114.21801, 34.69229],
          [-114.19943, 34.71266],
          [-114.19478, 34.71775],
          [-114.19864, 34.74002],
          [-114.18005, 34.76038],
          [-114.17539, 34.76547],
          [-114.17926, 34.78775],
          [-114.18312, 34.81002],
          [-114.16451, 34.83037],
          [-114.15985, 34.83546],
          [-114.16605, 34.83928],
          [-114.19318, 34.83611],
          [-114.20713, 34.85265],
          [-114.22574, 34.86411],
          [-114.25287, 34.86092],
          [-114.28001, 34.85774],
          [-114.30327, 34.86409],
          [-114.30909, 34.86568],
          [-114.33817, 34.87362],
          [-114.35058, 34.88124],
          [-114.34285, 34.90033],
          [-114.3382, 34.90542],
          [-114.3196, 34.92579],
          [-114.29167, 34.92453],
          [-114.26374, 34.92326],
          [-114.23659, 34.92644],
          [-114.20944, 34.92962],
          [-114.18228, 34.9328],
          [-114.15667, 34.94487],
          [-114.12951, 34.94803],
          [-114.12485, 34.95312],
          [-114.12871, 34.97538],
          [-114.11006, 34.99572],
          [-114.1054, 35.0008],
          [-114.10925, 35.02306],
          [-114.09059, 35.04339],
          [-114.08592, 35.04847],
          [-114.08978, 35.07073],
          [-114.09363, 35.09298],
          [-114.09749, 35.11523],
          [-114.07881, 35.13556],
          [-114.07414, 35.14064],
          [-114.07799, 35.16289],
          [-114.0593, 35.18321],
          [-114.03208, 35.18635],
          [-114.00486, 35.18949],
          [-114.00018, 35.19457],
          [-114.00402, 35.21682],
          [-114.00787, 35.23906],
          [-113.98915, 35.25937],
          [-113.98447, 35.26444],
          [-113.98831, 35.28669],
          [-113.96958, 35.30699],
          [-113.9649, 35.31206],
          [-113.96874, 35.3343],
          [-113.97258, 35.35654],
          [-113.97642, 35.37877],
          [-113.95767, 35.39906],
          [-113.95299, 35.40414],
          [-113.95683, 35.42637],
          [-113.96067, 35.4486],
          [-113.96451, 35.47083],
          [-113.96835, 35.49306],
          [-113.97458, 35.49688],
          [-113.9995, 35.51215],
          [-114.00335, 35.53437],
          [-114.00721, 35.55659],
          [-114.01106, 35.57881],
          [-114.01492, 35.60103],
          [-113.99614, 35.62131],
          [-113.99145, 35.62638],
          [-113.9953, 35.6486],
          [-113.99916, 35.67081],
          [-113.98037, 35.69109],
          [-113.97567, 35.69615],
          [-113.97952, 35.71836],
          [-113.96072, 35.73863],
          [-113.95602, 35.7437],
          [-113.9372, 35.76396],
          [-113.9325, 35.76903],
          [-113.91368, 35.78929],
          [-113.8863, 35.79241],
          [-113.8816, 35.79747],
          [-113.86276, 35.81772],
          [-113.83538, 35.82083],
          [-113.83067, 35.82589],
          [-113.81182, 35.84614],
          [-113.78443, 35.84923],
          [-113.75703, 35.85233],
          [-113.72964, 35.85542],
          [-113.70224, 35.8585],
          [-113.67484, 35.86158],
          [-113.64744, 35.86466],
          [-113.62004, 35.86773],
          [-113.5951, 35.85242],
          [-113.58886, 35.84859],
          [-113.56392, 35.83327],
          [-113.55769, 35.82944],
          [-113.53029, 35.8325],
          [-113.5029, 35.83555],
          [-113.47797, 35.82022],
          [-113.47174, 35.81639],
          [-113.44435, 35.81943],
          [-113.41695, 35.82247],
          [-113.41222, 35.82752],
          [-113.3933, 35.84772],
          [-113.36589, 35.85075],
          [-113.33849, 35.85377],
          [-113.33375, 35.85882],
          [-113.3148, 35.87901],
          [-113.28739, 35.88202],
          [-113.28265, 35.88707],
          [-113.28637, 35.90928],
          [-113.26741, 35.92946],
          [-113.26267, 35.9345],
          [-113.26638, 35.95671],
          [-113.24741, 35.97688],
          [-113.24266, 35.98192],
          [-113.24638, 36.00413],
          [-113.22739, 36.02429],
          [-113.22264, 36.02933],
          [-113.22636, 36.05153],
          [-113.23007, 36.07373],
          [-113.21107, 36.09389],
          [-113.20632, 36.09893],
          [-113.21003, 36.12113],
          [-113.21374, 36.14332],
          [-113.19473, 36.16347],
          [-113.18997, 36.16851],
          [-113.17094, 36.18866],
          [-113.16619, 36.19369],
          [-113.14715, 36.21384],
          [-113.14239, 36.21887],
          [-113.1461, 36.24106],
          [-113.1498, 36.26325],
          [-113.13075, 36.28338],
          [-113.12599, 36.28842],
          [-113.12969, 36.3106],
          [-113.11063, 36.33073],
          [-113.10586, 36.33576],
          [-113.10956, 36.35794],
          [-113.09049, 36.37806],
          [-113.08572, 36.38309],
          [-113.08941, 36.40527],
          [-113.07033, 36.42539],
          [-113.06556, 36.43042],
          [-113.06925, 36.45259],
          [-113.07295, 36.47476],
          [-113.07664, 36.49693],
          [-113.08034, 36.51909],
          [-113.06124, 36.5392],
          [-113.05646, 36.54423],
          [-113.06015, 36.56639],
          [-113.06385, 36.58855],
          [-113.04473, 36.60866],
          [-113.03995, 36.61368],
          [-113.04364, 36.63584],
          [-113.04734, 36.65799],
          [-113.0536, 36.66183],
          [-113.07866, 36.67718],
          [-113.08237, 36.69933],
          [-113.08608, 36.72148],
          [-113.08978, 36.74362],
          [-113.09349, 36.76577],
          [-113.09721, 36.78791],
          [-113.10092, 36.81005],
          [-113.10719, 36.81389],
          [-113.13229, 36.82922],
          [-113.13602, 36.85135],
          [-113.13974, 36.87349],
          [-113.12058, 36.89358],
          [-113.0929, 36.89655],
          [-113.08811, 36.90157],
          [-113.06894, 36.92165],
          [-113.04125, 36.92462],
          [-113.03646, 36.92964],
          [-113.04016, 36.95177],
          [-113.04644, 36.9556],
          [-113.07157, 36.97093],
          [-113.07528, 36.99306],
          [-113.079, 37.01518],
          [-113.08272, 37.0373],
          [-113.08644, 37.05942],
          [-113.06723, 37.07949],
          [-113.06243, 37.08451],
          [-113.06615, 37.10662],
          [-113.06987, 37.12874],
          [-113.05065, 37.1488],
          [-113.04584, 37.15381],
          [-113.04956, 37.17593],
          [-113.05328, 37.19803],
          [-113.03404, 37.21809],
          [-113.02923, 37.2231],
          [-113.03295, 37.24521],
          [-113.03667, 37.26731],
          [-113.01742, 37.28735],
          [-113.0126, 37.29237],
          [-113.01632, 37.31446],
          [-112.99706, 37.3345],
          [-112.99224, 37.33951],
          [-112.99595, 37.36161],
          [-112.99966, 37.3837],
          [-112.98039, 37.40373],
          [-112.95258, 37.40668],
          [-112.94776, 37.41169],
          [-112.92847, 37.43171],
          [-112.90065, 37.43465],
          [-112.87283, 37.43758],
          [-112.84501, 37.44051],
          [-112.84018, 37.44551],
          [-112.82086, 37.46552],
          [-112.79303, 37.46844],
          [-112.7882, 37.47344],
          [-112.76887, 37.49344],
          [-112.76403, 37.49844],
          [-112.7677, 37.52052],
          [-112.74836, 37.54052],
          [-112.74352, 37.54552],
          [-112.72417, 37.56551],
          [-112.71933, 37.5705],
          [-112.69997, 37.59049],
          [-112.69513, 37.59548],
          [-112.67576, 37.61547],
          [-112.67091, 37.62046],
          [-112.65153, 37.64044],
          [-112.64669, 37.64543],
          [-112.6273, 37.6654],
          [-112.62245, 37.67039],
          [-112.60305, 37.69036],
          [-112.57516, 37.69324],
          [-112.57031, 37.69823],
          [-112.55089, 37.71819],
          [-112.54604, 37.72318],
          [-112.52662, 37.74313],
          [-112.52176, 37.74812],
          [-112.50233, 37.76806],
          [-112.49747, 37.77305],
          [-112.47803, 37.79299],
          [-112.47317, 37.79798],
          [-112.45372, 37.81792],
          [-112.42579, 37.82077],
          [-112.42093, 37.82576],
          [-112.40147, 37.84569],
          [-112.3966, 37.85067],
          [-112.4002, 37.87273],
          [-112.38073, 37.89265],
          [-112.37586, 37.89763],
          [-112.37946, 37.91969],
          [-112.35997, 37.93961],
          [-112.3551, 37.94459],
          [-112.3356, 37.9645],
          [-112.33073, 37.96948],
          [-112.33432, 37.99153],
          [-112.31481, 38.01144],
          [-112.30994, 38.01641],
          [-112.29042, 38.03631],
          [-112.28554, 38.04129],
          [-112.26601, 38.06119],
          [-112.26113, 38.06616],
          [-112.24159, 38.08605],
          [-112.21358, 38.08887],
          [-112.18557, 38.09168],
          [-112.18068, 38.09665],
          [-112.16113, 38.11653],
          [-112.15624, 38.1215],
          [-112.13667, 38.14137],
          [-112.13178, 38.14634],
          [-112.1122, 38.16621],
          [-112.08417, 38.16901],
          [-112.07927, 38.17397],
          [-112.05968, 38.19384],
          [-112.03164, 38.19662],
          [-112.02674, 38.20158],
          [-112.00714, 38.22144],
          [-112, 38.22215]
        ]
      }
    }
  ]
}

