{
  "type": "FeatureCollection",
  "name": "BRIM Delta Ops Daily Summary",
  "features": [
    {
      "type": "Feature",
      "geometry": {
        "type": "Point",
        "coordinates": [
          -121.5092,
          38.2466
        ]
      },
      "properties": {
        "feature_key": "cross_channel_gates",
        "display_name": "Delta X-Channel Gates",
        "feature_type": "gate",
        "label_anchor": "top",
        "label_dx": 0,
        "label_dy": 0,
        "sort_order": 10,
        "placement_note": "Represents Delta Cross Channel Gates percent of day open; operations/control point near the gates.",
        "metric_name": "Delta Cross Channel Gates",
        "value_raw": "100%",
        "value_numeric": 100,
        "units": "percent",
        "label_text": "Delta X-Channel Gates | 100% open",
        "symbol_class": "gate",
        "source_name": "DWR Delta Operations Daily Summary",
        "source_url": "https://water.ca.gov/-/media/DWR-Website/Web-Pages/Programs/State-Water-Project/Operations-And-Maintenance/Files/Operations-Control-Office/Delta-Status-And-Operations/Delta-Operations-Daily-Summary.pdf",
        "report_date": "2026-08-31",
        "feed_build_time_utc": "2026-08-31T21:06:34Z",
        "feed_build_time_local": "2026-08-31 14:06:34 PDT",
        "preliminary_notice": "PRELIMINARY DATA; SUBJECT TO REVISION WITHOUT NOTICE",
        "x2_position_date": null,
        "x2_position_date_source": null
      }
    },
    {
      "type": "Feature",
      "geometry": {
        "type": "Point",
        "coordinates": [
          -121.5853,
          37.7967
        ]
      },
      "properties": {
        "feature_key": "jones_cvp_exports",
        "display_name": "Jones / CVP exports",
        "feature_type": "export",
        "label_anchor": "left",
        "label_dx": 0,
        "label_dy": 0,
        "sort_order": 20,
        "placement_note": "Represents CVP export pumping at Jones Pumping Plant / Tracy Pumping Plant.",
        "metric_name": "Jones / CVP exports",
        "value_raw": "4,300 cfs",
        "value_numeric": 4300,
        "units": "cfs",
        "label_text": "Jones/CVP: 4,300 cfs",
        "symbol_class": "export_cvp",
        "source_name": "DWR Delta Operations Daily Summary",
        "source_url": "https://water.ca.gov/-/media/DWR-Website/Web-Pages/Programs/State-Water-Project/Operations-And-Maintenance/Files/Operations-Control-Office/Delta-Status-And-Operations/Delta-Operations-Daily-Summary.pdf",
        "report_date": "2026-08-31",
        "feed_build_time_utc": "2026-08-31T21:06:34Z",
        "feed_build_time_local": "2026-08-31 14:06:34 PDT",
        "preliminary_notice": "PRELIMINARY DATA; SUBJECT TO REVISION WITHOUT NOTICE",
        "x2_position_date": null,
        "x2_position_date_source": null
      }
    },
    {
      "type": "Feature",
      "geometry": {
        "type": "Point",
        "coordinates": [
          -121.6208,
          37.8007
        ]
      },
      "properties": {
        "feature_key": "banks_swp_exports",
        "display_name": "Banks / SWP exports",
        "feature_type": "export",
        "label_anchor": "right",
        "label_dx": 0,
        "label_dy": 0,
        "sort_order": 30,
        "placement_note": "Represents SWP export-related value, especially Clifton Court Inflow / Banks Pumping Plant export context.",
        "metric_name": "Banks / SWP exports",
        "value_raw": "6,500 cfs",
        "value_numeric": 6500,
        "units": "cfs",
        "label_text": "Banks/SWP: 6,500 cfs",
        "symbol_class": "export_swp",
        "source_name": "DWR Delta Operations Daily Summary",
        "source_url": "https://water.ca.gov/-/media/DWR-Website/Web-Pages/Programs/State-Water-Project/Operations-And-Maintenance/Files/Operations-Control-Office/Delta-Status-And-Operations/Delta-Operations-Daily-Summary.pdf",
        "report_date": "2026-08-31",
        "feed_build_time_utc": "2026-08-31T21:06:34Z",
        "feed_build_time_local": "2026-08-31 14:06:34 PDT",
        "preliminary_notice": "PRELIMINARY DATA; SUBJECT TO REVISION WITHOUT NOTICE",
        "x2_position_date": null,
        "x2_position_date_source": null
      }
    },
    {
      "type": "Feature",
      "geometry": {
        "type": "Point",
        "coordinates": [
          -121.9119,
          38.0552
        ]
      },
      "properties": {
        "feature_key": "delta_outflow_index",
        "display_name": "Delta Outflow Index / NDOI",
        "feature_type": "outflow",
        "label_anchor": "left",
        "label_dx": 0,
        "label_dy": 0,
        "sort_order": 40,
        "placement_note": "Calculated daily net freshwater outflow from the Delta past Chipps Island into Suisun Bay; not an instantaneous gage.",
        "metric_name": "Delta Outflow Index / NDOI",
        "value_raw": "6,300 cfs",
        "value_numeric": 6300,
        "units": "cfs",
        "label_text": "Outflow: 6,300 cfs",
        "symbol_class": "outflow",
        "source_name": "DWR Delta Operations Daily Summary",
        "source_url": "https://water.ca.gov/-/media/DWR-Website/Web-Pages/Programs/State-Water-Project/Operations-And-Maintenance/Files/Operations-Control-Office/Delta-Status-And-Operations/Delta-Operations-Daily-Summary.pdf",
        "report_date": "2026-08-31",
        "feed_build_time_utc": "2026-08-31T21:06:34Z",
        "feed_build_time_local": "2026-08-31 14:06:34 PDT",
        "preliminary_notice": "PRELIMINARY DATA; SUBJECT TO REVISION WITHOUT NOTICE",
        "x2_position_date": null,
        "x2_position_date_source": null
      }
    },
    {
      "type": "Feature",
      "geometry": {
        "type": "Point",
        "coordinates": [
          -121.9119,
          38.0552
        ]
      },
      "properties": {
        "feature_key": "percent_inflow_diverted",
        "display_name": "Percent Inflow Diverted",
        "feature_type": "accounting",
        "label_anchor": "right",
        "label_dx": 0,
        "label_dy": 0,
        "sort_order": 50,
        "placement_note": "Delta accounting ratio showing percent of Delta inflow diverted by south Delta exports.",
        "metric_name": "Percent Inflow Diverted",
        "value_raw": "53.4 (3-day avg)",
        "value_numeric": null,
        "units": "percent_3day_avg",
        "label_text": "Diverted: 53.4 (3-day avg) (3-day avg)",
        "symbol_class": "diversion_percent",
        "source_name": "DWR Delta Operations Daily Summary",
        "source_url": "https://water.ca.gov/-/media/DWR-Website/Web-Pages/Programs/State-Water-Project/Operations-And-Maintenance/Files/Operations-Control-Office/Delta-Status-And-Operations/Delta-Operations-Daily-Summary.pdf",
        "report_date": "2026-08-31",
        "feed_build_time_utc": "2026-08-31T21:06:34Z",
        "feed_build_time_local": "2026-08-31 14:06:34 PDT",
        "preliminary_notice": "PRELIMINARY DATA; SUBJECT TO REVISION WITHOUT NOTICE",
        "x2_position_date": null,
        "x2_position_date_source": null
      }
    },
    {
      "type": "Feature",
      "geometry": {
        "type": "Point",
        "coordinates": [
          -121.5505,
          37.9561
        ]
      },
      "properties": {
        "feature_key": "omr_index",
        "display_name": "Old and Middle River Flow / OMR Index",
        "feature_type": "flow_index",
        "label_anchor": "bottom",
        "label_dx": 0,
        "label_dy": 0,
        "sort_order": 60,
        "placement_note": "Combined south Delta reverse-flow index based on tidally filtered Old River and Middle River flows; representative placement.",
        "metric_name": "OMR Index",
        "value_raw": "-10,600 cfs",
        "value_numeric": -10600,
        "units": "cfs",
        "label_text": "OMR: -10,600 cfs",
        "symbol_class": "omr",
        "source_name": "DWR Delta Operations Daily Summary",
        "source_url": "https://water.ca.gov/-/media/DWR-Website/Web-Pages/Programs/State-Water-Project/Operations-And-Maintenance/Files/Operations-Control-Office/Delta-Status-And-Operations/Delta-Operations-Daily-Summary.pdf",
        "report_date": "2026-08-31",
        "feed_build_time_utc": "2026-08-31T21:06:34Z",
        "feed_build_time_local": "2026-08-31 14:06:34 PDT",
        "preliminary_notice": "PRELIMINARY DATA; SUBJECT TO REVISION WITHOUT NOTICE",
        "x2_position_date": null,
        "x2_position_date_source": null
      }
    },
    {
      "type": "Feature",
      "geometry": {
        "type": "Point",
        "coordinates": [
          -121.5016,
          38.4557
        ]
      },
      "properties": {
        "feature_key": "sacramento_freeport",
        "display_name": "Sacramento River input / Freeport",
        "feature_type": "inflow",
        "label_anchor": "left",
        "label_dx": 0,
        "label_dy": 0,
        "sort_order": 70,
        "placement_note": "Sacramento River inflow contribution to Delta accounting at the Freeport boundary concept.",
        "metric_name": "Sacramento River input",
        "value_raw": "19,044 cfs",
        "value_numeric": 19044,
        "units": "cfs",
        "label_text": "Sac: 19,044 cfs",
        "symbol_class": "inflow",
        "source_name": "DWR Delta Operations Daily Summary",
        "source_url": "https://water.ca.gov/-/media/DWR-Website/Web-Pages/Programs/State-Water-Project/Operations-And-Maintenance/Files/Operations-Control-Office/Delta-Status-And-Operations/Delta-Operations-Daily-Summary.pdf",
        "report_date": "2026-08-31",
        "feed_build_time_utc": "2026-08-31T21:06:34Z",
        "feed_build_time_local": "2026-08-31 14:06:34 PDT",
        "preliminary_notice": "PRELIMINARY DATA; SUBJECT TO REVISION WITHOUT NOTICE",
        "x2_position_date": null,
        "x2_position_date_source": null
      }
    },
    {
      "type": "Feature",
      "geometry": {
        "type": "Point",
        "coordinates": [
          -121.2663,
          37.676
        ]
      },
      "properties": {
        "feature_key": "san_joaquin_vernalis",
        "display_name": "San Joaquin River input / Vernalis",
        "feature_type": "inflow",
        "label_anchor": "right",
        "label_dx": 0,
        "label_dy": 0,
        "sort_order": 80,
        "placement_note": "San Joaquin River inflow contribution to Delta accounting at the Vernalis boundary concept.",
        "metric_name": "San Joaquin River input",
        "value_raw": "722 cfs",
        "value_numeric": 722,
        "units": "cfs",
        "label_text": "SJ: 722 cfs",
        "symbol_class": "inflow",
        "source_name": "DWR Delta Operations Daily Summary",
        "source_url": "https://water.ca.gov/-/media/DWR-Website/Web-Pages/Programs/State-Water-Project/Operations-And-Maintenance/Files/Operations-Control-Office/Delta-Status-And-Operations/Delta-Operations-Daily-Summary.pdf",
        "report_date": "2026-08-31",
        "feed_build_time_utc": "2026-08-31T21:06:34Z",
        "feed_build_time_local": "2026-08-31 14:06:34 PDT",
        "preliminary_notice": "PRELIMINARY DATA; SUBJECT TO REVISION WITHOUT NOTICE",
        "x2_position_date": null,
        "x2_position_date_source": null
      }
    },
    {
      "type": "Feature",
      "geometry": {
        "type": "Point",
        "coordinates": [
          -121.384,
          38.0658
        ]
      },
      "properties": {
        "feature_key": "total_delta_inflow",
        "display_name": "East Side Streams contribution",
        "feature_type": "inflow_total",
        "label_anchor": "top",
        "label_dx": 0,
        "label_dy": 0,
        "sort_order": 90,
        "placement_note": "Conceptual marker for East Side Streams contribution calculated as Total Delta Inflow minus Sacramento River minus San Joaquin River.",
        "metric_name": "East Side Streams contribution",
        "value_raw": "817 cfs",
        "value_numeric": 817,
        "units": "cfs",
        "label_text": "East side streams: 817 cfs",
        "symbol_class": "inflow_east_side",
        "source_name": "DWR Delta Operations Daily Summary",
        "source_url": "https://water.ca.gov/-/media/DWR-Website/Web-Pages/Programs/State-Water-Project/Operations-And-Maintenance/Files/Operations-Control-Office/Delta-Status-And-Operations/Delta-Operations-Daily-Summary.pdf",
        "report_date": "2026-08-31",
        "feed_build_time_utc": "2026-08-31T21:06:34Z",
        "feed_build_time_local": "2026-08-31 14:06:34 PDT",
        "preliminary_notice": "PRELIMINARY DATA; SUBJECT TO REVISION WITHOUT NOTICE",
        "x2_position_date": null,
        "x2_position_date_source": null
      }
    },
    {
      "type": "Feature",
      "geometry": {
        "type": "Point",
        "coordinates": [
          -121.5488,
          38.0346
        ]
      },
      "properties": {
        "feature_key": "delta_conditions",
        "display_name": "Delta Conditions",
        "feature_type": "status",
        "label_anchor": "top",
        "label_dx": 0,
        "label_dy": 0,
        "sort_order": 100,
        "placement_note": "Whole-Delta operations status flag; conceptual central-Delta placement.",
        "metric_name": "Delta Conditions",
        "value_raw": "Balanced",
        "value_numeric": null,
        "units": "status",
        "label_text": "Delta: Balanced",
        "symbol_class": "status",
        "source_name": "DWR Delta Operations Daily Summary",
        "source_url": "https://water.ca.gov/-/media/DWR-Website/Web-Pages/Programs/State-Water-Project/Operations-And-Maintenance/Files/Operations-Control-Office/Delta-Status-And-Operations/Delta-Operations-Daily-Summary.pdf",
        "report_date": "2026-08-31",
        "feed_build_time_utc": "2026-08-31T21:06:34Z",
        "feed_build_time_local": "2026-08-31 14:06:34 PDT",
        "preliminary_notice": "PRELIMINARY DATA; SUBJECT TO REVISION WITHOUT NOTICE",
        "x2_position_date": null,
        "x2_position_date_source": null
      }
    },
    {
      "type": "Feature",
      "geometry": {
        "type": "Point",
        "coordinates": [
          -121.5942,
          37.8036
        ]
      },
      "properties": {
        "feature_key": "controlling_factors",
        "display_name": "Controlling Factor(s)",
        "feature_type": "status",
        "label_anchor": "bottom",
        "label_dx": 0,
        "label_dy": 0,
        "sort_order": 110,
        "placement_note": "Operational/regulatory factor limiting or guiding south Delta exports; folded into the Delta status label for display.",
        "metric_name": "Controlling Factor(s)",
        "value_raw": "Delta WQ",
        "value_numeric": null,
        "units": "status",
        "label_text": "Export control: Delta WQ",
        "symbol_class": "control",
        "source_name": "DWR Delta Operations Daily Summary",
        "source_url": "https://water.ca.gov/-/media/DWR-Website/Web-Pages/Programs/State-Water-Project/Operations-And-Maintenance/Files/Operations-Control-Office/Delta-Status-And-Operations/Delta-Operations-Daily-Summary.pdf",
        "report_date": "2026-08-31",
        "feed_build_time_utc": "2026-08-31T21:06:34Z",
        "feed_build_time_local": "2026-08-31 14:06:34 PDT",
        "preliminary_notice": "PRELIMINARY DATA; SUBJECT TO REVISION WITHOUT NOTICE",
        "x2_position_date": null,
        "x2_position_date_source": null
      }
    },
    {
      "type": "Feature",
      "geometry": {
        "type": "Point",
        "coordinates": [
          -121.109,
          37.0542
        ]
      },
      "properties": {
        "feature_key": "san_luis_reservoir",
        "display_name": "San Luis Reservoir storage / SWP-CVP storage",
        "feature_type": "storage_split",
        "label_anchor": "top",
        "label_dx": 0,
        "label_dy": 0,
        "sort_order": 120,
        "placement_note": "San Luis Reservoir storage relevant to SWP/CVP operations; CVP component calculated as Total minus SWP when available.",
        "metric_name": "San Luis Reservoir storage split",
        "value_raw": "Total 1,281 TAF | SWP 855 TAF | CVP 426 TAF",
        "value_numeric": 1281,
        "units": "TAF",
        "label_text": "San Luis: Total 1,281 | SWP 855 | CVP 426 TAF",
        "symbol_class": "storage_split",
        "source_name": "DWR Delta Operations Daily Summary",
        "source_url": "https://water.ca.gov/-/media/DWR-Website/Web-Pages/Programs/State-Water-Project/Operations-And-Maintenance/Files/Operations-Control-Office/Delta-Status-And-Operations/Delta-Operations-Daily-Summary.pdf",
        "report_date": "2026-08-31",
        "feed_build_time_utc": "2026-08-31T21:06:34Z",
        "feed_build_time_local": "2026-08-31 14:06:34 PDT",
        "preliminary_notice": "PRELIMINARY DATA; SUBJECT TO REVISION WITHOUT NOTICE",
        "x2_position_date": null,
        "x2_position_date_source": null
      }
    },
    {
      "type": "Feature",
      "geometry": {
        "type": "Point",
        "coordinates": [
          -121.8712,
          38.0544
        ]
      },
      "properties": {
        "feature_key": "x2_position_current",
        "display_name": "X2 Position",
        "feature_type": "x2_current",
        "label_anchor": "top",
        "label_dx": 0,
        "label_dy": 0,
        "sort_order": 130,
        "placement_note": "Current X2 position snapped to nearest available river-km reference point.",
        "metric_name": "X2 Position (yesterday)",
        "value_raw": "79 km",
        "value_numeric": 79,
        "units": "km",
        "label_text": "X2 8/30: 79 km",
        "symbol_class": "x2_current",
        "source_name": "DWR Delta Operations Daily Summary",
        "source_url": "https://water.ca.gov/-/media/DWR-Website/Web-Pages/Programs/State-Water-Project/Operations-And-Maintenance/Files/Operations-Control-Office/Delta-Status-And-Operations/Delta-Operations-Daily-Summary.pdf",
        "report_date": "2026-08-31",
        "feed_build_time_utc": "2026-08-31T21:06:34Z",
        "feed_build_time_local": "2026-08-31 14:06:34 PDT",
        "preliminary_notice": "PRELIMINARY DATA; SUBJECT TO REVISION WITHOUT NOTICE",
        "x2_position_date": "2026-08-30",
        "x2_position_date_source": "report_date_minus_1_day_because_pdf_labels_x2_as_yesterday"
      }
    }
  ]
}
