{
  "type": "FeatureCollection",
  "name": "BRIM X2 river-km reference points",
  "features": [
    {
      "type": "Feature",
      "geometry": {
        "type": "Point",
        "coordinates": [
          -122.4778,
          37.8193
        ]
      },
      "properties": {
        "feature_key": "x2_reference",
        "display_name": "X2 0 km",
        "feature_type": "x2_reference",
        "river_km": 0,
        "label_text": "0",
        "source_name": "BRIM X2 river-km reference lookup",
        "source_url": "01_raw_data/misc_reference/x2_km.shp"
      }
    },
    {
      "type": "Feature",
      "geometry": {
        "type": "Point",
        "coordinates": [
          -122.4669,
          37.8219
        ]
      },
      "properties": {
        "feature_key": "x2_reference",
        "display_name": "X2 1 km",
        "feature_type": "x2_reference",
        "river_km": 1,
        "label_text": "1",
        "source_name": "BRIM X2 river-km reference lookup",
        "source_url": "01_raw_data/misc_reference/x2_km.shp"
      }
    },
    {
      "type": "Feature",
      "geometry": {
        "type": "Point",
        "coordinates": [
          -122.456,
          37.8245
        ]
      },
      "properties": {
        "feature_key": "x2_reference",
        "display_name": "X2 2 km",
        "feature_type": "x2_reference",
        "river_km": 2,
        "label_text": "2",
        "source_name": "BRIM X2 river-km reference lookup",
        "source_url": "01_raw_data/misc_reference/x2_km.shp"
      }
    },
    {
      "type": "Feature",
      "geometry": {
        "type": "Point",
        "coordinates": [
          -122.4451,
          37.827
        ]
      },
      "properties": {
        "feature_key": "x2_reference",
        "display_name": "X2 3 km",
        "feature_type": "x2_reference",
        "river_km": 3,
        "label_text": "3",
        "source_name": "BRIM X2 river-km reference lookup",
        "source_url": "01_raw_data/misc_reference/x2_km.shp"
      }
    },
    {
      "type": "Feature",
      "geometry": {
        "type": "Point",
        "coordinates": [
          -122.4342,
          37.8296
        ]
      },
      "properties": {
        "feature_key": "x2_reference",
        "display_name": "X2 4 km",
        "feature_type": "x2_reference",
        "river_km": 4,
        "label_text": "4",
        "source_name": "BRIM X2 river-km reference lookup",
        "source_url": "01_raw_data/misc_reference/x2_km.shp"
      }
    },
    {
      "type": "Feature",
      "geometry": {
        "type": "Point",
        "coordinates": [
          -122.4233,
          37.8322
        ]
      },
      "properties": {
        "feature_key": "x2_reference",
        "display_name": "X2 5 km",
        "feature_type": "x2_reference",
        "river_km": 5,
        "label_text": "5",
        "source_name": "BRIM X2 river-km reference lookup",
        "source_url": "01_raw_data/misc_reference/x2_km.shp"
      }
    },
    {
      "type": "Feature",
      "geometry": {
        "type": "Point",
        "coordinates": [
          -122.4124,
          37.8347
        ]
      },
      "properties": {
        "feature_key": "x2_reference",
        "display_name": "X2 6 km",
        "feature_type": "x2_reference",
        "river_km": 6,
        "label_text": "6",
        "source_name": "BRIM X2 river-km reference lookup",
        "source_url": "01_raw_data/misc_reference/x2_km.shp"
      }
    },
    {
      "type": "Feature",
      "geometry": {
        "type": "Point",
        "coordinates": [
          -122.4102,
          37.8425
        ]
      },
      "properties": {
        "feature_key": "x2_reference",
        "display_name": "X2 7 km",
        "feature_type": "x2_reference",
        "river_km": 7,
        "label_text": "7",
        "source_name": "BRIM X2 river-km reference lookup",
        "source_url": "01_raw_data/misc_reference/x2_km.shp"
      }
    },
    {
      "type": "Feature",
      "geometry": {
        "type": "Point",
        "coordinates": [
          -122.4101,
          37.8515
        ]
      },
      "properties": {
        "feature_key": "x2_reference",
        "display_name": "X2 8 km",
        "feature_type": "x2_reference",
        "river_km": 8,
        "label_text": "8",
        "source_name": "BRIM X2 river-km reference lookup",
        "source_url": "01_raw_data/misc_reference/x2_km.shp"
      }
    },
    {
      "type": "Feature",
      "geometry": {
        "type": "Point",
        "coordinates": [
          -122.41,
          37.8605
        ]
      },
      "properties": {
        "feature_key": "x2_reference",
        "display_name": "X2 9 km",
        "feature_type": "x2_reference",
        "river_km": 9,
        "label_text": "9",
        "source_name": "BRIM X2 river-km reference lookup",
        "source_url": "01_raw_data/misc_reference/x2_km.shp"
      }
    },
    {
      "type": "Feature",
      "geometry": {
        "type": "Point",
        "coordinates": [
          -122.4156,
          37.8681
        ]
      },
      "properties": {
        "feature_key": "x2_reference",
        "display_name": "X2 10 km",
        "feature_type": "x2_reference",
        "river_km": 10,
        "label_text": "10",
        "source_name": "BRIM X2 river-km reference lookup",
        "source_url": "01_raw_data/misc_reference/x2_km.shp"
      }
    },
    {
      "type": "Feature",
      "geometry": {
        "type": "Point",
        "coordinates": [
          -122.4219,
          37.8757
        ]
      },
      "properties": {
        "feature_key": "x2_reference",
        "display_name": "X2 11 km",
        "feature_type": "x2_reference",
        "river_km": 11,
        "label_text": "11",
        "source_name": "BRIM X2 river-km reference lookup",
        "source_url": "01_raw_data/misc_reference/x2_km.shp"
      }
    },
    {
      "type": "Feature",
      "geometry": {
        "type": "Point",
        "coordinates": [
          -122.4281,
          37.8832
        ]
      },
      "properties": {
        "feature_key": "x2_reference",
        "display_name": "X2 12 km",
        "feature_type": "x2_reference",
        "river_km": 12,
        "label_text": "12",
        "source_name": "BRIM X2 river-km reference lookup",
        "source_url": "01_raw_data/misc_reference/x2_km.shp"
      }
    },
    {
      "type": "Feature",
      "geometry": {
        "type": "Point",
        "coordinates": [
          -122.4343,
          37.8907
        ]
      },
      "properties": {
        "feature_key": "x2_reference",
        "display_name": "X2 13 km",
        "feature_type": "x2_reference",
        "river_km": 13,
        "label_text": "13",
        "source_name": "BRIM X2 river-km reference lookup",
        "source_url": "01_raw_data/misc_reference/x2_km.shp"
      }
    },
    {
      "type": "Feature",
      "geometry": {
        "type": "Point",
        "coordinates": [
          -122.4405,
          37.8983
        ]
      },
      "properties": {
        "feature_key": "x2_reference",
        "display_name": "X2 14 km",
        "feature_type": "x2_reference",
        "river_km": 14,
        "label_text": "14",
        "source_name": "BRIM X2 river-km reference lookup",
        "source_url": "01_raw_data/misc_reference/x2_km.shp"
      }
    },
    {
      "type": "Feature",
      "geometry": {
        "type": "Point",
        "coordinates": [
          -122.4433,
          37.907
        ]
      },
      "properties": {
        "feature_key": "x2_reference",
        "display_name": "X2 15 km",
        "feature_type": "x2_reference",
        "river_km": 15,
        "label_text": "15",
        "source_name": "BRIM X2 river-km reference lookup",
        "source_url": "01_raw_data/misc_reference/x2_km.shp"
      }
    },
    {
      "type": "Feature",
      "geometry": {
        "type": "Point",
        "coordinates": [
          -122.4447,
          37.9159
        ]
      },
      "properties": {
        "feature_key": "x2_reference",
        "display_name": "X2 16 km",
        "feature_type": "x2_reference",
        "river_km": 16,
        "label_text": "16",
        "source_name": "BRIM X2 river-km reference lookup",
        "source_url": "01_raw_data/misc_reference/x2_km.shp"
      }
    },
    {
      "type": "Feature",
      "geometry": {
        "type": "Point",
        "coordinates": [
          -122.4455,
          37.9249
        ]
      },
      "properties": {
        "feature_key": "x2_reference",
        "display_name": "X2 17 km",
        "feature_type": "x2_reference",
        "river_km": 17,
        "label_text": "17",
        "source_name": "BRIM X2 river-km reference lookup",
        "source_url": "01_raw_data/misc_reference/x2_km.shp"
      }
    },
    {
      "type": "Feature",
      "geometry": {
        "type": "Point",
        "coordinates": [
          -122.4463,
          37.9338
        ]
      },
      "properties": {
        "feature_key": "x2_reference",
        "display_name": "X2 18 km",
        "feature_type": "x2_reference",
        "river_km": 18,
        "label_text": "18",
        "source_name": "BRIM X2 river-km reference lookup",
        "source_url": "01_raw_data/misc_reference/x2_km.shp"
      }
    },
    {
      "type": "Feature",
      "geometry": {
        "type": "Point",
        "coordinates": [
          -122.4473,
          37.9428
        ]
      },
      "properties": {
        "feature_key": "x2_reference",
        "display_name": "X2 19 km",
        "feature_type": "x2_reference",
        "river_km": 19,
        "label_text": "19",
        "source_name": "BRIM X2 river-km reference lookup",
        "source_url": "01_raw_data/misc_reference/x2_km.shp"
      }
    },
    {
      "type": "Feature",
      "geometry": {
        "type": "Point",
        "coordinates": [
          -122.4484,
          37.9517
        ]
      },
      "properties": {
        "feature_key": "x2_reference",
        "display_name": "X2 20 km",
        "feature_type": "x2_reference",
        "river_km": 20,
        "label_text": "20",
        "source_name": "BRIM X2 river-km reference lookup",
        "source_url": "01_raw_data/misc_reference/x2_km.shp"
      }
    },
    {
      "type": "Feature",
      "geometry": {
        "type": "Point",
        "coordinates": [
          -122.4496,
          37.9607
        ]
      },
      "properties": {
        "feature_key": "x2_reference",
        "display_name": "X2 21 km",
        "feature_type": "x2_reference",
        "river_km": 21,
        "label_text": "21",
        "source_name": "BRIM X2 river-km reference lookup",
        "source_url": "01_raw_data/misc_reference/x2_km.shp"
      }
    },
    {
      "type": "Feature",
      "geometry": {
        "type": "Point",
        "coordinates": [
          -122.4481,
          37.9692
        ]
      },
      "properties": {
        "feature_key": "x2_reference",
        "display_name": "X2 22 km",
        "feature_type": "x2_reference",
        "river_km": 22,
        "label_text": "22",
        "source_name": "BRIM X2 river-km reference lookup",
        "source_url": "01_raw_data/misc_reference/x2_km.shp"
      }
    },
    {
      "type": "Feature",
      "geometry": {
        "type": "Point",
        "coordinates": [
          -122.4422,
          37.9769
        ]
      },
      "properties": {
        "feature_key": "x2_reference",
        "display_name": "X2 23 km",
        "feature_type": "x2_reference",
        "river_km": 23,
        "label_text": "23",
        "source_name": "BRIM X2 river-km reference lookup",
        "source_url": "01_raw_data/misc_reference/x2_km.shp"
      }
    },
    {
      "type": "Feature",
      "geometry": {
        "type": "Point",
        "coordinates": [
          -122.4364,
          37.9846
        ]
      },
      "properties": {
        "feature_key": "x2_reference",
        "display_name": "X2 24 km",
        "feature_type": "x2_reference",
        "river_km": 24,
        "label_text": "24",
        "source_name": "BRIM X2 river-km reference lookup",
        "source_url": "01_raw_data/misc_reference/x2_km.shp"
      }
    },
    {
      "type": "Feature",
      "geometry": {
        "type": "Point",
        "coordinates": [
          -122.4305,
          37.9923
        ]
      },
      "properties": {
        "feature_key": "x2_reference",
        "display_name": "X2 25 km",
        "feature_type": "x2_reference",
        "river_km": 25,
        "label_text": "25",
        "source_name": "BRIM X2 river-km reference lookup",
        "source_url": "01_raw_data/misc_reference/x2_km.shp"
      }
    },
    {
      "type": "Feature",
      "geometry": {
        "type": "Point",
        "coordinates": [
          -122.4246,
          38
        ]
      },
      "properties": {
        "feature_key": "x2_reference",
        "display_name": "X2 26 km",
        "feature_type": "x2_reference",
        "river_km": 26,
        "label_text": "26",
        "source_name": "BRIM X2 river-km reference lookup",
        "source_url": "01_raw_data/misc_reference/x2_km.shp"
      }
    },
    {
      "type": "Feature",
      "geometry": {
        "type": "Point",
        "coordinates": [
          -122.4187,
          38.0077
        ]
      },
      "properties": {
        "feature_key": "x2_reference",
        "display_name": "X2 27 km",
        "feature_type": "x2_reference",
        "river_km": 27,
        "label_text": "27",
        "source_name": "BRIM X2 river-km reference lookup",
        "source_url": "01_raw_data/misc_reference/x2_km.shp"
      }
    },
    {
      "type": "Feature",
      "geometry": {
        "type": "Point",
        "coordinates": [
          -122.4106,
          38.0139
        ]
      },
      "properties": {
        "feature_key": "x2_reference",
        "display_name": "X2 28 km",
        "feature_type": "x2_reference",
        "river_km": 28,
        "label_text": "28",
        "source_name": "BRIM X2 river-km reference lookup",
        "source_url": "01_raw_data/misc_reference/x2_km.shp"
      }
    },
    {
      "type": "Feature",
      "geometry": {
        "type": "Point",
        "coordinates": [
          -122.4017,
          38.0195
        ]
      },
      "properties": {
        "feature_key": "x2_reference",
        "display_name": "X2 29 km",
        "feature_type": "x2_reference",
        "river_km": 29,
        "label_text": "29",
        "source_name": "BRIM X2 river-km reference lookup",
        "source_url": "01_raw_data/misc_reference/x2_km.shp"
      }
    },
    {
      "type": "Feature",
      "geometry": {
        "type": "Point",
        "coordinates": [
          -122.3928,
          38.0252
        ]
      },
      "properties": {
        "feature_key": "x2_reference",
        "display_name": "X2 30 km",
        "feature_type": "x2_reference",
        "river_km": 30,
        "label_text": "30",
        "source_name": "BRIM X2 river-km reference lookup",
        "source_url": "01_raw_data/misc_reference/x2_km.shp"
      }
    },
    {
      "type": "Feature",
      "geometry": {
        "type": "Point",
        "coordinates": [
          -122.384,
          38.0308
        ]
      },
      "properties": {
        "feature_key": "x2_reference",
        "display_name": "X2 31 km",
        "feature_type": "x2_reference",
        "river_km": 31,
        "label_text": "31",
        "source_name": "BRIM X2 river-km reference lookup",
        "source_url": "01_raw_data/misc_reference/x2_km.shp"
      }
    },
    {
      "type": "Feature",
      "geometry": {
        "type": "Point",
        "coordinates": [
          -122.375,
          38.0364
        ]
      },
      "properties": {
        "feature_key": "x2_reference",
        "display_name": "X2 32 km",
        "feature_type": "x2_reference",
        "river_km": 32,
        "label_text": "32",
        "source_name": "BRIM X2 river-km reference lookup",
        "source_url": "01_raw_data/misc_reference/x2_km.shp"
      }
    },
    {
      "type": "Feature",
      "geometry": {
        "type": "Point",
        "coordinates": [
          -122.3646,
          38.0401
        ]
      },
      "properties": {
        "feature_key": "x2_reference",
        "display_name": "X2 33 km",
        "feature_type": "x2_reference",
        "river_km": 33,
        "label_text": "33",
        "source_name": "BRIM X2 river-km reference lookup",
        "source_url": "01_raw_data/misc_reference/x2_km.shp"
      }
    },
    {
      "type": "Feature",
      "geometry": {
        "type": "Point",
        "coordinates": [
          -122.3542,
          38.0438
        ]
      },
      "properties": {
        "feature_key": "x2_reference",
        "display_name": "X2 34 km",
        "feature_type": "x2_reference",
        "river_km": 34,
        "label_text": "34",
        "source_name": "BRIM X2 river-km reference lookup",
        "source_url": "01_raw_data/misc_reference/x2_km.shp"
      }
    },
    {
      "type": "Feature",
      "geometry": {
        "type": "Point",
        "coordinates": [
          -122.3439,
          38.0476
        ]
      },
      "properties": {
        "feature_key": "x2_reference",
        "display_name": "X2 35 km",
        "feature_type": "x2_reference",
        "river_km": 35,
        "label_text": "35",
        "source_name": "BRIM X2 river-km reference lookup",
        "source_url": "01_raw_data/misc_reference/x2_km.shp"
      }
    },
    {
      "type": "Feature",
      "geometry": {
        "type": "Point",
        "coordinates": [
          -122.3335,
          38.0513
        ]
      },
      "properties": {
        "feature_key": "x2_reference",
        "display_name": "X2 36 km",
        "feature_type": "x2_reference",
        "river_km": 36,
        "label_text": "36",
        "source_name": "BRIM X2 river-km reference lookup",
        "source_url": "01_raw_data/misc_reference/x2_km.shp"
      }
    },
    {
      "type": "Feature",
      "geometry": {
        "type": "Point",
        "coordinates": [
          -122.3223,
          38.053
        ]
      },
      "properties": {
        "feature_key": "x2_reference",
        "display_name": "X2 37 km",
        "feature_type": "x2_reference",
        "river_km": 37,
        "label_text": "37",
        "source_name": "BRIM X2 river-km reference lookup",
        "source_url": "01_raw_data/misc_reference/x2_km.shp"
      }
    },
    {
      "type": "Feature",
      "geometry": {
        "type": "Point",
        "coordinates": [
          -122.311,
          38.0543
        ]
      },
      "properties": {
        "feature_key": "x2_reference",
        "display_name": "X2 38 km",
        "feature_type": "x2_reference",
        "river_km": 38,
        "label_text": "38",
        "source_name": "BRIM X2 river-km reference lookup",
        "source_url": "01_raw_data/misc_reference/x2_km.shp"
      }
    },
    {
      "type": "Feature",
      "geometry": {
        "type": "Point",
        "coordinates": [
          -122.2998,
          38.0557
        ]
      },
      "properties": {
        "feature_key": "x2_reference",
        "display_name": "X2 39 km",
        "feature_type": "x2_reference",
        "river_km": 39,
        "label_text": "39",
        "source_name": "BRIM X2 river-km reference lookup",
        "source_url": "01_raw_data/misc_reference/x2_km.shp"
      }
    },
    {
      "type": "Feature",
      "geometry": {
        "type": "Point",
        "coordinates": [
          -122.2885,
          38.0571
        ]
      },
      "properties": {
        "feature_key": "x2_reference",
        "display_name": "X2 40 km",
        "feature_type": "x2_reference",
        "river_km": 40,
        "label_text": "40",
        "source_name": "BRIM X2 river-km reference lookup",
        "source_url": "01_raw_data/misc_reference/x2_km.shp"
      }
    },
    {
      "type": "Feature",
      "geometry": {
        "type": "Point",
        "coordinates": [
          -122.2772,
          38.0584
        ]
      },
      "properties": {
        "feature_key": "x2_reference",
        "display_name": "X2 41 km",
        "feature_type": "x2_reference",
        "river_km": 41,
        "label_text": "41",
        "source_name": "BRIM X2 river-km reference lookup",
        "source_url": "01_raw_data/misc_reference/x2_km.shp"
      }
    },
    {
      "type": "Feature",
      "geometry": {
        "type": "Point",
        "coordinates": [
          -122.2659,
          38.0594
        ]
      },
      "properties": {
        "feature_key": "x2_reference",
        "display_name": "X2 42 km",
        "feature_type": "x2_reference",
        "river_km": 42,
        "label_text": "42",
        "source_name": "BRIM X2 river-km reference lookup",
        "source_url": "01_raw_data/misc_reference/x2_km.shp"
      }
    },
    {
      "type": "Feature",
      "geometry": {
        "type": "Point",
        "coordinates": [
          -122.2545,
          38.0601
        ]
      },
      "properties": {
        "feature_key": "x2_reference",
        "display_name": "X2 43 km",
        "feature_type": "x2_reference",
        "river_km": 43,
        "label_text": "43",
        "source_name": "BRIM X2 river-km reference lookup",
        "source_url": "01_raw_data/misc_reference/x2_km.shp"
      }
    },
    {
      "type": "Feature",
      "geometry": {
        "type": "Point",
        "coordinates": [
          -122.2431,
          38.0609
        ]
      },
      "properties": {
        "feature_key": "x2_reference",
        "display_name": "X2 44 km",
        "feature_type": "x2_reference",
        "river_km": 44,
        "label_text": "44",
        "source_name": "BRIM X2 river-km reference lookup",
        "source_url": "01_raw_data/misc_reference/x2_km.shp"
      }
    },
    {
      "type": "Feature",
      "geometry": {
        "type": "Point",
        "coordinates": [
          -122.2317,
          38.0608
        ]
      },
      "properties": {
        "feature_key": "x2_reference",
        "display_name": "X2 45 km",
        "feature_type": "x2_reference",
        "river_km": 45,
        "label_text": "45",
        "source_name": "BRIM X2 river-km reference lookup",
        "source_url": "01_raw_data/misc_reference/x2_km.shp"
      }
    },
    {
      "type": "Feature",
      "geometry": {
        "type": "Point",
        "coordinates": [
          -122.2203,
          38.0604
        ]
      },
      "properties": {
        "feature_key": "x2_reference",
        "display_name": "X2 46 km",
        "feature_type": "x2_reference",
        "river_km": 46,
        "label_text": "46",
        "source_name": "BRIM X2 river-km reference lookup",
        "source_url": "01_raw_data/misc_reference/x2_km.shp"
      }
    },
    {
      "type": "Feature",
      "geometry": {
        "type": "Point",
        "coordinates": [
          -122.209,
          38.0595
        ]
      },
      "properties": {
        "feature_key": "x2_reference",
        "display_name": "X2 47 km",
        "feature_type": "x2_reference",
        "river_km": 47,
        "label_text": "47",
        "source_name": "BRIM X2 river-km reference lookup",
        "source_url": "01_raw_data/misc_reference/x2_km.shp"
      }
    },
    {
      "type": "Feature",
      "geometry": {
        "type": "Point",
        "coordinates": [
          -122.1979,
          38.0576
        ]
      },
      "properties": {
        "feature_key": "x2_reference",
        "display_name": "X2 48 km",
        "feature_type": "x2_reference",
        "river_km": 48,
        "label_text": "48",
        "source_name": "BRIM X2 river-km reference lookup",
        "source_url": "01_raw_data/misc_reference/x2_km.shp"
      }
    },
    {
      "type": "Feature",
      "geometry": {
        "type": "Point",
        "coordinates": [
          -122.1869,
          38.0553
        ]
      },
      "properties": {
        "feature_key": "x2_reference",
        "display_name": "X2 49 km",
        "feature_type": "x2_reference",
        "river_km": 49,
        "label_text": "49",
        "source_name": "BRIM X2 river-km reference lookup",
        "source_url": "01_raw_data/misc_reference/x2_km.shp"
      }
    },
    {
      "type": "Feature",
      "geometry": {
        "type": "Point",
        "coordinates": [
          -122.1785,
          38.0492
        ]
      },
      "properties": {
        "feature_key": "x2_reference",
        "display_name": "X2 50 km",
        "feature_type": "x2_reference",
        "river_km": 50,
        "label_text": "50",
        "source_name": "BRIM X2 river-km reference lookup",
        "source_url": "01_raw_data/misc_reference/x2_km.shp"
      }
    },
    {
      "type": "Feature",
      "geometry": {
        "type": "Point",
        "coordinates": [
          -122.1707,
          38.0427
        ]
      },
      "properties": {
        "feature_key": "x2_reference",
        "display_name": "X2 51 km",
        "feature_type": "x2_reference",
        "river_km": 51,
        "label_text": "51",
        "source_name": "BRIM X2 river-km reference lookup",
        "source_url": "01_raw_data/misc_reference/x2_km.shp"
      }
    },
    {
      "type": "Feature",
      "geometry": {
        "type": "Point",
        "coordinates": [
          -122.1622,
          38.0367
        ]
      },
      "properties": {
        "feature_key": "x2_reference",
        "display_name": "X2 52 km",
        "feature_type": "x2_reference",
        "river_km": 52,
        "label_text": "52",
        "source_name": "BRIM X2 river-km reference lookup",
        "source_url": "01_raw_data/misc_reference/x2_km.shp"
      }
    },
    {
      "type": "Feature",
      "geometry": {
        "type": "Point",
        "coordinates": [
          -122.153,
          38.0315
        ]
      },
      "properties": {
        "feature_key": "x2_reference",
        "display_name": "X2 53 km",
        "feature_type": "x2_reference",
        "river_km": 53,
        "label_text": "53",
        "source_name": "BRIM X2 river-km reference lookup",
        "source_url": "01_raw_data/misc_reference/x2_km.shp"
      }
    },
    {
      "type": "Feature",
      "geometry": {
        "type": "Point",
        "coordinates": [
          -122.1418,
          38.032
        ]
      },
      "properties": {
        "feature_key": "x2_reference",
        "display_name": "X2 54 km",
        "feature_type": "x2_reference",
        "river_km": 54,
        "label_text": "54",
        "source_name": "BRIM X2 river-km reference lookup",
        "source_url": "01_raw_data/misc_reference/x2_km.shp"
      }
    },
    {
      "type": "Feature",
      "geometry": {
        "type": "Point",
        "coordinates": [
          -122.1315,
          38.0359
        ]
      },
      "properties": {
        "feature_key": "x2_reference",
        "display_name": "X2 55 km",
        "feature_type": "x2_reference",
        "river_km": 55,
        "label_text": "55",
        "source_name": "BRIM X2 river-km reference lookup",
        "source_url": "01_raw_data/misc_reference/x2_km.shp"
      }
    },
    {
      "type": "Feature",
      "geometry": {
        "type": "Point",
        "coordinates": [
          -122.1212,
          38.0398
        ]
      },
      "properties": {
        "feature_key": "x2_reference",
        "display_name": "X2 56 km",
        "feature_type": "x2_reference",
        "river_km": 56,
        "label_text": "56",
        "source_name": "BRIM X2 river-km reference lookup",
        "source_url": "01_raw_data/misc_reference/x2_km.shp"
      }
    },
    {
      "type": "Feature",
      "geometry": {
        "type": "Point",
        "coordinates": [
          -122.1109,
          38.0437
        ]
      },
      "properties": {
        "feature_key": "x2_reference",
        "display_name": "X2 57 km",
        "feature_type": "x2_reference",
        "river_km": 57,
        "label_text": "57",
        "source_name": "BRIM X2 river-km reference lookup",
        "source_url": "01_raw_data/misc_reference/x2_km.shp"
      }
    },
    {
      "type": "Feature",
      "geometry": {
        "type": "Point",
        "coordinates": [
          -122.1006,
          38.0475
        ]
      },
      "properties": {
        "feature_key": "x2_reference",
        "display_name": "X2 58 km",
        "feature_type": "x2_reference",
        "river_km": 58,
        "label_text": "58",
        "source_name": "BRIM X2 river-km reference lookup",
        "source_url": "01_raw_data/misc_reference/x2_km.shp"
      }
    },
    {
      "type": "Feature",
      "geometry": {
        "type": "Point",
        "coordinates": [
          -122.0903,
          38.0514
        ]
      },
      "properties": {
        "feature_key": "x2_reference",
        "display_name": "X2 59 km",
        "feature_type": "x2_reference",
        "river_km": 59,
        "label_text": "59",
        "source_name": "BRIM X2 river-km reference lookup",
        "source_url": "01_raw_data/misc_reference/x2_km.shp"
      }
    },
    {
      "type": "Feature",
      "geometry": {
        "type": "Point",
        "coordinates": [
          -122.08,
          38.0552
        ]
      },
      "properties": {
        "feature_key": "x2_reference",
        "display_name": "X2 60 km",
        "feature_type": "x2_reference",
        "river_km": 60,
        "label_text": "60",
        "source_name": "BRIM X2 river-km reference lookup",
        "source_url": "01_raw_data/misc_reference/x2_km.shp"
      }
    },
    {
      "type": "Feature",
      "geometry": {
        "type": "Point",
        "coordinates": [
          -122.0695,
          38.0587
        ]
      },
      "properties": {
        "feature_key": "x2_reference",
        "display_name": "X2 61 km",
        "feature_type": "x2_reference",
        "river_km": 61,
        "label_text": "61",
        "source_name": "BRIM X2 river-km reference lookup",
        "source_url": "01_raw_data/misc_reference/x2_km.shp"
      }
    },
    {
      "type": "Feature",
      "geometry": {
        "type": "Point",
        "coordinates": [
          -122.0589,
          38.0621
        ]
      },
      "properties": {
        "feature_key": "x2_reference",
        "display_name": "X2 62 km",
        "feature_type": "x2_reference",
        "river_km": 62,
        "label_text": "62",
        "source_name": "BRIM X2 river-km reference lookup",
        "source_url": "01_raw_data/misc_reference/x2_km.shp"
      }
    },
    {
      "type": "Feature",
      "geometry": {
        "type": "Point",
        "coordinates": [
          -122.0478,
          38.064
        ]
      },
      "properties": {
        "feature_key": "x2_reference",
        "display_name": "X2 63 km",
        "feature_type": "x2_reference",
        "river_km": 63,
        "label_text": "63",
        "source_name": "BRIM X2 river-km reference lookup",
        "source_url": "01_raw_data/misc_reference/x2_km.shp"
      }
    },
    {
      "type": "Feature",
      "geometry": {
        "type": "Point",
        "coordinates": [
          -122.0364,
          38.0647
        ]
      },
      "properties": {
        "feature_key": "x2_reference",
        "display_name": "X2 64 km",
        "feature_type": "x2_reference",
        "river_km": 64,
        "label_text": "64",
        "source_name": "BRIM X2 river-km reference lookup",
        "source_url": "01_raw_data/misc_reference/x2_km.shp"
      }
    },
    {
      "type": "Feature",
      "geometry": {
        "type": "Point",
        "coordinates": [
          -122.025,
          38.0639
        ]
      },
      "properties": {
        "feature_key": "x2_reference",
        "display_name": "X2 65 km",
        "feature_type": "x2_reference",
        "river_km": 65,
        "label_text": "65",
        "source_name": "BRIM X2 river-km reference lookup",
        "source_url": "01_raw_data/misc_reference/x2_km.shp"
      }
    },
    {
      "type": "Feature",
      "geometry": {
        "type": "Point",
        "coordinates": [
          -122.0137,
          38.0629
        ]
      },
      "properties": {
        "feature_key": "x2_reference",
        "display_name": "X2 66 km",
        "feature_type": "x2_reference",
        "river_km": 66,
        "label_text": "66",
        "source_name": "BRIM X2 river-km reference lookup",
        "source_url": "01_raw_data/misc_reference/x2_km.shp"
      }
    },
    {
      "type": "Feature",
      "geometry": {
        "type": "Point",
        "coordinates": [
          -122.0025,
          38.0612
        ]
      },
      "properties": {
        "feature_key": "x2_reference",
        "display_name": "X2 67 km",
        "feature_type": "x2_reference",
        "river_km": 67,
        "label_text": "67",
        "source_name": "BRIM X2 river-km reference lookup",
        "source_url": "01_raw_data/misc_reference/x2_km.shp"
      }
    },
    {
      "type": "Feature",
      "geometry": {
        "type": "Point",
        "coordinates": [
          -121.9916,
          38.0587
        ]
      },
      "properties": {
        "feature_key": "x2_reference",
        "display_name": "X2 68 km",
        "feature_type": "x2_reference",
        "river_km": 68,
        "label_text": "68",
        "source_name": "BRIM X2 river-km reference lookup",
        "source_url": "01_raw_data/misc_reference/x2_km.shp"
      }
    },
    {
      "type": "Feature",
      "geometry": {
        "type": "Point",
        "coordinates": [
          -121.9803,
          38.0575
        ]
      },
      "properties": {
        "feature_key": "x2_reference",
        "display_name": "X2 69 km",
        "feature_type": "x2_reference",
        "river_km": 69,
        "label_text": "69",
        "source_name": "BRIM X2 river-km reference lookup",
        "source_url": "01_raw_data/misc_reference/x2_km.shp"
      }
    },
    {
      "type": "Feature",
      "geometry": {
        "type": "Point",
        "coordinates": [
          -121.9689,
          38.0575
        ]
      },
      "properties": {
        "feature_key": "x2_reference",
        "display_name": "X2 70 km",
        "feature_type": "x2_reference",
        "river_km": 70,
        "label_text": "70",
        "source_name": "BRIM X2 river-km reference lookup",
        "source_url": "01_raw_data/misc_reference/x2_km.shp"
      }
    },
    {
      "type": "Feature",
      "geometry": {
        "type": "Point",
        "coordinates": [
          -121.9576,
          38.0569
        ]
      },
      "properties": {
        "feature_key": "x2_reference",
        "display_name": "X2 71 km",
        "feature_type": "x2_reference",
        "river_km": 71,
        "label_text": "71",
        "source_name": "BRIM X2 river-km reference lookup",
        "source_url": "01_raw_data/misc_reference/x2_km.shp"
      }
    },
    {
      "type": "Feature",
      "geometry": {
        "type": "Point",
        "coordinates": [
          -121.9466,
          38.0544
        ]
      },
      "properties": {
        "feature_key": "x2_reference",
        "display_name": "X2 72 km",
        "feature_type": "x2_reference",
        "river_km": 72,
        "label_text": "72",
        "source_name": "BRIM X2 river-km reference lookup",
        "source_url": "01_raw_data/misc_reference/x2_km.shp"
      }
    },
    {
      "type": "Feature",
      "geometry": {
        "type": "Point",
        "coordinates": [
          -121.9359,
          38.0514
        ]
      },
      "properties": {
        "feature_key": "x2_reference",
        "display_name": "X2 73 km",
        "feature_type": "x2_reference",
        "river_km": 73,
        "label_text": "73",
        "source_name": "BRIM X2 river-km reference lookup",
        "source_url": "01_raw_data/misc_reference/x2_km.shp"
      }
    },
    {
      "type": "Feature",
      "geometry": {
        "type": "Point",
        "coordinates": [
          -121.9253,
          38.0482
        ]
      },
      "properties": {
        "feature_key": "x2_reference",
        "display_name": "X2 74 km",
        "feature_type": "x2_reference",
        "river_km": 74,
        "label_text": "74",
        "source_name": "BRIM X2 river-km reference lookup",
        "source_url": "01_raw_data/misc_reference/x2_km.shp"
      }
    },
    {
      "type": "Feature",
      "geometry": {
        "type": "Point",
        "coordinates": [
          -121.9141,
          38.0465
        ]
      },
      "properties": {
        "feature_key": "x2_reference",
        "display_name": "X2 75 km",
        "feature_type": "x2_reference",
        "river_km": 75,
        "label_text": "75",
        "source_name": "BRIM X2 river-km reference lookup",
        "source_url": "01_raw_data/misc_reference/x2_km.shp"
      }
    },
    {
      "type": "Feature",
      "geometry": {
        "type": "Point",
        "coordinates": [
          -121.9029,
          38.0449
        ]
      },
      "properties": {
        "feature_key": "x2_reference",
        "display_name": "X2 76 km",
        "feature_type": "x2_reference",
        "river_km": 76,
        "label_text": "76",
        "source_name": "BRIM X2 river-km reference lookup",
        "source_url": "01_raw_data/misc_reference/x2_km.shp"
      }
    },
    {
      "type": "Feature",
      "geometry": {
        "type": "Point",
        "coordinates": [
          -121.8918,
          38.0468
        ]
      },
      "properties": {
        "feature_key": "x2_reference",
        "display_name": "X2 77 km",
        "feature_type": "x2_reference",
        "river_km": 77,
        "label_text": "77",
        "source_name": "BRIM X2 river-km reference lookup",
        "source_url": "01_raw_data/misc_reference/x2_km.shp"
      }
    },
    {
      "type": "Feature",
      "geometry": {
        "type": "Point",
        "coordinates": [
          -121.8813,
          38.0503
        ]
      },
      "properties": {
        "feature_key": "x2_reference",
        "display_name": "X2 78 km",
        "feature_type": "x2_reference",
        "river_km": 78,
        "label_text": "78",
        "source_name": "BRIM X2 river-km reference lookup",
        "source_url": "01_raw_data/misc_reference/x2_km.shp"
      }
    },
    {
      "type": "Feature",
      "geometry": {
        "type": "Point",
        "coordinates": [
          -121.8712,
          38.0544
        ]
      },
      "properties": {
        "feature_key": "x2_reference",
        "display_name": "X2 79 km",
        "feature_type": "x2_reference",
        "river_km": 79,
        "label_text": "79",
        "source_name": "BRIM X2 river-km reference lookup",
        "source_url": "01_raw_data/misc_reference/x2_km.shp"
      }
    },
    {
      "type": "Feature",
      "geometry": {
        "type": "Point",
        "coordinates": [
          -121.8627,
          38.0604
        ]
      },
      "properties": {
        "feature_key": "x2_reference",
        "display_name": "X2 80 km",
        "feature_type": "x2_reference",
        "river_km": 80,
        "label_text": "80",
        "source_name": "BRIM X2 river-km reference lookup",
        "source_url": "01_raw_data/misc_reference/x2_km.shp"
      }
    },
    {
      "type": "Feature",
      "geometry": {
        "type": "Point",
        "coordinates": [
          -121.8535,
          38.0654
        ]
      },
      "properties": {
        "feature_key": "x2_reference",
        "display_name": "X2 81 km",
        "feature_type": "x2_reference",
        "river_km": 81,
        "label_text": "81",
        "source_name": "BRIM X2 river-km reference lookup",
        "source_url": "01_raw_data/misc_reference/x2_km.shp"
      }
    },
    {
      "type": "Feature",
      "geometry": {
        "type": "Point",
        "coordinates": [
          -121.8424,
          38.0672
        ]
      },
      "properties": {
        "feature_key": "x2_reference",
        "display_name": "X2 82 km",
        "feature_type": "x2_reference",
        "river_km": 82,
        "label_text": "82",
        "source_name": "BRIM X2 river-km reference lookup",
        "source_url": "01_raw_data/misc_reference/x2_km.shp"
      }
    },
    {
      "type": "Feature",
      "geometry": {
        "type": "Point",
        "coordinates": [
          -121.8313,
          38.0668
        ]
      },
      "properties": {
        "feature_key": "x2_reference",
        "display_name": "X2 83 km",
        "feature_type": "x2_reference",
        "river_km": 83,
        "label_text": "83",
        "source_name": "BRIM X2 river-km reference lookup",
        "source_url": "01_raw_data/misc_reference/x2_km.shp"
      }
    },
    {
      "type": "Feature",
      "geometry": {
        "type": "Point",
        "coordinates": [
          -121.8205,
          38.0637
        ]
      },
      "properties": {
        "feature_key": "x2_reference",
        "display_name": "X2 84 km",
        "feature_type": "x2_reference",
        "river_km": 84,
        "label_text": "84",
        "source_name": "BRIM X2 river-km reference lookup",
        "source_url": "01_raw_data/misc_reference/x2_km.shp"
      }
    },
    {
      "type": "Feature",
      "geometry": {
        "type": "Point",
        "coordinates": [
          -121.8098,
          38.0606
        ]
      },
      "properties": {
        "feature_key": "x2_reference",
        "display_name": "X2 85 km",
        "feature_type": "x2_reference",
        "river_km": 85,
        "label_text": "85",
        "source_name": "BRIM X2 river-km reference lookup",
        "source_url": "01_raw_data/misc_reference/x2_km.shp"
      }
    },
    {
      "type": "Feature",
      "geometry": {
        "type": "Point",
        "coordinates": [
          -121.799,
          38.0604
        ]
      },
      "properties": {
        "feature_key": "x2_reference",
        "display_name": "X2 86 km",
        "feature_type": "x2_reference",
        "river_km": 86,
        "label_text": "86",
        "source_name": "BRIM X2 river-km reference lookup",
        "source_url": "01_raw_data/misc_reference/x2_km.shp"
      }
    },
    {
      "type": "Feature",
      "geometry": {
        "type": "Point",
        "coordinates": [
          -121.7882,
          38.0633
        ]
      },
      "properties": {
        "feature_key": "x2_reference",
        "display_name": "X2 87 km",
        "feature_type": "x2_reference",
        "river_km": 87,
        "label_text": "87",
        "source_name": "BRIM X2 river-km reference lookup",
        "source_url": "01_raw_data/misc_reference/x2_km.shp"
      }
    },
    {
      "type": "Feature",
      "geometry": {
        "type": "Point",
        "coordinates": [
          -121.7787,
          38.0682
        ]
      },
      "properties": {
        "feature_key": "x2_reference",
        "display_name": "X2 88 km",
        "feature_type": "x2_reference",
        "river_km": 88,
        "label_text": "88",
        "source_name": "BRIM X2 river-km reference lookup",
        "source_url": "01_raw_data/misc_reference/x2_km.shp"
      }
    },
    {
      "type": "Feature",
      "geometry": {
        "type": "Point",
        "coordinates": [
          -121.7692,
          38.0732
        ]
      },
      "properties": {
        "feature_key": "x2_reference",
        "display_name": "X2 89 km",
        "feature_type": "x2_reference",
        "river_km": 89,
        "label_text": "89",
        "source_name": "BRIM X2 river-km reference lookup",
        "source_url": "01_raw_data/misc_reference/x2_km.shp"
      }
    },
    {
      "type": "Feature",
      "geometry": {
        "type": "Point",
        "coordinates": [
          -121.7597,
          38.0782
        ]
      },
      "properties": {
        "feature_key": "x2_reference",
        "display_name": "X2 90 km",
        "feature_type": "x2_reference",
        "river_km": 90,
        "label_text": "90",
        "source_name": "BRIM X2 river-km reference lookup",
        "source_url": "01_raw_data/misc_reference/x2_km.shp"
      }
    },
    {
      "type": "Feature",
      "geometry": {
        "type": "Point",
        "coordinates": [
          -121.7502,
          38.0831
        ]
      },
      "properties": {
        "feature_key": "x2_reference",
        "display_name": "X2 91 km",
        "feature_type": "x2_reference",
        "river_km": 91,
        "label_text": "91",
        "source_name": "BRIM X2 river-km reference lookup",
        "source_url": "01_raw_data/misc_reference/x2_km.shp"
      }
    },
    {
      "type": "Feature",
      "geometry": {
        "type": "Point",
        "coordinates": [
          -121.7413,
          38.0888
        ]
      },
      "properties": {
        "feature_key": "x2_reference",
        "display_name": "X2 92 km",
        "feature_type": "x2_reference",
        "river_km": 92,
        "label_text": "92",
        "source_name": "BRIM X2 river-km reference lookup",
        "source_url": "01_raw_data/misc_reference/x2_km.shp"
      }
    },
    {
      "type": "Feature",
      "geometry": {
        "type": "Point",
        "coordinates": [
          -121.7327,
          38.0947
        ]
      },
      "properties": {
        "feature_key": "x2_reference",
        "display_name": "X2 93 km",
        "feature_type": "x2_reference",
        "river_km": 93,
        "label_text": "93",
        "source_name": "BRIM X2 river-km reference lookup",
        "source_url": "01_raw_data/misc_reference/x2_km.shp"
      }
    },
    {
      "type": "Feature",
      "geometry": {
        "type": "Point",
        "coordinates": [
          -121.7242,
          38.1007
        ]
      },
      "properties": {
        "feature_key": "x2_reference",
        "display_name": "X2 94 km",
        "feature_type": "x2_reference",
        "river_km": 94,
        "label_text": "94",
        "source_name": "BRIM X2 river-km reference lookup",
        "source_url": "01_raw_data/misc_reference/x2_km.shp"
      }
    },
    {
      "type": "Feature",
      "geometry": {
        "type": "Point",
        "coordinates": [
          -121.7157,
          38.1067
        ]
      },
      "properties": {
        "feature_key": "x2_reference",
        "display_name": "X2 95 km",
        "feature_type": "x2_reference",
        "river_km": 95,
        "label_text": "95",
        "source_name": "BRIM X2 river-km reference lookup",
        "source_url": "01_raw_data/misc_reference/x2_km.shp"
      }
    },
    {
      "type": "Feature",
      "geometry": {
        "type": "Point",
        "coordinates": [
          -121.7074,
          38.1129
        ]
      },
      "properties": {
        "feature_key": "x2_reference",
        "display_name": "X2 96 km",
        "feature_type": "x2_reference",
        "river_km": 96,
        "label_text": "96",
        "source_name": "BRIM X2 river-km reference lookup",
        "source_url": "01_raw_data/misc_reference/x2_km.shp"
      }
    },
    {
      "type": "Feature",
      "geometry": {
        "type": "Point",
        "coordinates": [
          -121.7009,
          38.1201
        ]
      },
      "properties": {
        "feature_key": "x2_reference",
        "display_name": "X2 97 km",
        "feature_type": "x2_reference",
        "river_km": 97,
        "label_text": "97",
        "source_name": "BRIM X2 river-km reference lookup",
        "source_url": "01_raw_data/misc_reference/x2_km.shp"
      }
    },
    {
      "type": "Feature",
      "geometry": {
        "type": "Point",
        "coordinates": [
          -121.6961,
          38.1283
        ]
      },
      "properties": {
        "feature_key": "x2_reference",
        "display_name": "X2 98 km",
        "feature_type": "x2_reference",
        "river_km": 98,
        "label_text": "98",
        "source_name": "BRIM X2 river-km reference lookup",
        "source_url": "01_raw_data/misc_reference/x2_km.shp"
      }
    },
    {
      "type": "Feature",
      "geometry": {
        "type": "Point",
        "coordinates": [
          -121.6915,
          38.1365
        ]
      },
      "properties": {
        "feature_key": "x2_reference",
        "display_name": "X2 99 km",
        "feature_type": "x2_reference",
        "river_km": 99,
        "label_text": "99",
        "source_name": "BRIM X2 river-km reference lookup",
        "source_url": "01_raw_data/misc_reference/x2_km.shp"
      }
    },
    {
      "type": "Feature",
      "geometry": {
        "type": "Point",
        "coordinates": [
          -121.6882,
          38.1451
        ]
      },
      "properties": {
        "feature_key": "x2_reference",
        "display_name": "X2 100 km",
        "feature_type": "x2_reference",
        "river_km": 100,
        "label_text": "100",
        "source_name": "BRIM X2 river-km reference lookup",
        "source_url": "01_raw_data/misc_reference/x2_km.shp"
      }
    },
    {
      "type": "Feature",
      "geometry": {
        "type": "Point",
        "coordinates": [
          -121.6849,
          38.1537
        ]
      },
      "properties": {
        "feature_key": "x2_reference",
        "display_name": "X2 101 km",
        "feature_type": "x2_reference",
        "river_km": 101,
        "label_text": "101",
        "source_name": "BRIM X2 river-km reference lookup",
        "source_url": "01_raw_data/misc_reference/x2_km.shp"
      }
    },
    {
      "type": "Feature",
      "geometry": {
        "type": "Point",
        "coordinates": [
          -121.6809,
          38.162
        ]
      },
      "properties": {
        "feature_key": "x2_reference",
        "display_name": "X2 102 km",
        "feature_type": "x2_reference",
        "river_km": 102,
        "label_text": "102",
        "source_name": "BRIM X2 river-km reference lookup",
        "source_url": "01_raw_data/misc_reference/x2_km.shp"
      }
    },
    {
      "type": "Feature",
      "geometry": {
        "type": "Point",
        "coordinates": [
          -121.6735,
          38.1689
        ]
      },
      "properties": {
        "feature_key": "x2_reference",
        "display_name": "X2 103 km",
        "feature_type": "x2_reference",
        "river_km": 103,
        "label_text": "103",
        "source_name": "BRIM X2 river-km reference lookup",
        "source_url": "01_raw_data/misc_reference/x2_km.shp"
      }
    },
    {
      "type": "Feature",
      "geometry": {
        "type": "Point",
        "coordinates": [
          -121.666,
          38.1756
        ]
      },
      "properties": {
        "feature_key": "x2_reference",
        "display_name": "X2 104 km",
        "feature_type": "x2_reference",
        "river_km": 104,
        "label_text": "104",
        "source_name": "BRIM X2 river-km reference lookup",
        "source_url": "01_raw_data/misc_reference/x2_km.shp"
      }
    },
    {
      "type": "Feature",
      "geometry": {
        "type": "Point",
        "coordinates": [
          -121.6551,
          38.1747
        ]
      },
      "properties": {
        "feature_key": "x2_reference",
        "display_name": "X2 105 km",
        "feature_type": "x2_reference",
        "river_km": 105,
        "label_text": "105",
        "source_name": "BRIM X2 river-km reference lookup",
        "source_url": "01_raw_data/misc_reference/x2_km.shp"
      }
    },
    {
      "type": "Feature",
      "geometry": {
        "type": "Point",
        "coordinates": [
          -121.644,
          38.1727
        ]
      },
      "properties": {
        "feature_key": "x2_reference",
        "display_name": "X2 106 km",
        "feature_type": "x2_reference",
        "river_km": 106,
        "label_text": "106",
        "source_name": "BRIM X2 river-km reference lookup",
        "source_url": "01_raw_data/misc_reference/x2_km.shp"
      }
    },
    {
      "type": "Feature",
      "geometry": {
        "type": "Point",
        "coordinates": [
          -121.6332,
          38.1708
        ]
      },
      "properties": {
        "feature_key": "x2_reference",
        "display_name": "X2 107 km",
        "feature_type": "x2_reference",
        "river_km": 107,
        "label_text": "107",
        "source_name": "BRIM X2 river-km reference lookup",
        "source_url": "01_raw_data/misc_reference/x2_km.shp"
      }
    },
    {
      "type": "Feature",
      "geometry": {
        "type": "Point",
        "coordinates": [
          -121.6239,
          38.1657
        ]
      },
      "properties": {
        "feature_key": "x2_reference",
        "display_name": "X2 108 km",
        "feature_type": "x2_reference",
        "river_km": 108,
        "label_text": "108",
        "source_name": "BRIM X2 river-km reference lookup",
        "source_url": "01_raw_data/misc_reference/x2_km.shp"
      }
    },
    {
      "type": "Feature",
      "geometry": {
        "type": "Point",
        "coordinates": [
          -121.613,
          38.1635
        ]
      },
      "properties": {
        "feature_key": "x2_reference",
        "display_name": "X2 109 km",
        "feature_type": "x2_reference",
        "river_km": 109,
        "label_text": "109",
        "source_name": "BRIM X2 river-km reference lookup",
        "source_url": "01_raw_data/misc_reference/x2_km.shp"
      }
    },
    {
      "type": "Feature",
      "geometry": {
        "type": "Point",
        "coordinates": [
          -121.6022,
          38.1656
        ]
      },
      "properties": {
        "feature_key": "x2_reference",
        "display_name": "X2 110 km",
        "feature_type": "x2_reference",
        "river_km": 110,
        "label_text": "110",
        "source_name": "BRIM X2 river-km reference lookup",
        "source_url": "01_raw_data/misc_reference/x2_km.shp"
      }
    },
    {
      "type": "Feature",
      "geometry": {
        "type": "Point",
        "coordinates": [
          -121.594,
          38.1716
        ]
      },
      "properties": {
        "feature_key": "x2_reference",
        "display_name": "X2 111 km",
        "feature_type": "x2_reference",
        "river_km": 111,
        "label_text": "111",
        "source_name": "BRIM X2 river-km reference lookup",
        "source_url": "01_raw_data/misc_reference/x2_km.shp"
      }
    },
    {
      "type": "Feature",
      "geometry": {
        "type": "Point",
        "coordinates": [
          -121.5885,
          38.1795
        ]
      },
      "properties": {
        "feature_key": "x2_reference",
        "display_name": "X2 112 km",
        "feature_type": "x2_reference",
        "river_km": 112,
        "label_text": "112",
        "source_name": "BRIM X2 river-km reference lookup",
        "source_url": "01_raw_data/misc_reference/x2_km.shp"
      }
    },
    {
      "type": "Feature",
      "geometry": {
        "type": "Point",
        "coordinates": [
          -121.5817,
          38.1867
        ]
      },
      "properties": {
        "feature_key": "x2_reference",
        "display_name": "X2 113 km",
        "feature_type": "x2_reference",
        "river_km": 113,
        "label_text": "113",
        "source_name": "BRIM X2 river-km reference lookup",
        "source_url": "01_raw_data/misc_reference/x2_km.shp"
      }
    },
    {
      "type": "Feature",
      "geometry": {
        "type": "Point",
        "coordinates": [
          -121.5719,
          38.1911
        ]
      },
      "properties": {
        "feature_key": "x2_reference",
        "display_name": "X2 114 km",
        "feature_type": "x2_reference",
        "river_km": 114,
        "label_text": "114",
        "source_name": "BRIM X2 river-km reference lookup",
        "source_url": "01_raw_data/misc_reference/x2_km.shp"
      }
    },
    {
      "type": "Feature",
      "geometry": {
        "type": "Point",
        "coordinates": [
          -121.5618,
          38.1952
        ]
      },
      "properties": {
        "feature_key": "x2_reference",
        "display_name": "X2 115 km",
        "feature_type": "x2_reference",
        "river_km": 115,
        "label_text": "115",
        "source_name": "BRIM X2 river-km reference lookup",
        "source_url": "01_raw_data/misc_reference/x2_km.shp"
      }
    },
    {
      "type": "Feature",
      "geometry": {
        "type": "Point",
        "coordinates": [
          -121.5576,
          38.2032
        ]
      },
      "properties": {
        "feature_key": "x2_reference",
        "display_name": "X2 116 km",
        "feature_type": "x2_reference",
        "river_km": 116,
        "label_text": "116",
        "source_name": "BRIM X2 river-km reference lookup",
        "source_url": "01_raw_data/misc_reference/x2_km.shp"
      }
    },
    {
      "type": "Feature",
      "geometry": {
        "type": "Point",
        "coordinates": [
          -121.5577,
          38.2122
        ]
      },
      "properties": {
        "feature_key": "x2_reference",
        "display_name": "X2 117 km",
        "feature_type": "x2_reference",
        "river_km": 117,
        "label_text": "117",
        "source_name": "BRIM X2 river-km reference lookup",
        "source_url": "01_raw_data/misc_reference/x2_km.shp"
      }
    },
    {
      "type": "Feature",
      "geometry": {
        "type": "Point",
        "coordinates": [
          -121.5569,
          38.2211
        ]
      },
      "properties": {
        "feature_key": "x2_reference",
        "display_name": "X2 118 km",
        "feature_type": "x2_reference",
        "river_km": 118,
        "label_text": "118",
        "source_name": "BRIM X2 river-km reference lookup",
        "source_url": "01_raw_data/misc_reference/x2_km.shp"
      }
    },
    {
      "type": "Feature",
      "geometry": {
        "type": "Point",
        "coordinates": [
          -121.5564,
          38.23
        ]
      },
      "properties": {
        "feature_key": "x2_reference",
        "display_name": "X2 119 km",
        "feature_type": "x2_reference",
        "river_km": 119,
        "label_text": "119",
        "source_name": "BRIM X2 river-km reference lookup",
        "source_url": "01_raw_data/misc_reference/x2_km.shp"
      }
    },
    {
      "type": "Feature",
      "geometry": {
        "type": "Point",
        "coordinates": [
          -121.5575,
          38.2385
        ]
      },
      "properties": {
        "feature_key": "x2_reference",
        "display_name": "X2 120 km",
        "feature_type": "x2_reference",
        "river_km": 120,
        "label_text": "120",
        "source_name": "BRIM X2 river-km reference lookup",
        "source_url": "01_raw_data/misc_reference/x2_km.shp"
      }
    },
    {
      "type": "Feature",
      "geometry": {
        "type": "Point",
        "coordinates": [
          -121.5483,
          38.2417
        ]
      },
      "properties": {
        "feature_key": "x2_reference",
        "display_name": "X2 121 km",
        "feature_type": "x2_reference",
        "river_km": 121,
        "label_text": "121",
        "source_name": "BRIM X2 river-km reference lookup",
        "source_url": "01_raw_data/misc_reference/x2_km.shp"
      }
    },
    {
      "type": "Feature",
      "geometry": {
        "type": "Point",
        "coordinates": [
          -121.5373,
          38.2393
        ]
      },
      "properties": {
        "feature_key": "x2_reference",
        "display_name": "X2 122 km",
        "feature_type": "x2_reference",
        "river_km": 122,
        "label_text": "122",
        "source_name": "BRIM X2 river-km reference lookup",
        "source_url": "01_raw_data/misc_reference/x2_km.shp"
      }
    },
    {
      "type": "Feature",
      "geometry": {
        "type": "Point",
        "coordinates": [
          -121.5261,
          38.2385
        ]
      },
      "properties": {
        "feature_key": "x2_reference",
        "display_name": "X2 123 km",
        "feature_type": "x2_reference",
        "river_km": 123,
        "label_text": "123",
        "source_name": "BRIM X2 river-km reference lookup",
        "source_url": "01_raw_data/misc_reference/x2_km.shp"
      }
    },
    {
      "type": "Feature",
      "geometry": {
        "type": "Point",
        "coordinates": [
          -121.5157,
          38.2412
        ]
      },
      "properties": {
        "feature_key": "x2_reference",
        "display_name": "X2 124 km",
        "feature_type": "x2_reference",
        "river_km": 124,
        "label_text": "124",
        "source_name": "BRIM X2 river-km reference lookup",
        "source_url": "01_raw_data/misc_reference/x2_km.shp"
      }
    },
    {
      "type": "Feature",
      "geometry": {
        "type": "Point",
        "coordinates": [
          -121.5109,
          38.249
        ]
      },
      "properties": {
        "feature_key": "x2_reference",
        "display_name": "X2 125 km",
        "feature_type": "x2_reference",
        "river_km": 125,
        "label_text": "125",
        "source_name": "BRIM X2 river-km reference lookup",
        "source_url": "01_raw_data/misc_reference/x2_km.shp"
      }
    },
    {
      "type": "Feature",
      "geometry": {
        "type": "Point",
        "coordinates": [
          -121.516,
          38.2566
        ]
      },
      "properties": {
        "feature_key": "x2_reference",
        "display_name": "X2 126 km",
        "feature_type": "x2_reference",
        "river_km": 126,
        "label_text": "126",
        "source_name": "BRIM X2 river-km reference lookup",
        "source_url": "01_raw_data/misc_reference/x2_km.shp"
      }
    },
    {
      "type": "Feature",
      "geometry": {
        "type": "Point",
        "coordinates": [
          -121.5242,
          38.2629
        ]
      },
      "properties": {
        "feature_key": "x2_reference",
        "display_name": "X2 127 km",
        "feature_type": "x2_reference",
        "river_km": 127,
        "label_text": "127",
        "source_name": "BRIM X2 river-km reference lookup",
        "source_url": "01_raw_data/misc_reference/x2_km.shp"
      }
    },
    {
      "type": "Feature",
      "geometry": {
        "type": "Point",
        "coordinates": [
          -121.5326,
          38.269
        ]
      },
      "properties": {
        "feature_key": "x2_reference",
        "display_name": "X2 128 km",
        "feature_type": "x2_reference",
        "river_km": 128,
        "label_text": "128",
        "source_name": "BRIM X2 river-km reference lookup",
        "source_url": "01_raw_data/misc_reference/x2_km.shp"
      }
    },
    {
      "type": "Feature",
      "geometry": {
        "type": "Point",
        "coordinates": [
          -121.541,
          38.2751
        ]
      },
      "properties": {
        "feature_key": "x2_reference",
        "display_name": "X2 129 km",
        "feature_type": "x2_reference",
        "river_km": 129,
        "label_text": "129",
        "source_name": "BRIM X2 river-km reference lookup",
        "source_url": "01_raw_data/misc_reference/x2_km.shp"
      }
    },
    {
      "type": "Feature",
      "geometry": {
        "type": "Point",
        "coordinates": [
          -121.5487,
          38.2818
        ]
      },
      "properties": {
        "feature_key": "x2_reference",
        "display_name": "X2 130 km",
        "feature_type": "x2_reference",
        "river_km": 130,
        "label_text": "130",
        "source_name": "BRIM X2 river-km reference lookup",
        "source_url": "01_raw_data/misc_reference/x2_km.shp"
      }
    },
    {
      "type": "Feature",
      "geometry": {
        "type": "Point",
        "coordinates": [
          -121.5574,
          38.2876
        ]
      },
      "properties": {
        "feature_key": "x2_reference",
        "display_name": "X2 131 km",
        "feature_type": "x2_reference",
        "river_km": 131,
        "label_text": "131",
        "source_name": "BRIM X2 river-km reference lookup",
        "source_url": "01_raw_data/misc_reference/x2_km.shp"
      }
    },
    {
      "type": "Feature",
      "geometry": {
        "type": "Point",
        "coordinates": [
          -121.5646,
          38.2946
        ]
      },
      "properties": {
        "feature_key": "x2_reference",
        "display_name": "X2 132 km",
        "feature_type": "x2_reference",
        "river_km": 132,
        "label_text": "132",
        "source_name": "BRIM X2 river-km reference lookup",
        "source_url": "01_raw_data/misc_reference/x2_km.shp"
      }
    },
    {
      "type": "Feature",
      "geometry": {
        "type": "Point",
        "coordinates": [
          -121.5709,
          38.3021
        ]
      },
      "properties": {
        "feature_key": "x2_reference",
        "display_name": "X2 133 km",
        "feature_type": "x2_reference",
        "river_km": 133,
        "label_text": "133",
        "source_name": "BRIM X2 river-km reference lookup",
        "source_url": "01_raw_data/misc_reference/x2_km.shp"
      }
    },
    {
      "type": "Feature",
      "geometry": {
        "type": "Point",
        "coordinates": [
          -121.5761,
          38.31
        ]
      },
      "properties": {
        "feature_key": "x2_reference",
        "display_name": "X2 134 km",
        "feature_type": "x2_reference",
        "river_km": 134,
        "label_text": "134",
        "source_name": "BRIM X2 river-km reference lookup",
        "source_url": "01_raw_data/misc_reference/x2_km.shp"
      }
    },
    {
      "type": "Feature",
      "geometry": {
        "type": "Point",
        "coordinates": [
          -121.5776,
          38.3189
        ]
      },
      "properties": {
        "feature_key": "x2_reference",
        "display_name": "X2 135 km",
        "feature_type": "x2_reference",
        "river_km": 135,
        "label_text": "135",
        "source_name": "BRIM X2 river-km reference lookup",
        "source_url": "01_raw_data/misc_reference/x2_km.shp"
      }
    },
    {
      "type": "Feature",
      "geometry": {
        "type": "Point",
        "coordinates": [
          -121.5755,
          38.3276
        ]
      },
      "properties": {
        "feature_key": "x2_reference",
        "display_name": "X2 136 km",
        "feature_type": "x2_reference",
        "river_km": 136,
        "label_text": "136",
        "source_name": "BRIM X2 river-km reference lookup",
        "source_url": "01_raw_data/misc_reference/x2_km.shp"
      }
    },
    {
      "type": "Feature",
      "geometry": {
        "type": "Point",
        "coordinates": [
          -121.5684,
          38.3346
        ]
      },
      "properties": {
        "feature_key": "x2_reference",
        "display_name": "X2 137 km",
        "feature_type": "x2_reference",
        "river_km": 137,
        "label_text": "137",
        "source_name": "BRIM X2 river-km reference lookup",
        "source_url": "01_raw_data/misc_reference/x2_km.shp"
      }
    },
    {
      "type": "Feature",
      "geometry": {
        "type": "Point",
        "coordinates": [
          -121.5608,
          38.3413
        ]
      },
      "properties": {
        "feature_key": "x2_reference",
        "display_name": "X2 138 km",
        "feature_type": "x2_reference",
        "river_km": 138,
        "label_text": "138",
        "source_name": "BRIM X2 river-km reference lookup",
        "source_url": "01_raw_data/misc_reference/x2_km.shp"
      }
    },
    {
      "type": "Feature",
      "geometry": {
        "type": "Point",
        "coordinates": [
          -121.5511,
          38.3453
        ]
      },
      "properties": {
        "feature_key": "x2_reference",
        "display_name": "X2 139 km",
        "feature_type": "x2_reference",
        "river_km": 139,
        "label_text": "139",
        "source_name": "BRIM X2 river-km reference lookup",
        "source_url": "01_raw_data/misc_reference/x2_km.shp"
      }
    },
    {
      "type": "Feature",
      "geometry": {
        "type": "Point",
        "coordinates": [
          -121.5399,
          38.3473
        ]
      },
      "properties": {
        "feature_key": "x2_reference",
        "display_name": "X2 140 km",
        "feature_type": "x2_reference",
        "river_km": 140,
        "label_text": "140",
        "source_name": "BRIM X2 river-km reference lookup",
        "source_url": "01_raw_data/misc_reference/x2_km.shp"
      }
    },
    {
      "type": "Feature",
      "geometry": {
        "type": "Point",
        "coordinates": [
          -121.5313,
          38.353
        ]
      },
      "properties": {
        "feature_key": "x2_reference",
        "display_name": "X2 141 km",
        "feature_type": "x2_reference",
        "river_km": 141,
        "label_text": "141",
        "source_name": "BRIM X2 river-km reference lookup",
        "source_url": "01_raw_data/misc_reference/x2_km.shp"
      }
    },
    {
      "type": "Feature",
      "geometry": {
        "type": "Point",
        "coordinates": [
          -121.5245,
          38.3602
        ]
      },
      "properties": {
        "feature_key": "x2_reference",
        "display_name": "X2 142 km",
        "feature_type": "x2_reference",
        "river_km": 142,
        "label_text": "142",
        "source_name": "BRIM X2 river-km reference lookup",
        "source_url": "01_raw_data/misc_reference/x2_km.shp"
      }
    },
    {
      "type": "Feature",
      "geometry": {
        "type": "Point",
        "coordinates": [
          -121.5215,
          38.3682
        ]
      },
      "properties": {
        "feature_key": "x2_reference",
        "display_name": "X2 143 km",
        "feature_type": "x2_reference",
        "river_km": 143,
        "label_text": "143",
        "source_name": "BRIM X2 river-km reference lookup",
        "source_url": "01_raw_data/misc_reference/x2_km.shp"
      }
    },
    {
      "type": "Feature",
      "geometry": {
        "type": "Point",
        "coordinates": [
          -121.5236,
          38.377
        ]
      },
      "properties": {
        "feature_key": "x2_reference",
        "display_name": "X2 144 km",
        "feature_type": "x2_reference",
        "river_km": 144,
        "label_text": "144",
        "source_name": "BRIM X2 river-km reference lookup",
        "source_url": "01_raw_data/misc_reference/x2_km.shp"
      }
    },
    {
      "type": "Feature",
      "geometry": {
        "type": "Point",
        "coordinates": [
          -121.5182,
          38.3841
        ]
      },
      "properties": {
        "feature_key": "x2_reference",
        "display_name": "X2 145 km",
        "feature_type": "x2_reference",
        "river_km": 145,
        "label_text": "145",
        "source_name": "BRIM X2 river-km reference lookup",
        "source_url": "01_raw_data/misc_reference/x2_km.shp"
      }
    },
    {
      "type": "Feature",
      "geometry": {
        "type": "Point",
        "coordinates": [
          -121.5139,
          38.3916
        ]
      },
      "properties": {
        "feature_key": "x2_reference",
        "display_name": "X2 146 km",
        "feature_type": "x2_reference",
        "river_km": 146,
        "label_text": "146",
        "source_name": "BRIM X2 river-km reference lookup",
        "source_url": "01_raw_data/misc_reference/x2_km.shp"
      }
    },
    {
      "type": "Feature",
      "geometry": {
        "type": "Point",
        "coordinates": [
          -121.5139,
          38.4006
        ]
      },
      "properties": {
        "feature_key": "x2_reference",
        "display_name": "X2 147 km",
        "feature_type": "x2_reference",
        "river_km": 147,
        "label_text": "147",
        "source_name": "BRIM X2 river-km reference lookup",
        "source_url": "01_raw_data/misc_reference/x2_km.shp"
      }
    },
    {
      "type": "Feature",
      "geometry": {
        "type": "Point",
        "coordinates": [
          -121.5177,
          38.4089
        ]
      },
      "properties": {
        "feature_key": "x2_reference",
        "display_name": "X2 148 km",
        "feature_type": "x2_reference",
        "river_km": 148,
        "label_text": "148",
        "source_name": "BRIM X2 river-km reference lookup",
        "source_url": "01_raw_data/misc_reference/x2_km.shp"
      }
    },
    {
      "type": "Feature",
      "geometry": {
        "type": "Point",
        "coordinates": [
          -121.523,
          38.4169
        ]
      },
      "properties": {
        "feature_key": "x2_reference",
        "display_name": "X2 149 km",
        "feature_type": "x2_reference",
        "river_km": 149,
        "label_text": "149",
        "source_name": "BRIM X2 river-km reference lookup",
        "source_url": "01_raw_data/misc_reference/x2_km.shp"
      }
    },
    {
      "type": "Feature",
      "geometry": {
        "type": "Point",
        "coordinates": [
          -121.5291,
          38.4245
        ]
      },
      "properties": {
        "feature_key": "x2_reference",
        "display_name": "X2 150 km",
        "feature_type": "x2_reference",
        "river_km": 150,
        "label_text": "150",
        "source_name": "BRIM X2 river-km reference lookup",
        "source_url": "01_raw_data/misc_reference/x2_km.shp"
      }
    },
    {
      "type": "Feature",
      "geometry": {
        "type": "Point",
        "coordinates": [
          -121.5325,
          38.4327
        ]
      },
      "properties": {
        "feature_key": "x2_reference",
        "display_name": "X2 151 km",
        "feature_type": "x2_reference",
        "river_km": 151,
        "label_text": "151",
        "source_name": "BRIM X2 river-km reference lookup",
        "source_url": "01_raw_data/misc_reference/x2_km.shp"
      }
    },
    {
      "type": "Feature",
      "geometry": {
        "type": "Point",
        "coordinates": [
          -121.5225,
          38.4348
        ]
      },
      "properties": {
        "feature_key": "x2_reference",
        "display_name": "X2 152 km",
        "feature_type": "x2_reference",
        "river_km": 152,
        "label_text": "152",
        "source_name": "BRIM X2 river-km reference lookup",
        "source_url": "01_raw_data/misc_reference/x2_km.shp"
      }
    },
    {
      "type": "Feature",
      "geometry": {
        "type": "Point",
        "coordinates": [
          -121.5113,
          38.4358
        ]
      },
      "properties": {
        "feature_key": "x2_reference",
        "display_name": "X2 153 km",
        "feature_type": "x2_reference",
        "river_km": 153,
        "label_text": "153",
        "source_name": "BRIM X2 river-km reference lookup",
        "source_url": "01_raw_data/misc_reference/x2_km.shp"
      }
    },
    {
      "type": "Feature",
      "geometry": {
        "type": "Point",
        "coordinates": [
          -121.503,
          38.4413
        ]
      },
      "properties": {
        "feature_key": "x2_reference",
        "display_name": "X2 154 km",
        "feature_type": "x2_reference",
        "river_km": 154,
        "label_text": "154",
        "source_name": "BRIM X2 river-km reference lookup",
        "source_url": "01_raw_data/misc_reference/x2_km.shp"
      }
    },
    {
      "type": "Feature",
      "geometry": {
        "type": "Point",
        "coordinates": [
          -121.501,
          38.45
        ]
      },
      "properties": {
        "feature_key": "x2_reference",
        "display_name": "X2 155 km",
        "feature_type": "x2_reference",
        "river_km": 155,
        "label_text": "155",
        "source_name": "BRIM X2 river-km reference lookup",
        "source_url": "01_raw_data/misc_reference/x2_km.shp"
      }
    },
    {
      "type": "Feature",
      "geometry": {
        "type": "Point",
        "coordinates": [
          -121.5028,
          38.4589
        ]
      },
      "properties": {
        "feature_key": "x2_reference",
        "display_name": "X2 156 km",
        "feature_type": "x2_reference",
        "river_km": 156,
        "label_text": "156",
        "source_name": "BRIM X2 river-km reference lookup",
        "source_url": "01_raw_data/misc_reference/x2_km.shp"
      }
    },
    {
      "type": "Feature",
      "geometry": {
        "type": "Point",
        "coordinates": [
          -121.5049,
          38.4678
        ]
      },
      "properties": {
        "feature_key": "x2_reference",
        "display_name": "X2 157 km",
        "feature_type": "x2_reference",
        "river_km": 157,
        "label_text": "157",
        "source_name": "BRIM X2 river-km reference lookup",
        "source_url": "01_raw_data/misc_reference/x2_km.shp"
      }
    },
    {
      "type": "Feature",
      "geometry": {
        "type": "Point",
        "coordinates": [
          -121.5123,
          38.4735
        ]
      },
      "properties": {
        "feature_key": "x2_reference",
        "display_name": "X2 158 km",
        "feature_type": "x2_reference",
        "river_km": 158,
        "label_text": "158",
        "source_name": "BRIM X2 river-km reference lookup",
        "source_url": "01_raw_data/misc_reference/x2_km.shp"
      }
    },
    {
      "type": "Feature",
      "geometry": {
        "type": "Point",
        "coordinates": [
          -121.5237,
          38.4741
        ]
      },
      "properties": {
        "feature_key": "x2_reference",
        "display_name": "X2 159 km",
        "feature_type": "x2_reference",
        "river_km": 159,
        "label_text": "159",
        "source_name": "BRIM X2 river-km reference lookup",
        "source_url": "01_raw_data/misc_reference/x2_km.shp"
      }
    },
    {
      "type": "Feature",
      "geometry": {
        "type": "Point",
        "coordinates": [
          -121.5352,
          38.4734
        ]
      },
      "properties": {
        "feature_key": "x2_reference",
        "display_name": "X2 160 km",
        "feature_type": "x2_reference",
        "river_km": 160,
        "label_text": "160",
        "source_name": "BRIM X2 river-km reference lookup",
        "source_url": "01_raw_data/misc_reference/x2_km.shp"
      }
    },
    {
      "type": "Feature",
      "geometry": {
        "type": "Point",
        "coordinates": [
          -121.5448,
          38.4779
        ]
      },
      "properties": {
        "feature_key": "x2_reference",
        "display_name": "X2 161 km",
        "feature_type": "x2_reference",
        "river_km": 161,
        "label_text": "161",
        "source_name": "BRIM X2 river-km reference lookup",
        "source_url": "01_raw_data/misc_reference/x2_km.shp"
      }
    },
    {
      "type": "Feature",
      "geometry": {
        "type": "Point",
        "coordinates": [
          -121.5508,
          38.4855
        ]
      },
      "properties": {
        "feature_key": "x2_reference",
        "display_name": "X2 162 km",
        "feature_type": "x2_reference",
        "river_km": 162,
        "label_text": "162",
        "source_name": "BRIM X2 river-km reference lookup",
        "source_url": "01_raw_data/misc_reference/x2_km.shp"
      }
    },
    {
      "type": "Feature",
      "geometry": {
        "type": "Point",
        "coordinates": [
          -121.5563,
          38.4934
        ]
      },
      "properties": {
        "feature_key": "x2_reference",
        "display_name": "X2 163 km",
        "feature_type": "x2_reference",
        "river_km": 163,
        "label_text": "163",
        "source_name": "BRIM X2 river-km reference lookup",
        "source_url": "01_raw_data/misc_reference/x2_km.shp"
      }
    },
    {
      "type": "Feature",
      "geometry": {
        "type": "Point",
        "coordinates": [
          -121.5585,
          38.5018
        ]
      },
      "properties": {
        "feature_key": "x2_reference",
        "display_name": "X2 164 km",
        "feature_type": "x2_reference",
        "river_km": 164,
        "label_text": "164",
        "source_name": "BRIM X2 river-km reference lookup",
        "source_url": "01_raw_data/misc_reference/x2_km.shp"
      }
    },
    {
      "type": "Feature",
      "geometry": {
        "type": "Point",
        "coordinates": [
          -121.5551,
          38.5103
        ]
      },
      "properties": {
        "feature_key": "x2_reference",
        "display_name": "X2 165 km",
        "feature_type": "x2_reference",
        "river_km": 165,
        "label_text": "165",
        "source_name": "BRIM X2 river-km reference lookup",
        "source_url": "01_raw_data/misc_reference/x2_km.shp"
      }
    },
    {
      "type": "Feature",
      "geometry": {
        "type": "Point",
        "coordinates": [
          -121.5466,
          38.5151
        ]
      },
      "properties": {
        "feature_key": "x2_reference",
        "display_name": "X2 166 km",
        "feature_type": "x2_reference",
        "river_km": 166,
        "label_text": "166",
        "source_name": "BRIM X2 river-km reference lookup",
        "source_url": "01_raw_data/misc_reference/x2_km.shp"
      }
    },
    {
      "type": "Feature",
      "geometry": {
        "type": "Point",
        "coordinates": [
          -121.5354,
          38.5168
        ]
      },
      "properties": {
        "feature_key": "x2_reference",
        "display_name": "X2 167 km",
        "feature_type": "x2_reference",
        "river_km": 167,
        "label_text": "167",
        "source_name": "BRIM X2 river-km reference lookup",
        "source_url": "01_raw_data/misc_reference/x2_km.shp"
      }
    },
    {
      "type": "Feature",
      "geometry": {
        "type": "Point",
        "coordinates": [
          -121.5252,
          38.5198
        ]
      },
      "properties": {
        "feature_key": "x2_reference",
        "display_name": "X2 168 km",
        "feature_type": "x2_reference",
        "river_km": 168,
        "label_text": "168",
        "source_name": "BRIM X2 river-km reference lookup",
        "source_url": "01_raw_data/misc_reference/x2_km.shp"
      }
    },
    {
      "type": "Feature",
      "geometry": {
        "type": "Point",
        "coordinates": [
          -121.5299,
          38.5269
        ]
      },
      "properties": {
        "feature_key": "x2_reference",
        "display_name": "X2 169 km",
        "feature_type": "x2_reference",
        "river_km": 169,
        "label_text": "169",
        "source_name": "BRIM X2 river-km reference lookup",
        "source_url": "01_raw_data/misc_reference/x2_km.shp"
      }
    },
    {
      "type": "Feature",
      "geometry": {
        "type": "Point",
        "coordinates": [
          -121.5249,
          38.5329
        ]
      },
      "properties": {
        "feature_key": "x2_reference",
        "display_name": "X2 170 km",
        "feature_type": "x2_reference",
        "river_km": 170,
        "label_text": "170",
        "source_name": "BRIM X2 river-km reference lookup",
        "source_url": "01_raw_data/misc_reference/x2_km.shp"
      }
    },
    {
      "type": "Feature",
      "geometry": {
        "type": "Point",
        "coordinates": [
          -121.5155,
          38.538
        ]
      },
      "properties": {
        "feature_key": "x2_reference",
        "display_name": "X2 171 km",
        "feature_type": "x2_reference",
        "river_km": 171,
        "label_text": "171",
        "source_name": "BRIM X2 river-km reference lookup",
        "source_url": "01_raw_data/misc_reference/x2_km.shp"
      }
    },
    {
      "type": "Feature",
      "geometry": {
        "type": "Point",
        "coordinates": [
          -121.5105,
          38.5457
        ]
      },
      "properties": {
        "feature_key": "x2_reference",
        "display_name": "X2 172 km",
        "feature_type": "x2_reference",
        "river_km": 172,
        "label_text": "172",
        "source_name": "BRIM X2 river-km reference lookup",
        "source_url": "01_raw_data/misc_reference/x2_km.shp"
      }
    },
    {
      "type": "Feature",
      "geometry": {
        "type": "Point",
        "coordinates": [
          -121.5138,
          38.5544
        ]
      },
      "properties": {
        "feature_key": "x2_reference",
        "display_name": "X2 173 km",
        "feature_type": "x2_reference",
        "river_km": 173,
        "label_text": "173",
        "source_name": "BRIM X2 river-km reference lookup",
        "source_url": "01_raw_data/misc_reference/x2_km.shp"
      }
    },
    {
      "type": "Feature",
      "geometry": {
        "type": "Point",
        "coordinates": [
          -121.5192,
          38.5621
        ]
      },
      "properties": {
        "feature_key": "x2_reference",
        "display_name": "X2 174 km",
        "feature_type": "x2_reference",
        "river_km": 174,
        "label_text": "174",
        "source_name": "BRIM X2 river-km reference lookup",
        "source_url": "01_raw_data/misc_reference/x2_km.shp"
      }
    },
    {
      "type": "Feature",
      "geometry": {
        "type": "Point",
        "coordinates": [
          -121.5178,
          38.5699
        ]
      },
      "properties": {
        "feature_key": "x2_reference",
        "display_name": "X2 175 km",
        "feature_type": "x2_reference",
        "river_km": 175,
        "label_text": "175",
        "source_name": "BRIM X2 river-km reference lookup",
        "source_url": "01_raw_data/misc_reference/x2_km.shp"
      }
    },
    {
      "type": "Feature",
      "geometry": {
        "type": "Point",
        "coordinates": [
          -121.5101,
          38.5765
        ]
      },
      "properties": {
        "feature_key": "x2_reference",
        "display_name": "X2 176 km",
        "feature_type": "x2_reference",
        "river_km": 176,
        "label_text": "176",
        "source_name": "BRIM X2 river-km reference lookup",
        "source_url": "01_raw_data/misc_reference/x2_km.shp"
      }
    },
    {
      "type": "Feature",
      "geometry": {
        "type": "Point",
        "coordinates": [
          -121.5069,
          38.5851
        ]
      },
      "properties": {
        "feature_key": "x2_reference",
        "display_name": "X2 177 km",
        "feature_type": "x2_reference",
        "river_km": 177,
        "label_text": "177",
        "source_name": "BRIM X2 river-km reference lookup",
        "source_url": "01_raw_data/misc_reference/x2_km.shp"
      }
    }
  ]
}
